{
    "type": "FeatureCollection",
    "features": [
        {
            "type": "Feature",
            "properties": {
                "name": "Macayeal",
                "object": "transect",
                "component": "landice",
                "author": "Matthew Hoffman, converted from https://github.com/yuwang115/sl-ice",
                "tags": "Antarctic_Ice_Sheet;flowline;sl-ice;macayeal"
            },
            "geometry": {
                "type": "LineString",
                "coordinates": [
                    [
                        -124.67959445176014,
                        -76.54198396484836
                    ],
                    [
                        -124.72268820209041,
                        -76.5570025277709
                    ],
                    [
                        -124.74585808799534,
                        -76.57425926519555
                    ],
                    [
                        -124.76510168148101,
                        -76.59186111403339
                    ],
                    [
                        -124.79263148517842,
                        -76.60886660346468
                    ],
                    [
                        -124.81805864066126,
                        -76.62605337240211
                    ],
                    [
                        -124.84825679152935,
                        -76.64281095232073
                    ],
                    [
                        -124.84000669307889,
                        -76.66019822310226
                    ],
                    [
                        -124.79475829949995,
                        -76.67506396502809
                    ],
                    [
                        -124.76127954779825,
                        -76.6913886782321
                    ],
                    [
                        -124.75741700837844,
                        -76.70946903936125
                    ],
                    [
                        -124.77133434785145,
                        -76.72730211486177
                    ],
                    [
                        -124.79577420801164,
                        -76.74457718702202
                    ],
                    [
                        -124.81833025241674,
                        -76.76195829757863
                    ],
                    [
                        -124.82755746033764,
                        -76.7799728324676
                    ],
                    [
                        -124.82870392158807,
                        -76.79814055100587
                    ],
                    [
                        -124.83394309975806,
                        -76.81627518306145
                    ],
                    [
                        -124.84460261644269,
                        -76.83425827176264
                    ],
                    [
                        -124.86083870793519,
                        -76.85205344458976
                    ],
                    [
                        -124.87623519976655,
                        -76.86988738413585
                    ],
                    [
                        -124.88445726981519,
                        -76.88792895547911
                    ],
                    [
                        -124.87160167465129,
                        -76.90574817024185
                    ],
                    [
                        -124.83762361513544,
                        -76.92221126994076
                    ],
                    [
                        -124.80218615019604,
                        -76.9385263242651
                    ],
                    [
                        -124.76825052251358,
                        -76.95501019631088
                    ],
                    [
                        -124.73553599663353,
                        -76.971621830662
                    ],
                    [
                        -124.70114972250512,
                        -76.9880583158113
                    ],
                    [
                        -124.66087385114889,
                        -77.00380830461025
                    ],
                    [
                        -124.62378528035558,
                        -77.0199529122972
                    ],
                    [
                        -124.59225533750329,
                        -77.03669556018654
                    ],
                    [
                        -124.56331525935806,
                        -77.05367916198745
                    ],
                    [
                        -124.53550624738382,
                        -77.07076094988801
                    ],
                    [
                        -124.5080746974873,
                        -77.08788118987648
                    ],
                    [
                        -124.48266912384831,
                        -77.1051514508815
                    ],
                    [
                        -124.4583621509922,
                        -77.1225113488361
                    ],
                    [
                        -124.43589248925471,
                        -77.13999237692495
                    ],
                    [
                        -124.41488646624136,
                        -77.15756483279748
                    ],
                    [
                        -124.39346466158449,
                        -77.17511669960955
                    ],
                    [
                        -124.37620767844406,
                        -77.19288823427492
                    ],
                    [
                        -124.36590121160289,
                        -77.2109215112803
                    ],
                    [
                        -124.36468070297263,
                        -77.22909941185044
                    ],
                    [
                        -124.37114166656507,
                        -77.24721700202186
                    ],
                    [
                        -124.38434348197104,
                        -77.26516934167154
                    ],
                    [
                        -124.40004746303042,
                        -77.28302559219966
                    ],
                    [
                        -124.41584859173386,
                        -77.30087907078267
                    ],
                    [
                        -124.42930813152314,
                        -77.31882675437943
                    ],
                    [
                        -124.43831781563468,
                        -77.33690884511746
                    ],
                    [
                        -124.44279994430498,
                        -77.35506846031556
                    ],
                    [
                        -124.44270451036274,
                        -77.37326076232918
                    ],
                    [
                        -124.43816272797257,
                        -77.39142450603211
                    ],
                    [
                        -124.42875466685632,
                        -77.40949800311202
                    ],
                    [
                        -124.41767820271713,
                        -77.42752987854021
                    ],
                    [
                        -124.4084609026202,
                        -77.44561326441658
                    ],
                    [
                        -124.4038379631786,
                        -77.46377733896159
                    ],
                    [
                        -124.4063652362041,
                        -77.48195239775077
                    ],
                    [
                        -124.42021395591085,
                        -77.49988809466217
                    ],
                    [
                        -124.44224398526755,
                        -77.51743975699138
                    ],
                    [
                        -124.46959077770188,
                        -77.5346506856371
                    ],
                    [
                        -124.49879811295168,
                        -77.55172189648017
                    ],
                    [
                        -124.52416326380359,
                        -77.56907333912704
                    ],
                    [
                        -124.54420385172274,
                        -77.58674998701079
                    ],
                    [
                        -124.56017778222282,
                        -77.60462244281969
                    ],
                    [
                        -124.57415534447351,
                        -77.62257424483566
                    ],
                    [
                        -124.5831766662639,
                        -77.64066885222819
                    ],
                    [
                        -124.5880195083525,
                        -77.6588419987427
                    ],
                    [
                        -124.59095161665577,
                        -77.67703373943912
                    ],
                    [
                        -124.59302827497244,
                        -77.69523147676595
                    ],
                    [
                        -124.59405823823352,
                        -77.71343510245941
                    ],
                    [
                        -124.59286734374633,
                        -77.73163693308746
                    ],
                    [
                        -124.58862467518071,
                        -77.74981997677904
                    ],
                    [
                        -124.5776181695773,
                        -77.7678687365797
                    ],
                    [
                        -124.56045524927873,
                        -77.78570052766752
                    ],
                    [
                        -124.53786520761966,
                        -77.80326836254389
                    ],
                    [
                        -124.5098609673384,
                        -77.8204884320476
                    ],
                    [
                        -124.48014399977548,
                        -77.83758461716828
                    ],
                    [
                        -124.45053321042893,
                        -77.85469142475343
                    ],
                    [
                        -124.42194887737567,
                        -77.87187841165436
                    ],
                    [
                        -124.39386672432117,
                        -77.88910813699749
                    ],
                    [
                        -124.36569907909123,
                        -77.90633399016812
                    ],
                    [
                        -124.33708828698431,
                        -77.9235320491447
                    ],
                    [
                        -124.30740416817866,
                        -77.94065510598021
                    ],
                    [
                        -124.27616468711034,
                        -77.95765509029805
                    ],
                    [
                        -124.24201973763638,
                        -77.97441924916983
                    ],
                    [
                        -124.20550486426899,
                        -77.99096618458866
                    ],
                    [
                        -124.16720864705789,
                        -78.00734949127093
                    ],
                    [
                        -124.13049470180383,
                        -78.02388767169919
                    ],
                    [
                        -124.09824516031115,
                        -78.04081890599737
                    ],
                    [
                        -124.07165233335255,
                        -78.05817805288618
                    ],
                    [
                        -124.04729001895177,
                        -78.07568326983312
                    ],
                    [
                        -124.02295370540504,
                        -78.09319408460517
                    ],
                    [
                        -123.99766597006409,
                        -78.11064641585236
                    ],
                    [
                        -123.972462091925,
                        -78.1281112117498
                    ],
                    [
                        -123.948003368738,
                        -78.14562225561593
                    ],
                    [
                        -123.92396733757839,
                        -78.16315880652385
                    ],
                    [
                        -123.8994990648148,
                        -78.1806753895698
                    ],
                    [
                        -123.87372632751915,
                        -78.19811258633227
                    ],
                    [
                        -123.84391275398323,
                        -78.21527925925524
                    ],
                    [
                        -123.80864756318446,
                        -78.23201929440377
                    ],
                    [
                        -123.77174711280715,
                        -78.2486158295041
                    ],
                    [
                        -123.73682914624645,
                        -78.26539110729475
                    ],
                    [
                        -123.70530147241307,
                        -78.28244741747281
                    ],
                    [
                        -123.67668219557623,
                        -78.2997191990578
                    ],
                    [
                        -123.65129341356018,
                        -78.31719831447185
                    ],
                    [
                        -123.62998052744932,
                        -78.33490504947014
                    ],
                    [
                        -123.6106067427741,
                        -78.35270277341532
                    ],
                    [
                        -123.59348761842394,
                        -78.37059781599214
                    ],
                    [
                        -123.57890569136305,
                        -78.38858590295202
                    ],
                    [
                        -123.5647144061502,
                        -78.4065856112662
                    ],
                    [
                        -123.55068511524205,
                        -78.42459486836817
                    ],
                    [
                        -123.53669001150601,
                        -78.44260453245876
                    ],
                    [
                        -123.52107755145954,
                        -78.46056460016393
                    ],
                    [
                        -123.50347507713856,
                        -78.47844878214153
                    ],
                    [
                        -123.48380782011961,
                        -78.49625008798962
                    ],
                    [
                        -123.46331458170897,
                        -78.51401357146356
                    ],
                    [
                        -123.44573444883113,
                        -78.53190507209194
                    ],
                    [
                        -123.4298418992129,
                        -78.54986031362539
                    ],
                    [
                        -123.41140329989823,
                        -78.5677157343783
                    ],
                    [
                        -123.38803469113998,
                        -78.58534802188481
                    ],
                    [
                        -123.3628511003011,
                        -78.60288696115555
                    ],
                    [
                        -123.33768149917752,
                        -78.6204286306822
                    ],
                    [
                        -123.31330972703269,
                        -78.63801881789855
                    ],
                    [
                        -123.29194746889043,
                        -78.65575963874905
                    ],
                    [
                        -123.27398157435915,
                        -78.67364725279603
                    ],
                    [
                        -123.25922125461162,
                        -78.69164887405775
                    ],
                    [
                        -123.24706177853017,
                        -78.70972790052643
                    ],
                    [
                        -123.23686346858626,
                        -78.72785482685765
                    ],
                    [
                        -123.23023652090123,
                        -78.74604426289903
                    ],
                    [
                        -123.2299593434573,
                        -78.76427752216865
                    ],
                    [
                        -123.2339011929145,
                        -78.78249665112017
                    ],
                    [
                        -123.24165556769573,
                        -78.80067300530887
                    ],
                    [
                        -123.25331560095232,
                        -78.81876844763383
                    ],
                    [
                        -123.26740627683542,
                        -78.83680541999813
                    ],
                    [
                        -123.28306632610138,
                        -78.85479072116637
                    ],
                    [
                        -123.2999778154474,
                        -78.87273480314728
                    ],
                    [
                        -123.3179718517914,
                        -78.89064431601152
                    ],
                    [
                        -123.33733418340806,
                        -78.90849991714333
                    ],
                    [
                        -123.35839160153618,
                        -78.92628702264781
                    ],
                    [
                        -123.38077436687847,
                        -78.9440180376242
                    ],
                    [
                        -123.40429296970808,
                        -78.96169551484884
                    ],
                    [
                        -123.42822400007041,
                        -78.97935321519586
                    ],
                    [
                        -123.45256918334103,
                        -78.99699762448478
                    ],
                    [
                        -123.47831921016751,
                        -79.014569634701
                    ],
                    [
                        -123.50684061509783,
                        -79.0319839423391
                    ],
                    [
                        -123.53741246574407,
                        -79.04928063041136
                    ],
                    [
                        -123.56900794897983,
                        -79.06651281468875
                    ],
                    [
                        -123.60204575420354,
                        -79.08364993785771
                    ],
                    [
                        -123.63718236212281,
                        -79.10064255640243
                    ],
                    [
                        -123.67495700059584,
                        -79.11743632282052
                    ],
                    [
                        -123.71625875006642,
                        -79.13393502676938
                    ],
                    [
                        -123.76058036360932,
                        -79.15015658241
                    ],
                    [
                        -123.80789293687492,
                        -79.16609032509425
                    ],
                    [
                        -123.85840053617667,
                        -79.18167629827785
                    ],
                    [
                        -123.91088363935359,
                        -79.19704137141288
                    ],
                    [
                        -123.96471388936722,
                        -79.2122534530855
                    ],
                    [
                        -124.02026939183908,
                        -79.22725577248514
                    ],
                    [
                        -124.07763752986442,
                        -79.24202807439359
                    ],
                    [
                        -124.137188968373,
                        -79.25651086952459
                    ],
                    [
                        -124.19920057641788,
                        -79.27063639457128
                    ],
                    [
                        -124.26244587944824,
                        -79.28458773347764
                    ],
                    [
                        -124.32608785658516,
                        -79.29849044395979
                    ],
                    [
                        -124.3882886012461,
                        -79.31262974698643
                    ],
                    [
                        -124.44852349821996,
                        -79.3270686226197
                    ],
                    [
                        -124.50760819640368,
                        -79.34168536460578
                    ],
                    [
                        -124.5623593598145,
                        -79.3568712052824
                    ],
                    [
                        -124.61247541791768,
                        -79.37260356630769
                    ],
                    [
                        -124.66300138581275,
                        -79.38830611875322
                    ],
                    [
                        -124.71658888346585,
                        -79.40366763543577
                    ],
                    [
                        -124.77097444589718,
                        -79.41894512166313
                    ],
                    [
                        -124.8253232212019,
                        -79.43423721363251
                    ],
                    [
                        -124.87809677085392,
                        -79.44971924131882
                    ],
                    [
                        -124.92761396975267,
                        -79.46556836798666
                    ],
                    [
                        -124.97558678982124,
                        -79.48158413740563
                    ],
                    [
                        -125.0238477570855,
                        -79.49757715018764
                    ],
                    [
                        -125.07294066920352,
                        -79.5134957818542
                    ],
                    [
                        -125.12190913282609,
                        -79.52943775242709
                    ],
                    [
                        -125.17181836329954,
                        -79.54528923087521
                    ],
                    [
                        -125.22337470518842,
                        -79.56097545650394
                    ],
                    [
                        -125.27482648954934,
                        -79.57668026393691
                    ],
                    [
                        -125.32862755890736,
                        -79.59213087671075
                    ],
                    [
                        -125.38625037307753,
                        -79.60713713441409
                    ],
                    [
                        -125.44782313683612,
                        -79.6216357517982
                    ],
                    [
                        -125.51428007265079,
                        -79.63542579875102
                    ],
                    [
                        -125.58450776137768,
                        -79.64861224282092
                    ],
                    [
                        -125.6577011384151,
                        -79.66128983804106
                    ],
                    [
                        -125.73231528985268,
                        -79.67371888361156
                    ],
                    [
                        -125.80770438470964,
                        -79.6860066261386
                    ],
                    [
                        -125.8839622090444,
                        -79.69814153667834
                    ],
                    [
                        -125.96042925585803,
                        -79.71025928329871
                    ],
                    [
                        -126.03683966201385,
                        -79.72240000769669
                    ],
                    [
                        -126.11267419774153,
                        -79.7346754850387
                    ],
                    [
                        -126.1875371395452,
                        -79.74715824078167
                    ],
                    [
                        -126.26229655101419,
                        -79.75967931425717
                    ],
                    [
                        -126.3382062000673,
                        -79.77199575865608
                    ],
                    [
                        -126.41561113019148,
                        -79.78402984525748
                    ],
                    [
                        -126.49460597222253,
                        -79.79575892121754
                    ],
                    [
                        -126.57578625796857,
                        -79.80702384756951
                    ],
                    [
                        -126.65966469612417,
                        -79.81768105030474
                    ],
                    [
                        -126.74608945055263,
                        -79.8276940745962
                    ],
                    [
                        -126.83507570786513,
                        -79.83701324810441
                    ],
                    [
                        -126.92647644972833,
                        -79.84559396352981
                    ],
                    [
                        -127.0200211496182,
                        -79.85345462268867
                    ],
                    [
                        -127.11559327444982,
                        -79.86054855229256
                    ],
                    [
                        -127.21334838584562,
                        -79.8666754153073
                    ],
                    [
                        -127.31249638474027,
                        -79.87210253066696
                    ],
                    [
                        -127.41250481042306,
                        -79.87706229017697
                    ],
                    [
                        -127.51346033769732,
                        -79.88141159812594
                    ],
                    [
                        -127.61506331432933,
                        -79.88529167895246
                    ],
                    [
                        -127.71715990789133,
                        -79.88879843861204
                    ],
                    [
                        -127.81942741765002,
                        -79.89217519843635
                    ],
                    [
                        -127.92167147460586,
                        -79.89560773643204
                    ],
                    [
                        -128.02392875211407,
                        -79.8990623605434
                    ],
                    [
                        -128.12593800387907,
                        -79.90275866683706
                    ],
                    [
                        -128.2276824491759,
                        -79.9067107306099
                    ],
                    [
                        -128.32942704612844,
                        -79.91070038059665
                    ],
                    [
                        -128.43091940201924,
                        -79.91489354704434
                    ],
                    [
                        -128.5321973754855,
                        -79.91929893515962
                    ],
                    [
                        -128.6333827472505,
                        -79.92378254069132
                    ],
                    [
                        -128.73456426659806,
                        -79.92830780498748
                    ],
                    [
                        -128.83555919962254,
                        -79.9329746030112
                    ],
                    [
                        -128.93601389865316,
                        -79.93803570710365
                    ],
                    [
                        -129.0362501536076,
                        -79.94325246190961
                    ],
                    [
                        -129.13628498862565,
                        -79.94861040276113
                    ],
                    [
                        -129.2360468458406,
                        -79.95415712643768
                    ],
                    [
                        -129.3356904116848,
                        -79.95978775015385
                    ],
                    [
                        -129.4346308291566,
                        -79.96581375134888
                    ],
                    [
                        -129.53253071896486,
                        -79.97236760388714
                    ],
                    [
                        -129.62784054414138,
                        -79.98001131078028
                    ],
                    [
                        -129.7209792680401,
                        -79.98845638435657
                    ],
                    [
                        -129.81178094616664,
                        -79.997662295225
                    ],
                    [
                        -129.90003082460075,
                        -80.00761194913385
                    ],
                    [
                        -129.98768922944475,
                        -80.01774758641363
                    ],
                    [
                        -130.07625073161597,
                        -80.0276685589815
                    ],
                    [
                        -130.16335207237037,
                        -80.03798674931575
                    ],
                    [
                        -130.24740140239956,
                        -80.04905452180816
                    ],
                    [
                        -130.33076852845514,
                        -80.06030536501859
                    ],
                    [
                        -130.41634208418415,
                        -80.07107001806116
                    ],
                    [
                        -130.5034590384234,
                        -80.0814856867
                    ],
                    [
                        -130.5906083349707,
                        -80.09191422096382
                    ],
                    [
                        -130.678951136889,
                        -80.10206489487429
                    ],
                    [
                        -130.76826432809025,
                        -80.11199104757351
                    ],
                    [
                        -130.85864551140617,
                        -80.12165045400546
                    ],
                    [
                        -130.9514622128318,
                        -80.13062169451459
                    ],
                    [
                        -131.04344311435278,
                        -80.1398746484463
                    ],
                    [
                        -131.13435512330685,
                        -80.14945913696587
                    ],
                    [
                        -131.2257185796723,
                        -80.15893792498757
                    ],
                    [
                        -131.31793572077453,
                        -80.16819535239178
                    ],
                    [
                        -131.41103554273036,
                        -80.17722465340252
                    ],
                    [
                        -131.50787164872568,
                        -80.18503390512699
                    ],
                    [
                        -131.60769287752186,
                        -80.1917025853167
                    ],
                    [
                        -131.71009731812225,
                        -80.19714027209184
                    ],
                    [
                        -131.81475036630755,
                        -80.20120523148584
                    ],
                    [
                        -131.92009563231883,
                        -80.20476686820952
                    ],
                    [
                        -132.02533639338597,
                        -80.20844018808809
                    ],
                    [
                        -132.130293042467,
                        -80.21238293960593
                    ],
                    [
                        -132.23514022752082,
                        -80.216440214725
                    ],
                    [
                        -132.3395673215148,
                        -80.22081540528148
                    ],
                    [
                        -132.4436115746556,
                        -80.22549233336618
                    ],
                    [
                        -132.5481616867104,
                        -80.22985680749743
                    ],
                    [
                        -132.65350895293534,
                        -80.23367504812789
                    ],
                    [
                        -132.75993160682077,
                        -80.23651173443332
                    ],
                    [
                        -132.8671929017364,
                        -80.23824364530677
                    ],
                    [
                        -132.97490584280118,
                        -80.23887178331678
                    ],
                    [
                        -133.0826548736647,
                        -80.23848217353242
                    ],
                    [
                        -133.19017044942143,
                        -80.23721642754653
                    ],
                    [
                        -133.29734958507476,
                        -80.23532526212159
                    ],
                    [
                        -133.40412698059222,
                        -80.23287537019708
                    ],
                    [
                        -133.51023119239258,
                        -80.22975803881009
                    ],
                    [
                        -133.61540774651976,
                        -80.2258501047584
                    ],
                    [
                        -133.7203440413179,
                        -80.22178925879858
                    ],
                    [
                        -133.82571598951807,
                        -80.21811714891186
                    ],
                    [
                        -133.9317914496672,
                        -80.21510495381884
                    ],
                    [
                        -134.03849828331792,
                        -80.21288936408526
                    ],
                    [
                        -134.14576086867987,
                        -80.21176290880074
                    ],
                    [
                        -134.25322413493274,
                        -80.21187022076425
                    ],
                    [
                        -134.36048475337216,
                        -80.21309197540158
                    ],
                    [
                        -134.46785871242582,
                        -80.21401280826406
                    ],
                    [
                        -134.57535180379836,
                        -80.21393208739195
                    ],
                    [
                        -134.68235491910391,
                        -80.21222294532599
                    ],
                    [
                        -134.78815016612361,
                        -80.20905993845024
                    ],
                    [
                        -134.8922688337892,
                        -80.20457009610448
                    ],
                    [
                        -134.99423078910743,
                        -80.1988467313453
                    ],
                    [
                        -135.09377915890363,
                        -80.19203855248783
                    ],
                    [
                        -135.19009526473508,
                        -80.18401371794569
                    ],
                    [
                        -135.28306888862812,
                        -80.17493209400385
                    ],
                    [
                        -135.37304453924887,
                        -80.16504546972338
                    ],
                    [
                        -135.4588701590659,
                        -80.15415422762158
                    ],
                    [
                        -135.53904802753385,
                        -80.14208234508716
                    ],
                    [
                        -135.61614532784984,
                        -80.12945143521922
                    ],
                    [
                        -135.6928540337372,
                        -80.11677110001384
                    ],
                    [
                        -135.7728832078847,
                        -80.10473603707209
                    ],
                    [
                        -135.85675870932673,
                        -80.09351882344029
                    ],
                    [
                        -135.94323221357288,
                        -80.08292613929171
                    ],
                    [
                        -136.03108946354985,
                        -80.07269793042381
                    ],
                    [
                        -136.12014938447308,
                        -80.0628045588849
                    ],
                    [
                        -136.2109668365632,
                        -80.05342326600436
                    ],
                    [
                        -136.30520611729287,
                        -80.04514314207356
                    ],
                    [
                        -136.4018748458071,
                        -80.03777997097399
                    ],
                    [
                        -136.49978236161948,
                        -80.0309421314869
                    ],
                    [
                        -136.59760402380252,
                        -80.02410363152337
                    ],
                    [
                        -136.6946789796072,
                        -80.01697185216702
                    ],
                    [
                        -136.79070548142843,
                        -80.00946044933883
                    ],
                    [
                        -136.88556136402633,
                        -80.00153926740818
                    ],
                    [
                        -136.97983069511395,
                        -79.9934403623069
                    ],
                    [
                        -137.07428396969658,
                        -79.98541788902112
                    ],
                    [
                        -137.17024282045801,
                        -79.97800597239167
                    ],
                    [
                        -137.2680237415152,
                        -79.97138861822482
                    ],
                    [
                        -137.36797532189087,
                        -79.96587015840403
                    ],
                    [
                        -137.47022266498968,
                        -79.96186422551371
                    ],
                    [
                        -137.57375885169765,
                        -79.9590897118486
                    ],
                    [
                        -137.67811004489337,
                        -79.95749130684047
                    ],
                    [
                        -137.7828445917396,
                        -79.95740977949161
                    ],
                    [
                        -137.88743811631045,
                        -79.95837887996277
                    ],
                    [
                        -137.991753656374,
                        -79.96006584835345
                    ],
                    [
                        -138.09578267639827,
                        -79.96227457966314
                    ],
                    [
                        -138.19931489492757,
                        -79.96513180314969
                    ],
                    [
                        -138.30231395139126,
                        -79.96854604782078
                    ],
                    [
                        -138.40471454326314,
                        -79.97251611274216
                    ],
                    [
                        -138.50698850196164,
                        -79.97661379926267
                    ],
                    [
                        -138.60914840319657,
                        -79.98081133736987
                    ],
                    [
                        -138.71096174943565,
                        -79.98530510420277
                    ],
                    [
                        -138.81247506597046,
                        -79.99001862806881
                    ],
                    [
                        -138.913987000917,
                        -79.99477586280794
                    ],
                    [
                        -139.01561460864582,
                        -79.99948413026918
                    ],
                    [
                        -139.11725079933734,
                        -80.00422047699709
                    ],
                    [
                        -139.21867169944812,
                        -80.00911414456938
                    ],
                    [
                        -139.3194858910488,
                        -80.01441353390025
                    ],
                    [
                        -139.41963242585925,
                        -80.02009884334893
                    ],
                    [
                        -139.51915325069118,
                        -80.02614049878574
                    ],
                    [
                        -139.61805247547792,
                        -80.03251068552198
                    ],
                    [
                        -139.71673538686804,
                        -80.03901182538598
                    ],
                    [
                        -139.8156521709845,
                        -80.04543667092771
                    ],
                    [
                        -139.9145791858722,
                        -80.05188175030332
                    ],
                    [
                        -140.01330273900172,
                        -80.05844959697448
                    ],
                    [
                        -140.11169918275172,
                        -80.06519236606867
                    ],
                    [
                        -140.20965334897133,
                        -80.07215382130843
                    ],
                    [
                        -140.30730138812945,
                        -80.07926874056544
                    ],
                    [
                        -140.40480977339908,
                        -80.0864692637259
                    ],
                    [
                        -140.50214458712776,
                        -80.09376462030772
                    ],
                    [
                        -140.6003850152325,
                        -80.10072525812895
                    ],
                    [
                        -140.69956218864098,
                        -80.10731339818251
                    ],
                    [
                        -140.7996813079159,
                        -80.11349488382217
                    ],
                    [
                        -140.90085526500621,
                        -80.11917188852802
                    ],
                    [
                        -141.00292665039908,
                        -80.12439287715975
                    ],
                    [
                        -141.10547259559686,
                        -80.12936800465805
                    ],
                    [
                        -141.20823560681833,
                        -80.13423350356004
                    ],
                    [
                        -141.31111184266481,
                        -80.13906784822635
                    ],
                    [
                        -141.4139671686283,
                        -80.14394508100008
                    ],
                    [
                        -141.51690304994253,
                        -80.14880413147658
                    ],
                    [
                        -141.61980318616983,
                        -80.15372599262142
                    ],
                    [
                        -141.72261839290834,
                        -80.15871893931177
                    ],
                    [
                        -141.82567587399024,
                        -80.16359422755782
                    ],
                    [
                        -141.9288683584648,
                        -80.1684247987329
                    ],
                    [
                        -142.03222943876727,
                        -80.17318966428421
                    ],
                    [
                        -142.13551862396145,
                        -80.17800518480598
                    ],
                    [
                        -142.23855996282103,
                        -80.18302254443934
                    ],
                    [
                        -142.34118880757035,
                        -80.18831419095737
                    ],
                    [
                        -142.44343370198885,
                        -80.19383709165018
                    ],
                    [
                        -142.54527393569316,
                        -80.19960531327536
                    ],
                    [
                        -142.64683616813565,
                        -80.20555200189595
                    ],
                    [
                        -142.74839531061602,
                        -80.21152057252402
                    ],
                    [
                        -142.85012086343565,
                        -80.21744907546697
                    ],
                    [
                        -142.95186815211648,
                        -80.2233865100078
                    ],
                    [
                        -143.05350796230786,
                        -80.22941239749605
                    ],
                    [
                        -143.15508407560569,
                        -80.23550239558719
                    ],
                    [
                        -143.25667995367382,
                        -80.24160303042974
                    ],
                    [
                        -143.35874276475457,
                        -80.24752228527058
                    ],
                    [
                        -143.46150024120337,
                        -80.25310692489066
                    ],
                    [
                        -143.56529789687193,
                        -80.25814733077665
                    ],
                    [
                        -143.67000727688617,
                        -80.26263308208198
                    ],
                    [
                        -143.7755672294768,
                        -80.26655669609985
                    ],
                    [
                        -143.8818868490394,
                        -80.2698709615282
                    ],
                    [
                        -143.9887993614888,
                        -80.27262822547745
                    ],
                    [
                        -144.09615788375663,
                        -80.27488774546921
                    ],
                    [
                        -144.20384394959765,
                        -80.27665127755107
                    ],
                    [
                        -144.31171685817515,
                        -80.27812960199
                    ],
                    [
                        -144.41969543763264,
                        -80.2794071271362
                    ],
                    [
                        -144.5277078259106,
                        -80.28065208540664
                    ],
                    [
                        -144.63572155942663,
                        -80.28191781362223
                    ],
                    [
                        -144.74373688024096,
                        -80.28321877494683
                    ],
                    [
                        -144.8516802200568,
                        -80.28467460565565
                    ],
                    [
                        -144.9592351330002,
                        -80.28678314749928
                    ],
                    [
                        -145.06581848607826,
                        -80.2900532569001
                    ],
                    [
                        -145.1700207853333,
                        -80.2950398745562
                    ],
                    [
                        -145.27071974365796,
                        -80.30178045930992
                    ],
                    [
                        -145.36696666749287,
                        -80.31021232215704
                    ],
                    [
                        -145.46108324198713,
                        -80.31934962714458
                    ],
                    [
                        -145.55636154419346,
                        -80.32815866748979
                    ],
                    [
                        -145.65463266286983,
                        -80.33600238039237
                    ],
                    [
                        -145.75787607675116,
                        -80.34178541910734
                    ],
                    [
                        -145.864042184461,
                        -80.34586757466654
                    ],
                    [
                        -145.9720767496953,
                        -80.34823198530079
                    ],
                    [
                        -146.0810024726696,
                        -80.34888872020265
                    ],
                    [
                        -146.18994214040848,
                        -80.34834448992274
                    ],
                    [
                        -146.29875183912543,
                        -80.34717556460177
                    ],
                    [
                        -146.40741642923822,
                        -80.34578872697838
                    ],
                    [
                        -146.51611151658673,
                        -80.34445096142969
                    ],
                    [
                        -146.62488682718018,
                        -80.34332621383673
                    ],
                    [
                        -146.7337433763791,
                        -80.34253939116516
                    ],
                    [
                        -146.8426598688365,
                        -80.3420103341561
                    ],
                    [
                        -146.95158960962033,
                        -80.34169470972982
                    ],
                    [
                        -147.06052595588298,
                        -80.3415255924512
                    ],
                    [
                        -147.16947961201407,
                        -80.34142739860526
                    ],
                    [
                        -147.2784131110011,
                        -80.34139033447359
                    ],
                    [
                        -147.3873647371309,
                        -80.3414508190338
                    ],
                    [
                        -147.49629823487868,
                        -80.3415666246799
                    ],
                    [
                        -147.60526742795463,
                        -80.34170536723232
                    ],
                    [
                        -147.71418599017585,
                        -80.34185773649882
                    ],
                    [
                        -147.82314305686518,
                        -80.34202770233931
                    ],
                    [
                        -147.93210363339796,
                        -80.34224380669599
                    ],
                    [
                        -148.04104402157742,
                        -80.34257339314277
                    ],
                    [
                        -148.14997260814346,
                        -80.3430222945408
                    ],
                    [
                        -148.25888080284395,
                        -80.34357842322758
                    ],
                    [
                        -148.36779379303783,
                        -80.34420641246929
                    ],
                    [
                        -148.4767085392142,
                        -80.34484667892833
                    ],
                    [
                        -148.5856268524377,
                        -80.34547790767408
                    ],
                    [
                        -148.69455870130804,
                        -80.3460850619133
                    ],
                    [
                        -148.80351208400202,
                        -80.34670639301608
                    ],
                    [
                        -148.91244559556307,
                        -80.34735895925053
                    ],
                    [
                        -149.0213840396349,
                        -80.34805579893101
                    ],
                    [
                        -149.13030602556583,
                        -80.34880522930398
                    ],
                    [
                        -149.23924697732338,
                        -80.34963186654196
                    ],
                    [
                        -149.34814477042656,
                        -80.3505451660684
                    ],
                    [
                        -149.4570520599299,
                        -80.35149698746406
                    ],
                    [
                        -149.56597848696643,
                        -80.35246160764787
                    ],
                    [
                        -149.6748698100549,
                        -80.35345479931921
                    ],
                    [
                        -149.78381015415184,
                        -80.35445823837127
                    ],
                    [
                        -149.89273610860877,
                        -80.355486787338
                    ],
                    [
                        -150.0016709346491,
                        -80.35652676748028
                    ],
                    [
                        -150.11062368644542,
                        -80.35756843378184
                    ],
                    [
                        -150.21957311067396,
                        -80.35862549732984
                    ],
                    [
                        -150.3285296089462,
                        -80.35969887743487
                    ],
                    [
                        -150.43749732468066,
                        -80.36077837231643
                    ],
                    [
                        -150.54645645293056,
                        -80.36188304882258
                    ],
                    [
                        -150.65544425498675,
                        -80.36303204690694
                    ],
                    [
                        -150.76440262503993,
                        -80.36423020259481
                    ],
                    [
                        -150.87335849499152,
                        -80.36548510853689
                    ],
                    [
                        -150.98233789174466,
                        -80.36675193903504
                    ],
                    [
                        -151.0913083661076,
                        -80.36800672613568
                    ],
                    [
                        -151.20030817329717,
                        -80.36923214938844
                    ],
                    [
                        -151.3093405079857,
                        -80.3704441725691
                    ],
                    [
                        -151.41839439827262,
                        -80.37163657734487
                    ],
                    [
                        -151.52744971229097,
                        -80.37282315295418
                    ],
                    [
                        -151.63653358698065,
                        -80.37401673189663
                    ],
                    [
                        -151.74560965246977,
                        -80.37521916202141
                    ],
                    [
                        -151.85470909575233,
                        -80.37643837475773
                    ],
                    [
                        -151.96381039168583,
                        -80.37767753567995
                    ],
                    [
                        -152.07291752509502,
                        -80.37891622080447
                    ],
                    [
                        -152.18203921524292,
                        -80.38016550915509
                    ],
                    [
                        -152.291171973595,
                        -80.3814405153771
                    ],
                    [
                        -152.40031962591013,
                        -80.38269504541557
                    ],
                    [
                        -152.50949643479268,
                        -80.38393036466917
                    ],
                    [
                        -152.61869816278104,
                        -80.38513581875067
                    ],
                    [
                        -152.727900415609,
                        -80.38633506180065
                    ],
                    [
                        -152.83713810541605,
                        -80.38752080751658
                    ],
                    [
                        -152.94639063513037,
                        -80.38871181239362
                    ],
                    [
                        -153.0556567552102,
                        -80.38989253718309
                    ],
                    [
                        -153.1649244452961,
                        -80.39105683972068
                    ],
                    [
                        -153.27422777908427,
                        -80.39220760905539
                    ],
                    [
                        -153.38355944052816,
                        -80.39332887821253
                    ],
                    [
                        -153.4929065403731,
                        -80.39441450213945
                    ],
                    [
                        -153.60228516494774,
                        -80.39545056963146
                    ],
                    [
                        -153.71170153789228,
                        -80.39644277993243
                    ],
                    [
                        -153.8211205564974,
                        -80.39739850553363
                    ],
                    [
                        -153.93057748960837,
                        -80.3983054370663
                    ],
                    [
                        -154.04005350172145,
                        -80.39915703788931
                    ],
                    [
                        -154.149556404955,
                        -80.39997944760051
                    ],
                    [
                        -154.25906065124235,
                        -80.40079601547411
                    ],
                    [
                        -154.36858321316055,
                        -80.40157767238931
                    ],
                    [
                        -154.47814036774733,
                        -80.40234602964809
                    ],
                    [
                        -154.58768254596117,
                        -80.40309713954188
                    ],
                    [
                        -154.69725867562804,
                        -80.40379444900137
                    ],
                    [
                        -154.80685711062094,
                        -80.40445228782521
                    ],
                    [
                        -154.91645513005798,
                        -80.40510427187633
                    ],
                    [
                        -155.02606117349785,
                        -80.40574096357322
                    ],
                    [
                        -155.13567803157557,
                        -80.40633739777734
                    ],
                    [
                        -155.24533225247924,
                        -80.4068705196949
                    ],
                    [
                        -155.3549698684802,
                        -80.40736145419551
                    ],
                    [
                        -155.46465469432874,
                        -80.40781515805803
                    ],
                    [
                        -155.57432144839368,
                        -80.4082618584103
                    ],
                    [
                        -155.68399546952304,
                        -80.40868340981078
                    ],
                    [
                        -155.79369630809524,
                        -80.40908130947463
                    ],
                    [
                        -155.9033763905711,
                        -80.40948206504946
                    ],
                    [
                        -156.0130842024318,
                        -80.40985423728533
                    ],
                    [
                        -156.12279267426018,
                        -80.41022584285824
                    ],
                    [
                        -156.2325071632585,
                        -80.41062222282785
                    ],
                    [
                        -156.34220164295184,
                        -80.41102641269566
                    ],
                    [
                        -156.45192708560924,
                        -80.4114420881233
                    ],
                    [
                        -156.56163222750695,
                        -80.41190531962252
                    ],
                    [
                        -156.67134666698223,
                        -80.41240317693563
                    ],
                    [
                        -156.78106695825045,
                        -80.41293529553195
                    ],
                    [
                        -156.89077684390222,
                        -80.41352028582267
                    ],
                    [
                        -157.00047091526636,
                        -80.41413776076266
                    ],
                    [
                        -157.11019114750394,
                        -80.41479058632339
                    ],
                    [
                        -157.21988198940988,
                        -80.41553919536277
                    ],
                    [
                        -157.32957336683774,
                        -80.41637553945414
                    ],
                    [
                        -157.4392164365718,
                        -80.41731580926928
                    ],
                    [
                        -157.54886592085438,
                        -80.41836355113112
                    ],
                    [
                        -157.65850756293474,
                        -80.4194829184312
                    ],
                    [
                        -157.76808652761306,
                        -80.42070950915453
                    ],
                    [
                        -157.87766270217614,
                        -80.42205210536284
                    ],
                    [
                        -157.9872059222779,
                        -80.4234590930638
                    ],
                    [
                        -158.09676494270576,
                        -80.42490897177045
                    ],
                    [
                        -158.20629571086772,
                        -80.42638391736355
                    ],
                    [
                        -158.31590060374387,
                        -80.42780703420301
                    ],
                    [
                        -158.42552737736287,
                        -80.42918475216233
                    ],
                    [
                        -158.53518563083523,
                        -80.43053250424573
                    ],
                    [
                        -158.6448651930645,
                        -80.43186437873923
                    ],
                    [
                        -158.75456051287998,
                        -80.43317511563153
                    ],
                    [
                        -158.86430136308962,
                        -80.4344568463996
                    ],
                    [
                        -158.97407488653667,
                        -80.43568427175113
                    ],
                    [
                        -159.0838857787073,
                        -80.43681372312108
                    ],
                    [
                        -159.19373775295622,
                        -80.43786027052043
                    ],
                    [
                        -159.3036443711269,
                        -80.43882977870052
                    ],
                    [
                        -159.41361582338354,
                        -80.43965950448246
                    ],
                    [
                        -159.52359919197812,
                        -80.4404049422671
                    ],
                    [
                        -159.63358238435927,
                        -80.44107037523216
                    ],
                    [
                        -159.7436388346342,
                        -80.44158737023236
                    ],
                    [
                        -159.85370176197983,
                        -80.44198129884693
                    ],
                    [
                        -159.96380319837556,
                        -80.44222514095222
                    ],
                    [
                        -160.0738975841607,
                        -80.4423455842899
                    ],
                    [
                        -160.18399144433633,
                        -80.44231896680472
                    ],
                    [
                        -160.2940814021664,
                        -80.44217450272181
                    ],
                    [
                        -160.40418296293393,
                        -80.44184054763198
                    ],
                    [
                        -160.5142189017072,
                        -80.44129836762455
                    ],
                    [
                        -160.62422844675024,
                        -80.44062824175133
                    ],
                    [
                        -160.734207572881,
                        -80.43983019013866
                    ],
                    [
                        -160.84408741867708,
                        -80.43881822900967
                    ],
                    [
                        -160.95390169531382,
                        -80.4376092874213
                    ],
                    [
                        -161.06363284741153,
                        -80.43621727999812
                    ],
                    [
                        -161.17324315369845,
                        -80.43465495931068
                    ],
                    [
                        -161.28272688828093,
                        -80.4328741462721
                    ],
                    [
                        -161.39202679222322,
                        -80.43086249036725
                    ],
                    [
                        -161.50112169839684,
                        -80.42859528482718
                    ],
                    [
                        -161.61002078229296,
                        -80.4260784857822
                    ],
                    [
                        -161.71867318983746,
                        -80.42334841465372
                    ],
                    [
                        -161.82707291771013,
                        -80.42036683025653
                    ],
                    [
                        -161.93518318873728,
                        -80.41715161239189
                    ],
                    [
                        -162.04302284991127,
                        -80.41370441533206
                    ],
                    [
                        -162.1505086827974,
                        -80.4100021753876
                    ],
                    [
                        -162.25764123842956,
                        -80.40608883198125
                    ],
                    [
                        -162.36442627354415,
                        -80.40192215244008
                    ],
                    [
                        -162.47075988265604,
                        -80.39749255988538
                    ],
                    [
                        -162.5766828516601,
                        -80.39281735193389
                    ],
                    [
                        -162.6821531003013,
                        -80.38790941551359
                    ],
                    [
                        -162.78707874151013,
                        -80.38269772137322
                    ],
                    [
                        -162.89142046427017,
                        -80.37722419544392
                    ],
                    [
                        -162.99523161991803,
                        -80.37147808461098
                    ],
                    [
                        -163.09831444563184,
                        -80.365426264795
                    ],
                    [
                        -163.20082739526546,
                        -80.3591350634855
                    ],
                    [
                        -163.3026388803972,
                        -80.35256046363081
                    ],
                    [
                        -163.4035530328673,
                        -80.34563637992503
                    ],
                    [
                        -163.50372187594445,
                        -80.33844304944469
                    ],
                    [
                        -163.60306560645438,
                        -80.3309679174842
                    ],
                    [
                        -163.7014721716623,
                        -80.32317788950299
                    ],
                    [
                        -163.79896964084807,
                        -80.31509923635791
                    ],
                    [
                        -163.89558430330942,
                        -80.3067532874587
                    ],
                    [
                        -163.99119919640796,
                        -80.29810681488372
                    ],
                    [
                        -164.08588739531857,
                        -80.28920717606017
                    ],
                    [
                        -164.1795748559196,
                        -80.28003276195747
                    ],
                    [
                        -164.27200516191294,
                        -80.27052963653185
                    ],
                    [
                        -164.36337888881565,
                        -80.26076072824753
                    ],
                    [
                        -164.45356605067607,
                        -80.25071141082337
                    ],
                    [
                        -164.5423760255575,
                        -80.24033588639723
                    ],
                    [
                        -164.6299739269784,
                        -80.2296857400308
                    ],
                    [
                        -164.71625605078034,
                        -80.21876192575529
                    ],
                    [
                        -164.80118718036593,
                        -80.20755441675372
                    ],
                    [
                        -164.8850227157274,
                        -80.1961328417497
                    ],
                    [
                        -164.9675303027987,
                        -80.18445426563812
                    ],
                    [
                        -165.04848947210814,
                        -80.172485980259
                    ],
                    [
                        -165.1281713242895,
                        -80.16028869268848
                    ],
                    [
                        -165.20647525531575,
                        -80.14784928602532
                    ],
                    [
                        -165.28308044977106,
                        -80.1351259040778
                    ],
                    [
                        -165.35806987223566,
                        -80.12213754333528
                    ],
                    [
                        -165.43147540583388,
                        -80.1089008048201
                    ],
                    [
                        -165.50328834900753,
                        -80.09543041070346
                    ],
                    [
                        -165.57369588911828,
                        -80.08174972092137
                    ],
                    [
                        -165.64245605386276,
                        -80.06783939679823
                    ],
                    [
                        -165.70946207158394,
                        -80.05370033076774
                    ],
                    [
                        -165.77494965844645,
                        -80.03935317517976
                    ],
                    [
                        -165.83881642563617,
                        -80.02480362229699
                    ],
                    [
                        -165.90096352744598,
                        -80.01004811733755
                    ],
                    [
                        -165.96167536999408,
                        -79.99511861593986
                    ],
                    [
                        -166.02083177782305,
                        -79.98001522770551
                    ],
                    [
                        -166.07799513790994,
                        -79.96469614146667
                    ],
                    [
                        -166.1335754034451,
                        -79.94920802171549
                    ],
                    [
                        -166.1877044389509,
                        -79.93357592541044
                    ],
                    [
                        -166.2399920898616,
                        -79.91776010325951
                    ],
                    [
                        -166.29078785077644,
                        -79.9017996183854
                    ],
                    [
                        -166.34008835252087,
                        -79.88570888454592
                    ],
                    [
                        -166.3876032640157,
                        -79.8694665597843
                    ],
                    [
                        -166.4336404104592,
                        -79.85309091216395
                    ],
                    [
                        -166.4782021227107,
                        -79.83659650882589
                    ],
                    [
                        -166.52097348627663,
                        -79.81996565518118
                    ],
                    [
                        -166.56256881978666,
                        -79.80324820774962
                    ],
                    [
                        -166.60283352684428,
                        -79.78643317333638
                    ],
                    [
                        -166.64151982098193,
                        -79.76950096089763
                    ],
                    [
                        -166.67897336820167,
                        -79.75249456838702
                    ],
                    [
                        -166.7151065711559,
                        -79.73540111351944
                    ],
                    [
                        -166.74978161912048,
                        -79.71821030273153
                    ],
                    [
                        -166.78297157710148,
                        -79.70093996018593
                    ],
                    [
                        -166.81462120094105,
                        -79.68357386542148
                    ],
                    [
                        -166.8449182876781,
                        -79.66613411856665
                    ],
                    [
                        -166.8741841110789,
                        -79.64864367532708
                    ],
                    [
                        -166.9023098608938,
                        -79.63109805056497
                    ],
                    [
                        -166.92906493064785,
                        -79.61348297186177
                    ],
                    [
                        -166.95464213806264,
                        -79.59581126517607
                    ],
                    [
                        -166.9789226363441,
                        -79.57808737370274
                    ],
                    [
                        -167.00175637898968,
                        -79.56030036499175
                    ],
                    [
                        -167.02325254211374,
                        -79.5424595081576
                    ],
                    [
                        -167.04351967474204,
                        -79.5245740256705
                    ],
                    [
                        -167.06247030093607,
                        -79.50664492147384
                    ],
                    [
                        -167.08030257754086,
                        -79.48867108552182
                    ],
                    [
                        -167.09699972740347,
                        -79.47067050456874
                    ],
                    [
                        -167.11230499919927,
                        -79.45263236286668
                    ],
                    [
                        -167.12661012006302,
                        -79.43456362579506
                    ],
                    [
                        -167.1399775611348,
                        -79.41647152137234
                    ],
                    [
                        -167.1521737264092,
                        -79.39835552950883
                    ],
                    [
                        -167.163496265567,
                        -79.3802139975666
                    ],
                    [
                        -167.17395656209945,
                        -79.36206603734165
                    ],
                    [
                        -167.18314104535025,
                        -79.3438894674357
                    ],
                    [
                        -167.19096840976377,
                        -79.32569006533379
                    ],
                    [
                        -167.19762715797063,
                        -79.30748027313031
                    ],
                    [
                        -167.2031047622789,
                        -79.28925470649556
                    ],
                    [
                        -167.20755541706242,
                        -79.27101969438718
                    ],
                    [
                        -167.2113292005483,
                        -79.25278052393084
                    ],
                    [
                        -167.21444385772318,
                        -79.23453782689965
                    ],
                    [
                        -167.21685995096098,
                        -79.2162898071337
                    ],
                    [
                        -167.2186041357798,
                        -79.19804214331556
                    ],
                    [
                        -167.21934617452814,
                        -79.17979467151459
                    ],
                    [
                        -167.21906750145584,
                        -79.16154639059735
                    ],
                    [
                        -167.21735983577986,
                        -79.14329833954461
                    ],
                    [
                        -167.21451395795634,
                        -79.12505795973813
                    ],
                    [
                        -167.2110666286057,
                        -79.10681993559479
                    ],
                    [
                        -167.20674578253517,
                        -79.08859113218324
                    ],
                    [
                        -167.2013099507637,
                        -79.07037495398633
                    ],
                    [
                        -167.19518471659458,
                        -79.05216608445359
                    ],
                    [
                        -167.18855714091475,
                        -79.03396307051405
                    ],
                    [
                        -167.18120907404122,
                        -79.01576566601689
                    ],
                    [
                        -167.17309958625663,
                        -78.99759059479797
                    ],
                    [
                        -167.16428617687072,
                        -78.97942142334303
                    ],
                    [
                        -167.15446128940468,
                        -78.96127725136554
                    ],
                    [
                        -167.14381328251108,
                        -78.94314729437941
                    ],
                    [
                        -167.13229858656584,
                        -78.92503872965298
                    ],
                    [
                        -167.11937488263644,
                        -78.90696950713583
                    ],
                    [
                        -167.10509640808488,
                        -78.88893217614856
                    ],
                    [
                        -167.08980254387083,
                        -78.87093191123856
                    ],
                    [
                        -167.07361504256886,
                        -78.85295970440244
                    ],
                    [
                        -167.05737764394956,
                        -78.83499194746004
                    ],
                    [
                        -167.0410951528973,
                        -78.81702883288493
                    ],
                    [
                        -167.0189592254803,
                        -78.79930157208716
                    ],
                    [
                        -166.99543420978227,
                        -78.78164797074439
                    ],
                    [
                        -166.97141502923847,
                        -78.76401884816349
                    ],
                    [
                        -166.9464779494159,
                        -78.74644160024488
                    ],
                    [
                        -166.92066328932734,
                        -78.72891763086382
                    ],
                    [
                        -166.893900735124,
                        -78.71145268036256
                    ],
                    [
                        -166.86612183557745,
                        -78.69404315875452
                    ],
                    [
                        -166.8374989198635,
                        -78.67669179608569
                    ],
                    [
                        -166.80796541659424,
                        -78.65940914572269
                    ],
                    [
                        -166.7774573826593,
                        -78.64219178447658
                    ],
                    [
                        -166.7464320508855,
                        -78.62501361950692
                    ],
                    [
                        -166.7152257630164,
                        -78.60785259434361
                    ],
                    [
                        -166.68385712797317,
                        -78.59070947462543
                    ],
                    [
                        -166.65228644319123,
                        -78.5735822974497
                    ],
                    [
                        -166.6204136341309,
                        -78.55648027532872
                    ],
                    [
                        -166.5889986321199,
                        -78.53934968649253
                    ],
                    [
                        -166.55767801415604,
                        -78.52221617831961
                    ],
                    [
                        -166.52645137415718,
                        -78.50507976718059
                    ],
                    [
                        -166.49531830825106,
                        -78.48794046935606
                    ],
                    [
                        -166.46427841476128,
                        -78.4707983010373
                    ],
                    [
                        -166.43333129419332,
                        -78.45365327832684
                    ],
                    [
                        -166.40247654922052,
                        -78.43650541723908
                    ],
                    [
                        -166.3717137846705,
                        -78.41935473370091
                    ],
                    [
                        -166.34104260751124,
                        -78.40220124355233
                    ],
                    [
                        -166.31046262683753,
                        -78.38504496254701
                    ],
                    [
                        -166.27997345385756,
                        -78.36788590635453
                    ],
                    [
                        -166.24957470187945,
                        -78.35072409055464
                    ],
                    [
                        -166.21926598629776,
                        -78.33355953064722
                    ],
                    [
                        -166.1890469245805,
                        -78.31639224204667
                    ],
                    [
                        -166.15891713625598,
                        -78.29922224008402
                    ],
                    [
                        -166.12887624289948,
                        -78.28204954000753
                    ],
                    [
                        -166.09892386812066,
                        -78.26487415698323
                    ],
                    [
                        -166.06905963755048,
                        -78.24769610609543
                    ],
                    [
                        -166.03928317882844,
                        -78.23051540234744
                    ],
                    [
                        -166.00959412159,
                        -78.21333206066194
                    ]
                ]
            }
        }
    ]
}
