{
    "type": "FeatureCollection",
    "features": [
        {
            "type": "Feature",
            "properties": {
                "name": "Rayner Thyer",
                "object": "transect",
                "component": "landice",
                "author": "Matthew Hoffman, converted from https://github.com/yuwang115/sl-ice",
                "tags": "Antarctic_Ice_Sheet;flowline;sl-ice;rayner_thyer"
            },
            "geometry": {
                "type": "LineString",
                "coordinates": [
                    [
                        50.585916167267115,
                        -70.74109954783196
                    ],
                    [
                        50.55694609430969,
                        -70.72595830703904
                    ],
                    [
                        50.527631792997944,
                        -70.71089218449609
                    ],
                    [
                        50.49798208581022,
                        -70.69590326327524
                    ],
                    [
                        50.467877681865666,
                        -70.68102249521918
                    ],
                    [
                        50.43687747838258,
                        -70.6663494072861
                    ],
                    [
                        50.40529785059388,
                        -70.65181889558951
                    ],
                    [
                        50.37443840162039,
                        -70.63712490121831
                    ],
                    [
                        50.34411254526734,
                        -70.62231555175359
                    ],
                    [
                        50.31392757424881,
                        -70.60748081223723
                    ],
                    [
                        50.283717297516134,
                        -70.5926563669294
                    ],
                    [
                        50.25374124491391,
                        -70.5777859377535
                    ],
                    [
                        50.224364797350404,
                        -70.56279049546636
                    ],
                    [
                        50.1963092584746,
                        -70.54752135608186
                    ],
                    [
                        50.168689001228095,
                        -70.5321704464394
                    ],
                    [
                        50.14141847790311,
                        -70.51675514032333
                    ],
                    [
                        50.114331982674294,
                        -70.5013053197756
                    ],
                    [
                        50.08708568513781,
                        -70.48589418755076
                    ],
                    [
                        50.06005879190325,
                        -70.47044689907011
                    ],
                    [
                        50.033650972964736,
                        -70.45488315275108
                    ],
                    [
                        50.00736406686538,
                        -70.43930294853546
                    ],
                    [
                        49.980754496745234,
                        -70.4237859781319
                    ],
                    [
                        49.95350953060721,
                        -70.40840151416346
                    ],
                    [
                        49.92598934256796,
                        -70.39307532861172
                    ],
                    [
                        49.89839668237424,
                        -70.37777096535467
                    ],
                    [
                        49.87080993493202,
                        -70.36246962467857
                    ],
                    [
                        49.84292949516095,
                        -70.34723253380054
                    ],
                    [
                        49.8146522835965,
                        -70.33208277908213
                    ],
                    [
                        49.785171987361345,
                        -70.31720603512211
                    ],
                    [
                        49.75444278335649,
                        -70.3026232677698
                    ],
                    [
                        49.72312817552641,
                        -70.28818899809873
                    ],
                    [
                        49.69191522082118,
                        -70.27373598845358
                    ],
                    [
                        49.661635599226784,
                        -70.25906306272718
                    ],
                    [
                        49.63310004201345,
                        -70.24400509731842
                    ],
                    [
                        49.607876036148205,
                        -70.22829307159633
                    ],
                    [
                        49.58525066124682,
                        -70.21213553776771
                    ],
                    [
                        49.56399241635485,
                        -70.19576660297258
                    ],
                    [
                        49.54480307143235,
                        -70.17911452691803
                    ],
                    [
                        49.528166253453804,
                        -70.16215106765574
                    ],
                    [
                        49.51404671730475,
                        -70.1449272752532
                    ],
                    [
                        49.50096298498561,
                        -70.12760889070307
                    ],
                    [
                        49.488973462127156,
                        -70.1102021466968
                    ],
                    [
                        49.47744135981776,
                        -70.09275781216681
                    ],
                    [
                        49.46640192517371,
                        -70.07528072171849
                    ],
                    [
                        49.45594022600278,
                        -70.05776677802066
                    ],
                    [
                        49.44648517408,
                        -70.04018310738438
                    ],
                    [
                        49.43815211399354,
                        -70.02253500014703
                    ],
                    [
                        49.430518923118534,
                        -70.0048527631583
                    ],
                    [
                        49.42353847518801,
                        -69.9871408658313
                    ],
                    [
                        49.41760345910845,
                        -69.96938578095381
                    ],
                    [
                        49.41292690599441,
                        -69.9515863486523
                    ],
                    [
                        49.409528583114536,
                        -69.93375537630172
                    ],
                    [
                        49.40265820272281,
                        -69.9160775456611
                    ],
                    [
                        49.38932437035417,
                        -69.89880905816598
                    ],
                    [
                        49.37723228216232,
                        -69.88144113618819
                    ],
                    [
                        49.37015791196242,
                        -69.86374346947566
                    ],
                    [
                        49.36468614659062,
                        -69.8459754593716
                    ],
                    [
                        49.35816408208922,
                        -69.82825320099131
                    ],
                    [
                        49.347466610330315,
                        -69.8107790722439
                    ],
                    [
                        49.33605978672521,
                        -69.7933597248248
                    ],
                    [
                        49.32592940660552,
                        -69.77584302781771
                    ],
                    [
                        49.31556506550166,
                        -69.758345877786
                    ],
                    [
                        49.30510547945496,
                        -69.74085639157558
                    ],
                    [
                        49.29441482881312,
                        -69.72338695730237
                    ],
                    [
                        49.28276266860233,
                        -69.70599008712165
                    ],
                    [
                        49.271879412295185,
                        -69.68854032864571
                    ],
                    [
                        49.260538163114475,
                        -69.67112465096625
                    ],
                    [
                        49.24547960666844,
                        -69.65405572489907
                    ],
                    [
                        49.22889772025495,
                        -69.63716355304142
                    ],
                    [
                        49.210625836066924,
                        -69.62048492137444
                    ],
                    [
                        49.191784060090065,
                        -69.6038837386857
                    ],
                    [
                        49.17350658251935,
                        -69.58721196676709
                    ],
                    [
                        49.15732192522258,
                        -69.57028289302673
                    ],
                    [
                        49.14381303478058,
                        -69.55306836841653
                    ],
                    [
                        49.13216889198261,
                        -69.53569130439901
                    ],
                    [
                        49.12208718129697,
                        -69.51819759670697
                    ],
                    [
                        49.11404497452143,
                        -69.50057416171946
                    ],
                    [
                        49.108377979577675,
                        -69.48284815543121
                    ],
                    [
                        49.10628933618512,
                        -69.46502162579674
                    ],
                    [
                        49.10740444153733,
                        -69.44718426841682
                    ],
                    [
                        49.10765739239685,
                        -69.42934556403132
                    ],
                    [
                        49.104248792510575,
                        -69.41154846886737
                    ],
                    [
                        49.09562864178848,
                        -69.39397185068523
                    ],
                    [
                        49.08368611183786,
                        -69.37663910183154
                    ],
                    [
                        49.06924768056964,
                        -69.35954598570713
                    ],
                    [
                        49.051904743186704,
                        -69.3427951051514
                    ],
                    [
                        49.0314503508512,
                        -69.32649130688263
                    ],
                    [
                        49.009402147871306,
                        -69.31044796259731
                    ],
                    [
                        48.98957738488146,
                        -69.29405953723074
                    ],
                    [
                        48.97476729564489,
                        -69.27702994698618
                    ],
                    [
                        48.964653352309966,
                        -69.25956730362365
                    ],
                    [
                        48.95704748540279,
                        -69.2419402242396
                    ],
                    [
                        48.94899216090162,
                        -69.22434214467327
                    ],
                    [
                        48.9402008329375,
                        -69.20678445660927
                    ],
                    [
                        48.9306285048624,
                        -69.18928207864985
                    ],
                    [
                        48.92266035143606,
                        -69.1716813179882
                    ],
                    [
                        48.91728862096134,
                        -69.15396066058004
                    ],
                    [
                        48.914188144470195,
                        -69.13616921845622
                    ],
                    [
                        48.90992157724847,
                        -69.1184104222188
                    ],
                    [
                        48.903971674518026,
                        -69.1007113798075
                    ],
                    [
                        48.8970791924829,
                        -69.08305902358804
                    ],
                    [
                        48.8901948306033,
                        -69.06540616610005
                    ],
                    [
                        48.88441222302797,
                        -69.04770413080331
                    ],
                    [
                        48.87941878741601,
                        -69.02997446329769
                    ],
                    [
                        48.87442273828314,
                        -69.0122421014246
                    ],
                    [
                        48.87073434678492,
                        -68.99447398277132
                    ],
                    [
                        48.87084167028381,
                        -68.97665894520217
                    ],
                    [
                        48.874177514861,
                        -68.95888821283539
                    ],
                    [
                        48.87915186787522,
                        -68.94116164417824
                    ],
                    [
                        48.8839151088406,
                        -68.92343138202182
                    ],
                    [
                        48.88794665111197,
                        -68.90567548476709
                    ],
                    [
                        48.88953961922983,
                        -68.88787656805482
                    ],
                    [
                        48.88673232248264,
                        -68.87010064018011
                    ],
                    [
                        48.87964533408377,
                        -68.85248238454948
                    ],
                    [
                        48.86920687477494,
                        -68.83508019716001
                    ],
                    [
                        48.85626170268546,
                        -68.81789760011146
                    ],
                    [
                        48.84209211437141,
                        -68.80084107981374
                    ],
                    [
                        48.82701998064526,
                        -68.7838930891007
                    ],
                    [
                        48.811713426185314,
                        -68.76697480020684
                    ],
                    [
                        48.798863730094745,
                        -68.74979296060611
                    ],
                    [
                        48.78976610750069,
                        -68.7323062082682
                    ],
                    [
                        48.7871562001505,
                        -68.71454261414665
                    ],
                    [
                        48.78977302019195,
                        -68.69677475249128
                    ],
                    [
                        48.7954486251334,
                        -68.6790966572057
                    ],
                    [
                        48.80123277603518,
                        -68.66142153268923
                    ],
                    [
                        48.80419686634162,
                        -68.64366080009924
                    ],
                    [
                        48.802926964689284,
                        -68.62588126187151
                    ],
                    [
                        48.79601042409555,
                        -68.60827243781601
                    ],
                    [
                        48.78462364203457,
                        -68.590980767565
                    ],
                    [
                        48.76972371857521,
                        -68.57404232582708
                    ],
                    [
                        48.75131166480106,
                        -68.5575722236213
                    ],
                    [
                        48.73099838504659,
                        -68.54140981442421
                    ],
                    [
                        48.709175864802745,
                        -68.52551355879956
                    ],
                    [
                        48.68621671957984,
                        -68.50983621793853
                    ],
                    [
                        48.66305997890372,
                        -68.4942058594054
                    ],
                    [
                        48.640524764330735,
                        -68.47845451564537
                    ],
                    [
                        48.61920191558303,
                        -68.46248363610648
                    ],
                    [
                        48.59900102904177,
                        -68.44631847314439
                    ],
                    [
                        48.57976390966491,
                        -68.42999773845145
                    ],
                    [
                        48.56143898612362,
                        -68.41354122055063
                    ],
                    [
                        48.544290946308735,
                        -68.39691734588816
                    ],
                    [
                        48.52844272153339,
                        -68.38011989726493
                    ],
                    [
                        48.514242996717115,
                        -68.36312747462077
                    ],
                    [
                        48.50170469773529,
                        -68.3459578229512
                    ],
                    [
                        48.49110757431965,
                        -68.32861505769637
                    ],
                    [
                        48.48281337714632,
                        -68.31110080628912
                    ],
                    [
                        48.47604647349959,
                        -68.29350143040536
                    ],
                    [
                        48.470652785123086,
                        -68.27583311767336
                    ],
                    [
                        48.4669117245751,
                        -68.25811171089791
                    ],
                    [
                        48.464760779715704,
                        -68.240353763392
                    ],
                    [
                        48.46424179213724,
                        -68.22258035511197
                    ],
                    [
                        48.464849684810844,
                        -68.20480466862088
                    ],
                    [
                        48.46581097533372,
                        -68.18703398049222
                    ],
                    [
                        48.46665883757409,
                        -68.16926305345729
                    ],
                    [
                        48.466660400150325,
                        -68.15149332897907
                    ],
                    [
                        48.465369683295094,
                        -68.13373114739694
                    ],
                    [
                        48.4624221504076,
                        -68.11599736535928
                    ],
                    [
                        48.457912490922595,
                        -68.09830997920761
                    ],
                    [
                        48.45256181008971,
                        -68.08065708166784
                    ],
                    [
                        48.44666763187315,
                        -68.06302374463074
                    ],
                    [
                        48.440763848952486,
                        -68.04539666205282
                    ],
                    [
                        48.434856573776564,
                        -68.02777191997059
                    ],
                    [
                        48.429823987757146,
                        -68.01010903220788
                    ],
                    [
                        48.42818425817957,
                        -67.99236217862932
                    ],
                    [
                        48.430880079239195,
                        -67.97465225541298
                    ],
                    [
                        48.43866220657046,
                        -67.95714363677182
                    ],
                    [
                        48.451413966304216,
                        -67.94004986026974
                    ],
                    [
                        48.46736403225389,
                        -67.92334055352967
                    ],
                    [
                        48.48506283409503,
                        -67.90688357506924
                    ],
                    [
                        48.50369253851126,
                        -67.89056686597468
                    ],
                    [
                        48.522529663719446,
                        -67.87429171381835
                    ],
                    [
                        48.54126817702918,
                        -67.85800353381414
                    ],
                    [
                        48.559410830480815,
                        -67.8416253687748
                    ],
                    [
                        48.5769700458232,
                        -67.825155289073
                    ],
                    [
                        48.59397086171336,
                        -67.80860740331357
                    ],
                    [
                        48.609992531108524,
                        -67.7919240649522
                    ],
                    [
                        48.624879004646424,
                        -67.77509430226615
                    ],
                    [
                        48.63803552794382,
                        -67.7580611765827
                    ],
                    [
                        48.64700718593173,
                        -67.74066077691613
                    ],
                    [
                        48.64945226423213,
                        -67.72297158254413
                    ],
                    [
                        48.6444504972322,
                        -67.70535482853403
                    ],
                    [
                        48.63035948542153,
                        -67.68846585625245
                    ],
                    [
                        48.60988163179468,
                        -67.6725506921562
                    ],
                    [
                        48.58436887573666,
                        -67.65771353025526
                    ],
                    [
                        48.5546185182948,
                        -67.64406366856929
                    ],
                    [
                        48.522329495781264,
                        -67.63128153255876
                    ],
                    [
                        48.48836187610336,
                        -67.61915185887352
                    ],
                    [
                        48.45336380590651,
                        -67.60745994648674
                    ],
                    [
                        48.41914651214249,
                        -67.595448738855
                    ],
                    [
                        48.3858047194269,
                        -67.58309153118057
                    ],
                    [
                        48.351684610220715,
                        -67.57105347894327
                    ],
                    [
                        48.31760203313794,
                        -67.55900815849996
                    ],
                    [
                        48.283556950365124,
                        -67.54695558379979
                    ],
                    [
                        48.249549324066024,
                        -67.53489576877135
                    ],
                    [
                        48.215579116382074,
                        -67.5228287273227
                    ],
                    [
                        48.181646289432706,
                        -67.51075447334134
                    ],
                    [
                        48.14775080531584,
                        -67.49867302069428
                    ],
                    [
                        48.113892626108175,
                        -67.48658438322803
                    ],
                    [
                        48.080071713865635,
                        -67.47448857476857
                    ],
                    [
                        48.046288030623735,
                        -67.4623856091214
                    ],
                    [
                        48.01254153839799,
                        -67.45027550007154
                    ],
                    [
                        47.978832199184296,
                        -67.43815826138356
                    ],
                    [
                        47.945159974959275,
                        -67.42603390680154
                    ],
                    [
                        47.9115248276807,
                        -67.41390245004911
                    ],
                    [
                        47.87792671928785,
                        -67.40176390482951
                    ],
                    [
                        47.844365611701896,
                        -67.38961828482547
                    ],
                    [
                        47.810841466826254,
                        -67.37746560369938
                    ],
                    [
                        47.77735424654699,
                        -67.36530587509316
                    ],
                    [
                        47.7439039127332,
                        -67.35313911262838
                    ],
                    [
                        47.71049042723733,
                        -67.34096532990623
                    ]
                ]
            }
        }
    ]
}
