{
    "type": "FeatureCollection",
    "features": [
        {
            "type": "Feature",
            "properties": {
                "name": "Greenland Glacier 0222",
                "object": "transect",
                "component": "landice",
                "author": "Matthew Hoffman, converted from Felikson et al. (2020) Zenodo dataset",
                "tags": "Greenland_Ice_Sheet;flowline;zenodo_4284759;glacier_0222",
                "citation": "Felikson, Denis, Catania, Ginny, Bartholomaus, Timothy, Morlighem, Mathieu, & No\u00ebl, Brice. (2020). Inland limits to diffusion of thinning along Greenland Ice Sheet outlet glaciers (v1.0) [Data set]. Zenodo. https://doi.org/10.5281/zenodo.4284759",
                "license": "CC-BY-4.0"
            },
            "geometry": {
                "type": "LineString",
                "coordinates": [
                    [
                        -44.44039400210633,
                        63.61711160772436
                    ],
                    [
                        -44.440794421067025,
                        63.61492116961659
                    ],
                    [
                        -44.441322077887385,
                        63.612731301704514
                    ],
                    [
                        -44.445399018052434,
                        63.610556790767646
                    ],
                    [
                        -44.44832026106905,
                        63.60837722447988
                    ],
                    [
                        -44.453290692951846,
                        63.606259054695414
                    ],
                    [
                        -44.458227857844605,
                        63.605667970007914
                    ],
                    [
                        -44.463169931372114,
                        63.60483261862178
                    ],
                    [
                        -44.463082563360516,
                        63.60264019086045
                    ],
                    [
                        -44.46381320341522,
                        63.600451192860184
                    ],
                    [
                        -44.46875177433494,
                        63.59972651856685
                    ],
                    [
                        -44.47368356236559,
                        63.599316813484826
                    ],
                    [
                        -44.478613654092435,
                        63.59898216301967
                    ],
                    [
                        -44.48357042492714,
                        63.59732306255946
                    ],
                    [
                        -44.4885240812731,
                        63.59578697787949
                    ],
                    [
                        -44.49348452247071,
                        63.5938788997138
                    ],
                    [
                        -44.49844379039902,
                        63.59199259108482
                    ],
                    [
                        -44.503385947266786,
                        63.59094766371023
                    ],
                    [
                        -44.50832328252729,
                        63.590131785531774
                    ],
                    [
                        -44.513275020063666,
                        63.588544066254954
                    ],
                    [
                        -44.51822062057972,
                        63.58724861832464
                    ],
                    [
                        -44.523164987372574,
                        63.58599214643348
                    ],
                    [
                        -44.528111432175194,
                        63.58459676705933
                    ],
                    [
                        -44.53305717050118,
                        63.58321025852043
                    ],
                    [
                        -44.53800194938085,
                        63.581846890359785
                    ],
                    [
                        -44.5429497445682,
                        63.580285374532195
                    ],
                    [
                        -44.54789828372085,
                        63.578647489972575
                    ],
                    [
                        -44.55217351868438,
                        63.57647064252343
                    ],
                    [
                        -44.5555676492413,
                        63.57429063145889
                    ],
                    [
                        -44.559422612737876,
                        63.57211213168982
                    ],
                    [
                        -44.56379702130202,
                        63.56993530099972
                    ],
                    [
                        -44.56801997864761,
                        63.56775783383078
                    ],
                    [
                        -44.57248267301734,
                        63.56558104672583
                    ],
                    [
                        -44.5765400711701,
                        63.56340279117516
                    ],
                    [
                        -44.58094653091212,
                        63.5612255672835
                    ],
                    [
                        -44.58533658722741,
                        63.55904816056467
                    ],
                    [
                        -44.589037407248696,
                        63.55686842244674
                    ],
                    [
                        -44.59264943503743,
                        63.55468831706356
                    ],
                    [
                        -44.59674462179834,
                        63.55250964836961
                    ],
                    [
                        -44.60016810715116,
                        63.55032878121914
                    ],
                    [
                        -44.60302647316239,
                        63.548146098240984
                    ],
                    [
                        -44.606019528799074,
                        63.54596378522877
                    ],
                    [
                        -44.60934944152325,
                        63.543782447936266
                    ],
                    [
                        -44.612400956311575,
                        63.541600204918325
                    ],
                    [
                        -44.6151122758581,
                        63.5394168906021
                    ],
                    [
                        -44.61777828742596,
                        63.53723340442991
                    ],
                    [
                        -44.6202629774371,
                        63.53504934697743
                    ],
                    [
                        -44.622459253590364,
                        63.53286441375231
                    ],
                    [
                        -44.62469434932291,
                        63.530679576453174
                    ],
                    [
                        -44.62710893994131,
                        63.52849524180461
                    ],
                    [
                        -44.62930206758644,
                        63.52631024240909
                    ],
                    [
                        -44.631127894528404,
                        63.52412417039499
                    ],
                    [
                        -44.63293851848395,
                        63.52193804874424
                    ],
                    [
                        -44.63498933595977,
                        63.51975260480082
                    ],
                    [
                        -44.63682828746759,
                        63.517566548519184
                    ],
                    [
                        -44.638149919641606,
                        63.51537902777487
                    ],
                    [
                        -44.6393507285587,
                        63.51319117341916
                    ],
                    [
                        -44.64087546983807,
                        63.511004234599625
                    ],
                    [
                        -44.64265372178593,
                        63.508818003812046
                    ],
                    [
                        -44.6446273975154,
                        63.50663230974903
                    ],
                    [
                        -44.64675555485269,
                        63.504447030751074
                    ],
                    [
                        -44.64868061568696,
                        63.50226118015796
                    ],
                    [
                        -44.65062536675402,
                        63.500075374151926
                    ],
                    [
                        -44.65243819752266,
                        63.49788920098646
                    ],
                    [
                        -44.653917615754665,
                        63.49570212245706
                    ],
                    [
                        -44.65526492154989,
                        63.49351469133083
                    ],
                    [
                        -44.6567776799735,
                        63.49132770871066
                    ],
                    [
                        -44.658758599326106,
                        63.48914197502693
                    ],
                    [
                        -44.66154231310201,
                        63.486958352912694
                    ],
                    [
                        -44.66442089385692,
                        63.48477493893034
                    ],
                    [
                        -44.66725685996496,
                        63.482591369852415
                    ],
                    [
                        -44.670304348172586,
                        63.48040830256079
                    ],
                    [
                        -44.67480084077464,
                        63.47822886864588
                    ],
                    [
                        -44.67881569641282,
                        63.47604809129298
                    ],
                    [
                        -44.6813992314444,
                        63.473863657340594
                    ],
                    [
                        -44.683877719323405,
                        63.47167893214575
                    ],
                    [
                        -44.686031703015864,
                        63.46949338403619
                    ],
                    [
                        -44.68853958842469,
                        63.46730868059966
                    ],
                    [
                        -44.69236169903088,
                        63.4651271114812
                    ],
                    [
                        -44.69667197889335,
                        63.462946605903
                    ],
                    [
                        -44.70049261574516,
                        63.460764831620985
                    ],
                    [
                        -44.70390670046146,
                        63.45858202433105
                    ],
                    [
                        -44.7069816251159,
                        63.456398370558695
                    ],
                    [
                        -44.70997980068141,
                        63.45421448923947
                    ],
                    [
                        -44.71283995423312,
                        63.45203024828464
                    ],
                    [
                        -44.71549126591864,
                        63.449845499479515
                    ],
                    [
                        -44.717651153153824,
                        63.44765963266234
                    ],
                    [
                        -44.719491730654866,
                        63.445473049779174
                    ],
                    [
                        -44.72113419970009,
                        63.443286028589235
                    ],
                    [
                        -44.72260361825079,
                        63.4410986309359
                    ],
                    [
                        -44.72389654580932,
                        63.43891085526758
                    ],
                    [
                        -44.72502478933236,
                        63.43672273221889
                    ],
                    [
                        -44.726199347337726,
                        63.43453471778241
                    ],
                    [
                        -44.72754053629796,
                        63.432347067001
                    ],
                    [
                        -44.729149441503196,
                        63.430159988782
                    ],
                    [
                        -44.73102494203591,
                        63.42797347079438
                    ],
                    [
                        -44.732946531488864,
                        63.425787041221675
                    ],
                    [
                        -44.73500239914962,
                        63.423600880764226
                    ],
                    [
                        -44.73745235635604,
                        63.4214155166675
                    ],
                    [
                        -44.73972280465012,
                        63.419229760228525
                    ],
                    [
                        -44.741862541893504,
                        63.417043719441416
                    ],
                    [
                        -44.74382836951151,
                        63.414857314254014
                    ],
                    [
                        -44.745397483834815,
                        63.412670109081596
                    ],
                    [
                        -44.746694625967,
                        63.41048236558272
                    ],
                    [
                        -44.74772751275671,
                        63.408294107140584
                    ],
                    [
                        -44.748496903321296,
                        63.40610534153409
                    ],
                    [
                        -44.74905139463928,
                        63.40391616883308
                    ],
                    [
                        -44.749449190284466,
                        63.401726705863254
                    ],
                    [
                        -44.74961632239994,
                        63.39953680910675
                    ],
                    [
                        -44.749479543133795,
                        63.39734633577549
                    ],
                    [
                        -44.749218535365415,
                        63.395155637568955
                    ],
                    [
                        -44.748977284434744,
                        63.39296499666268
                    ],
                    [
                        -44.74879930956218,
                        63.39077449876229
                    ],
                    [
                        -44.74865006480073,
                        63.38858407619001
                    ],
                    [
                        -44.74859551911044,
                        63.3863938589243
                    ],
                    [
                        -44.748669112003476,
                        63.38420391293954
                    ],
                    [
                        -44.74877747700216,
                        63.382014054439544
                    ],
                    [
                        -44.74884783906504,
                        63.37982414024162
                    ],
                    [
                        -44.74890447002226,
                        63.377634218125095
                    ],
                    [
                        -44.748899678795574,
                        63.375444194319805
                    ],
                    [
                        -44.74876888473829,
                        63.37325394172428
                    ],
                    [
                        -44.74874263891775,
                        63.371063913873925
                    ],
                    [
                        -44.74891817395591,
                        63.368874302172635
                    ],
                    [
                        -44.74894569816963,
                        63.36668441835171
                    ],
                    [
                        -44.74865173814553,
                        63.36449392092753
                    ],
                    [
                        -44.74819520884598,
                        63.3623031211871
                    ],
                    [
                        -44.747804329534496,
                        63.36011246854765
                    ],
                    [
                        -44.74732779496164,
                        63.357921664120006
                    ],
                    [
                        -44.74690670401525,
                        63.35573098687405
                    ],
                    [
                        -44.74682027770976,
                        63.35354099179593
                    ],
                    [
                        -44.74691306528179,
                        63.35135137141611
                    ],
                    [
                        -44.747224711739946,
                        63.34916220399304
                    ],
                    [
                        -44.747404311865665,
                        63.346972793592506
                    ],
                    [
                        -44.74713510866949,
                        63.344782513102345
                    ],
                    [
                        -44.74686673922791,
                        63.3425922527385
                    ],
                    [
                        -44.74669460468831,
                        63.34040220204494
                    ],
                    [
                        -44.74628938177186,
                        63.338211706629195
                    ],
                    [
                        -44.745667865034264,
                        63.33602079766548
                    ],
                    [
                        -44.74514984239714,
                        63.33383011152932
                    ],
                    [
                        -44.74487818992257,
                        63.33163993553677
                    ],
                    [
                        -44.74487040820152,
                        63.329450306404134
                    ],
                    [
                        -44.74474929961878,
                        63.327260469508275
                    ],
                    [
                        -44.74455089167684,
                        63.325070496688575
                    ],
                    [
                        -44.744139458791594,
                        63.32288011513583
                    ],
                    [
                        -44.743730674883295,
                        63.32068975659015
                    ],
                    [
                        -44.743324259211875,
                        63.31849942051382
                    ],
                    [
                        -44.743121844467474,
                        63.31630951359725
                    ],
                    [
                        -44.74321606617922,
                        63.31412022364731
                    ],
                    [
                        -44.74282434999765,
                        63.311929972752665
                    ],
                    [
                        -44.741670618390756,
                        63.309738196641774
                    ],
                    [
                        -44.74145095194367,
                        63.307548328262406
                    ],
                    [
                        -44.742055539450504,
                        63.30536015053699
                    ],
                    [
                        -44.74255415348832,
                        63.30317177509675
                    ],
                    [
                        -44.74295012515889,
                        63.30098320986203
                    ],
                    [
                        -44.7434297936942,
                        63.298794831332145
                    ],
                    [
                        -44.74463497423017,
                        63.29660792742471
                    ],
                    [
                        -44.7444897551947,
                        63.29441832871972
                    ],
                    [
                        -44.74374253315788,
                        63.29222753861501
                    ],
                    [
                        -44.743223848712645,
                        63.29003722423985
                    ],
                    [
                        -44.743111054045634,
                        63.28784774654156
                    ],
                    [
                        -44.74335135932873,
                        63.285659000351785
                    ],
                    [
                        -44.74349622125087,
                        63.28347008061438
                    ],
                    [
                        -44.74325605513287,
                        63.28128040371172
                    ],
                    [
                        -44.74298741801202,
                        63.27909068794031
                    ],
                    [
                        -44.74295764988807,
                        63.27690147345009
                    ],
                    [
                        -44.74331188385399,
                        63.2747130534087
                    ],
                    [
                        -44.74412785644311,
                        63.272525581157154
                    ],
                    [
                        -44.74580312163277,
                        63.270339843045356
                    ],
                    [
                        -44.74650231910314,
                        63.26815216110845
                    ],
                    [
                        -44.74638818170483,
                        63.26596287557835
                    ],
                    [
                        -44.74556247922178,
                        63.263772187534464
                    ],
                    [
                        -44.74449636267706,
                        63.26158103025814
                    ],
                    [
                        -44.74387013212696,
                        63.25939076966095
                    ],
                    [
                        -44.74335499757655,
                        63.257200749243424
                    ],
                    [
                        -44.74289264303356,
                        63.25501085249582
                    ],
                    [
                        -44.74274360189621,
                        63.25282160747642
                    ],
                    [
                        -44.74277846781205,
                        63.25063275366006
                    ],
                    [
                        -44.74272458684682,
                        63.24844373943306
                    ],
                    [
                        -44.74231293955785,
                        63.24625401953018
                    ],
                    [
                        -44.74176909817659,
                        63.24406404882589
                    ],
                    [
                        -44.7412599303657,
                        63.24187416540619
                    ],
                    [
                        -44.740807532501314,
                        63.23968441477584
                    ],
                    [
                        -44.740330899736904,
                        63.23749463205532
                    ],
                    [
                        -44.73959714459568,
                        63.23530433987235
                    ],
                    [
                        -44.738814938044484,
                        63.23311396281224
                    ],
                    [
                        -44.738046715877374,
                        63.23092362871655
                    ],
                    [
                        -44.737190136625884,
                        63.22873312615119
                    ],
                    [
                        -44.736259042785726,
                        63.22654248203052
                    ],
                    [
                        -44.735233813306515,
                        63.22435165377927
                    ],
                    [
                        -44.7342316910322,
                        63.22216088447881
                    ],
                    [
                        -44.73323210560084,
                        63.219970131475854
                    ],
                    [
                        -44.73202862272555,
                        63.21777895935023
                    ],
                    [
                        -44.73054128090899,
                        63.21558719253432
                    ],
                    [
                        -44.728914249638116,
                        63.21339512882598
                    ],
                    [
                        -44.72732988863647,
                        63.21120315459488
                    ],
                    [
                        -44.72568130992317,
                        63.20901104051688
                    ],
                    [
                        -44.72399863696948,
                        63.206818849559475
                    ],
                    [
                        -44.72240471025118,
                        63.20462684907484
                    ],
                    [
                        -44.72070748100713,
                        63.202434619954936
                    ],
                    [
                        -44.718779301910075,
                        63.20024187519239
                    ],
                    [
                        -44.71689776620606,
                        63.19804922376296
                    ],
                    [
                        -44.71492185856019,
                        63.19585635100804
                    ],
                    [
                        -44.7127741527766,
                        63.19366307720516
                    ],
                    [
                        -44.710541531638015,
                        63.191469591800434
                    ],
                    [
                        -44.70832875028749,
                        63.18927613116236
                    ],
                    [
                        -44.70616118408773,
                        63.18708275511736
                    ],
                    [
                        -44.703990659347966,
                        63.184889353580466
                    ],
                    [
                        -44.70163408917844,
                        63.182695495797134
                    ],
                    [
                        -44.699460639496145,
                        63.18050204671059
                    ],
                    [
                        -44.69743573471438,
                        63.17830893333315
                    ],
                    [
                        -44.69535773854247,
                        63.17611567856134
                    ],
                    [
                        -44.69292904597682,
                        63.17392155931362
                    ],
                    [
                        -44.69022541389522,
                        63.17172674036646
                    ],
                    [
                        -44.68713246638578,
                        63.16953092173229
                    ],
                    [
                        -44.68379727791201,
                        63.167334441650915
                    ],
                    [
                        -44.68029104681051,
                        63.16513746045638
                    ],
                    [
                        -44.676710572770645,
                        63.16294021079346
                    ],
                    [
                        -44.67261758909955,
                        63.16074155487308
                    ],
                    [
                        -44.66780498083058,
                        63.15861748499943
                    ],
                    [
                        -44.66342496986835,
                        63.156417813782724
                    ],
                    [
                        -44.65948418807653,
                        63.15421918984996
                    ],
                    [
                        -44.65525108302921,
                        63.15201966584002
                    ],
                    [
                        -44.650838390490144,
                        63.149819523016355
                    ],
                    [
                        -44.64603035169983,
                        63.14763937703312
                    ],
                    [
                        -44.64122197047074,
                        63.14554223854473
                    ],
                    [
                        -44.636410305861524,
                        63.14373446587056
                    ],
                    [
                        -44.63159736404984,
                        63.142063609773686
                    ],
                    [
                        -44.62678454582407,
                        63.140427093951196
                    ],
                    [
                        -44.6219714428476,
                        63.13885160421366
                    ],
                    [
                        -44.617161160972515,
                        63.137124521745115
                    ],
                    [
                        -44.6123522910362,
                        63.13534570025861
                    ],
                    [
                        -44.607542443459,
                        63.13367489089239
                    ],
                    [
                        -44.60273282016512,
                        63.13202973053785
                    ],
                    [
                        -44.59792529038906,
                        63.13028874262533
                    ],
                    [
                        -44.593117988438024,
                        63.1285742065338
                    ],
                    [
                        -44.58830694143345,
                        63.12713545474488
                    ],
                    [
                        -44.58349122036573,
                        63.12602080906853
                    ],
                    [
                        -44.57867397786408,
                        63.125025122283475
                    ],
                    [
                        -44.57385626531804,
                        63.12408037699283
                    ],
                    [
                        -44.56903975842235,
                        63.12308401457826
                    ],
                    [
                        -44.5642243107979,
                        63.12204644982692
                    ],
                    [
                        -44.55940950028069,
                        63.120993879175224
                    ],
                    [
                        -44.554594871649854,
                        63.1199532947891
                    ],
                    [
                        -44.54978192774112,
                        63.118837717818124
                    ],
                    [
                        -44.54497134603653,
                        63.117610890351166
                    ],
                    [
                        -44.540162343594794,
                        63.11632045722974
                    ],
                    [
                        -44.53535313001636,
                        63.115068349781595
                    ],
                    [
                        -44.530540912527485,
                        63.114007736539655
                    ],
                    [
                        -44.525727536223,
                        63.113031864826844
                    ],
                    [
                        -44.520914503944006,
                        63.11205679209438
                    ],
                    [
                        -44.51610372733824,
                        63.11097998305286
                    ],
                    [
                        -44.511294581807995,
                        63.1098375915014
                    ],
                    [
                        -44.50648225843427,
                        63.10888438387327
                    ],
                    [
                        -44.5016669138482,
                        63.10810673713786
                    ],
                    [
                        -44.49685118190472,
                        63.1073637745657
                    ],
                    [
                        -44.492036223467785,
                        63.106595201185364
                    ],
                    [
                        -44.48722302653966,
                        63.105751729212756
                    ],
                    [
                        -44.482410951071955,
                        63.10486753256069
                    ],
                    [
                        -44.47759997342947,
                        63.10394490409325
                    ],
                    [
                        -44.47278689845867,
                        63.10314218807699
                    ],
                    [
                        -44.467970909400094,
                        63.102495982895206
                    ],
                    [
                        -44.46315113983487,
                        63.10204397395666
                    ],
                    [
                        -44.45833077374547,
                        63.10162841224036
                    ],
                    [
                        -44.453514198814,
                        63.10103993101093
                    ],
                    [
                        -44.44870131999797,
                        63.10028752529108
                    ],
                    [
                        -44.44388732613661,
                        63.099600010773734
                    ],
                    [
                        -44.43906929047234,
                        63.099111161639826
                    ],
                    [
                        -44.434249661179415,
                        63.09870357912506
                    ],
                    [
                        -44.42943037606323,
                        63.09828704174169
                    ],
                    [
                        -44.424609450772095,
                        63.09795129861155
                    ],
                    [
                        -44.41978503136669,
                        63.09777728425066
                    ],
                    [
                        -44.41495906013041,
                        63.097674815615484
                    ],
                    [
                        -44.41013681790927,
                        63.09740972873425
                    ],
                    [
                        -44.40532019349573,
                        63.09690352065549
                    ],
                    [
                        -44.40050450193271,
                        63.09636486922783
                    ],
                    [
                        -44.395684619506696,
                        63.096014659334145
                    ],
                    [
                        -44.39086135185952,
                        63.095814086532606
                    ],
                    [
                        -44.386037270402625,
                        63.0956508944077
                    ],
                    [
                        -44.381213278534865,
                        63.09548630544185
                    ],
                    [
                        -44.37638837536997,
                        63.09536201838741
                    ],
                    [
                        -44.37156265997003,
                        63.09527301159532
                    ],
                    [
                        -44.36673873799915,
                        63.09511165390115
                    ],
                    [
                        -44.361917911839335,
                        63.09482659327573
                    ],
                    [
                        -44.357098577009346,
                        63.09448540138321
                    ],
                    [
                        -44.35227832294226,
                        63.094185950250086
                    ],
                    [
                        -44.34745700857817,
                        63.09393292691106
                    ],
                    [
                        -44.342637527953094,
                        63.09361100819076
                    ],
                    [
                        -44.337820546710546,
                        63.09319559569352
                    ],
                    [
                        -44.333003378480036,
                        63.09279328028355
                    ],
                    [
                        -44.32818360669999,
                        63.09249717307919
                    ],
                    [
                        -44.32336375956322,
                        63.092207993639576
                    ],
                    [
                        -44.31854661787099,
                        63.09181964118213
                    ],
                    [
                        -44.31373320902141,
                        63.09129532731265
                    ],
                    [
                        -44.30892501067325,
                        63.09058236487348
                    ],
                    [
                        -44.304122086870585,
                        63.08968225926168
                    ],
                    [
                        -44.29932075328293,
                        63.08873538164807
                    ],
                    [
                        -44.294517520917566,
                        63.0878711060283
                    ],
                    [
                        -44.28971023481776,
                        63.08716654785016
                    ],
                    [
                        -44.28490139000863,
                        63.08652788766923
                    ],
                    [
                        -44.28009296608158,
                        63.085882396472584
                    ],
                    [
                        -44.27528706208796,
                        63.08515498818406
                    ],
                    [
                        -44.27048308217433,
                        63.084368486476514
                    ],
                    [
                        -44.265678182315035,
                        63.083624632781465
                    ],
                    [
                        -44.260870375849784,
                        63.08299240563973
                    ],
                    [
                        -44.25605894035099,
                        63.08249486756721
                    ],
                    [
                        -44.251246094046415,
                        63.082052480876015
                    ],
                    [
                        -44.246433710505976,
                        63.08159961317772
                    ],
                    [
                        -44.24162350236211,
                        63.08107780594733
                    ],
                    [
                        -44.2368147528812,
                        63.080512751074245
                    ],
                    [
                        -44.23200539543658,
                        63.079975153601325
                    ],
                    [
                        -44.22719406612032,
                        63.07951034383985
                    ],
                    [
                        -44.222381290787276,
                        63.0790994070055
                    ],
                    [
                        -44.217570104224535,
                        63.07864059830965
                    ],
                    [
                        -44.212759867801566,
                        63.07815586463241
                    ],
                    [
                        -44.20794999860539,
                        63.077664793384116
                    ],
                    [
                        -44.2031388127634,
                        63.07722239072434
                    ],
                    [
                        -44.19832821518168,
                        63.07676605447757
                    ],
                    [
                        -44.19351793798862,
                        63.07630466052768
                    ],
                    [
                        -44.188708652633395,
                        63.07581679687994
                    ],
                    [
                        -44.18390038246538,
                        63.075302185602304
                    ],
                    [
                        -44.17909197028762,
                        63.074797915654386
                    ],
                    [
                        -44.174282650441256,
                        63.07432789545933
                    ],
                    [
                        -44.169470940810726,
                        63.073937892571045
                    ],
                    [
                        -44.164658612149886,
                        63.073571453404604
                    ],
                    [
                        -44.159847332563196,
                        63.073176589024236
                    ],
                    [
                        -44.15503807251895,
                        63.072723942763375
                    ],
                    [
                        -44.15022945932944,
                        63.072256461165246
                    ],
                    [
                        -44.145419946530986,
                        63.071821409687296
                    ],
                    [
                        -44.140609719884814,
                        63.07141262783544
                    ],
                    [
                        -44.13579955579628,
                        63.071006334017085
                    ],
                    [
                        -44.13099138123502,
                        63.07054487091083
                    ],
                    [
                        -44.126184566514766,
                        63.070047869453475
                    ],
                    [
                        -44.12137624804125,
                        63.06960059528234
                    ],
                    [
                        -44.11656625172531,
                        63.06920735772958
                    ],
                    [
                        -44.111757013365896,
                        63.068796024342866
                    ],
                    [
                        -44.10695043779799,
                        63.06831146164439
                    ],
                    [
                        -44.10214505104754,
                        63.067797499811725
                    ],
                    [
                        -44.097339222801864,
                        63.06730153861238
                    ],
                    [
                        -44.0925333706669,
                        63.066811333271374
                    ],
                    [
                        -44.08772820416898,
                        63.06630658082219
                    ],
                    [
                        -44.08292385349771,
                        63.06578381886803
                    ],
                    [
                        -44.07812042991072,
                        63.06524019053745
                    ],
                    [
                        -44.07331885131038,
                        63.06465027642231
                    ],
                    [
                        -44.068519112650485,
                        63.06401492912641
                    ],
                    [
                        -44.06372081257141,
                        63.06334598398361
                    ],
                    [
                        -44.058924226451154,
                        63.062636346265805
                    ],
                    [
                        -44.054128667793336,
                        63.06190549392229
                    ],
                    [
                        -44.049334616071626,
                        63.06114063641033
                    ],
                    [
                        -44.04454176094085,
                        63.06035072388074
                    ],
                    [
                        -44.03975179378484,
                        63.05949034534874
                    ],
                    [
                        -44.03496346186567,
                        63.05859428461212
                    ],
                    [
                        -44.03017585166632,
                        63.05768754992125
                    ],
                    [
                        -44.02538926309845,
                        63.056762296720606
                    ],
                    [
                        -44.02060424477392,
                        63.055804231665974
                    ],
                    [
                        -44.01582238137638,
                        63.054771970279226
                    ],
                    [
                        -44.01104319036398,
                        63.053679264136264
                    ],
                    [
                        -44.006266910147616,
                        63.052520739342285
                    ],
                    [
                        -44.00149271557864,
                        63.05131881600217
                    ],
                    [
                        -43.99672058938777,
                        63.05007455370404
                    ],
                    [
                        -43.99194906918835,
                        63.04882626670261
                    ],
                    [
                        -43.9871777239488,
                        63.04758507502182
                    ],
                    [
                        -43.98240834762798,
                        63.046305034323126
                    ],
                    [
                        -43.9776365558429,
                        63.04509820215724
                    ],
                    [
                        -43.972862300174505,
                        63.043964790623924
                    ],
                    [
                        -43.968086885397035,
                        63.04287090341452
                    ],
                    [
                        -43.96331158027426,
                        63.04178416689456
                    ],
                    [
                        -43.95853995325316,
                        63.04061536601032
                    ],
                    [
                        -43.95377193249509,
                        63.039367397881975
                    ],
                    [
                        -43.9490061282357,
                        63.03807572294633
                    ],
                    [
                        -43.94424025353194,
                        63.03679727130127
                    ],
                    [
                        -43.939473494421385,
                        63.03555182925702
                    ],
                    [
                        -43.934708222779065,
                        63.03428103495595
                    ],
                    [
                        -43.92994460982746,
                        63.03298105879209
                    ],
                    [
                        -43.92518099963679,
                        63.03169236517055
                    ],
                    [
                        -43.92041812898431,
                        63.030397047748906
                    ],
                    [
                        -43.91565454782431,
                        63.0291299842715
                    ],
                    [
                        -43.910889633847226,
                        63.02790567280169
                    ],
                    [
                        -43.906122300587796,
                        63.02674940216673
                    ],
                    [
                        -43.901355332718914,
                        63.025594336635564
                    ],
                    [
                        -43.89659117277232,
                        63.024382854095386
                    ],
                    [
                        -43.891828441503975,
                        63.02314806301398
                    ],
                    [
                        -43.8870637212215,
                        63.02197017729627
                    ],
                    [
                        -43.88229571498945,
                        63.02087867316082
                    ],
                    [
                        -43.87752695487603,
                        63.019813746314405
                    ],
                    [
                        -43.87276303988405,
                        63.01864578047805
                    ],
                    [
                        -43.86800355752766,
                        63.017385547288846
                    ],
                    [
                        -43.863243219861246,
                        63.016155278436365
                    ],
                    [
                        -43.85848181795163,
                        63.014959365116596
                    ],
                    [
                        -43.85372116361526,
                        63.01375623484635
                    ],
                    [
                        -43.84896439586268,
                        63.012474978852914
                    ],
                    [
                        -43.844212318563045,
                        63.01109844229726
                    ],
                    [
                        -43.83946199169925,
                        63.00969373703208
                    ],
                    [
                        -43.83471315168598,
                        63.00826709067061
                    ],
                    [
                        -43.829969591677624,
                        63.0067343509884
                    ],
                    [
                        -43.825231494908856,
                        63.005092722680565
                    ],
                    [
                        -43.820496105406676,
                        63.00340434376609
                    ],
                    [
                        -43.815759403700994,
                        63.00175815635017
                    ],
                    [
                        -43.81101744346562,
                        63.00024010218347
                    ],
                    [
                        -43.80627446342827,
                        62.998756188941506
                    ],
                    [
                        -43.80152814552127,
                        62.99735639252709
                    ],
                    [
                        -43.79677910915326,
                        62.99602631777455
                    ],
                    [
                        -43.792029894899585,
                        62.99471036438717
                    ],
                    [
                        -43.78728602438144,
                        62.99328975822008
                    ],
                    [
                        -43.782551129120165,
                        62.991687997183625
                    ],
                    [
                        -43.77783075756447,
                        62.989788878925566
                    ],
                    [
                        -43.773099073887565,
                        62.9881444366991
                    ],
                    [
                        -43.76836226746541,
                        62.98662083586333
                    ],
                    [
                        -43.76362254824414,
                        62.98517012795787
                    ],
                    [
                        -43.75887941083414,
                        62.98380209705217
                    ],
                    [
                        -43.754134517661825,
                        62.98248103542371
                    ],
                    [
                        -43.74939051750644,
                        62.981151216553926
                    ],
                    [
                        -43.74464714702583,
                        62.97981820360703
                    ],
                    [
                        -43.739905742596676,
                        62.978454389462044
                    ],
                    [
                        -43.735168941715564,
                        62.977005763766826
                    ],
                    [
                        -43.73043780184677,
                        62.9754515503761
                    ],
                    [
                        -43.725711895002505,
                        62.97380166145923
                    ],
                    [
                        -43.720990638607326,
                        62.9720690130139
                    ],
                    [
                        -43.71627476548571,
                        62.970239618537995
                    ],
                    [
                        -43.71156524048887,
                        62.968294995415974
                    ],
                    [
                        -43.70686097265575,
                        62.96625837377763
                    ],
                    [
                        -43.70215666250339,
                        62.96423720554327
                    ],
                    [
                        -43.69745398099721,
                        62.962197869654574
                    ],
                    [
                        -43.692752701701075,
                        62.96014507196238
                    ],
                    [
                        -43.68804904625008,
                        62.95815406226544
                    ],
                    [
                        -43.683343093161874,
                        62.9562226316168
                    ],
                    [
                        -43.67863343275902,
                        62.954377978858915
                    ],
                    [
                        -43.673921292496274,
                        62.95259504663633
                    ],
                    [
                        -43.6692072999011,
                        62.950860886047934
                    ],
                    [
                        -43.66449202880257,
                        62.94916377667624
                    ],
                    [
                        -43.659776688210975,
                        62.94747979519607
                    ],
                    [
                        -43.65506330150774,
                        62.94576954974233
                    ],
                    [
                        -43.650352018359555,
                        62.94403041469023
                    ],
                    [
                        -43.645648046210525,
                        62.94216235051119
                    ],
                    [
                        -43.64094848045194,
                        62.9402224430673
                    ],
                    [
                        -43.63625187731929,
                        62.9382390473282
                    ],
                    [
                        -43.63156061665159,
                        62.936167208810936
                    ],
                    [
                        -43.62687428561345,
                        62.93401565963089
                    ],
                    [
                        -43.62235541467904,
                        62.931779497755045
                    ],
                    [
                        -43.61839684812709,
                        62.929549344904835
                    ],
                    [
                        -43.61839684812709,
                        62.929549344904835
                    ],
                    [
                        -43.61443895774226,
                        62.92731908759558
                    ],
                    [
                        -43.610951816349754,
                        62.925093922039636
                    ],
                    [
                        -43.60749279575317,
                        62.92286898484774
                    ],
                    [
                        -43.604113863089744,
                        62.920644855666694
                    ],
                    [
                        -43.60095162539229,
                        62.91842306223347
                    ],
                    [
                        -43.59797126488047,
                        62.91620323292659
                    ],
                    [
                        -43.59499136755308,
                        62.913983352446735
                    ],
                    [
                        -43.59203412501616,
                        62.911763669534245
                    ],
                    [
                        -43.58902679491439,
                        62.909543368768134
                    ],
                    [
                        -43.58580283572418,
                        62.907320571403766
                    ],
                    [
                        -43.58230787407291,
                        62.905094646434996
                    ],
                    [
                        -43.57854160975228,
                        62.902865567112705
                    ],
                    [
                        -43.57419934864312,
                        62.90062984911978
                    ],
                    [
                        -43.56952375430657,
                        62.898483006588776
                    ],
                    [
                        -43.56484125467614,
                        62.896475744189836
                    ],
                    [
                        -43.56015128170578,
                        62.89461703607349
                    ],
                    [
                        -43.555454452651986,
                        62.89289429097791
                    ],
                    [
                        -43.55075590306106,
                        62.89121357962909
                    ],
                    [
                        -43.54605804269785,
                        62.88953117290253
                    ],
                    [
                        -43.54135827875993,
                        62.88789355394349
                    ],
                    [
                        -43.53665681032692,
                        62.88629673938893
                    ],
                    [
                        -43.531955584682585,
                        62.88470566111858
                    ],
                    [
                        -43.52725560914981,
                        62.883102379158565
                    ],
                    [
                        -43.52255622362372,
                        62.8814986884153
                    ],
                    [
                        -43.51785628861712,
                        62.87991469440372
                    ],
                    [
                        -43.51315405047218,
                        62.87838105470663
                    ],
                    [
                        -43.50844639743454,
                        62.876951858333314
                    ],
                    [
                        -43.50373118079561,
                        62.87566368936661
                    ],
                    [
                        -43.499009263765565,
                        62.87450019388955
                    ],
                    [
                        -43.4942884029191,
                        62.87332547598444
                    ],
                    [
                        -43.48958047144739,
                        62.87193402851245
                    ],
                    [
                        -43.48489564465169,
                        62.87015216749015
                    ],
                    [
                        -43.48023536542163,
                        62.86795859528498
                    ],
                    [
                        -43.47653879663162,
                        62.86572747183339
                    ],
                    [
                        -43.47350828386521,
                        62.86350436089131
                    ],
                    [
                        -43.47086742640754,
                        62.86128594252828
                    ],
                    [
                        -43.46838370118955,
                        62.85906940249771
                    ],
                    [
                        -43.4661741077557,
                        62.85685618188524
                    ],
                    [
                        -43.464131770655776,
                        62.854644986731834
                    ],
                    [
                        -43.46241047631573,
                        62.852437711950515
                    ],
                    [
                        -43.46102549978766,
                        62.85023455918829
                    ],
                    [
                        -43.45982723787848,
                        62.84803370237865
                    ],
                    [
                        -43.45899519014246,
                        62.84583735446653
                    ],
                    [
                        -43.45849006582794,
                        62.843645040493165
                    ],
                    [
                        -43.45819009400968,
                        62.84145526719775
                    ],
                    [
                        -43.45792953609123,
                        62.839265997110694
                    ],
                    [
                        -43.45762813808858,
                        62.83707624272139
                    ],
                    [
                        -43.45722411714758,
                        62.834885242862065
                    ],
                    [
                        -43.45667229232286,
                        62.83269243967933
                    ],
                    [
                        -43.45590340885194,
                        62.83049697718892
                    ],
                    [
                        -43.45488331366714,
                        62.82829842951215
                    ],
                    [
                        -43.45359507043865,
                        62.82609658071014
                    ],
                    [
                        -43.45208444728004,
                        62.823891987432745
                    ],
                    [
                        -43.45040801367176,
                        62.82168534099485
                    ],
                    [
                        -43.44860256996906,
                        62.819477090195754
                    ],
                    [
                        -43.446723697334484,
                        62.81726791858528
                    ],
                    [
                        -43.44483629825429,
                        62.8150586288186
                    ],
                    [
                        -43.44300422121292,
                        62.812850014555934
                    ],
                    [
                        -43.441259268542154,
                        62.81064247436816
                    ],
                    [
                        -43.439593529756976,
                        62.80843591353094
                    ],
                    [
                        -43.43797996692662,
                        62.80622999800807
                    ],
                    [
                        -43.43639993626233,
                        62.80402449704362
                    ],
                    [
                        -43.43486109200323,
                        62.801819507726435
                    ],
                    [
                        -43.433409083758505,
                        62.79961560318235
                    ],
                    [
                        -43.43209233180724,
                        62.79741339341254
                    ],
                    [
                        -43.43097664764408,
                        62.79521370837885
                    ],
                    [
                        -43.4300714362561,
                        62.79301667204621
                    ],
                    [
                        -43.42937644171297,
                        62.7908222863644
                    ],
                    [
                        -43.42894305076229,
                        62.78863120082439
                    ],
                    [
                        -43.42878827414825,
                        62.78644363256421
                    ],
                    [
                        -43.42886743168428,
                        62.78425902214558
                    ],
                    [
                        -43.4290689657571,
                        62.78207596854096
                    ],
                    [
                        -43.42929453257836,
                        62.77989323631764
                    ],
                    [
                        -43.429400465725486,
                        62.77770902099689
                    ],
                    [
                        -43.42923642014708,
                        62.77552143391618
                    ],
                    [
                        -43.428624112006204,
                        62.77332823263591
                    ],
                    [
                        -43.427513706841296,
                        62.771128782486066
                    ],
                    [
                        -43.42588990994387,
                        62.7689228761883
                    ],
                    [
                        -43.42375478430756,
                        62.76671051828389
                    ],
                    [
                        -43.421118280788306,
                        62.76449180679898
                    ],
                    [
                        -43.417968644090415,
                        62.76226655974327
                    ],
                    [
                        -43.41399966202158,
                        62.76003085098959
                    ],
                    [
                        -43.40934243231912,
                        62.7582055269747
                    ],
                    [
                        -43.40465053271528,
                        62.75696135150211
                    ],
                    [
                        -43.399935322921166,
                        62.75610685570788
                    ],
                    [
                        -43.39520461461207,
                        62.75551081257805
                    ],
                    [
                        -43.3904620658791,
                        62.75511127472483
                    ],
                    [
                        -43.385710599577024,
                        62.754858969977384
                    ],
                    [
                        -43.38095313485944,
                        62.754705257474875
                    ],
                    [
                        -43.37619216844663,
                        62.75460889436688
                    ],
                    [
                        -43.37143017814397,
                        62.75452942364715
                    ],
                    [
                        -43.36666895308503,
                        62.75443793194106
                    ],
                    [
                        -43.361909048760815,
                        62.75432561839198
                    ],
                    [
                        -43.357151288946724,
                        62.754179495551476
                    ],
                    [
                        -43.35239688434976,
                        62.75398055845801
                    ],
                    [
                        -43.347646548709555,
                        62.75371791826004
                    ],
                    [
                        -43.342900607249064,
                        62.75338696687657
                    ],
                    [
                        -43.338158109589294,
                        62.75300330540753
                    ],
                    [
                        -43.3334191964174,
                        62.75256516453708
                    ],
                    [
                        -43.32868155267314,
                        62.75210938226936
                    ],
                    [
                        -43.323940705054746,
                        62.75170619951975
                    ],
                    [
                        -43.31919545181307,
                        62.751373949831
                    ],
                    [
                        -43.31444489467715,
                        62.75112603161525
                    ],
                    [
                        -43.309687845376295,
                        62.75098019748962
                    ],
                    [
                        -43.30492505863194,
                        62.750923895132715
                    ],
                    [
                        -43.30015565891893,
                        62.75096989847448
                    ],
                    [
                        -43.29537432686956,
                        62.75119930091243
                    ],
                    [
                        -43.29057770678291,
                        62.7516621118813
                    ],
                    [
                        -43.28576409807763,
                        62.752382411515995
                    ],
                    [
                        -43.2809352793013,
                        62.75333084682519
                    ],
                    [
                        -43.276094251300314,
                        62.754459766268596
                    ],
                    [
                        -43.2712436235886,
                        62.75572799469862
                    ],
                    [
                        -43.266406368662814,
                        62.75678640257322
                    ],
                    [
                        -43.2615782050132,
                        62.75770142991502
                    ],
                    [
                        -43.256751889163034,
                        62.75858337743641
                    ],
                    [
                        -43.25193028522732,
                        62.759389504306746
                    ],
                    [
                        -43.24711504198244,
                        62.76009574705404
                    ],
                    [
                        -43.24230602367406,
                        62.76070496106569
                    ],
                    [
                        -43.23750293478894,
                        62.76122234807501
                    ],
                    [
                        -43.232702947203975,
                        62.76169067215289
                    ],
                    [
                        -43.22790198998336,
                        62.762170641365756
                    ],
                    [
                        -43.2230971337377,
                        62.76270543822311
                    ],
                    [
                        -43.218287122449446,
                        62.7633131208274
                    ],
                    [
                        -43.2134727335361,
                        62.76398167190203
                    ],
                    [
                        -43.208658370134394,
                        62.76464607362454
                    ],
                    [
                        -43.2038543627255,
                        62.76515538830011
                    ],
                    [
                        -43.199061885038034,
                        62.76549375796427
                    ],
                    [
                        -43.16188137663625,
                        62.76938656401904
                    ],
                    [
                        -43.12468985631543,
                        62.773268372857835
                    ],
                    [
                        -43.087487350537806,
                        62.77713917904132
                    ],
                    [
                        -43.05027388581836,
                        62.78099897714263
                    ],
                    [
                        -43.01304948872465,
                        62.78484776174731
                    ],
                    [
                        -42.97581418587676,
                        62.788685527453346
                    ],
                    [
                        -42.93856800394722,
                        62.79251226887125
                    ],
                    [
                        -42.901310969660955,
                        62.79632798062407
                    ],
                    [
                        -42.86404310979514,
                        62.80013265734737
                    ],
                    [
                        -42.82676445117917,
                        62.803926293689365
                    ],
                    [
                        -42.78947502069458,
                        62.80770888431085
                    ],
                    [
                        -42.75217484527491,
                        62.81148042388527
                    ],
                    [
                        -42.71486395190567,
                        62.8152409070988
                    ],
                    [
                        -42.67754236762425,
                        62.818990328650266
                    ],
                    [
                        -42.6402101195198,
                        62.82272868325127
                    ],
                    [
                        -42.6028672347332,
                        62.826455965626224
                    ],
                    [
                        -42.565513740456936,
                        62.830172170512284
                    ],
                    [
                        -42.528149663935004,
                        62.8338772926595
                    ],
                    [
                        -42.49077503246287,
                        62.83757132683072
                    ],
                    [
                        -42.45338987338732,
                        62.841254267801745
                    ]
                ]
            }
        }
    ]
}
