{
    "type": "FeatureCollection",
    "features": [
        {
            "type": "Feature",
            "properties": {
                "name": "Greenland Glacier 0221",
                "object": "transect",
                "component": "landice",
                "author": "Matthew Hoffman, converted from Felikson et al. (2020) Zenodo dataset",
                "tags": "Greenland_Ice_Sheet;flowline;zenodo_4284759;glacier_0221;heimdal_gletsjer",
                "citation": "Felikson, Denis, Catania, Ginny, Bartholomaus, Timothy, Morlighem, Mathieu, & No\u00ebl, Brice. (2020). Inland limits to diffusion of thinning along Greenland Ice Sheet outlet glaciers (v1.0) [Data set]. Zenodo. https://doi.org/10.5281/zenodo.4284759",
                "license": "CC-BY-4.0",
                "officialName": "Heimdal Gletsjer",
                "foreignName": "Heimdal Gletsjer"
            },
            "geometry": {
                "type": "LineString",
                "coordinates": [
                    [
                        -44.44051418167041,
                        63.61742427566934
                    ],
                    [
                        -44.44107231366642,
                        63.6152345192473
                    ],
                    [
                        -44.44154900493337,
                        63.61304442650163
                    ],
                    [
                        -44.44479507848314,
                        63.61086632487393
                    ],
                    [
                        -44.448198681246254,
                        63.60868883788709
                    ],
                    [
                        -44.45301735596314,
                        63.60651730335902
                    ],
                    [
                        -44.45795634690552,
                        63.60584296178811
                    ],
                    [
                        -44.462912006277556,
                        63.604364509751804
                    ],
                    [
                        -44.46298276112413,
                        63.60217274567882
                    ],
                    [
                        -44.466205942419755,
                        63.59999411567744
                    ],
                    [
                        -44.47113955483504,
                        63.59950097724321
                    ],
                    [
                        -44.47606922395747,
                        63.59919035822327
                    ],
                    [
                        -44.48101082173906,
                        63.59828731729067
                    ],
                    [
                        -44.48597073455823,
                        63.596457750163005
                    ],
                    [
                        -44.4909221134505,
                        63.59502005510199
                    ],
                    [
                        -44.49550356230146,
                        63.592846133576266
                    ],
                    [
                        -44.50045150558823,
                        63.5915203461996
                    ],
                    [
                        -44.505389643163916,
                        63.59067374374327
                    ],
                    [
                        -44.51033428785402,
                        63.589470769483306
                    ],
                    [
                        -44.5152838252492,
                        63.58798547268742
                    ],
                    [
                        -44.520228134394465,
                        63.5867474613175
                    ],
                    [
                        -44.525173141862396,
                        63.58544594719264
                    ],
                    [
                        -44.53011970845138,
                        63.58403216468037
                    ],
                    [
                        -44.535064596216856,
                        63.582680282164134
                    ],
                    [
                        -44.54001058842857,
                        63.581237861767306
                    ],
                    [
                        -44.5449586669839,
                        63.579646860550724
                    ],
                    [
                        -44.54991088689061,
                        63.57778580080116
                    ],
                    [
                        -44.55346241024912,
                        63.575606383568555
                    ],
                    [
                        -44.55709200222028,
                        63.5734271580832
                    ],
                    [
                        -44.561151851174245,
                        63.571249320511996
                    ],
                    [
                        -44.56553073912335,
                        63.569072454548724
                    ],
                    [
                        -44.56976357381073,
                        63.56689497189172
                    ],
                    [
                        -44.57409093346029,
                        63.56471768427567
                    ],
                    [
                        -44.57827241135915,
                        63.56253979352345
                    ],
                    [
                        -44.582908472647055,
                        63.56036326405066
                    ],
                    [
                        -44.58693342801343,
                        63.558184625618935
                    ],
                    [
                        -44.59044498808916,
                        63.556004246662845
                    ],
                    [
                        -44.59432357053969,
                        63.553824951871874
                    ],
                    [
                        -44.598247984950866,
                        63.551645704203594
                    ],
                    [
                        -44.60126671746352,
                        63.549463549489225
                    ],
                    [
                        -44.60416001539892,
                        63.54728095778138
                    ],
                    [
                        -44.607305028512044,
                        63.5450990911282
                    ],
                    [
                        -44.61057467978117,
                        63.54291754593547
                    ],
                    [
                        -44.613453353797404,
                        63.540734761758756
                    ],
                    [
                        -44.61607342681777,
                        63.538551160462305
                    ],
                    [
                        -44.61878730657982,
                        63.536367804458145
                    ],
                    [
                        -44.62111227985049,
                        63.534183264227636
                    ],
                    [
                        -44.62323349764932,
                        63.53199810413831
                    ],
                    [
                        -44.62561018854863,
                        63.52981367430855
                    ],
                    [
                        -44.62797561868987,
                        63.52762918791449
                    ],
                    [
                        -44.629997259450086,
                        63.52544368738952
                    ],
                    [
                        -44.63174159262597,
                        63.523257379523564
                    ],
                    [
                        -44.63369988971667,
                        63.52107167864169
                    ],
                    [
                        -44.63575330949247,
                        63.51888623779939
                    ],
                    [
                        -44.637364640432644,
                        63.516699535324314
                    ],
                    [
                        -44.6385301907593,
                        63.51451157717853
                    ],
                    [
                        -44.639859576750425,
                        63.51232408799661
                    ],
                    [
                        -44.641503564059896,
                        63.51013748421143
                    ],
                    [
                        -44.64336360100255,
                        63.5079514799582
                    ],
                    [
                        -44.645469554620256,
                        63.505766148531926
                    ],
                    [
                        -44.64745295284067,
                        63.50358046561503
                    ],
                    [
                        -44.64936218881151,
                        63.50139456913542
                    ],
                    [
                        -44.65130341086647,
                        63.49920875104322
                    ],
                    [
                        -44.65300523339053,
                        63.49702227576238
                    ],
                    [
                        -44.654326636440864,
                        63.49483477254434
                    ],
                    [
                        -44.65581379795108,
                        63.49264772040711
                    ],
                    [
                        -44.6573005171761,
                        63.49046066948206
                    ],
                    [
                        -44.6596869575111,
                        63.488276012793726
                    ],
                    [
                        -44.662464312417605,
                        63.486092361729945
                    ],
                    [
                        -44.66529832038775,
                        63.48390881860565
                    ],
                    [
                        -44.66812076838779,
                        63.48172520305012
                    ],
                    [
                        -44.67162059052598,
                        63.479543283116534
                    ],
                    [
                        -44.67654747469065,
                        63.47742305393901
                    ],
                    [
                        -44.6798309436226,
                        63.47524040394906
                    ],
                    [
                        -44.682347575676495,
                        63.47305579107874
                    ],
                    [
                        -44.68467977930121,
                        63.47087069494884
                    ],
                    [
                        -44.686845966274134,
                        63.46868517053146
                    ],
                    [
                        -44.68976718004956,
                        63.46650146030547
                    ],
                    [
                        -44.69397445051543,
                        63.464320782974006
                    ],
                    [
                        -44.69816273695103,
                        63.462139943279006
                    ],
                    [
                        -44.701725114526575,
                        63.45995753079635
                    ],
                    [
                        -44.70508536675935,
                        63.457774574159885
                    ],
                    [
                        -44.70802231563515,
                        63.455590584965634
                    ],
                    [
                        -44.71103500257707,
                        63.45340671945133
                    ],
                    [
                        -44.71384715963182,
                        63.4512223550572
                    ],
                    [
                        -44.71631428160445,
                        63.4490371847145
                    ],
                    [
                        -44.71831033633688,
                        63.44685095088346
                    ],
                    [
                        -44.72008240935854,
                        63.44466421598943
                    ],
                    [
                        -44.721649930900924,
                        63.44247703148054
                    ],
                    [
                        -44.72306092267512,
                        63.44028950870161
                    ],
                    [
                        -44.724258878821985,
                        63.43810153099595
                    ],
                    [
                        -44.725377782241424,
                        63.4359133918849
                    ],
                    [
                        -44.7266168810664,
                        63.43372551931783
                    ],
                    [
                        -44.7280224931894,
                        63.431538008340866
                    ],
                    [
                        -44.729752066001204,
                        63.429351186273195
                    ],
                    [
                        -44.73165981375222,
                        63.42716473436723
                    ],
                    [
                        -44.733562856637114,
                        63.424978263890814
                    ],
                    [
                        -44.73583159807809,
                        63.42279254068788
                    ],
                    [
                        -44.73824404933142,
                        63.420607091268316
                    ],
                    [
                        -44.7404047623464,
                        63.41842110535018
                    ],
                    [
                        -44.74256071617053,
                        63.41623509308663
                    ],
                    [
                        -44.74433205359171,
                        63.41404829565687
                    ],
                    [
                        -44.74580768027899,
                        63.411860905672015
                    ],
                    [
                        -44.747026158737086,
                        63.40967300955368
                    ],
                    [
                        -44.74794616607094,
                        63.40748453305754
                    ],
                    [
                        -44.74861948267682,
                        63.405295584345296
                    ],
                    [
                        -44.74911217641673,
                        63.40310629691968
                    ],
                    [
                        -44.749441802802615,
                        63.40091670721085
                    ],
                    [
                        -44.74946612285276,
                        63.3987265376087
                    ],
                    [
                        -44.74926092799139,
                        63.39653593690623
                    ],
                    [
                        -44.74898760042327,
                        63.39434522106191
                    ],
                    [
                        -44.748778904822764,
                        63.39215465075497
                    ],
                    [
                        -44.74860177184829,
                        63.389964161256295
                    ],
                    [
                        -44.74847241478766,
                        63.38777378464037
                    ],
                    [
                        -44.74847125038672,
                        63.38558367946722
                    ],
                    [
                        -44.74856812273216,
                        63.38339378643466
                    ],
                    [
                        -44.74865572726565,
                        63.38120389421545
                    ],
                    [
                        -44.74871512483925,
                        63.37901396555745
                    ],
                    [
                        -44.74877053225076,
                        63.37682404813946
                    ],
                    [
                        -44.748692873496594,
                        63.37463388796569
                    ],
                    [
                        -44.74855437665475,
                        63.37244362701378
                    ],
                    [
                        -44.74864362731206,
                        63.37025383361907
                    ],
                    [
                        -44.74878818374881,
                        63.368064168151086
                    ],
                    [
                        -44.74868407546055,
                        63.3658740322883
                    ],
                    [
                        -44.748265314270746,
                        63.363683295170254
                    ],
                    [
                        -44.74785414667862,
                        63.36149259066558
                    ],
                    [
                        -44.74742690402557,
                        63.359301872006505
                    ],
                    [
                        -44.74690623406097,
                        63.35711098561682
                    ],
                    [
                        -44.74662160708916,
                        63.354920585041846
                    ],
                    [
                        -44.74659504708327,
                        63.35273071571768
                    ],
                    [
                        -44.74674396686576,
                        63.3505412139927
                    ],
                    [
                        -44.74711743184579,
                        63.34835217661493
                    ],
                    [
                        -44.747018795300136,
                        63.346162221872305
                    ],
                    [
                        -44.746680766500965,
                        63.34397181088157
                    ],
                    [
                        -44.74646814736534,
                        63.34178166739567
                    ],
                    [
                        -44.74621360208479,
                        63.33959145917951
                    ],
                    [
                        -44.74563891874072,
                        63.33740063127624
                    ],
                    [
                        -44.74501832611635,
                        63.33520972792904
                    ],
                    [
                        -44.74448828027406,
                        63.33301902200286
                    ],
                    [
                        -44.74432927275065,
                        63.33082907752663
                    ],
                    [
                        -44.74416934542947,
                        63.32863915008692
                    ],
                    [
                        -44.74396066333267,
                        63.32644914360013
                    ],
                    [
                        -44.74353442539449,
                        63.32425871824285
                    ],
                    [
                        -44.7430094375203,
                        63.322068111366704
                    ],
                    [
                        -44.74251055929274,
                        63.31987757406142
                    ],
                    [
                        -44.74199015330824,
                        63.31768701019656
                    ],
                    [
                        -44.7418362585579,
                        63.31549720634244
                    ],
                    [
                        -44.74175931336485,
                        63.31330757739191
                    ],
                    [
                        -44.74058232643109,
                        63.31111573216631
                    ],
                    [
                        -44.739457449368956,
                        63.30892400143605
                    ],
                    [
                        -44.739268053075214,
                        63.3067341979297
                    ],
                    [
                        -44.739337540642055,
                        63.30454494332444
                    ],
                    [
                        -44.73945569410325,
                        63.302355807420135
                    ],
                    [
                        -44.73935938053523,
                        63.30016625180935
                    ],
                    [
                        -44.73887786613498,
                        63.29797592589887
                    ],
                    [
                        -44.73669236936554,
                        63.29578210471412
                    ],
                    [
                        -44.73459748219556,
                        63.293588453395635
                    ],
                    [
                        -44.73308153255607,
                        63.29139600126195
                    ],
                    [
                        -44.73065154177181,
                        63.28920161896958
                    ],
                    [
                        -44.72762940545752,
                        63.287005942937185
                    ],
                    [
                        -44.724644102913075,
                        63.28481029301254
                    ],
                    [
                        -44.719800913212,
                        63.2829765209837
                    ],
                    [
                        -44.71570279284769,
                        63.280778239124665
                    ],
                    [
                        -44.7121338065176,
                        63.27858104118655
                    ],
                    [
                        -44.70877266986849,
                        63.27638423697935
                    ],
                    [
                        -44.705572247347185,
                        63.27418773399284
                    ],
                    [
                        -44.701199159636836,
                        63.27198841967427
                    ],
                    [
                        -44.69636198342379,
                        63.26998890596602
                    ],
                    [
                        -44.69152654882586,
                        63.267906227312984
                    ],
                    [
                        -44.68668918931917,
                        63.26604623672484
                    ],
                    [
                        -44.68184645544739,
                        63.26467864668047
                    ],
                    [
                        -44.67700219458782,
                        63.263473916849634
                    ],
                    [
                        -44.67215912436209,
                        63.262210868229886
                    ],
                    [
                        -44.66731756368294,
                        63.260867287268326
                    ],
                    [
                        -44.6624788818291,
                        63.25934189174537
                    ],
                    [
                        -44.65764524270241,
                        63.25747917471619
                    ],
                    [
                        -44.652809600302774,
                        63.2558171275102
                    ],
                    [
                        -44.647967669724515,
                        63.254661778507035
                    ],
                    [
                        -44.643122740446735,
                        63.25375456216227
                    ],
                    [
                        -44.6382796794976,
                        63.252738100452525
                    ],
                    [
                        -44.63343681230315,
                        63.251734670657875
                    ],
                    [
                        -44.62859062094265,
                        63.25098834909268
                    ],
                    [
                        -44.623741632159906,
                        63.25045306498948
                    ],
                    [
                        -44.61889325915592,
                        63.249889495574074
                    ],
                    [
                        -44.614050048512134,
                        63.248994487203476
                    ],
                    [
                        -44.60920965549465,
                        63.24793528181397
                    ],
                    [
                        -44.6043681205633,
                        63.246976358867286
                    ],
                    [
                        -44.5995213207974,
                        63.246379974964206
                    ],
                    [
                        -44.59466846346327,
                        63.24618365448961
                    ],
                    [
                        -44.589811550885244,
                        63.24624713079505
                    ],
                    [
                        -44.584953042114954,
                        63.2464082631614
                    ],
                    [
                        -44.580094335121004,
                        63.246577675245526
                    ],
                    [
                        -44.57523533676481,
                        63.24676074354709
                    ],
                    [
                        -44.570375509178184,
                        63.246989335351365
                    ],
                    [
                        -44.56551523378182,
                        63.24723924799611
                    ],
                    [
                        -44.560655602621786,
                        63.24744557813015
                    ],
                    [
                        -44.555797590440925,
                        63.247553084189136
                    ],
                    [
                        -44.55094055664797,
                        63.24760181331293
                    ],
                    [
                        -44.54608337214225,
                        63.247657890812675
                    ],
                    [
                        -44.541224793834814,
                        63.247791057422944
                    ],
                    [
                        -44.53636389292647,
                        63.248050621916335
                    ],
                    [
                        -44.531501110246836,
                        63.24840834482246
                    ],
                    [
                        -44.52663676656525,
                        63.24884369554964
                    ],
                    [
                        -44.521770070030016,
                        63.249397058641364
                    ],
                    [
                        -44.516902641725515,
                        63.249978205479074
                    ],
                    [
                        -44.512036611556745,
                        63.25047358675949
                    ],
                    [
                        -44.507170628850716,
                        63.25095651547911
                    ],
                    [
                        -44.50230285587318,
                        63.251522702355906
                    ],
                    [
                        -44.49743276929289,
                        63.25219660889442
                    ],
                    [
                        -44.49256121115966,
                        63.25293227632471
                    ],
                    [
                        -44.48769064790792,
                        63.25360362917044
                    ],
                    [
                        -44.482821738625844,
                        63.25417958209043
                    ],
                    [
                        -44.477951660093225,
                        63.25480243625847
                    ],
                    [
                        -44.47307645221876,
                        63.25566492315937
                    ],
                    [
                        -44.46819493743116,
                        63.25681759456786
                    ],
                    [
                        -44.46331386543324,
                        63.2579278180522
                    ],
                    [
                        -44.458436420874605,
                        63.258844936980246
                    ],
                    [
                        -44.45356065668283,
                        63.259666119671486
                    ],
                    [
                        -44.448684662148175,
                        63.26048338039808
                    ],
                    [
                        -44.44380801138481,
                        63.261316585145686
                    ],
                    [
                        -44.43893133865353,
                        63.26213613435353
                    ],
                    [
                        -44.434053499213725,
                        63.26299458822979
                    ],
                    [
                        -44.42917316041516,
                        63.263951200382614
                    ],
                    [
                        -44.424293149674284,
                        63.26487670504412
                    ],
                    [
                        -44.41941540263259,
                        63.26568584067664
                    ],
                    [
                        -44.41453986167176,
                        63.266384062765766
                    ],
                    [
                        -44.409665170614566,
                        63.267033413352145
                    ],
                    [
                        -44.40478988642502,
                        63.26769766156186
                    ],
                    [
                        -44.39991376024292,
                        63.2683871430853
                    ],
                    [
                        -44.39503821556414,
                        63.26904052149291
                    ],
                    [
                        -44.39016317538309,
                        63.26966192139266
                    ],
                    [
                        -44.38528719440861,
                        63.27031277485694
                    ],
                    [
                        -44.38040948998416,
                        63.27102497761966
                    ],
                    [
                        -44.37553176142236,
                        63.27172686861157
                    ],
                    [
                        -44.37065551096413,
                        63.27235709490788
                    ],
                    [
                        -44.36578024961935,
                        63.27293720598434
                    ],
                    [
                        -44.36090521380753,
                        63.27349917740847
                    ],
                    [
                        -44.35603037741225,
                        63.274044466635075
                    ],
                    [
                        -44.35115626513114,
                        63.27455258447872
                    ],
                    [
                        -44.34628304151435,
                        63.275017868207
                    ],
                    [
                        -44.34140865018784,
                        63.27552182651219
                    ],
                    [
                        -44.33653117929023,
                        63.276137947130685
                    ],
                    [
                        -44.331652163353176,
                        63.27680453120346
                    ],
                    [
                        -44.326774031838475,
                        63.277427378752485
                    ],
                    [
                        -44.32189648159764,
                        63.27801896746742
                    ],
                    [
                        -44.3170183063515,
                        63.27862552982267
                    ],
                    [
                        -44.312139413969604,
                        63.279250199483556
                    ],
                    [
                        -44.30725988791838,
                        63.27988948264697
                    ],
                    [
                        -44.30237932205233,
                        63.28055808739238
                    ],
                    [
                        -44.29749791249365,
                        63.28124819725951
                    ],
                    [
                        -44.292616471635895,
                        63.28192974038527
                    ],
                    [
                        -44.28773632260844,
                        63.2825549766872
                    ],
                    [
                        -44.28285829987458,
                        63.28309504497735
                    ],
                    [
                        -44.27798147211053,
                        63.28358494408591
                    ],
                    [
                        -44.273105563024124,
                        63.28403548831956
                    ],
                    [
                        -44.26823176625613,
                        63.28440539403815
                    ],
                    [
                        -44.26336036373395,
                        63.2846863926713
                    ],
                    [
                        -44.25848880977366,
                        63.28496878181827
                    ],
                    [
                        -44.25361414627305,
                        63.28535474818833
                    ],
                    [
                        -44.24873684625318,
                        63.28582603132956
                    ],
                    [
                        -44.2438591209889,
                        63.286305554134906
                    ],
                    [
                        -44.23898155938245,
                        63.28677319944771
                    ],
                    [
                        -44.23410420486892,
                        63.28722773073381
                    ],
                    [
                        -44.229228174917715,
                        63.28763200761434
                    ],
                    [
                        -44.22435482157709,
                        63.28794202631936
                    ],
                    [
                        -44.21948455912845,
                        63.28814586651034
                    ],
                    [
                        -44.21461731298691,
                        63.28824795369861
                    ],
                    [
                        -44.20975263238343,
                        63.28826487802151
                    ],
                    [
                        -44.20488908325531,
                        63.2882447131617
                    ],
                    [
                        -44.20002683996455,
                        63.28818251371089
                    ],
                    [
                        -44.19516680318311,
                        63.28805018127582
                    ],
                    [
                        -44.190308715300475,
                        63.28785718159832
                    ],
                    [
                        -44.185451098274804,
                        63.28765139253834
                    ],
                    [
                        -44.18059306609106,
                        63.28746092510098
                    ],
                    [
                        -44.17573583748488,
                        63.287247376957
                    ],
                    [
                        -44.170880746664345,
                        63.286969652898726
                    ],
                    [
                        -44.16602837993432,
                        63.28661074034554
                    ],
                    [
                        -44.161177679322044,
                        63.286204571723694
                    ],
                    [
                        -44.15632630632089,
                        63.28582344419055
                    ],
                    [
                        -44.15147340656501,
                        63.28549289566871
                    ],
                    [
                        -44.1466208782582,
                        63.2851546969784
                    ],
                    [
                        -44.14177057299716,
                        63.28475333380313
                    ],
                    [
                        -44.13692184932741,
                        63.28430903588954
                    ],
                    [
                        -44.132073979100895,
                        63.28384415765358
                    ],
                    [
                        -44.127227795894065,
                        63.2833344061059
                    ],
                    [
                        -44.12238418894618,
                        63.28275438692527
                    ],
                    [
                        -44.117543340862035,
                        63.28209991444953
                    ],
                    [
                        -44.11270390931716,
                        63.28141122243397
                    ],
                    [
                        -44.107863309787646,
                        63.28076359023373
                    ],
                    [
                        -44.103021683989155,
                        63.2801522788802
                    ],
                    [
                        -44.09818037309956,
                        63.2795383416341
                    ],
                    [
                        -44.093339892841726,
                        63.27890714589748
                    ],
                    [
                        -44.08850028479623,
                        63.278257787355216
                    ],
                    [
                        -44.083661329200886,
                        63.2775967379902
                    ],
                    [
                        -44.07882279515362,
                        63.27693064624784
                    ],
                    [
                        -44.073985075212896,
                        63.276248652976065
                    ],
                    [
                        -44.0691493173532,
                        63.275519187158466
                    ],
                    [
                        -44.064315441071045,
                        63.27474519958616
                    ],
                    [
                        -44.059481604674716,
                        63.27397789277354
                    ],
                    [
                        -44.05464734230302,
                        63.27322987757102
                    ],
                    [
                        -44.0498131062882,
                        63.27248857678181
                    ],
                    [
                        -44.04497901189431,
                        63.27175077330227
                    ],
                    [
                        -44.04014593837796,
                        63.27099277697029
                    ],
                    [
                        -44.035315031758444,
                        63.27018423453162
                    ],
                    [
                        -44.03048541110807,
                        63.26934934228753
                    ],
                    [
                        -44.025655920441736,
                        63.2685191037823
                    ],
                    [
                        -44.02082809037373,
                        63.2676531103697
                    ],
                    [
                        -44.016003724236114,
                        63.26670458919613
                    ],
                    [
                        -44.011181200207275,
                        63.26571706674874
                    ],
                    [
                        -44.006358818393295,
                        63.264735257102814
                    ],
                    [
                        -44.00153589753551,
                        63.26377668582602
                    ],
                    [
                        -43.996711821606304,
                        63.262856865638796
                    ],
                    [
                        -43.99188681225182,
                        63.26196956728978
                    ],
                    [
                        -43.98706295706232,
                        63.261061132030505
                    ],
                    [
                        -43.982241353783934,
                        63.26010401603076
                    ],
                    [
                        -43.97742103501396,
                        63.25912332171619
                    ],
                    [
                        -43.97259922125446,
                        63.25818921297998
                    ],
                    [
                        -43.96777468009014,
                        63.25733186070207
                    ],
                    [
                        -43.962947819895575,
                        63.25654003295633
                    ],
                    [
                        -43.95812006666223,
                        63.255777489251436
                    ],
                    [
                        -43.95329206104548,
                        63.255028023724996
                    ],
                    [
                        -43.948463114393775,
                        63.25430836351344
                    ],
                    [
                        -43.94363221180137,
                        63.253642905098886
                    ],
                    [
                        -43.938799970446574,
                        63.25301589500943
                    ],
                    [
                        -43.93396703543347,
                        63.252411187451386
                    ],
                    [
                        -43.92913331928519,
                        63.25183058973779
                    ],
                    [
                        -43.92429913138165,
                        63.251266351112925
                    ],
                    [
                        -43.9194645445065,
                        63.250716512572524
                    ],
                    [
                        -43.91462895774617,
                        63.25019517694593
                    ],
                    [
                        -43.90979134196088,
                        63.249726340052256
                    ],
                    [
                        -43.904952260025915,
                        63.24929603477168
                    ],
                    [
                        -43.90011422500097,
                        63.248844754631016
                    ],
                    [
                        -43.89527849994743,
                        63.24834325000236
                    ],
                    [
                        -43.890444406123464,
                        63.247807970476835
                    ],
                    [
                        -43.885611156194955,
                        63.24725759728779
                    ],
                    [
                        -43.88077896134282,
                        63.24668745156389
                    ],
                    [
                        -43.87594809361877,
                        63.24609153598023
                    ],
                    [
                        -43.87111866120998,
                        63.24546770385359
                    ],
                    [
                        -43.86629081913334,
                        63.244812777930605
                    ],
                    [
                        -43.86146288856541,
                        63.24416523193395
                    ],
                    [
                        -43.8566334693446,
                        63.24355659851558
                    ],
                    [
                        -43.85180431548719,
                        63.24294693416085
                    ],
                    [
                        -43.84697687645004,
                        63.24230378332409
                    ],
                    [
                        -43.84215100435395,
                        63.241630860348444
                    ],
                    [
                        -43.83732561122724,
                        63.24095270188655
                    ],
                    [
                        -43.83250039401189,
                        63.24027607604333
                    ],
                    [
                        -43.827675868647795,
                        63.23958959521543
                    ],
                    [
                        -43.82285193388235,
                        63.23889560056081
                    ],
                    [
                        -43.818028551461936,
                        63.2381950184105
                    ],
                    [
                        -43.81320527975665,
                        63.23749753988239
                    ],
                    [
                        -43.80838088875439,
                        63.23682979070297
                    ],
                    [
                        -43.80355429177681,
                        63.236214874653086
                    ],
                    [
                        -43.7987259866078,
                        63.23564145232108
                    ],
                    [
                        -43.79389887410011,
                        63.23504689331008
                    ],
                    [
                        -43.78907556133289,
                        63.23437582830309
                    ],
                    [
                        -43.78425452546492,
                        63.23366152235798
                    ],
                    [
                        -43.779433427757766,
                        63.232953987083434
                    ],
                    [
                        -43.77461148642173,
                        63.23226962505656
                    ],
                    [
                        -43.769788289738116,
                        63.231616811013254
                    ],
                    [
                        -43.7649629528441,
                        63.23101368763124
                    ],
                    [
                        -43.76013540060668,
                        63.230461242343154
                    ],
                    [
                        -43.75530750596278,
                        63.22992000801581
                    ],
                    [
                        -43.750481104030875,
                        63.2293519066226
                    ],
                    [
                        -43.745656632428016,
                        63.22874823116785
                    ],
                    [
                        -43.74083420055407,
                        63.22810714248983
                    ],
                    [
                        -43.736013574877546,
                        63.22743383960701
                    ],
                    [
                        -43.73119314318565,
                        63.226761520954135
                    ],
                    [
                        -43.72637134657178,
                        63.226121803623144
                    ],
                    [
                        -43.72154776546711,
                        63.22552280058895
                    ],
                    [
                        -43.71672356154742,
                        63.22494066080629
                    ],
                    [
                        -43.71189912617402,
                        63.22436734311098
                    ],
                    [
                        -43.70707309724882,
                        63.22382997395088
                    ],
                    [
                        -43.70224363404184,
                        63.22336480942181
                    ],
                    [
                        -43.69741185837564,
                        63.222948791466365
                    ],
                    [
                        -43.692581111797,
                        63.222515323205656
                    ],
                    [
                        -43.68775269871059,
                        63.22203890581872
                    ],
                    [
                        -43.68292569465769,
                        63.221538149525365
                    ],
                    [
                        -43.67809949566512,
                        63.22102512761834
                    ],
                    [
                        -43.67327433888117,
                        63.22049535263878
                    ],
                    [
                        -43.66844992226552,
                        63.21995486779204
                    ],
                    [
                        -43.66362567789789,
                        63.219414771736936
                    ],
                    [
                        -43.6588017033616,
                        63.21887317883625
                    ],
                    [
                        -43.65397826182721,
                        63.21832505058847
                    ],
                    [
                        -43.649155976644956,
                        63.21775852814226
                    ],
                    [
                        -43.64433610601587,
                        63.21714981568747
                    ],
                    [
                        -43.63951889189201,
                        63.21649476115624
                    ],
                    [
                        -43.634703210541545,
                        63.21581512726288
                    ],
                    [
                        -43.62988792561487,
                        63.215132610427204
                    ],
                    [
                        -43.625072980904115,
                        63.21444829657629
                    ],
                    [
                        -43.6202588306833,
                        63.213753691956825
                    ],
                    [
                        -43.61544482765983,
                        63.21306098831765
                    ],
                    [
                        -43.61063115950238,
                        63.21236667301998
                    ],
                    [
                        -43.605818261370935,
                        63.21166269222936
                    ],
                    [
                        -43.60100691440874,
                        63.21093470829931
                    ],
                    [
                        -43.596196833135174,
                        63.21018822316084
                    ],
                    [
                        -43.591386636069196,
                        63.20944878109371
                    ],
                    [
                        -43.58657576769093,
                        63.208726471801945
                    ],
                    [
                        -43.58176410807753,
                        63.2080233075112
                    ],
                    [
                        -43.57695315206936,
                        63.207311933000234
                    ],
                    [
                        -43.57214339866073,
                        63.20658339328405
                    ],
                    [
                        -43.56733370036097,
                        63.205858570079016
                    ],
                    [
                        -43.562523708647426,
                        63.20514369494382
                    ],
                    [
                        -43.55771487874296,
                        63.20441257678865
                    ],
                    [
                        -43.5529085606794,
                        63.20364124992302
                    ],
                    [
                        -43.548104065074696,
                        63.202842388686406
                    ],
                    [
                        -43.54329951265953,
                        63.202049625773725
                    ],
                    [
                        -43.53849349091686,
                        63.20128789563486
                    ],
                    [
                        -43.533685948684585,
                        63.200557796836264
                    ],
                    [
                        -43.52887595700499,
                        63.199875352180605
                    ],
                    [
                        -43.52406239146381,
                        63.19925980178616
                    ],
                    [
                        -43.51924394436111,
                        63.19873333781787
                    ],
                    [
                        -43.514420781598716,
                        63.198292208685125
                    ],
                    [
                        -43.509594117813876,
                        63.19791450966776
                    ],
                    [
                        -43.50476609134865,
                        63.19756263826818
                    ],
                    [
                        -43.49993830405689,
                        63.19720872473688
                    ],
                    [
                        -43.49511120322935,
                        63.196845100079514
                    ],
                    [
                        -43.4902850560599,
                        63.19646727862632
                    ],
                    [
                        -43.48546051582858,
                        63.19606423780353
                    ],
                    [
                        -43.48063869439536,
                        63.19561728719353
                    ],
                    [
                        -43.47582016710336,
                        63.19511707678517
                    ],
                    [
                        -43.471004235378466,
                        63.19457592533173
                    ],
                    [
                        -43.466190040083774,
                        63.194008705121945
                    ],
                    [
                        -43.46137793280526,
                        63.193409747555165
                    ],
                    [
                        -43.456569414786784,
                        63.19275418497181
                    ],
                    [
                        -43.45176683668946,
                        63.19200326291872
                    ],
                    [
                        -43.44697032252068,
                        63.19115579248882
                    ],
                    [
                        -43.442177016937215,
                        63.19026007592359
                    ],
                    [
                        -43.43738259619271,
                        63.18938813929665
                    ],
                    [
                        -43.432591901777656,
                        63.188459848824564
                    ],
                    [
                        -43.427807980483614,
                        63.187425572515885
                    ],
                    [
                        -43.423029603130956,
                        63.18630643097604
                    ],
                    [
                        -43.41825639394528,
                        63.18510932985291
                    ],
                    [
                        -43.413490502773016,
                        63.18379989719829
                    ],
                    [
                        -43.40873165545197,
                        63.182383584624624
                    ],
                    [
                        -43.403977741540324,
                        63.1808955517559
                    ],
                    [
                        -43.39922985890401,
                        63.179318675177676
                    ],
                    [
                        -43.394489420449894,
                        63.17763094988622
                    ],
                    [
                        -43.38975454097424,
                        63.175863637213155
                    ],
                    [
                        -43.38502195734493,
                        63.174069722762816
                    ],
                    [
                        -43.380294057486466,
                        63.17221126771912
                    ],
                    [
                        -43.37557621085033,
                        63.170203247927674
                    ],
                    [
                        -43.37087323685354,
                        63.167970338374225
                    ],
                    [
                        -43.366444025889116,
                        63.16572427480559
                    ],
                    [
                        -43.36218331963291,
                        63.16348024501884
                    ],
                    [
                        -43.358162872329984,
                        63.16123919635918
                    ],
                    [
                        -43.35418428593063,
                        63.158998575141325
                    ],
                    [
                        -43.34957708683858,
                        63.15674965188642
                    ],
                    [
                        -43.34486716147228,
                        63.15469797344186
                    ],
                    [
                        -43.34015061776031,
                        63.152761064797254
                    ],
                    [
                        -43.33544377199177,
                        63.150684040064604
                    ],
                    [
                        -43.33166563833647,
                        63.148445394512365
                    ],
                    [
                        -43.328531060573276,
                        63.14621514412906
                    ],
                    [
                        -43.32551987250891,
                        63.14398646085986
                    ],
                    [
                        -43.322288509326675,
                        63.14175480177754
                    ],
                    [
                        -43.318767614726845,
                        63.13951922830352
                    ],
                    [
                        -43.31496581376335,
                        63.13727983016409
                    ],
                    [
                        -43.311092876389196,
                        63.135039380180714
                    ],
                    [
                        -43.307721732983914,
                        63.13280553307217
                    ],
                    [
                        -43.30459563502068,
                        63.130574891355955
                    ],
                    [
                        -43.30114483206259,
                        63.1283398267398
                    ],
                    [
                        -43.29711655711697,
                        63.12609691034308
                    ],
                    [
                        -43.2930998559821,
                        63.12385403273805
                    ],
                    [
                        -43.28934387212972,
                        63.121614563879945
                    ],
                    [
                        -43.28602213848368,
                        63.1193808789424
                    ],
                    [
                        -43.282832394592866,
                        63.1171489108757
                    ],
                    [
                        -43.27959460576826,
                        63.11491622154859
                    ],
                    [
                        -43.276313270313885,
                        63.11268286840365
                    ],
                    [
                        -43.27314289908576,
                        63.11045095769661
                    ],
                    [
                        -43.2701573372791,
                        63.1082215082436
                    ],
                    [
                        -43.26710715725256,
                        63.10599111580675
                    ],
                    [
                        -43.26377391161247,
                        63.10375677608692
                    ],
                    [
                        -43.259890756462795,
                        63.101514793424094
                    ],
                    [
                        -43.255688180263256,
                        63.09926829572078
                    ],
                    [
                        -43.25159718598121,
                        63.09702321197751
                    ],
                    [
                        -43.247643415577514,
                        63.09477990884814
                    ],
                    [
                        -43.243198559742495,
                        63.09252966793803
                    ],
                    [
                        -43.23869985156139,
                        63.09027852995725
                    ],
                    [
                        -43.23402324853014,
                        63.088039503765195
                    ],
                    [
                        -43.22932818594994,
                        63.08608281526844
                    ],
                    [
                        -43.22463767083504,
                        63.08406980842207
                    ],
                    [
                        -43.21994913360178,
                        63.08203839762972
                    ],
                    [
                        -43.21525077137502,
                        63.08016045185002
                    ],
                    [
                        -43.210545719983266,
                        63.07838928035745
                    ],
                    [
                        -43.20583340827447,
                        63.076732327273525
                    ],
                    [
                        -43.20111788477014,
                        63.07513025979982
                    ],
                    [
                        -43.19640208698458,
                        63.073540351468466
                    ],
                    [
                        -43.19168300686753,
                        63.07200571515703
                    ],
                    [
                        -43.1869570027981,
                        63.070578100680756
                    ],
                    [
                        -43.18222182171234,
                        63.06928888453239
                    ],
                    [
                        -43.17747287760794,
                        63.06820237263937
                    ],
                    [
                        -43.172707926324364,
                        63.06734891049079
                    ],
                    [
                        -43.167927849351535,
                        63.06671419825146
                    ],
                    [
                        -43.16313495343659,
                        63.066263915176876
                    ],
                    [
                        -43.15833137532162,
                        63.06596648595024
                    ],
                    [
                        -43.153518641248034,
                        63.065799246772485
                    ],
                    [
                        -43.1486982221369,
                        63.06574054139125
                    ],
                    [
                        -43.14387265289401,
                        63.06575404315729
                    ],
                    [
                        -43.13904618622206,
                        63.065779819626314
                    ],
                    [
                        -43.13422115190484,
                        63.065785334211995
                    ],
                    [
                        -43.12939760857676,
                        63.06576992900811
                    ],
                    [
                        -43.12457696461018,
                        63.065714255212484
                    ],
                    [
                        -43.11975916116988,
                        63.06561943501272
                    ],
                    [
                        -43.11494257564937,
                        63.065508130704444
                    ],
                    [
                        -43.11012792453337,
                        63.065370618291745
                    ],
                    [
                        -43.10531887746639,
                        63.06515677837931
                    ],
                    [
                        -43.10051921866876,
                        63.06481543000142
                    ],
                    [
                        -43.09573547779196,
                        63.06425844616034
                    ],
                    [
                        -43.090970107789275,
                        63.06345405207292
                    ],
                    [
                        -43.08621868434522,
                        63.06246414260151
                    ],
                    [
                        -43.081478922776334,
                        63.06132101973429
                    ],
                    [
                        -43.07674739158668,
                        63.06007215975085
                    ],
                    [
                        -43.07201800120376,
                        63.05880040275142
                    ],
                    [
                        -43.0672934792816,
                        63.05746923756525
                    ],
                    [
                        -43.062576158517,
                        63.05604779990168
                    ],
                    [
                        -43.062576158517,
                        63.05604779990168
                    ],
                    [
                        -43.05785935359833,
                        63.054626194176635
                    ],
                    [
                        -43.05315458311956,
                        63.05305064776924
                    ],
                    [
                        -43.048467292740035,
                        63.05124971923718
                    ],
                    [
                        -43.043807862685306,
                        63.049087054767
                    ],
                    [
                        -43.03980087423227,
                        63.046836485540375
                    ],
                    [
                        -43.036678693302946,
                        63.04459956990249
                    ],
                    [
                        -43.03416200490075,
                        63.042372024876656
                    ],
                    [
                        -43.032107189330574,
                        63.040151648625056
                    ],
                    [
                        -43.030301283501664,
                        63.037935140219105
                    ],
                    [
                        -43.0286617199616,
                        63.0357212208363
                    ],
                    [
                        -43.02697488601336,
                        63.033506556111135
                    ],
                    [
                        -43.02511415259562,
                        63.03128916110684
                    ],
                    [
                        -43.02317133314084,
                        63.02907046679088
                    ],
                    [
                        -43.021260010448536,
                        63.02685225149733
                    ],
                    [
                        -43.01936068540519,
                        63.02463421046494
                    ],
                    [
                        -43.017435419137186,
                        63.0224157476878
                    ],
                    [
                        -43.0153945185635,
                        63.02019544991725
                    ],
                    [
                        -43.01311173455238,
                        63.01797132125746
                    ],
                    [
                        -43.01075137412675,
                        63.01574594083776
                    ],
                    [
                        -43.008297674698795,
                        63.01351905492058
                    ],
                    [
                        -43.00559769268777,
                        63.01128823744613
                    ],
                    [
                        -43.00243764064024,
                        63.00905008301158
                    ],
                    [
                        -42.99862337027865,
                        63.006801471784904
                    ],
                    [
                        -42.994261026883066,
                        63.00454403163129
                    ],
                    [
                        -42.989614452552054,
                        63.002379790261266
                    ],
                    [
                        -42.984956810385825,
                        63.000368384586125
                    ],
                    [
                        -42.98029802840365,
                        62.99838079144342
                    ],
                    [
                        -42.97563266603551,
                        62.9964868330435
                    ],
                    [
                        -42.970963013805665,
                        62.99465648119458
                    ],
                    [
                        -42.9662910401571,
                        62.99286409978884
                    ],
                    [
                        -42.96161477267373,
                        62.99113463448549
                    ],
                    [
                        -42.95693193337542,
                        62.989496703264486
                    ],
                    [
                        -42.95224618183085,
                        62.98790314135997
                    ],
                    [
                        -42.94755692803953,
                        62.986361138352045
                    ],
                    [
                        -42.94286879424861,
                        62.984811814760405
                    ],
                    [
                        -42.93818316371708,
                        62.98323774003411
                    ],
                    [
                        -42.933504139429395,
                        62.981587349463744
                    ],
                    [
                        -42.92883013080286,
                        62.97988115509284
                    ],
                    [
                        -42.92416082896832,
                        62.978123399645014
                    ],
                    [
                        -42.919498632648946,
                        62.97628437625299
                    ],
                    [
                        -42.91484371107834,
                        62.97436249826443
                    ],
                    [
                        -42.910195515760904,
                        62.97236514148914
                    ],
                    [
                        -42.90555342035137,
                        62.97030058535165
                    ],
                    [
                        -42.90090959862017,
                        62.968266438871815
                    ],
                    [
                        -42.89626121956796,
                        62.96629758196421
                    ],
                    [
                        -42.891601272763346,
                        62.964480269409016
                    ],
                    [
                        -42.88693184641176,
                        62.96278776138392
                    ],
                    [
                        -42.88225227754768,
                        62.96122741298068
                    ],
                    [
                        -42.877561631612345,
                        62.9598098488926
                    ],
                    [
                        -42.87285410340489,
                        62.95860529893477
                    ],
                    [
                        -42.86813085922194,
                        62.95759811153492
                    ],
                    [
                        -42.86339116244381,
                        62.956795985528174
                    ],
                    [
                        -42.85863554934472,
                        62.95619104405327
                    ],
                    [
                        -42.853864536148315,
                        62.95577571467027
                    ],
                    [
                        -42.84908346072558,
                        62.95548403148235
                    ],
                    [
                        -42.84429498137179,
                        62.95528301938673
                    ],
                    [
                        -42.83950073571722,
                        62.955152311410444
                    ],
                    [
                        -42.834701799026426,
                        62.95507849177368
                    ],
                    [
                        -42.829896731553994,
                        62.955078482474576
                    ],
                    [
                        -42.825085501688754,
                        62.955152172422125
                    ],
                    [
                        -42.82026867090277,
                        62.95529235549192
                    ],
                    [
                        -42.815449457051834,
                        62.955460181363286
                    ],
                    [
                        -42.810631768764665,
                        62.955608915607094
                    ],
                    [
                        -42.805820007398296,
                        62.95568638009975
                    ],
                    [
                        -42.80102116286117,
                        62.95561015950879
                    ],
                    [
                        -42.79624105271369,
                        62.95531242371771
                    ],
                    [
                        -42.79148368589185,
                        62.95474727283523
                    ],
                    [
                        -42.786750328648246,
                        62.95390149825854
                    ],
                    [
                        -42.782042690245554,
                        62.95275677724325
                    ],
                    [
                        -42.777365601039115,
                        62.95125830040688
                    ],
                    [
                        -42.77272293020588,
                        62.94936293746249
                    ],
                    [
                        -42.768324710451225,
                        62.947097069483846
                    ],
                    [
                        -42.76481605281411,
                        62.944846872746524
                    ],
                    [
                        -42.76183117737166,
                        62.942605913943254
                    ],
                    [
                        -42.75916942922845,
                        62.94037065590208
                    ],
                    [
                        -42.75665684351366,
                        62.9381380158417
                    ],
                    [
                        -42.75400733367397,
                        62.93590289141525
                    ],
                    [
                        -42.75124304699304,
                        62.933665669663036
                    ],
                    [
                        -42.74834317185781,
                        62.93142596963195
                    ],
                    [
                        -42.74529605510063,
                        62.92918357226113
                    ],
                    [
                        -42.74221243674465,
                        62.92694045613717
                    ],
                    [
                        -42.739022378481344,
                        62.92469535982901
                    ],
                    [
                        -42.735723189843604,
                        62.922448226270554
                    ],
                    [
                        -42.732283825513086,
                        62.92019848594963
                    ],
                    [
                        -42.728658564372864,
                        62.91794529999167
                    ],
                    [
                        -42.724860278032715,
                        62.91568888464395
                    ],
                    [
                        -42.720839657927186,
                        62.91342832861786
                    ],
                    [
                        -42.71654471690853,
                        62.91116266428787
                    ],
                    [
                        -42.71200259676277,
                        62.908892356837626
                    ],
                    [
                        -42.70739405003184,
                        62.906745947320765
                    ],
                    [
                        -42.70278241215661,
                        62.90464314115827
                    ],
                    [
                        -42.69816516045306,
                        62.90261231026842
                    ],
                    [
                        -42.69354192641997,
                        62.90065720837307
                    ],
                    [
                        -42.688925479606176,
                        62.89863304765712
                    ],
                    [
                        -42.68431378124634,
                        62.89656322716008
                    ],
                    [
                        -42.679700958475436,
                        62.894514139713884
                    ],
                    [
                        -42.675099637653815,
                        62.89234375578279
                    ],
                    [
                        -42.670504162770875,
                        62.89011621373371
                    ],
                    [
                        -42.66604960164588,
                        62.88784592304565
                    ],
                    [
                        -42.661975262810195,
                        62.88558256670401
                    ],
                    [
                        -42.65801792000234,
                        62.883321269874415
                    ],
                    [
                        -42.654394326777556,
                        62.88106609715662
                    ],
                    [
                        -42.650652039562736,
                        62.878808605799094
                    ],
                    [
                        -42.646965028624045,
                        62.87655204845736
                    ],
                    [
                        -42.6433314328791,
                        62.8742963952562
                    ],
                    [
                        -42.63961215018771,
                        62.872039032984965
                    ],
                    [
                        -42.635773448741816,
                        62.86977931764473
                    ],
                    [
                        -42.6317723241377,
                        62.867516425482094
                    ],
                    [
                        -42.627697545202736,
                        62.86525201983974
                    ],
                    [
                        -42.623111532330554,
                        62.86301562668625
                    ],
                    [
                        -42.6185121401661,
                        62.860934647390266
                    ],
                    [
                        -42.61391022778225,
                        62.85888916460941
                    ],
                    [
                        -42.60928356596754,
                        62.857122224003554
                    ],
                    [
                        -42.6046281624664,
                        62.85567586075095
                    ],
                    [
                        -42.59996269854708,
                        62.85434461032885
                    ],
                    [
                        -42.568823793035584,
                        62.84418755678952
                    ],
                    [
                        -42.53770904213173,
                        62.83402319422901
                    ],
                    [
                        -42.506618436071804,
                        62.823851532728035
                    ],
                    [
                        -42.47555196505036,
                        62.81367258236
                    ],
                    [
                        -42.44450961922041,
                        62.803486353190934
                    ],
                    [
                        -42.41349138869361,
                        62.79329285527955
                    ],
                    [
                        -42.382497263540415,
                        62.7830920986771
                    ],
                    [
                        -42.35152723379027,
                        62.77288409342755
                    ],
                    [
                        -42.320581289431836,
                        62.762668849567405
                    ],
                    [
                        -42.289659420413074,
                        62.75244637712573
                    ],
                    [
                        -42.25876161664152,
                        62.74221668612423
                    ],
                    [
                        -42.227887867984435,
                        62.73197978657711
                    ],
                    [
                        -42.19703816426893,
                        62.721735688491115
                    ],
                    [
                        -42.16621249528224,
                        62.71148440186556
                    ],
                    [
                        -42.135410850771805,
                        62.70122593669226
                    ],
                    [
                        -42.10463322044553,
                        62.6909603029555
                    ],
                    [
                        -42.0738795939719,
                        62.680687510632104
                    ],
                    [
                        -42.043149960980216,
                        62.670407569691335
                    ],
                    [
                        -42.01244431106071,
                        62.660120490094926
                    ],
                    [
                        -41.981762633764774,
                        62.64982628179706
                    ]
                ]
            }
        }
    ]
}
