{
    "type": "FeatureCollection",
    "features": [
        {
            "type": "Feature",
            "properties": {
                "name": "Mellor",
                "object": "transect",
                "component": "landice",
                "author": "Matthew Hoffman, converted from https://github.com/yuwang115/sl-ice",
                "tags": "Antarctic_Ice_Sheet;flowline;sl-ice;mellor"
            },
            "geometry": {
                "type": "LineString",
                "coordinates": [
                    [
                        59.333388634883924,
                        -78.95934578281523
                    ],
                    [
                        59.33985146039905,
                        -78.94114076766006
                    ],
                    [
                        59.34687530148912,
                        -78.92294946713461
                    ],
                    [
                        59.35447748407507,
                        -78.90476352847398
                    ],
                    [
                        59.36254589114991,
                        -78.88659163024808
                    ],
                    [
                        59.37010140322636,
                        -78.86840683510319
                    ],
                    [
                        59.377438010436094,
                        -78.85022136070127
                    ],
                    [
                        59.38579668777636,
                        -78.83205550131046
                    ],
                    [
                        59.39487398983855,
                        -78.81390139818578
                    ],
                    [
                        59.40427992685771,
                        -78.79575164652265
                    ],
                    [
                        59.41460006143913,
                        -78.77762610405361
                    ],
                    [
                        59.42581371756808,
                        -78.75951749949338
                    ],
                    [
                        59.437776646753875,
                        -78.74143076776771
                    ],
                    [
                        59.45094540994485,
                        -78.72337657896948
                    ],
                    [
                        59.464723020752565,
                        -78.70533936965822
                    ],
                    [
                        59.47899915665063,
                        -78.68732249709923
                    ],
                    [
                        59.49476713641173,
                        -78.66935121546932
                    ],
                    [
                        59.51243025941112,
                        -78.65145165656565
                    ],
                    [
                        59.53138004277751,
                        -78.6336015032647
                    ],
                    [
                        59.55039716213323,
                        -78.61576011881628
                    ],
                    [
                        59.5693066878539,
                        -78.59791248302857
                    ],
                    [
                        59.58844151052913,
                        -78.58007611457896
                    ],
                    [
                        59.60915950695262,
                        -78.56231393526748
                    ],
                    [
                        59.63045169576215,
                        -78.54457762999256
                    ],
                    [
                        59.65185101666011,
                        -78.5268499215893
                    ],
                    [
                        59.67397849560018,
                        -78.50916098021918
                    ],
                    [
                        59.69659136039012,
                        -78.4914985164042
                    ],
                    [
                        59.71920110124385,
                        -78.47383730284392
                    ],
                    [
                        59.74101656297557,
                        -78.45613770078907
                    ],
                    [
                        59.761865462731016,
                        -78.43839517572445
                    ],
                    [
                        59.78171281606665,
                        -78.42060534932796
                    ],
                    [
                        59.80082083704774,
                        -78.40278805701433
                    ],
                    [
                        59.819975104899356,
                        -78.38497708406803
                    ],
                    [
                        59.838572516283115,
                        -78.36713863897523
                    ],
                    [
                        59.85576253663586,
                        -78.3492465359665
                    ],
                    [
                        59.873217024294604,
                        -78.33136488182353
                    ],
                    [
                        59.8913063332014,
                        -78.31351094145118
                    ],
                    [
                        59.9095374340124,
                        -78.29566906818347
                    ],
                    [
                        59.92783213072816,
                        -78.27783009760678
                    ],
                    [
                        59.946089814569575,
                        -78.25998746068647
                    ],
                    [
                        59.96528415456043,
                        -78.24218748235498
                    ],
                    [
                        59.985154315259834,
                        -78.22442598621927
                    ],
                    [
                        60.005570055078934,
                        -78.20668779050025
                    ],
                    [
                        60.025429972062796,
                        -78.18892712122307
                    ],
                    [
                        60.045084024171736,
                        -78.171153619876
                    ],
                    [
                        60.065374641598304,
                        -78.15341953577922
                    ],
                    [
                        60.08651994167159,
                        -78.13572982610886
                    ],
                    [
                        60.10831789259489,
                        -78.11807130160577
                    ],
                    [
                        60.13048864098185,
                        -78.10043723556056
                    ],
                    [
                        60.15255507269668,
                        -78.08279741549133
                    ],
                    [
                        60.174400226209485,
                        -78.0651484363713
                    ],
                    [
                        60.19618804525369,
                        -78.04749919075614
                    ],
                    [
                        60.21807013474435,
                        -78.02985716142464
                    ],
                    [
                        60.23989497502298,
                        -78.01221485467843
                    ],
                    [
                        60.26151948979577,
                        -77.99456572902393
                    ],
                    [
                        60.28309849216416,
                        -77.97691240778539
                    ],
                    [
                        60.305001984591065,
                        -77.95928317924479
                    ],
                    [
                        60.32737082526815,
                        -77.9416791618163
                    ],
                    [
                        60.349873239363816,
                        -77.92408713219687
                    ],
                    [
                        60.372545885037354,
                        -77.9065062425509
                    ],
                    [
                        60.39570254195396,
                        -77.88895299519348
                    ],
                    [
                        60.419566089235396,
                        -77.8714436098127
                    ],
                    [
                        60.44407473910087,
                        -77.85398131775749
                    ],
                    [
                        60.46921031630428,
                        -77.83655882999167
                    ],
                    [
                        60.494691363208304,
                        -77.81916355896348
                    ],
                    [
                        60.520173546790716,
                        -77.8017700981303
                    ],
                    [
                        60.545399777009486,
                        -77.78435816227206
                    ],
                    [
                        60.56989317952323,
                        -77.76690725702916
                    ],
                    [
                        60.59447184862251,
                        -77.7494628459697
                    ],
                    [
                        60.619361719613586,
                        -77.7320415269761
                    ],
                    [
                        60.64453178189859,
                        -77.71463963303096
                    ],
                    [
                        60.669648725081416,
                        -77.6972381681275
                    ],
                    [
                        60.69477971566453,
                        -77.67984515689383
                    ],
                    [
                        60.72031779897453,
                        -77.6624763862232
                    ],
                    [
                        60.74621093794228,
                        -77.64513611071051
                    ],
                    [
                        60.772373329100105,
                        -77.62781929855332
                    ],
                    [
                        60.79888389735612,
                        -77.6105250185695
                    ],
                    [
                        60.82570666382909,
                        -77.59326463020925
                    ],
                    [
                        60.85283819586185,
                        -77.57602211491763
                    ],
                    [
                        60.880556882437965,
                        -77.55882571785962
                    ],
                    [
                        60.908803236470554,
                        -77.54167876764055
                    ],
                    [
                        60.93771283018431,
                        -77.52458196770354
                    ],
                    [
                        60.96758108868295,
                        -77.50757085278286
                    ],
                    [
                        60.99814843377733,
                        -77.4906195006687
                    ],
                    [
                        61.02920869160927,
                        -77.47371357541174
                    ],
                    [
                        61.06065563692876,
                        -77.45685072158416
                    ],
                    [
                        61.09250737350903,
                        -77.44001751682968
                    ],
                    [
                        61.12468923958137,
                        -77.4232257761327
                    ],
                    [
                        61.15699927829702,
                        -77.40645122203892
                    ],
                    [
                        61.18949368669439,
                        -77.38969020347703
                    ],
                    [
                        61.222479966480925,
                        -77.37299002231065
                    ],
                    [
                        61.25638634856276,
                        -77.35638132702934
                    ],
                    [
                        61.29116262369053,
                        -77.33985805530158
                    ],
                    [
                        61.32689526159009,
                        -77.32344090872803
                    ],
                    [
                        61.36377029904747,
                        -77.30715213437192
                    ],
                    [
                        61.401698349725095,
                        -77.29098606740234
                    ],
                    [
                        61.44041646412768,
                        -77.2749162091636
                    ],
                    [
                        61.47902627926078,
                        -77.25884507899596
                    ],
                    [
                        61.51718596025991,
                        -77.24272133888707
                    ],
                    [
                        61.55530380756371,
                        -77.2266042818322
                    ],
                    [
                        61.594172612578454,
                        -77.21057848648545
                    ],
                    [
                        61.63396831282629,
                        -77.19467005272672
                    ],
                    [
                        61.674649977919366,
                        -77.17887907086467
                    ],
                    [
                        61.716268124242646,
                        -77.16322171400553
                    ],
                    [
                        61.758497959353875,
                        -77.14764860765152
                    ],
                    [
                        61.8015238454788,
                        -77.13219192296879
                    ],
                    [
                        61.845925096509916,
                        -77.11693088890476
                    ],
                    [
                        61.89140070022661,
                        -77.10184465160782
                    ],
                    [
                        61.937491734787244,
                        -77.08685752767002
                    ],
                    [
                        61.983862390212956,
                        -77.0719241386238
                    ],
                    [
                        62.03026848416146,
                        -77.05699984961296
                    ],
                    [
                        62.076805631525666,
                        -77.0421062676402
                    ],
                    [
                        62.123767405989945,
                        -77.02729359859869
                    ],
                    [
                        62.17122705865845,
                        -77.01256519128462
                    ],
                    [
                        62.21926637966534,
                        -76.99794592930115
                    ],
                    [
                        62.26809084847851,
                        -76.98347014006269
                    ],
                    [
                        62.31733365993684,
                        -76.9690735115739
                    ],
                    [
                        62.36652747303122,
                        -76.95467492268826
                    ],
                    [
                        62.41515015930005,
                        -76.94019217876793
                    ],
                    [
                        62.46299907536828,
                        -76.92558618165744
                    ],
                    [
                        62.50999364546616,
                        -76.91084770042781
                    ],
                    [
                        62.556193705098366,
                        -76.89598918410833
                    ],
                    [
                        62.60193913206978,
                        -76.88106622958423
                    ],
                    [
                        62.64743410429865,
                        -76.86611831089675
                    ],
                    [
                        62.692835959524196,
                        -76.85115372237166
                    ],
                    [
                        62.73795434950159,
                        -76.8361654571461
                    ],
                    [
                        62.78260173353369,
                        -76.82110600846732
                    ],
                    [
                        62.82717462905099,
                        -76.80604240254439
                    ],
                    [
                        62.872229402137314,
                        -76.79106530754511
                    ],
                    [
                        62.916588095434555,
                        -76.77599075118786
                    ],
                    [
                        62.958567401841094,
                        -76.76056596944058
                    ],
                    [
                        62.99915187425658,
                        -76.74495763399494
                    ],
                    [
                        63.03864777116644,
                        -76.72921200152275
                    ],
                    [
                        63.07707729481993,
                        -76.71332676261963
                    ],
                    [
                        63.11492489104355,
                        -76.69737900036517
                    ],
                    [
                        63.15252980409446,
                        -76.68140835276532
                    ],
                    [
                        63.19028983727491,
                        -76.66546121244134
                    ],
                    [
                        63.22859957230371,
                        -76.64958859789235
                    ],
                    [
                        63.26752772775321,
                        -76.63380855573013
                    ],
                    [
                        63.30587262172761,
                        -76.61795561706123
                    ],
                    [
                        63.3432679991232,
                        -76.6019872493016
                    ],
                    [
                        63.38115789512798,
                        -76.5860817047951
                    ],
                    [
                        63.41959875333306,
                        -76.57026066826008
                    ],
                    [
                        63.45840944667559,
                        -76.55449787534467
                    ],
                    [
                        63.49748443007942,
                        -76.5387708122883
                    ],
                    [
                        63.53693306445935,
                        -76.52310730798851
                    ],
                    [
                        63.57618294514483,
                        -76.50742056956821
                    ],
                    [
                        63.61454677692952,
                        -76.49161573616594
                    ],
                    [
                        63.6528585535124,
                        -76.47581999693827
                    ],
                    [
                        63.692006668893335,
                        -76.46014126076828
                    ],
                    [
                        63.73117104987108,
                        -76.44446922266972
                    ],
                    [
                        63.76985018776189,
                        -76.42874078567264
                    ],
                    [
                        63.80813863713186,
                        -76.41295683374544
                    ],
                    [
                        63.84597022729289,
                        -76.3971249577538
                    ],
                    [
                        63.88341539652871,
                        -76.3812533481377
                    ],
                    [
                        63.9203779987638,
                        -76.36532084093446
                    ],
                    [
                        63.95653793548504,
                        -76.34929057225598
                    ],
                    [
                        63.99159545081323,
                        -76.33313313276585
                    ],
                    [
                        64.02606737852064,
                        -76.31690823637025
                    ],
                    [
                        64.06019502053061,
                        -76.30064879475698
                    ],
                    [
                        64.09391051049579,
                        -76.28434700816089
                    ],
                    [
                        64.1272494167758,
                        -76.26800699781687
                    ],
                    [
                        64.16044304584936,
                        -76.25165541428686
                    ],
                    [
                        64.19363946329,
                        -76.23530929378735
                    ],
                    [
                        64.22695875210422,
                        -76.21898243157986
                    ],
                    [
                        64.26010934568573,
                        -76.20264125516165
                    ],
                    [
                        64.29188526206623,
                        -76.18615211783661
                    ],
                    [
                        64.32216251166261,
                        -76.16950589100038
                    ],
                    [
                        64.35170748518237,
                        -76.15279074350987
                    ],
                    [
                        64.38078661932362,
                        -76.13603227825826
                    ],
                    [
                        64.40971302400384,
                        -76.11926144960816
                    ],
                    [
                        64.4384885170127,
                        -76.1024734259981
                    ],
                    [
                        64.46719126569799,
                        -76.08569226679538
                    ],
                    [
                        64.49595472190889,
                        -76.06891820347894
                    ],
                    [
                        64.52424279811193,
                        -76.05209968173281
                    ],
                    [
                        64.55175235910005,
                        -76.03521191849629
                    ],
                    [
                        64.57912490715458,
                        -76.01830850554468
                    ],
                    [
                        64.60638753989859,
                        -76.00140761062067
                    ],
                    [
                        64.63431160650245,
                        -75.9845727149089
                    ],
                    [
                        64.663830527447,
                        -75.96790096127448
                    ],
                    [
                        64.69440234253896,
                        -75.95134508688955
                    ],
                    [
                        64.72521984811445,
                        -75.93481735766473
                    ],
                    [
                        64.75634857298454,
                        -75.91833027370237
                    ],
                    [
                        64.78793923809636,
                        -75.90190108069986
                    ],
                    [
                        64.8201016457392,
                        -75.88554230743155
                    ],
                    [
                        64.85268520263591,
                        -75.86924161491153
                    ],
                    [
                        64.88545489986102,
                        -75.85296698527259
                    ],
                    [
                        64.91816981462809,
                        -75.83668576578454
                    ],
                    [
                        64.9507943138634,
                        -75.8204038769122
                    ],
                    [
                        64.98280505691683,
                        -75.80405137969466
                    ],
                    [
                        65.01378428661845,
                        -75.78758551394229
                    ],
                    [
                        65.04471115971778,
                        -75.77111840627403
                    ],
                    [
                        65.07542551821061,
                        -75.75463172139968
                    ],
                    [
                        65.10591022858199,
                        -75.7381284991958
                    ],
                    [
                        65.13642484288303,
                        -75.72162842178724
                    ],
                    [
                        65.16733799693687,
                        -75.70517860611987
                    ],
                    [
                        65.19930761787401,
                        -75.68885417565399
                    ],
                    [
                        65.23242428261275,
                        -75.67268030835021
                    ],
                    [
                        65.26609142031694,
                        -75.65658370854842
                    ],
                    [
                        65.29764811119311,
                        -75.64023065413137
                    ],
                    [
                        65.32590014489435,
                        -75.62351504180836
                    ],
                    [
                        65.35282592373602,
                        -75.60665779485927
                    ],
                    [
                        65.37836729602833,
                        -75.5896822150335
                    ],
                    [
                        65.40426979137507,
                        -75.57274258066562
                    ],
                    [
                        65.43088342594882,
                        -75.55587382949868
                    ],
                    [
                        65.45742113002945,
                        -75.5390010998364
                    ],
                    [
                        65.48355674990349,
                        -75.52208717613297
                    ],
                    [
                        65.50948398821309,
                        -75.5051641069618
                    ],
                    [
                        65.53526128297132,
                        -75.48822858446795
                    ],
                    [
                        65.56049940241158,
                        -75.47124615898464
                    ],
                    [
                        65.58516388499724,
                        -75.4542128846794
                    ],
                    [
                        65.60949360114932,
                        -75.43715101204194
                    ],
                    [
                        65.63347561771249,
                        -75.42006402217822
                    ],
                    [
                        65.65672054606638,
                        -75.40291244839374
                    ],
                    [
                        65.67886749424784,
                        -75.38567496656104
                    ],
                    [
                        65.70053112873374,
                        -75.3684017504504
                    ],
                    [
                        65.72168773687532,
                        -75.35108508114672
                    ],
                    [
                        65.74213916430278,
                        -75.3337271379226
                    ],
                    [
                        65.76215245116974,
                        -75.3163334922886
                    ],
                    [
                        65.78151833035697,
                        -75.29889509787533
                    ],
                    [
                        65.79973513967468,
                        -75.28137443134034
                    ],
                    [
                        65.81748205664502,
                        -75.26382909203714
                    ],
                    [
                        65.83480443220006,
                        -75.24625426249558
                    ],
                    [
                        65.8512931854196,
                        -75.22863783642319
                    ],
                    [
                        65.86708376119549,
                        -75.21097531691224
                    ],
                    [
                        65.88238869018399,
                        -75.19329090802832
                    ],
                    [
                        65.89678674784068,
                        -75.17555612095697
                    ],
                    [
                        65.90998047595379,
                        -75.157761491362
                    ],
                    [
                        65.92259560904785,
                        -75.13993881996525
                    ],
                    [
                        65.93484811891763,
                        -75.12210283192302
                    ],
                    [
                        65.9469826663383,
                        -75.10426664950133
                    ],
                    [
                        65.95903006261221,
                        -75.08642386555034
                    ],
                    [
                        65.97072065962621,
                        -75.06856825298335
                    ],
                    [
                        65.98209883787757,
                        -75.05069491468088
                    ],
                    [
                        65.99331292756848,
                        -75.03282084322909
                    ],
                    [
                        66.00251126992625,
                        -75.01487150403928
                    ],
                    [
                        66.0095657896543,
                        -74.99686129457393
                    ],
                    [
                        66.0144597175839,
                        -74.9788024651324
                    ],
                    [
                        66.01738956088337,
                        -74.96071200237603
                    ],
                    [
                        66.01930376663995,
                        -74.94261460806868
                    ],
                    [
                        66.02122357219734,
                        -74.92451415598555
                    ],
                    [
                        66.0241624250892,
                        -74.9064339618552
                    ],
                    [
                        66.02776184788706,
                        -74.88835264776571
                    ],
                    [
                        66.0316735116567,
                        -74.87027954632124
                    ],
                    [
                        66.03565868695571,
                        -74.85221179008322
                    ],
                    [
                        66.0391698014055,
                        -74.83413522950082
                    ],
                    [
                        66.04168891053418,
                        -74.81604879706904
                    ],
                    [
                        66.04326441780346,
                        -74.79795280346315
                    ],
                    [
                        66.04492498748662,
                        -74.77986294919367
                    ],
                    [
                        66.0470672062331,
                        -74.76177609179562
                    ],
                    [
                        66.0501328712381,
                        -74.74369458084517
                    ],
                    [
                        66.05396392871347,
                        -74.72562996406741
                    ],
                    [
                        66.05883196685093,
                        -74.70757969274001
                    ],
                    [
                        66.0656130598954,
                        -74.68957757051099
                    ],
                    [
                        66.0741320135783,
                        -74.6716234412284
                    ],
                    [
                        66.08428497098588,
                        -74.65373530140297
                    ],
                    [
                        66.09602505876218,
                        -74.6359130158124
                    ],
                    [
                        66.1084742278649,
                        -74.61812299188617
                    ],
                    [
                        66.12085561345756,
                        -74.60033831037215
                    ],
                    [
                        66.1324427296,
                        -74.58251301795984
                    ],
                    [
                        66.14265948806582,
                        -74.56463347976786
                    ],
                    [
                        66.15094309938267,
                        -74.54667751551169
                    ],
                    [
                        66.15669102461437,
                        -74.52865754152128
                    ],
                    [
                        66.16026455821172,
                        -74.51059560432715
                    ],
                    [
                        66.16193792874,
                        -74.4925183817633
                    ],
                    [
                        66.16209299053882,
                        -74.4744357103498
                    ],
                    [
                        66.16151485523494,
                        -74.4563509998729
                    ],
                    [
                        66.16047188308231,
                        -74.43826611231704
                    ],
                    [
                        66.15860162238339,
                        -74.42019217305413
                    ],
                    [
                        66.15587316689721,
                        -74.40212513964093
                    ],
                    [
                        66.151614101921,
                        -74.38407846871262
                    ],
                    [
                        66.14507765477819,
                        -74.36608595141969
                    ],
                    [
                        66.13629732296744,
                        -74.34816525766885
                    ],
                    [
                        66.12472742012204,
                        -74.33036359580356
                    ],
                    [
                        66.10931582638428,
                        -74.3127707981776
                    ],
                    [
                        66.09180714651832,
                        -74.29532701100038
                    ],
                    [
                        66.07348694212209,
                        -74.27794328840879
                    ],
                    [
                        66.05641705857977,
                        -74.26047204144534
                    ],
                    [
                        66.04283308289853,
                        -74.24278837162655
                    ],
                    [
                        66.03543228769138,
                        -74.22483970788105
                    ],
                    [
                        66.03890434709253,
                        -74.20681118144806
                    ],
                    [
                        66.05217500627344,
                        -74.18914035860062
                    ],
                    [
                        66.07474376495078,
                        -74.17216901764138
                    ],
                    [
                        66.10508807682336,
                        -74.15611337214423
                    ],
                    [
                        66.13885567208669,
                        -74.1405842007917
                    ],
                    [
                        66.17434687943646,
                        -74.12534063221241
                    ],
                    [
                        66.20931891102174,
                        -74.11001748487544
                    ],
                    [
                        66.24197241797724,
                        -74.09432370027208
                    ],
                    [
                        66.27131587696054,
                        -74.07815501237495
                    ],
                    [
                        66.29672416084892,
                        -74.06149080476777
                    ],
                    [
                        66.31857105305369,
                        -74.04445534432008
                    ],
                    [
                        66.33659350119123,
                        -74.02709081048059
                    ],
                    [
                        66.35043008352899,
                        -74.00943703699879
                    ],
                    [
                        66.3605058036772,
                        -73.99158898769448
                    ],
                    [
                        66.36662218109102,
                        -73.97361047733853
                    ],
                    [
                        66.36815556997468,
                        -73.95555295900245
                    ],
                    [
                        66.36602941604,
                        -73.93750680417284
                    ],
                    [
                        66.36039069516417,
                        -73.91951286033782
                    ],
                    [
                        66.3517878143042,
                        -73.9016113709046
                    ],
                    [
                        66.3418297067153,
                        -73.88376485264489
                    ],
                    [
                        66.33074435657215,
                        -73.8659707670911
                    ],
                    [
                        66.31902291148394,
                        -73.84820955660656
                    ],
                    [
                        66.30624871536978,
                        -73.8305087903716
                    ],
                    [
                        66.29221953079987,
                        -73.81287759357215
                    ],
                    [
                        66.27618594491743,
                        -73.79538596744277
                    ],
                    [
                        66.25859754638734,
                        -73.77801397055565
                    ],
                    [
                        66.23962792265955,
                        -73.76075240201216
                    ],
                    [
                        66.22485962974275,
                        -73.74318448241662
                    ],
                    [
                        66.21451413919516,
                        -73.72537465002144
                    ],
                    [
                        66.20794416092508,
                        -73.7074178891945
                    ],
                    [
                        66.20415091095559,
                        -73.6893995191678
                    ],
                    [
                        66.20308801540574,
                        -73.67135455606149
                    ],
                    [
                        66.20706065085069,
                        -73.65334848287064
                    ],
                    [
                        66.22050239197148,
                        -73.6357119528134
                    ],
                    [
                        66.23922719112326,
                        -73.61846416515803
                    ],
                    [
                        66.2609895097903,
                        -73.6014892576604
                    ],
                    [
                        66.28447384776233,
                        -73.58470764437905
                    ],
                    [
                        66.30879818922169,
                        -73.56802450186977
                    ],
                    [
                        66.33390093286138,
                        -73.55144197673853
                    ],
                    [
                        66.36023829817763,
                        -73.53501170273456
                    ],
                    [
                        66.38740377031117,
                        -73.5186978687242
                    ],
                    [
                        66.41552930348841,
                        -73.50251672075056
                    ],
                    [
                        66.44459661981497,
                        -73.48648059594
                    ],
                    [
                        66.47401594262071,
                        -73.47049653974541
                    ],
                    [
                        66.50345604344304,
                        -73.4545185252334
                    ],
                    [
                        66.53312479308441,
                        -73.4385821041412
                    ],
                    [
                        66.56405862760704,
                        -73.42285479189223
                    ],
                    [
                        66.597042183236,
                        -73.4074726133674
                    ],
                    [
                        66.63188752241732,
                        -73.39243138839895
                    ],
                    [
                        66.66755173439131,
                        -73.3775525936334
                    ],
                    [
                        66.70377675701094,
                        -73.36279915898912
                    ],
                    [
                        66.74080914332971,
                        -73.34821594050702
                    ],
                    [
                        66.77847504313387,
                        -73.33377626521505
                    ],
                    [
                        66.81498579697617,
                        -73.31910286484703
                    ],
                    [
                        66.8503998440919,
                        -73.30421317995199
                    ],
                    [
                        66.89105467242365,
                        -73.29054749368778
                    ],
                    [
                        66.93778484277114,
                        -73.27854823153736
                    ],
                    [
                        66.9852306931367,
                        -73.26679100443349
                    ],
                    [
                        67.02880959406644,
                        -73.25387800280649
                    ],
                    [
                        67.06795213760165,
                        -73.23982067311832
                    ],
                    [
                        67.10437580107384,
                        -73.22517823782223
                    ],
                    [
                        67.13975763953468,
                        -73.21032251259369
                    ],
                    [
                        67.17411800605979,
                        -73.19527592504343
                    ],
                    [
                        67.20706326423682,
                        -73.17997625835113
                    ],
                    [
                        67.23853818160173,
                        -73.164422111067
                    ],
                    [
                        67.26824654607023,
                        -73.14859253691719
                    ],
                    [
                        67.29559127838988,
                        -73.13240073494974
                    ],
                    [
                        67.32098078426263,
                        -73.11595530401563
                    ],
                    [
                        67.3444821036219,
                        -73.0992743636921
                    ],
                    [
                        67.36552683720888,
                        -73.0823232127682
                    ],
                    [
                        67.38428557556392,
                        -73.06515188153136
                    ],
                    [
                        67.40070928241897,
                        -73.04777872895257
                    ],
                    [
                        67.41437478830954,
                        -73.03020582436444
                    ],
                    [
                        67.42564823246339,
                        -73.01249190740799
                    ],
                    [
                        67.434624391518,
                        -72.99466268144292
                    ],
                    [
                        67.44092955489653,
                        -72.97674042725261
                    ],
                    [
                        67.44516956025166,
                        -72.9587640276438
                    ],
                    [
                        67.44747243804953,
                        -72.9407581846211
                    ],
                    [
                        67.44786356226315,
                        -72.92273994268615
                    ],
                    [
                        67.4471388295848,
                        -72.90472775537086
                    ],
                    [
                        67.44580211289848,
                        -72.8867145130359
                    ],
                    [
                        67.4441986081373,
                        -72.86870320928294
                    ],
                    [
                        67.4427117262595,
                        -72.85069683305974
                    ],
                    [
                        67.44161059388757,
                        -72.83268456336462
                    ],
                    [
                        67.44130970272398,
                        -72.81466870242846
                    ],
                    [
                        67.44189081157904,
                        -72.79665961981914
                    ],
                    [
                        67.44345282594726,
                        -72.77865519616161
                    ],
                    [
                        67.44627414653577,
                        -72.7606657021851
                    ],
                    [
                        67.4501816241871,
                        -72.74269460634822
                    ],
                    [
                        67.45524179934938,
                        -72.72475047157658
                    ],
                    [
                        67.46186911090604,
                        -72.70685068838267
                    ],
                    [
                        67.46993194999152,
                        -72.68900380572214
                    ],
                    [
                        67.47947849945227,
                        -72.6712258835062
                    ],
                    [
                        67.49110501965998,
                        -72.653556856369
                    ],
                    [
                        67.50438275794153,
                        -72.63599279678128
                    ],
                    [
                        67.5192280015381,
                        -72.61854794501627
                    ],
                    [
                        67.53593393885166,
                        -72.60125387408581
                    ],
                    [
                        67.55405800061364,
                        -72.58409004720644
                    ],
                    [
                        67.57363207402763,
                        -72.567070197564
                    ],
                    [
                        67.59475998336883,
                        -72.55022177450326
                    ],
                    [
                        67.61712419750644,
                        -72.5335200481834
                    ],
                    [
                        67.64067415312574,
                        -72.51697327704753
                    ],
                    [
                        67.66557014590862,
                        -72.5006060171048
                    ],
                    [
                        67.69141905241449,
                        -72.48437923872865
                    ],
                    [
                        67.7180806995559,
                        -72.46827546827492
                    ],
                    [
                        67.74547057584246,
                        -72.45228411609558
                    ],
                    [
                        67.77323964242785,
                        -72.43636195949193
                    ],
                    [
                        67.80122489528696,
                        -72.42047422239041
                    ],
                    [
                        67.82915322253244,
                        -72.40458718297002
                    ],
                    [
                        67.85654083826407,
                        -72.38861695211266
                    ],
                    [
                        67.8830039669602,
                        -72.37250665812019
                    ],
                    [
                        67.90808557872899,
                        -72.35620019784191
                    ],
                    [
                        67.93193678209056,
                        -72.33973091875318
                    ],
                    [
                        67.95458502962236,
                        -72.32310718198048
                    ],
                    [
                        67.97605497358008,
                        -72.30634181877063
                    ],
                    [
                        67.99682604729938,
                        -72.28950356349984
                    ],
                    [
                        68.0172805891075,
                        -72.2726297600403
                    ],
                    [
                        68.03789532336532,
                        -72.25577419147716
                    ],
                    [
                        68.0588201146118,
                        -72.23896012100055
                    ],
                    [
                        68.08004605930026,
                        -72.22218158396926
                    ],
                    [
                        68.10161874995542,
                        -72.2054538534513
                    ],
                    [
                        68.1234992568571,
                        -72.18876242200744
                    ],
                    [
                        68.14569771937337,
                        -72.17211335127166
                    ],
                    [
                        68.16843658852869,
                        -72.155533932868
                    ],
                    [
                        68.19183971217429,
                        -72.1390490005226
                    ],
                    [
                        68.21600887395014,
                        -72.12267096293763
                    ],
                    [
                        68.24108362772824,
                        -72.10643135328127
                    ],
                    [
                        68.26691546779804,
                        -72.09029728307657
                    ],
                    [
                        68.2935029127573,
                        -72.07429261847469
                    ],
                    [
                        68.32108841005457,
                        -72.05845173426603
                    ],
                    [
                        68.34944253794579,
                        -72.04274145998198
                    ],
                    [
                        68.37850173814167,
                        -72.0271634798952
                    ],
                    [
                        68.408316243158,
                        -72.01172855909557
                    ],
                    [
                        68.43873069625228,
                        -71.99641263907145
                    ],
                    [
                        68.46974138510825,
                        -71.98121022854687
                    ],
                    [
                        68.50131253744259,
                        -71.96613123805535
                    ],
                    [
                        68.53342432541587,
                        -71.95116337285866
                    ],
                    [
                        68.56599521964111,
                        -71.93630131257794
                    ],
                    [
                        68.59923253963832,
                        -71.92158938812649
                    ],
                    [
                        68.63296807179115,
                        -71.90698755797452
                    ],
                    [
                        68.66708294896237,
                        -71.89248597829351
                    ],
                    [
                        68.70166544376784,
                        -71.87809034285159
                    ],
                    [
                        68.73664007925245,
                        -71.8638009138447
                    ],
                    [
                        68.77194429363847,
                        -71.84959544603674
                    ],
                    [
                        68.80758871278326,
                        -71.83547986068393
                    ],
                    [
                        68.84342747261972,
                        -71.82141707804155
                    ],
                    [
                        68.87933670129924,
                        -71.80738239966895
                    ],
                    [
                        68.91535126048599,
                        -71.7933799656256
                    ],
                    [
                        68.95137981455353,
                        -71.77939388944833
                    ],
                    [
                        68.98738431453242,
                        -71.7654051273746
                    ],
                    [
                        69.02333782678886,
                        -71.7514056265768
                    ],
                    [
                        69.05911737593888,
                        -71.73738063719091
                    ],
                    [
                        69.09463599378617,
                        -71.72328614499297
                    ],
                    [
                        69.12970953435432,
                        -71.70910021977436
                    ],
                    [
                        69.16434041825934,
                        -71.69480892710627
                    ],
                    [
                        69.19846798666156,
                        -71.68041001643357
                    ],
                    [
                        69.23190980744363,
                        -71.66585311015494
                    ],
                    [
                        69.26470246678204,
                        -71.65116206024985
                    ],
                    [
                        69.296806865807,
                        -71.63633245838724
                    ],
                    [
                        69.32808135118464,
                        -71.62132370505572
                    ],
                    [
                        69.35860342532504,
                        -71.60617410073829
                    ],
                    [
                        69.38835268164696,
                        -71.59087666809185
                    ],
                    [
                        69.41718090210973,
                        -71.5754044543106
                    ],
                    [
                        69.44518155993539,
                        -71.5597927895186
                    ],
                    [
                        69.47234254257295,
                        -71.54403565805548
                    ],
                    [
                        69.4985351079352,
                        -71.5281132105514
                    ],
                    [
                        69.52395963869431,
                        -71.51208293833523
                    ],
                    [
                        69.54869042114682,
                        -71.49593462409328
                    ],
                    [
                        69.57255829656572,
                        -71.47966752629038
                    ],
                    [
                        69.59566029169169,
                        -71.46329325887267
                    ],
                    [
                        69.6181226093278,
                        -71.44683164339834
                    ],
                    [
                        69.63983314258896,
                        -71.4302694993691
                    ],
                    [
                        69.6608893138606,
                        -71.41362799459631
                    ],
                    [
                        69.68135023142273,
                        -71.39690938782907
                    ],
                    [
                        69.70114958448393,
                        -71.38011545453516
                    ],
                    [
                        69.72041000225569,
                        -71.36326072286586
                    ],
                    [
                        69.73919588719936,
                        -71.34635282593042
                    ],
                    [
                        69.75745624973392,
                        -71.32939053704877
                    ],
                    [
                        69.77531051941362,
                        -71.31238797514507
                    ],
                    [
                        69.79284322598538,
                        -71.29535034943724
                    ],
                    [
                        69.80991447498452,
                        -71.27827069530473
                    ],
                    [
                        69.8266790890726,
                        -71.26115774046472
                    ],
                    [
                        69.84309682561093,
                        -71.2440162831918
                    ],
                    [
                        69.85920212831196,
                        -71.22684560680528
                    ],
                    [
                        69.87500101601184,
                        -71.20964641402841
                    ],
                    [
                        69.89043162656327,
                        -71.19241138782247
                    ],
                    [
                        69.90548014178262,
                        -71.17514843123757
                    ],
                    [
                        69.92020965087222,
                        -71.15786020448148
                    ],
                    [
                        69.93472422392101,
                        -71.14054944039721
                    ],
                    [
                        69.94889830763448,
                        -71.12321560788277
                    ],
                    [
                        69.96280771926713,
                        -71.10586287209772
                    ],
                    [
                        69.97641633734904,
                        -71.0884821730316
                    ],
                    [
                        69.98967397706132,
                        -71.07107709724752
                    ],
                    [
                        70.00265628576511,
                        -71.05365179031995
                    ],
                    [
                        70.0153562215579,
                        -71.0362053950317
                    ],
                    [
                        70.02771289155699,
                        -71.01873545046219
                    ],
                    [
                        70.03975048457396,
                        -71.00124478425285
                    ],
                    [
                        70.05149262981142,
                        -70.98373139153304
                    ],
                    [
                        70.0629328503273,
                        -70.96619924018214
                    ],
                    [
                        70.07409001327537,
                        -70.94865052849904
                    ],
                    [
                        70.08494942187309,
                        -70.9310834803286
                    ],
                    [
                        70.09550158134421,
                        -70.91349693236955
                    ],
                    [
                        70.1057889707595,
                        -70.89590064280867
                    ],
                    [
                        70.11583861954382,
                        -70.87827872227537
                    ],
                    [
                        70.12552365066725,
                        -70.86064943482322
                    ],
                    [
                        70.13495291873953,
                        -70.84300182342994
                    ],
                    [
                        70.14415531177433,
                        -70.82533927864853
                    ],
                    [
                        70.15311963901652,
                        -70.80766995967586
                    ],
                    [
                        70.16189878995982,
                        -70.7899858248758
                    ],
                    [
                        70.17049682701668,
                        -70.77229684905235
                    ],
                    [
                        70.17890914231337,
                        -70.75460245204935
                    ],
                    [
                        70.18717862110734,
                        -70.73689818184457
                    ],
                    [
                        70.1953897958938,
                        -70.7191940731289
                    ],
                    [
                        70.20356524774972,
                        -70.70148804405314
                    ],
                    [
                        70.21168980101167,
                        -70.68377828083588
                    ],
                    [
                        70.2197493601805,
                        -70.66607261080651
                    ],
                    [
                        70.22780100697109,
                        -70.64836355258963
                    ],
                    [
                        70.23586812244383,
                        -70.63065865083885
                    ],
                    [
                        70.24400543288472,
                        -70.61295492388894
                    ],
                    [
                        70.25229383720887,
                        -70.59526204085464
                    ],
                    [
                        70.26075623701077,
                        -70.5775875167762
                    ],
                    [
                        70.26945786117722,
                        -70.55991539561869
                    ],
                    [
                        70.27843806062502,
                        -70.54226943946499
                    ],
                    [
                        70.28773187415355,
                        -70.52463486161744
                    ],
                    [
                        70.29744495388513,
                        -70.50702909862704
                    ],
                    [
                        70.30766694457388,
                        -70.48946293108051
                    ],
                    [
                        70.31835765955985,
                        -70.47192210832188
                    ],
                    [
                        70.32952195831844,
                        -70.4544167717447
                    ],
                    [
                        70.34134667105181,
                        -70.43696458448339
                    ],
                    [
                        70.35386275943544,
                        -70.41956931118128
                    ],
                    [
                        70.36714574176926,
                        -70.40223529440463
                    ],
                    [
                        70.38138039587004,
                        -70.38499420297732
                    ],
                    [
                        70.3965142406617,
                        -70.36783977948765
                    ],
                    [
                        70.4125656686971,
                        -70.3507789823021
                    ],
                    [
                        70.42982445545596,
                        -70.33386073493719
                    ],
                    [
                        70.44805273830542,
                        -70.31705650609011
                    ],
                    [
                        70.46721502162171,
                        -70.30037621569383
                    ],
                    [
                        70.487545120522,
                        -70.28385723333115
                    ],
                    [
                        70.5088010058041,
                        -70.26747046279141
                    ],
                    [
                        70.53084727207485,
                        -70.25120905934749
                    ],
                    [
                        70.55390837570332,
                        -70.23511392199336
                    ],
                    [
                        70.57779313449893,
                        -70.21916200640392
                    ],
                    [
                        70.60241046274426,
                        -70.2033422449154
                    ],
                    [
                        70.62780692688342,
                        -70.18766473777993
                    ],
                    [
                        70.65381032565826,
                        -70.17211347841318
                    ],
                    [
                        70.68037874555681,
                        -70.15667380692082
                    ],
                    [
                        70.70761306812439,
                        -70.14137648753918
                    ],
                    [
                        70.73535912604333,
                        -70.12618874706318
                    ],
                    [
                        70.7636490565661,
                        -70.11111894635965
                    ],
                    [
                        70.79258442148979,
                        -70.09620259434502
                    ],
                    [
                        70.82196309508153,
                        -70.08139179167713
                    ],
                    [
                        70.85181490115313,
                        -70.06669460786439
                    ],
                    [
                        70.8822266960558,
                        -70.05214475801162
                    ],
                    [
                        70.91312603502057,
                        -70.03771449267809
                    ],
                    [
                        70.94452993404154,
                        -70.02342449564846
                    ],
                    [
                        70.97640203373756,
                        -70.00926076079044
                    ],
                    [
                        71.00865595646407,
                        -69.9951986842263
                    ],
                    [
                        71.04134421060837,
                        -69.98126785844026
                    ],
                    [
                        71.07452711868504,
                        -69.96748456753537
                    ],
                    [
                        71.1080441510629,
                        -69.95379661816636
                    ],
                    [
                        71.14178846709167,
                        -69.94018655982593
                    ],
                    [
                        71.17583705486147,
                        -69.92666797381769
                    ],
                    [
                        71.21018459460457,
                        -69.91325419983997
                    ],
                    [
                        71.24476828321251,
                        -69.89991411050093
                    ],
                    [
                        71.27950369650868,
                        -69.88663298293866
                    ],
                    [
                        71.31440483428673,
                        -69.87340761449163
                    ],
                    [
                        71.34949853385822,
                        -69.86025514676174
                    ],
                    [
                        71.38484450843082,
                        -69.84718708126388
                    ],
                    [
                        71.42037243979931,
                        -69.83418565842042
                    ],
                    [
                        71.45608233881569,
                        -69.82125073908593
                    ],
                    [
                        71.49195050048978,
                        -69.8083841500727
                    ],
                    [
                        71.52799989055093,
                        -69.79557899274036
                    ],
                    [
                        71.56418150898523,
                        -69.78282947824165
                    ],
                    [
                        71.60047989990467,
                        -69.77012900648121
                    ],
                    [
                        71.63688449630119,
                        -69.75747155426431
                    ],
                    [
                        71.67339618471374,
                        -69.74486183171658
                    ],
                    [
                        71.71001418677369,
                        -69.7322949477034
                    ],
                    [
                        71.74673207383933,
                        -69.71977477196901
                    ],
                    [
                        71.78355150551567,
                        -69.70729669764049
                    ],
                    [
                        71.82050691363811,
                        -69.69487865419389
                    ],
                    [
                        71.85753537855902,
                        -69.68248986481082
                    ],
                    [
                        71.894620747342,
                        -69.67013311750159
                    ],
                    [
                        71.93177620329892,
                        -69.65781453698004
                    ],
                    [
                        71.96902288168073,
                        -69.64553174615223
                    ],
                    [
                        72.00635291018357,
                        -69.63329315424217
                    ],
                    [
                        72.0437703447474,
                        -69.62109443836172
                    ],
                    [
                        72.08123442529462,
                        -69.60892153303175
                    ],
                    [
                        72.11872967513345,
                        -69.5967679481802
                    ],
                    [
                        72.15624250749853,
                        -69.58463679914162
                    ],
                    [
                        72.1938012644301,
                        -69.57252653650565
                    ],
                    [
                        72.23140696074198,
                        -69.56044190548135
                    ],
                    [
                        72.26903924704598,
                        -69.54837588722071
                    ],
                    [
                        72.30668118450748,
                        -69.53632654738895
                    ],
                    [
                        72.34434986594032,
                        -69.52429575679673
                    ],
                    [
                        72.38204879016365,
                        -69.5122885424811
                    ],
                    [
                        72.41969776477397,
                        -69.50027254850922
                    ],
                    [
                        72.45736195773918,
                        -69.48826437182561
                    ],
                    [
                        72.49504830161727,
                        -69.47627410563281
                    ],
                    [
                        72.53274614001293,
                        -69.46429585492585
                    ],
                    [
                        72.57051405928877,
                        -69.45235942817104
                    ],
                    [
                        72.60837640749389,
                        -69.44046742355287
                    ],
                    [
                        72.64628863639228,
                        -69.42861017543693
                    ],
                    [
                        72.68429094898573,
                        -69.416787354377
                    ],
                    [
                        72.72239253984002,
                        -69.40501856433195
                    ],
                    [
                        72.76060189629642,
                        -69.39330929611512
                    ],
                    [
                        72.79903235735522,
                        -69.38169047544152
                    ],
                    [
                        72.83778099782272,
                        -69.37021448577188
                    ],
                    [
                        72.87674238952395,
                        -69.35884157763485
                    ],
                    [
                        72.91595766662849,
                        -69.34758533776814
                    ],
                    [
                        72.95544384137935,
                        -69.33645669596545
                    ],
                    [
                        72.99520122947739,
                        -69.3254554256911
                    ],
                    [
                        73.03518557843788,
                        -69.31457182923135
                    ],
                    [
                        73.07549938752506,
                        -69.30384933203906
                    ],
                    [
                        73.11610211883959,
                        -69.29328325339199
                    ],
                    [
                        73.15704125228194,
                        -69.28288303840161
                    ],
                    [
                        73.19824622227279,
                        -69.27263614113512
                    ],
                    [
                        73.2396273845174,
                        -69.26248148294923
                    ],
                    [
                        73.2810466126674,
                        -69.25235295379241
                    ],
                    [
                        73.32231855034918,
                        -69.24216564008272
                    ],
                    [
                        73.36348043561239,
                        -69.23193756422818
                    ],
                    [
                        73.40464668232222,
                        -69.22171347356223
                    ],
                    [
                        73.44591636453382,
                        -69.21155961198617
                    ],
                    [
                        73.48731142010058,
                        -69.2014781583585
                    ],
                    [
                        73.52879354752261,
                        -69.19145564190697
                    ],
                    [
                        73.57039437071293,
                        -69.18150455921334
                    ],
                    [
                        73.61210215688538,
                        -69.17162353851435
                    ],
                    [
                        73.65395580206601,
                        -69.1618257951768
                    ],
                    [
                        73.69594250816431,
                        -69.15211446895074
                    ],
                    [
                        73.73805063227103,
                        -69.14248818421297
                    ],
                    [
                        73.78030695685446,
                        -69.13294956106682
                    ],
                    [
                        73.82280075009308,
                        -69.12355870175942
                    ],
                    [
                        73.8650105911766,
                        -69.11401786932583
                    ],
                    [
                        73.90718103123628,
                        -69.10446623392421
                    ],
                    [
                        73.94931207979026,
                        -69.09490381217667
                    ],
                    [
                        73.99140374650935,
                        -69.08533062069442
                    ],
                    [
                        74.03345604121627,
                        -69.07574667607761
                    ],
                    [
                        74.07546897388507,
                        -69.06615199491542
                    ],
                    [
                        74.11744255464043,
                        -69.05654659378581
                    ],
                    [
                        74.15937679375705,
                        -69.04693048925562
                    ],
                    [
                        74.20127170165894,
                        -69.03730369788042
                    ],
                    [
                        74.24312728891881,
                        -69.02766623620447
                    ],
                    [
                        74.28494356625743,
                        -69.01801812076069
                    ],
                    [
                        74.32672054454288,
                        -69.00835936807051
                    ],
                    [
                        74.36845823479007,
                        -68.998689994644
                    ],
                    [
                        74.41015664815988,
                        -68.98901001697958
                    ],
                    [
                        74.45181579595868,
                        -68.97931945156412
                    ],
                    [
                        74.49343568963765,
                        -68.96961831487285
                    ],
                    [
                        74.53501634079204,
                        -68.95990662336922
                    ],
                    [
                        74.57655776116063,
                        -68.95018439350503
                    ],
                    [
                        74.618059962625,
                        -68.94045164172013
                    ],
                    [
                        74.65952295720898,
                        -68.93070838444257
                    ]
                ]
            }
        }
    ]
}
