{
    "type": "FeatureCollection",
    "features": [
        {
            "type": "Feature",
            "properties": {
                "name": "Greenland Glacier 0213",
                "object": "transect",
                "component": "landice",
                "author": "Matthew Hoffman, converted from Felikson et al. (2020) Zenodo dataset",
                "tags": "Greenland_Ice_Sheet;flowline;zenodo_4284759;glacier_0213;gr\u00e5ulv",
                "citation": "Felikson, Denis, Catania, Ginny, Bartholomaus, Timothy, Morlighem, Mathieu, & No\u00ebl, Brice. (2020). Inland limits to diffusion of thinning along Greenland Ice Sheet outlet glaciers (v1.0) [Data set]. Zenodo. https://doi.org/10.5281/zenodo.4284759",
                "license": "CC-BY-4.0",
                "officialName": "Gr\u00e5ulv",
                "foreignName": "Gr\u00e5ulv"
            },
            "geometry": {
                "type": "LineString",
                "coordinates": [
                    [
                        -44.20316519338455,
                        64.18385913152385
                    ],
                    [
                        -44.20813682682819,
                        64.18597960344204
                    ],
                    [
                        -44.203096506964165,
                        64.18601235560436
                    ],
                    [
                        -44.203961039781476,
                        64.18382044037023
                    ],
                    [
                        -44.20817762007641,
                        64.18604307244935
                    ],
                    [
                        -44.2031397510831,
                        64.18599859734745
                    ],
                    [
                        -44.20441062586756,
                        64.18380914304846
                    ],
                    [
                        -44.209398643187626,
                        64.18541492802156
                    ],
                    [
                        -44.204327823865434,
                        64.18640889544892
                    ],
                    [
                        -44.20679917650515,
                        64.18422667928579
                    ],
                    [
                        -44.20886951119678,
                        64.18643631767183
                    ],
                    [
                        -44.2038396712518,
                        64.18613743186428
                    ],
                    [
                        -44.2058769925056,
                        64.18395260453441
                    ],
                    [
                        -44.20896965807835,
                        64.18616841405378
                    ],
                    [
                        -44.203928461137096,
                        64.18622755843347
                    ],
                    [
                        -44.2060464919196,
                        64.1840432166916
                    ],
                    [
                        -44.20887860894019,
                        64.1862574544437
                    ],
                    [
                        -44.20384050271478,
                        64.18621905367117
                    ],
                    [
                        -44.20589444379574,
                        64.18403432604838
                    ],
                    [
                        -44.208649828927605,
                        64.1862481050074
                    ],
                    [
                        -44.203613985326875,
                        64.18613879576421
                    ],
                    [
                        -44.205479156656715,
                        64.18395293093187
                    ],
                    [
                        -44.20886996623908,
                        64.18617054539224
                    ],
                    [
                        -44.20382759014214,
                        64.18626666058053
                    ],
                    [
                        -44.205882184945146,
                        64.18408193667896
                    ],
                    [
                        -44.20753744513312,
                        64.18628908627457
                    ],
                    [
                        -44.20246630664865,
                        64.18728510449148
                    ],
                    [
                        -44.20757057113145,
                        64.18524486650176
                    ],
                    [
                        -44.205931404847895,
                        64.18743213727308
                    ],
                    [
                        -44.20088069831623,
                        64.18778021512107
                    ],
                    [
                        -44.19679469163393,
                        64.18995249674515
                    ],
                    [
                        -44.192086137636096,
                        64.19212084850099
                    ],
                    [
                        -44.18697659790997,
                        64.19424055562435
                    ],
                    [
                        -44.181906790457546,
                        64.19512087676807
                    ],
                    [
                        -44.176885562813936,
                        64.19451641250987
                    ],
                    [
                        -44.17184264117611,
                        64.19457325638919
                    ],
                    [
                        -44.1667770520928,
                        64.1953085680396
                    ],
                    [
                        -44.16168466574053,
                        64.19683300176354
                    ],
                    [
                        -44.15660757153131,
                        64.19788612088088
                    ],
                    [
                        -44.15151813060767,
                        64.19928976817503
                    ],
                    [
                        -44.14645787575964,
                        64.19982279245009
                    ],
                    [
                        -44.141419519513406,
                        64.19971255583626
                    ],
                    [
                        -44.13633252535141,
                        64.20100945951475
                    ],
                    [
                        -44.13125498996374,
                        64.20201917435577
                    ],
                    [
                        -44.126185246554506,
                        64.20279435516868
                    ],
                    [
                        -44.1211177853319,
                        64.20349557883614
                    ],
                    [
                        -44.11604340818207,
                        64.20438387711677
                    ],
                    [
                        -44.110976899988465,
                        64.20504089971934
                    ],
                    [
                        -44.10591208745456,
                        64.20564294396645
                    ],
                    [
                        -44.10086247659625,
                        64.20581599868095
                    ],
                    [
                        -44.09580189478828,
                        64.20628979171403
                    ],
                    [
                        -44.09085846075125,
                        64.20845311647442
                    ],
                    [
                        -44.086734978180225,
                        64.21062197578345
                    ],
                    [
                        -44.08235165991218,
                        64.21278891631944
                    ],
                    [
                        -44.077849407192915,
                        64.21495490043598
                    ],
                    [
                        -44.07373490313694,
                        64.21712348485188
                    ],
                    [
                        -44.07021596961211,
                        64.21929617429885
                    ],
                    [
                        -44.067076758925275,
                        64.22147148524246
                    ],
                    [
                        -44.06390497670714,
                        64.223646511671
                    ],
                    [
                        -44.05953069915109,
                        64.22581289495707
                    ],
                    [
                        -44.05443661085501,
                        64.22704130453123
                    ],
                    [
                        -44.0493881032329,
                        64.22706047670142
                    ],
                    [
                        -44.04435451299301,
                        64.22668991648312
                    ],
                    [
                        -44.03929945562774,
                        64.22688039837847
                    ],
                    [
                        -44.03422423362241,
                        64.22758946142578
                    ],
                    [
                        -44.02914026428315,
                        64.22851563264194
                    ],
                    [
                        -44.02405740770962,
                        64.22940352711356
                    ],
                    [
                        -44.018986878299174,
                        64.22996865339388
                    ],
                    [
                        -44.01391938627185,
                        64.23045095767513
                    ],
                    [
                        -44.00885107078414,
                        64.23094885650391
                    ],
                    [
                        -44.00378774162663,
                        64.23131667552319
                    ],
                    [
                        -43.99871232292095,
                        64.23198167797163
                    ],
                    [
                        -43.993604254321475,
                        64.23344878720452
                    ],
                    [
                        -43.98882600409858,
                        64.2356098710084
                    ],
                    [
                        -43.98370399095334,
                        64.23738621445524
                    ],
                    [
                        -43.97862770627017,
                        64.23802837270135
                    ],
                    [
                        -43.97357990674041,
                        64.23797210060219
                    ],
                    [
                        -43.96852320579509,
                        64.238131342398
                    ],
                    [
                        -43.963426999931855,
                        64.2392390022287
                    ],
                    [
                        -43.9583233443599,
                        64.24051392089136
                    ],
                    [
                        -43.9532409997869,
                        64.24126870471171
                    ],
                    [
                        -43.94817323065305,
                        64.24167056921547
                    ],
                    [
                        -43.94310486384247,
                        64.24208248358416
                    ],
                    [
                        -43.93801281266282,
                        64.24304620462549
                    ],
                    [
                        -43.93289599579589,
                        64.24457902971169
                    ],
                    [
                        -43.927994154594266,
                        64.24673705518717
                    ],
                    [
                        -43.92286605501789,
                        64.24849878217219
                    ],
                    [
                        -43.91779417618599,
                        64.24894901602798
                    ],
                    [
                        -43.912741899074405,
                        64.24894556465713
                    ],
                    [
                        -43.90768314567185,
                        64.24908971053128
                    ],
                    [
                        -43.90259352965873,
                        64.24993319944666
                    ],
                    [
                        -43.897498580413085,
                        64.25088925515642
                    ],
                    [
                        -43.892395983090964,
                        64.25200838933392
                    ],
                    [
                        -43.887313032344345,
                        64.25267710219116
                    ],
                    [
                        -43.8822757259202,
                        64.25232199622485
                    ],
                    [
                        -43.8772851600537,
                        64.25093248384763
                    ],
                    [
                        -43.872282685366564,
                        64.24981825311525
                    ],
                    [
                        -43.86724244553158,
                        64.2495445393156
                    ],
                    [
                        -43.86218239891666,
                        64.24970687463376
                    ],
                    [
                        -43.85717899013382,
                        64.24863253750334
                    ],
                    [
                        -43.852127059571885,
                        64.2486208785654
                    ],
                    [
                        -43.84814205544385,
                        64.2463881662075
                    ],
                    [
                        -43.84318722957069,
                        64.24429395014174
                    ],
                    [
                        -43.838117990693135,
                        64.24467206846771
                    ],
                    [
                        -43.83300613119397,
                        64.24595699828251
                    ],
                    [
                        -43.827926699363026,
                        64.24654100048416
                    ],
                    [
                        -43.82287855767858,
                        64.24645727892099
                    ],
                    [
                        -43.817877194359546,
                        64.24538782992252
                    ],
                    [
                        -43.812858266539074,
                        64.24469598875956
                    ],
                    [
                        -43.807790398138465,
                        64.24503297927751
                    ],
                    [
                        -43.8026777500606,
                        64.24629908308314
                    ],
                    [
                        -43.79778115522397,
                        64.24845242389411
                    ],
                    [
                        -43.79265932126576,
                        64.24988278618095
                    ],
                    [
                        -43.78753193999816,
                        64.25141488340677
                    ],
                    [
                        -43.78240395995206,
                        64.25294614270314
                    ],
                    [
                        -43.77727550830583,
                        64.25447398005029
                    ],
                    [
                        -43.77218670582244,
                        64.25518432228013
                    ],
                    [
                        -43.7671283744276,
                        64.25527283623286
                    ],
                    [
                        -43.76208116318396,
                        64.25513662530527
                    ],
                    [
                        -43.75703768357914,
                        64.25492652740911
                    ],
                    [
                        -43.75197926186954,
                        64.2550162377751
                    ],
                    [
                        -43.74689786379979,
                        64.2555618612021
                    ],
                    [
                        -43.74181494565721,
                        64.25613298386831
                    ],
                    [
                        -43.73674927587923,
                        64.25635915042616
                    ],
                    [
                        -43.731716223145945,
                        64.25594260502484
                    ],
                    [
                        -43.72670997495839,
                        64.25500467769542
                    ],
                    [
                        -43.72171382078897,
                        64.253877161943
                    ],
                    [
                        -43.7167053107982,
                        64.25299814515067
                    ],
                    [
                        -43.71169323457372,
                        64.2521947504487
                    ],
                    [
                        -43.706664711426185,
                        64.25171426893891
                    ],
                    [
                        -43.70164816511111,
                        64.25100745722057
                    ],
                    [
                        -43.6966185723819,
                        64.25055532774638
                    ],
                    [
                        -43.691568895002696,
                        64.25048899626155
                    ],
                    [
                        -43.6865159844234,
                        64.2504843206239
                    ],
                    [
                        -43.681475969595986,
                        64.25023577176353
                    ],
                    [
                        -43.67644483964404,
                        64.24982164442702
                    ],
                    [
                        -43.671382366056186,
                        64.24999834542449
                    ],
                    [
                        -43.66629590705858,
                        64.25062165448696
                    ],
                    [
                        -43.66121155129954,
                        64.2512008879048
                    ],
                    [
                        -43.65613545632687,
                        64.25162237702568
                    ],
                    [
                        -43.65107667004204,
                        64.25172077729644
                    ],
                    [
                        -43.64602769276987,
                        64.25163773291789
                    ],
                    [
                        -43.64100549540664,
                        64.25106409763457
                    ],
                    [
                        -43.635972976071315,
                        64.25068306062866
                    ],
                    [
                        -43.630922044974454,
                        64.25063974521119
                    ],
                    [
                        -43.62585163590573,
                        64.25094976073649
                    ],
                    [
                        -43.620772166907024,
                        64.25142098296762
                    ],
                    [
                        -43.61569905981152,
                        64.25177404116859
                    ],
                    [
                        -43.61061489432164,
                        64.25232264476641
                    ],
                    [
                        -43.605527874717225,
                        64.25291805092061
                    ],
                    [
                        -43.600430355736634,
                        64.25369584728385
                    ],
                    [
                        -43.59531304259823,
                        64.25481888857102
                    ],
                    [
                        -43.59017364566849,
                        64.25632383003662
                    ],
                    [
                        -43.585057185065104,
                        64.25741383470141
                    ],
                    [
                        -43.57996266787351,
                        64.25811085472064
                    ],
                    [
                        -43.57485807251202,
                        64.258978857094
                    ],
                    [
                        -43.569743280691235,
                        64.26001805313749
                    ],
                    [
                        -43.56463585740817,
                        64.26092178225939
                    ],
                    [
                        -43.5595610110389,
                        64.2612556010229
                    ],
                    [
                        -43.55449766670394,
                        64.26138868792613
                    ],
                    [
                        -43.54943362677388,
                        64.26153259622801
                    ],
                    [
                        -43.54437112468069,
                        64.26164899528284
                    ],
                    [
                        -43.5393047942116,
                        64.26182967467763
                    ],
                    [
                        -43.53424525040545,
                        64.26189358707923
                    ],
                    [
                        -43.529195897537754,
                        64.26178428839489
                    ],
                    [
                        -43.52414610686198,
                        64.26168293339312
                    ],
                    [
                        -43.51909556905943,
                        64.26159464266786
                    ],
                    [
                        -43.51403032258122,
                        64.26175330334914
                    ],
                    [
                        -43.508949360050025,
                        64.26217322016073
                    ],
                    [
                        -43.503870164919796,
                        64.26256066848289
                    ],
                    [
                        -43.49879906484326,
                        64.26281099761957
                    ],
                    [
                        -43.49374674305733,
                        64.26274894727258
                    ],
                    [
                        -43.488689659709074,
                        64.26276558889761
                    ],
                    [
                        -43.483625910212524,
                        64.2628914164226
                    ],
                    [
                        -43.47856492876947,
                        64.2629708996125
                    ],
                    [
                        -43.47351439884079,
                        64.2628791373158
                    ],
                    [
                        -43.468479386289474,
                        64.26253543906935
                    ],
                    [
                        -43.46344538969436,
                        64.2621773334731
                    ],
                    [
                        -43.45840725417713,
                        64.26188824565486
                    ],
                    [
                        -43.45337529074893,
                        64.2615014531709
                    ],
                    [
                        -43.44834528934842,
                        64.26108548305243
                    ],
                    [
                        -43.44329652561424,
                        64.26097221336254
                    ],
                    [
                        -43.43822046221129,
                        64.26129486367797
                    ],
                    [
                        -43.43312306371751,
                        64.2619543689263
                    ],
                    [
                        -43.42801103178055,
                        64.26284124906425
                    ],
                    [
                        -43.42290467328732,
                        64.26363259379362
                    ],
                    [
                        -43.41781729436118,
                        64.2641198914073
                    ],
                    [
                        -43.412748185299364,
                        64.26431721742955
                    ],
                    [
                        -43.407697245880826,
                        64.26422891565569
                    ],
                    [
                        -43.402646690809576,
                        64.26413498687124
                    ],
                    [
                        -43.397585184697775,
                        64.26421165565158
                    ],
                    [
                        -43.39251549296452,
                        64.26441446442621
                    ],
                    [
                        -43.38743927428877,
                        64.26471660359502
                    ],
                    [
                        -43.382358312986476,
                        64.26508966446005
                    ],
                    [
                        -43.37728791147409,
                        64.26529813953229
                    ],
                    [
                        -43.372230890308,
                        64.26530041948423
                    ],
                    [
                        -43.36718113451561,
                        64.26519168393054
                    ],
                    [
                        -43.362128856215136,
                        64.2651217794772
                    ],
                    [
                        -43.357079564522,
                        64.26500684129452
                    ],
                    [
                        -43.35202730519345,
                        64.26493725962182
                    ],
                    [
                        -43.34695624498032,
                        64.26515114652032
                    ],
                    [
                        -43.34186393395723,
                        64.26568268638357
                    ],
                    [
                        -43.336763081770926,
                        64.26633865507088
                    ],
                    [
                        -43.33166340169445,
                        64.26697292393209
                    ],
                    [
                        -43.326567673865334,
                        64.26754432378243
                    ],
                    [
                        -43.321476250249546,
                        64.26804820930253
                    ],
                    [
                        -43.31637963075917,
                        64.26862569643976
                    ],
                    [
                        -43.311284953280385,
                        64.26917086994744
                    ],
                    [
                        -43.30620459531483,
                        64.26950207566067
                    ],
                    [
                        -43.30116122210469,
                        64.26928905538105
                    ],
                    [
                        -43.29616934570237,
                        64.26832455538681
                    ],
                    [
                        -43.29118062911057,
                        64.26731945993528
                    ],
                    [
                        -43.28617183556871,
                        64.26661174139787
                    ],
                    [
                        -43.28116855894014,
                        64.26582803176814
                    ],
                    [
                        -43.276193452515216,
                        64.26464173151031
                    ],
                    [
                        -43.271246043880325,
                        64.2630630710394
                    ],
                    [
                        -43.26647771740037,
                        64.26080181028046
                    ],
                    [
                        -43.26294343919677,
                        64.25855666557108
                    ],
                    [
                        -43.2596525293136,
                        64.25631465313495
                    ],
                    [
                        -43.256402008180935,
                        64.2540731047427
                    ],
                    [
                        -43.252968140404455,
                        64.25182905540251
                    ],
                    [
                        -43.24950684201399,
                        64.24958456304114
                    ],
                    [
                        -43.24656051949732,
                        64.24734685016773
                    ],
                    [
                        -43.24430734373886,
                        64.24511832923773
                    ],
                    [
                        -43.242310618648666,
                        64.24289320793741
                    ],
                    [
                        -43.23976178708053,
                        64.24066068864501
                    ],
                    [
                        -43.236440471073664,
                        64.2384177847943
                    ],
                    [
                        -43.23283349677061,
                        64.2361709731239
                    ],
                    [
                        -43.22959273054289,
                        64.23392900054864
                    ],
                    [
                        -43.22659565640422,
                        64.23169024420767
                    ],
                    [
                        -43.223472907311546,
                        64.22944973485913
                    ],
                    [
                        -43.22012346777958,
                        64.22720609655984
                    ],
                    [
                        -43.215971852537166,
                        64.22495150815668
                    ],
                    [
                        -43.21127631016951,
                        64.22268940291195
                    ],
                    [
                        -43.20690080322493,
                        64.22043150151457
                    ],
                    [
                        -43.20286868530082,
                        64.21817815607032
                    ],
                    [
                        -43.19845712451007,
                        64.21591949921702
                    ],
                    [
                        -43.193705617096526,
                        64.21365603397273
                    ],
                    [
                        -43.18882156451919,
                        64.2114129874964
                    ],
                    [
                        -43.1840276995288,
                        64.20914860461596
                    ],
                    [
                        -43.17913794250387,
                        64.2070074196054
                    ],
                    [
                        -43.174233233651385,
                        64.2050819083772
                    ],
                    [
                        -43.169322224219975,
                        64.20325243795176
                    ],
                    [
                        -43.164412872607635,
                        64.20141004160372
                    ],
                    [
                        -43.1595169421672,
                        64.19939528374354
                    ],
                    [
                        -43.15462252017985,
                        64.19737064163547
                    ],
                    [
                        -43.14972785396475,
                        64.19535983629102
                    ],
                    [
                        -43.14483661176849,
                        64.19331339255623
                    ],
                    [
                        -43.139951801956116,
                        64.19119119897721
                    ],
                    [
                        -43.135071795301904,
                        64.18901564480855
                    ],
                    [
                        -43.1301922534194,
                        64.18684507281905
                    ],
                    [
                        -43.125316825097265,
                        64.18463083457196
                    ],
                    [
                        -43.120444768725,
                        64.18238311100355
                    ],
                    [
                        -43.11556267791697,
                        64.18027984866815
                    ],
                    [
                        -43.11068085153769,
                        64.1781837921572
                    ],
                    [
                        -43.10579520046809,
                        64.17614881268646
                    ],
                    [
                        -43.10090429264704,
                        64.17419328810107
                    ],
                    [
                        -43.09600204876202,
                        64.17239639344008
                    ],
                    [
                        -43.09109650238088,
                        64.17065178155181
                    ],
                    [
                        -43.08619005021778,
                        64.16892776525187
                    ],
                    [
                        -43.081274998494095,
                        64.16732439005575
                    ],
                    [
                        -43.076354423968134,
                        64.16580077907187
                    ],
                    [
                        -43.071430987404135,
                        64.16432185291822
                    ],
                    [
                        -43.06650331212979,
                        64.16290507057175
                    ],
                    [
                        -43.061568391007704,
                        64.16158873937968
                    ],
                    [
                        -43.05662424818298,
                        64.16039751901872
                    ],
                    [
                        -43.05167634974224,
                        64.15926034441617
                    ],
                    [
                        -43.04672708808553,
                        64.15814619344826
                    ],
                    [
                        -43.041775246895334,
                        64.15707041998623
                    ],
                    [
                        -43.036817970284254,
                        64.15606910292671
                    ],
                    [
                        -43.03185849172913,
                        64.15510061444408
                    ],
                    [
                        -43.02690095284522,
                        64.15411223267003
                    ],
                    [
                        -43.021948185860815,
                        64.15306830683275
                    ],
                    [
                        -43.01699662982972,
                        64.1520141433792
                    ],
                    [
                        -43.01204490180673,
                        64.15096721031541
                    ],
                    [
                        -43.00708691130081,
                        64.15000386726038
                    ],
                    [
                        -43.00212319424875,
                        64.14911679155242
                    ],
                    [
                        -42.99715094606112,
                        64.14834043695816
                    ],
                    [
                        -42.99217544646689,
                        64.1476082340907
                    ],
                    [
                        -42.98719792954364,
                        64.1469045262178
                    ],
                    [
                        -42.98221804817473,
                        64.14623340565414
                    ],
                    [
                        -42.97723922297891,
                        64.14555234388465
                    ],
                    [
                        -42.9722625591092,
                        64.14484778290665
                    ],
                    [
                        -42.96728694820759,
                        64.14413352924599
                    ],
                    [
                        -42.962310064307836,
                        64.14343819995258
                    ],
                    [
                        -42.957330686189685,
                        64.14277660957218
                    ],
                    [
                        -42.95234784127717,
                        64.14216039269185
                    ],
                    [
                        -42.947363268837876,
                        64.14156802846307
                    ],
                    [
                        -42.942379064649764,
                        64.14097386917479
                    ],
                    [
                        -42.93739473202627,
                        64.14038395008772
                    ],
                    [
                        -42.932410975330356,
                        64.13978971925656
                    ],
                    [
                        -42.927425243989035,
                        64.13922198838203
                    ],
                    [
                        -42.922439267529,
                        64.13865974456978
                    ],
                    [
                        -42.917450305496835,
                        64.13813586387775
                    ],
                    [
                        -42.91246036883241,
                        64.13762597645383
                    ],
                    [
                        -42.90747121893161,
                        64.13710892629538
                    ],
                    [
                        -42.90248318497983,
                        64.13658083774163
                    ],
                    [
                        -42.89749314452652,
                        64.1360789386462
                    ],
                    [
                        -42.89249693092411,
                        64.13565250093379
                    ],
                    [
                        -42.88749645629376,
                        64.13527834867384
                    ],
                    [
                        -42.88249681364223,
                        64.13489594410181
                    ],
                    [
                        -42.87750125233948,
                        64.13446704659768
                    ],
                    [
                        -42.87250561242942,
                        64.13404089758114
                    ],
                    [
                        -42.86750729318124,
                        64.13364798757806
                    ],
                    [
                        -42.862504716210964,
                        64.13330655761217
                    ],
                    [
                        -42.85749910506436,
                        64.13300196101895
                    ],
                    [
                        -42.852492587426866,
                        64.1327091538463
                    ],
                    [
                        -42.847485354160796,
                        64.13242583531337
                    ],
                    [
                        -42.84248094377259,
                        64.13211090721448
                    ],
                    [
                        -42.83747944064044,
                        64.13176361146935
                    ],
                    [
                        -42.83247913438262,
                        64.13140391288202
                    ],
                    [
                        -42.82748082328198,
                        64.13102270305686
                    ],
                    [
                        -42.822482956376774,
                        64.13063794922678
                    ],
                    [
                        -42.81748557272658,
                        64.13024922735129
                    ],
                    [
                        -42.8124851812858,
                        64.1298964932257
                    ],
                    [
                        -42.80748567737076,
                        64.12953504938767
                    ],
                    [
                        -42.80249581402589,
                        64.12906529363758
                    ],
                    [
                        -42.79751708179213,
                        64.12847102376523
                    ],
                    [
                        -42.7925438894648,
                        64.12781645115201
                    ],
                    [
                        -42.78756970188593,
                        64.12717588937933
                    ],
                    [
                        -42.782593984447765,
                        64.12655527727343
                    ],
                    [
                        -42.77761439776029,
                        64.12598082194549
                    ],
                    [
                        -42.77263206821514,
                        64.12543956129633
                    ],
                    [
                        -42.76765010619573,
                        64.1248964078733
                    ],
                    [
                        -42.762667042776556,
                        64.12436780347029
                    ],
                    [
                        -42.75768497724604,
                        64.12383022273669
                    ],
                    [
                        -42.75270073186391,
                        64.12331911068019
                    ],
                    [
                        -42.74771360125366,
                        64.12284212988824
                    ],
                    [
                        -42.74272556121711,
                        64.12237714986982
                    ],
                    [
                        -42.737740355624545,
                        64.12188267465963
                    ],
                    [
                        -42.732758876804084,
                        64.12134904705752
                    ],
                    [
                        -42.72777668857532,
                        64.12082538394937
                    ],
                    [
                        -42.722791839938814,
                        64.12033306226564
                    ],
                    [
                        -42.71780612768229,
                        64.1198521729274
                    ],
                    [
                        -42.712818212886866,
                        64.11939729275684
                    ],
                    [
                        -42.70782715577599,
                        64.11897851412186
                    ],
                    [
                        -42.702830820700875,
                        64.11861887162033
                    ],
                    [
                        -42.69783297074222,
                        64.11827706959528
                    ],
                    [
                        -42.69283714480364,
                        64.1179146002755
                    ],
                    [
                        -42.68784279555122,
                        64.11753752152441
                    ],
                    [
                        -42.68284797649564,
                        64.1171669528873
                    ],
                    [
                        -42.67785310204008,
                        64.1167983852965
                    ],
                    [
                        -42.672863226640004,
                        64.11637744022322
                    ],
                    [
                        -42.66787905389967,
                        64.11589689954104
                    ],
                    [
                        -42.662893724167155,
                        64.11543061093806
                    ],
                    [
                        -42.65790398726698,
                        64.11501322040681
                    ],
                    [
                        -42.65291470825258,
                        64.11459253130198
                    ],
                    [
                        -42.64793542893641,
                        64.11406701381152
                    ],
                    [
                        -42.642962820496614,
                        64.11347268021677
                    ],
                    [
                        -42.63799342688345,
                        64.11284658904574
                    ],
                    [
                        -42.63301794274765,
                        64.11228735368036
                    ],
                    [
                        -42.62804029883163,
                        64.11175307061995
                    ],
                    [
                        -42.62305769628885,
                        64.11127306200656
                    ],
                    [
                        -42.61807346826882,
                        64.11081195664113
                    ],
                    [
                        -42.61309207158217,
                        64.11032289091472
                    ],
                    [
                        -42.60811690360241,
                        64.1097704776984
                    ],
                    [
                        -42.603143200238215,
                        64.10920487063012
                    ],
                    [
                        -42.59816658016644,
                        64.10867182118965
                    ],
                    [
                        -42.59319042038863,
                        64.10813599910894
                    ],
                    [
                        -42.58821731682521,
                        64.10757047190022
                    ],
                    [
                        -42.58323620934261,
                        64.10709000498423
                    ],
                    [
                        -42.57824705295638,
                        64.10669454188185
                    ],
                    [
                        -42.5732566835024,
                        64.10631303098108
                    ],
                    [
                        -42.568271295568174,
                        64.10588160290224
                    ],
                    [
                        -42.56328883271755,
                        64.10542169310094
                    ],
                    [
                        -42.55830842059305,
                        64.10494244077367
                    ],
                    [
                        -42.553326183754955,
                        64.1044836248807
                    ],
                    [
                        -42.54834195672042,
                        64.1040468113904
                    ],
                    [
                        -42.54335437422042,
                        64.10364578290493
                    ],
                    [
                        -42.53836893236967,
                        64.1032244140648
                    ],
                    [
                        -42.53338018438401,
                        64.1028381226596
                    ],
                    [
                        -42.528386453595594,
                        64.10250368429901
                    ],
                    [
                        -42.523396272390855,
                        64.10213451361439
                    ],
                    [
                        -42.5184075360122,
                        64.10175205777759
                    ],
                    [
                        -42.513412999615596,
                        64.10142935784151
                    ],
                    [
                        -42.50840996904146,
                        64.1011931338574
                    ],
                    [
                        -42.50340669691473,
                        64.1009600884948
                    ],
                    [
                        -42.498399665889806,
                        64.10076541304704
                    ],
                    [
                        -42.49338701490731,
                        64.10062747077929
                    ],
                    [
                        -42.48837232780282,
                        64.10051018890326
                    ],
                    [
                        -42.48335441245386,
                        64.1004253061826
                    ],
                    [
                        -42.47833199770387,
                        64.10038525266029
                    ],
                    [
                        -42.47331137214113,
                        64.10032743311199
                    ],
                    [
                        -42.46830398590163,
                        64.1001386926573
                    ],
                    [
                        -42.46331319358486,
                        64.09978668704188
                    ],
                    [
                        -42.458323782302465,
                        64.09942226628485
                    ],
                    [
                        -42.45332559042624,
                        64.09914542979011
                    ],
                    [
                        -42.44832519896651,
                        64.09889107499205
                    ],
                    [
                        -42.443319850325935,
                        64.09868608174655
                    ],
                    [
                        -42.438302318338735,
                        64.09860080558589
                    ],
                    [
                        -42.433278215860746,
                        64.09857977949463
                    ],
                    [
                        -42.42825385354338,
                        64.09856117349293
                    ],
                    [
                        -42.42322955847842,
                        64.09854179404533
                    ],
                    [
                        -42.41821217282039,
                        64.09845527611486
                    ],
                    [
                        -42.413205891103814,
                        64.0982614012664
                    ],
                    [
                        -42.40819838001433,
                        64.09807996309507
                    ],
                    [
                        -42.40319340821062,
                        64.09787454418782
                    ],
                    [
                        -42.3981957458379,
                        64.09759936661693
                    ],
                    [
                        -42.39320858101736,
                        64.0972242004175
                    ],
                    [
                        -42.38821648283461,
                        64.09689758334899
                    ],
                    [
                        -42.383214905728394,
                        64.09666274310435
                    ],
                    [
                        -42.378204642551815,
                        64.09651158190921
                    ],
                    [
                        -42.37319197084551,
                        64.0963837694315
                    ],
                    [
                        -42.368175356545834,
                        64.09629377038873
                    ],
                    [
                        -42.363153422817646,
                        64.09625444584157
                    ],
                    [
                        -42.35812911696336,
                        64.09623756610024
                    ],
                    [
                        -42.35310727067049,
                        64.0961972858921
                    ],
                    [
                        -42.34809414052346,
                        64.09607465052771
                    ],
                    [
                        -42.34308025660518,
                        64.09595939139881
                    ],
                    [
                        -42.33805694225074,
                        64.0959331005812
                    ],
                    [
                        -42.33302579375504,
                        64.09598028429014
                    ],
                    [
                        -42.32799021926727,
                        64.09606858197508
                    ],
                    [
                        -42.322960401905654,
                        64.09610249531515
                    ],
                    [
                        -42.31793190382792,
                        64.09612376973527
                    ],
                    [
                        -42.31289663986229,
                        64.09620783094928
                    ],
                    [
                        -42.3078572888266,
                        64.096329405235
                    ],
                    [
                        -42.302821585265825,
                        64.09641646466726
                    ],
                    [
                        -42.29778654460688,
                        64.09649686299275
                    ],
                    [
                        -42.29274670549371,
                        64.09662115755424
                    ],
                    [
                        -42.2877024612202,
                        64.09678547095986
                    ],
                    [
                        -42.28265309734049,
                        64.09699616324306
                    ],
                    [
                        -42.277602477593554,
                        64.09721743288489
                    ],
                    [
                        -42.272555115479946,
                        64.0974077790015
                    ],
                    [
                        -42.26750814050572,
                        64.09759368047415
                    ],
                    [
                        -42.262455585912036,
                        64.09782974327635
                    ],
                    [
                        -42.257399973652234,
                        64.09809266109416
                    ],
                    [
                        -42.25234506249341,
                        64.09834802799634
                    ],
                    [
                        -42.24728816913976,
                        64.09862029504869
                    ],
                    [
                        -42.24222612361272,
                        64.09893815178958
                    ],
                    [
                        -42.23715933094867,
                        64.0992976743299
                    ],
                    [
                        -42.23208754817407,
                        64.09970082951496
                    ],
                    [
                        -42.22701683858596,
                        64.10009262509818
                    ],
                    [
                        -42.22194503823809,
                        64.10049262737813
                    ],
                    [
                        -42.21687156904437,
                        64.10090599140133
                    ],
                    [
                        -42.21178832321373,
                        64.1014054509065
                    ],
                    [
                        -42.206700506847795,
                        64.10194386570856
                    ],
                    [
                        -42.20161303922984,
                        64.10247700792235
                    ],
                    [
                        -42.19652467250032,
                        64.10301605007608
                    ],
                    [
                        -42.19143154426493,
                        64.10359538888298
                    ],
                    [
                        -42.18633326490174,
                        64.10421826886396
                    ],
                    [
                        -42.18123620440099,
                        64.10482787575371
                    ],
                    [
                        -42.176141926933646,
                        64.10541041527827
                    ],
                    [
                        -42.17104360404551,
                        64.10602645981515
                    ],
                    [
                        -42.16593999616585,
                        64.10668677433691
                    ],
                    [
                        -42.16083261635195,
                        64.10737777593646
                    ],
                    [
                        -42.155721628959725,
                        64.10809784974333
                    ],
                    [
                        -42.15061052281653,
                        64.10881618863297
                    ],
                    [
                        -42.145502054301495,
                        64.10950863208639
                    ],
                    [
                        -42.14039150651687,
                        64.11021660570921
                    ],
                    [
                        -42.13527426029616,
                        64.11098038086546
                    ],
                    [
                        -42.13015041451197,
                        64.11179879109125
                    ],
                    [
                        -42.12501957627214,
                        64.11267495841753
                    ],
                    [
                        -42.11987834561784,
                        64.11363811010726
                    ],
                    [
                        -42.114725804114045,
                        64.11469573638975
                    ],
                    [
                        -42.10956270484804,
                        64.11584079982094
                    ],
                    [
                        -42.10439401356719,
                        64.11702990873277
                    ],
                    [
                        -42.09922630507592,
                        64.11820610840219
                    ],
                    [
                        -42.09405088190917,
                        64.11944435332572
                    ],
                    [
                        -42.088853964840354,
                        64.12086272333093
                    ],
                    [
                        -42.083647186876775,
                        64.12236043438892
                    ],
                    [
                        -42.0784516753008,
                        64.1237561451233
                    ],
                    [
                        -42.07326499307873,
                        64.12507124300441
                    ],
                    [
                        -42.068078478624464,
                        64.1263800625596
                    ],
                    [
                        -42.0628892878986,
                        64.12770685643602
                    ],
                    [
                        -42.05769340439063,
                        64.12908566768014
                    ],
                    [
                        -42.052501122913434,
                        64.1304288606574
                    ],
                    [
                        -42.047301342511155,
                        64.13183064856901
                    ],
                    [
                        -42.04209806545311,
                        64.13325687569724
                    ],
                    [
                        -42.03690951794976,
                        64.13455359775453
                    ],
                    [
                        -42.03172439863382,
                        64.13581671354835
                    ],
                    [
                        -42.02652616552495,
                        64.13718549986528
                    ],
                    [
                        -42.02131647556863,
                        64.13864547814048
                    ],
                    [
                        -42.01610861981022,
                        64.14008479696004
                    ],
                    [
                        -42.01090617356754,
                        64.14147366475397
                    ],
                    [
                        -42.005714615754776,
                        64.14276661090659
                    ],
                    [
                        -42.0005120087166,
                        64.14414696622981
                    ],
                    [
                        -41.99529713376729,
                        64.1456243994415
                    ],
                    [
                        -41.990096671572886,
                        64.14697683925877
                    ],
                    [
                        -41.98490939723022,
                        64.14821510408011
                    ],
                    [
                        -41.97970726983898,
                        64.14957182137577
                    ],
                    [
                        -41.974495617969076,
                        64.15100234822305
                    ],
                    [
                        -41.96929439122499,
                        64.15234180507272
                    ],
                    [
                        -41.96409267246003,
                        64.15368052731452
                    ],
                    [
                        -41.95888258292806,
                        64.15508324969227
                    ],
                    [
                        -41.95366124762651,
                        64.15657321157299
                    ],
                    [
                        -41.94842735582681,
                        64.15816067979426
                    ],
                    [
                        -41.94318512125771,
                        64.15981069847479
                    ],
                    [
                        -41.93794721745127,
                        64.1614195446405
                    ],
                    [
                        -41.93271417616568,
                        64.16298310496664
                    ],
                    [
                        -41.92746756825165,
                        64.1646514295269
                    ],
                    [
                        -41.92220262964431,
                        64.16646261954354
                    ],
                    [
                        -41.9169468213691,
                        64.16819347411679
                    ],
                    [
                        -41.911691135641064,
                        64.16991725370418
                    ],
                    [
                        -41.906423109034016,
                        64.17173459382481
                    ],
                    [
                        -41.90115375087642,
                        64.17355629141213
                    ],
                    [
                        -41.89592018661729,
                        64.17508371683006
                    ],
                    [
                        -41.89071174768056,
                        64.17640406800527
                    ],
                    [
                        -41.88552477222752,
                        64.17754776618843
                    ],
                    [
                        -41.88035097633221,
                        64.17858200322738
                    ],
                    [
                        -41.87518942256348,
                        64.17951482397645
                    ],
                    [
                        -41.870029618803656,
                        64.18043041573827
                    ],
                    [
                        -41.86487529102256,
                        64.18129920000109
                    ],
                    [
                        -41.8597229429981,
                        64.18214920047407
                    ],
                    [
                        -41.854566677012485,
                        64.18302730912792
                    ],
                    [
                        -41.84941157170037,
                        64.18389315284118
                    ],
                    [
                        -41.84426450864272,
                        64.18469236908687
                    ],
                    [
                        -41.83911491223578,
                        64.18550878815175
                    ],
                    [
                        -41.83397240114806,
                        64.18626650634906
                    ],
                    [
                        -41.82883119557821,
                        64.1870112972883
                    ],
                    [
                        -41.82369528705894,
                        64.18771186538861
                    ],
                    [
                        -41.81856765130083,
                        64.18834508806916
                    ],
                    [
                        -41.81344866415371,
                        64.18890835203054
                    ],
                    [
                        -41.80833589909528,
                        64.1894209689554
                    ],
                    [
                        -41.803227904506954,
                        64.18989451512263
                    ],
                    [
                        -41.79812102916796,
                        64.19035763257283
                    ],
                    [
                        -41.79301555363522,
                        64.19080818854631
                    ],
                    [
                        -41.787912159052134,
                        64.19124095235841
                    ],
                    [
                        -41.78280167679564,
                        64.19172711382708
                    ],
                    [
                        -41.7776849017398,
                        64.19226026066379
                    ],
                    [
                        -41.77256479422269,
                        64.19281728170496
                    ],
                    [
                        -41.76743858970816,
                        64.19341939745951
                    ],
                    [
                        -41.76230207271739,
                        64.1940988715042
                    ],
                    [
                        -41.75716683731886,
                        64.19476613753115
                    ],
                    [
                        -41.752039910527394,
                        64.19536728259686
                    ],
                    [
                        -41.746923502007355,
                        64.19588567941791
                    ],
                    [
                        -41.74181139439136,
                        64.19636932387965
                    ],
                    [
                        -41.736698855172044,
                        64.19685455624588
                    ],
                    [
                        -41.73157937957719,
                        64.19739101190652
                    ],
                    [
                        -41.72643782573846,
                        64.19809382233579
                    ],
                    [
                        -41.72126675775843,
                        64.1990187574176
                    ],
                    [
                        -41.716080824769215,
                        64.20005348308698
                    ],
                    [
                        -41.7108880602683,
                        64.2011365505604
                    ],
                    [
                        -41.70569561865919,
                        64.20221356264868
                    ],
                    [
                        -41.700508169463525,
                        64.20324925480877
                    ],
                    [
                        -41.69533185854603,
                        64.20419744887589
                    ],
                    [
                        -41.69015579268985,
                        64.20514063415413
                    ],
                    [
                        -41.684953246425884,
                        64.20627985984228
                    ],
                    [
                        -41.67971209020151,
                        64.20770526502504
                    ],
                    [
                        -41.6744086313211,
                        64.20959307426178
                    ],
                    [
                        -41.67004558207204,
                        64.2116834327714
                    ],
                    [
                        -41.66659616334687,
                        64.21379686349697
                    ],
                    [
                        -41.66374489661101,
                        64.21592542384812
                    ],
                    [
                        -41.66131449071421,
                        64.21806464523107
                    ],
                    [
                        -41.65904688000292,
                        64.22020798848327
                    ],
                    [
                        -41.65612888568074,
                        64.22233477511736
                    ],
                    [
                        -41.65097792038096,
                        64.22440465255893
                    ],
                    [
                        -41.645735402527045,
                        64.22579621354076
                    ],
                    [
                        -41.640542118293055,
                        64.22681809209818
                    ],
                    [
                        -41.63537215738021,
                        64.22766391117756
                    ],
                    [
                        -41.63020401553805,
                        64.22849348878368
                    ],
                    [
                        -41.62501436491931,
                        64.22947910162316
                    ],
                    [
                        -41.61981830690355,
                        64.23050871404213
                    ],
                    [
                        -41.61461262106254,
                        64.23160581465311
                    ],
                    [
                        -41.609366702583294,
                        64.23299492787467
                    ],
                    [
                        -41.609366702583294,
                        64.23299492787467
                    ],
                    [
                        -41.604120199712064,
                        64.23438383943692
                    ],
                    [
                        -41.59882178624169,
                        64.23614841555728
                    ],
                    [
                        -41.59349746002823,
                        64.23821186490062
                    ],
                    [
                        -41.58820653745805,
                        64.24027600471962
                    ],
                    [
                        -41.58286625265342,
                        64.24232777163789
                    ],
                    [
                        -41.577567695765765,
                        64.24406936311414
                    ],
                    [
                        -41.572300551185705,
                        64.24557720773187
                    ],
                    [
                        -41.540205667864264,
                        64.25626152675322
                    ],
                    [
                        -41.50808325889489,
                        64.26693845897948
                    ],
                    [
                        -41.47593330907139,
                        64.27760799322473
                    ],
                    [
                        -41.44375580323082,
                        64.28827011829289
                    ],
                    [
                        -41.411550726253836,
                        64.29892482297764
                    ],
                    [
                        -41.3793180630648,
                        64.30957209606258
                    ],
                    [
                        -41.3470577986321,
                        64.32021192632115
                    ],
                    [
                        -41.31476991796836,
                        64.33084430251665
                    ],
                    [
                        -41.282454406130725,
                        64.34146921340226
                    ],
                    [
                        -41.25011124822103,
                        64.35208664772108
                    ],
                    [
                        -41.21774042938612,
                        64.3626965942061
                    ],
                    [
                        -41.18534193481803,
                        64.37329904158021
                    ],
                    [
                        -41.15291574975427,
                        64.38389397855629
                    ],
                    [
                        -41.120461859478056,
                        64.39448139383711
                    ],
                    [
                        -41.08798024931856,
                        64.40506127611548
                    ],
                    [
                        -41.05547090465116,
                        64.41563361407407
                    ],
                    [
                        -41.02293381089765,
                        64.42619839638564
                    ],
                    [
                        -40.99036895352654,
                        64.43675561171293
                    ],
                    [
                        -40.95777631805328,
                        64.44730524870866
                    ],
                    [
                        -40.92515589004049,
                        64.45784729601557
                    ]
                ]
            }
        }
    ]
}
