{
    "type": "FeatureCollection",
    "features": [
        {
            "type": "Feature",
            "properties": {
                "name": "Greenland Glacier 0074",
                "object": "transect",
                "component": "landice",
                "author": "Matthew Hoffman, converted from Felikson et al. (2020) Zenodo dataset",
                "tags": "Greenland_Ice_Sheet;flowline;zenodo_4284759;glacier_0074",
                "citation": "Felikson, Denis, Catania, Ginny, Bartholomaus, Timothy, Morlighem, Mathieu, & No\u00ebl, Brice. (2020). Inland limits to diffusion of thinning along Greenland Ice Sheet outlet glaciers (v1.0) [Data set]. Zenodo. https://doi.org/10.5281/zenodo.4284759",
                "license": "CC-BY-4.0"
            },
            "geometry": {
                "type": "LineString",
                "coordinates": [
                    [
                        -68.02390367919982,
                        76.2747947790537
                    ],
                    [
                        -68.0184167226202,
                        76.27755043036917
                    ],
                    [
                        -68.0112663249554,
                        76.2793779422176
                    ],
                    [
                        -68.00258558578025,
                        76.2803511004819
                    ],
                    [
                        -67.99244583450138,
                        76.2805088878799
                    ],
                    [
                        -67.98157161659927,
                        76.28025549233733
                    ],
                    [
                        -67.96998859724087,
                        76.27960460742962
                    ],
                    [
                        -67.95786105954282,
                        76.27864753322265
                    ],
                    [
                        -67.94656432292668,
                        76.2781545699042
                    ],
                    [
                        -67.93600235175332,
                        76.27807267724879
                    ],
                    [
                        -67.9259733233953,
                        76.27828926519842
                    ],
                    [
                        -67.91620197098841,
                        76.27865025139516
                    ],
                    [
                        -67.90658646688252,
                        76.27909865026785
                    ],
                    [
                        -67.89688974956378,
                        76.27950139778065
                    ],
                    [
                        -67.88710429873372,
                        76.2798542066069
                    ],
                    [
                        -67.87694817074059,
                        76.27999846838493
                    ],
                    [
                        -67.86600766938281,
                        76.27970112514403
                    ],
                    [
                        -67.85399999437726,
                        76.27880222788065
                    ],
                    [
                        -67.84258024039902,
                        76.27747405928359
                    ],
                    [
                        -67.83270651064628,
                        76.27599109581209
                    ],
                    [
                        -67.82357267341963,
                        76.27443403990782
                    ],
                    [
                        -67.8152167993202,
                        76.27279916377154
                    ],
                    [
                        -67.80748172251322,
                        76.27110222632493
                    ],
                    [
                        -67.80016683767296,
                        76.2693632986215
                    ],
                    [
                        -67.79287383817851,
                        76.2676221579547
                    ],
                    [
                        -67.78568942184323,
                        76.26587015602422
                    ],
                    [
                        -67.77872881361624,
                        76.26409580670209
                    ],
                    [
                        -67.77200466771636,
                        76.26229786222703
                    ],
                    [
                        -67.76537638302437,
                        76.26049035583677
                    ],
                    [
                        -67.75843261065684,
                        76.25871429966192
                    ],
                    [
                        -67.75119658427869,
                        76.25696735797372
                    ],
                    [
                        -67.75119658427869,
                        76.25696735797372
                    ],
                    [
                        -67.74396241443809,
                        76.25522020532469
                    ],
                    [
                        -67.73689560450342,
                        76.25345635448475
                    ],
                    [
                        -67.73023875256017,
                        76.25165165382776
                    ],
                    [
                        -67.7237518400154,
                        76.24983002889114
                    ],
                    [
                        -67.71727097501342,
                        76.24800780666878
                    ],
                    [
                        -67.71080875713132,
                        76.2461837332124
                    ],
                    [
                        -67.70448462011247,
                        76.24434592275635
                    ],
                    [
                        -67.69833948442894,
                        76.24249031063894
                    ],
                    [
                        -67.69232622988699,
                        76.24062159395582
                    ],
                    [
                        -67.68667019666782,
                        76.23871736250558
                    ],
                    [
                        -67.68191683754712,
                        76.23672337594559
                    ],
                    [
                        -67.67854367004789,
                        76.23459216132655
                    ],
                    [
                        -67.67651936266883,
                        76.2323268408878
                    ],
                    [
                        -67.67538622242178,
                        76.2299729242322
                    ],
                    [
                        -67.6742958200998,
                        76.22761480005275
                    ],
                    [
                        -67.67242716880534,
                        76.22533416063709
                    ],
                    [
                        -67.66921259200619,
                        76.22318750940777
                    ],
                    [
                        -67.6645346309203,
                        76.22118653104113
                    ],
                    [
                        -67.65869079195795,
                        76.21930159172436
                    ],
                    [
                        -67.65201331616154,
                        76.2174995937981
                    ],
                    [
                        -67.64462372614675,
                        76.21576840380533
                    ],
                    [
                        -67.63664610037868,
                        76.2140956362243
                    ],
                    [
                        -67.62819931451403,
                        76.21246942933244
                    ],
                    [
                        -67.61936082397384,
                        76.21088204615616
                    ],
                    [
                        -67.61020226520237,
                        76.20932633456997
                    ],
                    [
                        -67.60077801929746,
                        76.20779686319499
                    ],
                    [
                        -67.59111903421068,
                        76.20629053250542
                    ],
                    [
                        -67.5811818182495,
                        76.20481163121585
                    ],
                    [
                        -67.57077795188792,
                        76.20337881183099
                    ],
                    [
                        -67.55975813564174,
                        76.20200681577182
                    ],
                    [
                        -67.548091421912,
                        76.20069862738954
                    ],
                    [
                        -67.53576067041853,
                        76.1994558511377
                    ],
                    [
                        -67.52347891453279,
                        76.19832980837285
                    ],
                    [
                        -67.5113334913197,
                        76.19728048669016
                    ],
                    [
                        -67.49921227774024,
                        76.19624342975996
                    ],
                    [
                        -67.48700841471738,
                        76.1951570422931
                    ],
                    [
                        -67.4747009997823,
                        76.19400916270513
                    ],
                    [
                        -67.46244646616744,
                        76.1928899982478
                    ],
                    [
                        -67.4503152980223,
                        76.1918403379543
                    ],
                    [
                        -67.4381888076212,
                        76.19079169486933
                    ],
                    [
                        -67.42599243335327,
                        76.18970092889155
                    ],
                    [
                        -67.4137971710482,
                        76.1886090631002
                    ],
                    [
                        -67.34235408302922,
                        76.18226704012437
                    ],
                    [
                        -67.27097727087161,
                        76.17590383451598
                    ],
                    [
                        -67.199666863628,
                        76.16951947676122
                    ],
                    [
                        -67.12842298928811,
                        76.16311399739195
                    ],
                    [
                        -67.05724577478001,
                        76.15668742698487
                    ],
                    [
                        -66.98613534597132,
                        76.15023979616112
                    ],
                    [
                        -66.91509182767064,
                        76.1437711355856
                    ],
                    [
                        -66.84411534362879,
                        76.13728147596647
                    ],
                    [
                        -66.77320601654023,
                        76.13077084805461
                    ],
                    [
                        -66.70236396804452,
                        76.12423928264296
                    ],
                    [
                        -66.6315893187276,
                        76.11768681056601
                    ],
                    [
                        -66.5608821881234,
                        76.11111346269924
                    ],
                    [
                        -66.49024269471529,
                        76.10451926995852
                    ],
                    [
                        -66.41967095593755,
                        76.09790426329964
                    ],
                    [
                        -66.34916708817698,
                        76.09126847371765
                    ],
                    [
                        -66.2787312067745,
                        76.08461193224636
                    ],
                    [
                        -66.2083634260267,
                        76.07793466995776
                    ],
                    [
                        -66.1380638591875,
                        76.07123671796145
                    ],
                    [
                        -66.06783261846984,
                        76.06451810740418
                    ],
                    [
                        -65.99766981504736,
                        76.05777886946915
                    ]
                ]
            }
        }
    ]
}
