{
    "type": "FeatureCollection",
    "features": [
        {
            "type": "Feature",
            "properties": {
                "name": "Publications",
                "object": "transect",
                "component": "landice",
                "author": "Matthew Hoffman, converted from https://github.com/yuwang115/sl-ice",
                "tags": "Antarctic_Ice_Sheet;flowline;sl-ice;publications"
            },
            "geometry": {
                "type": "LineString",
                "coordinates": [
                    [
                        81.52463163273185,
                        -71.63492916548857
                    ],
                    [
                        81.46997625835867,
                        -71.62989706251142
                    ],
                    [
                        81.41559988389638,
                        -71.62456987531642
                    ],
                    [
                        81.36138857069443,
                        -71.61910573625248
                    ],
                    [
                        81.30741082029752,
                        -71.61343084253222
                    ],
                    [
                        81.25402473106276,
                        -71.60724479795535
                    ],
                    [
                        81.20146256978565,
                        -71.6004048669317
                    ],
                    [
                        81.14845084378517,
                        -71.59393007513418
                    ],
                    [
                        81.09506671462245,
                        -71.5877921459336
                    ],
                    [
                        81.04132096875963,
                        -71.58198684179045
                    ],
                    [
                        80.98778950555341,
                        -71.57600202559911
                    ],
                    [
                        80.93522931907154,
                        -71.56923970280884
                    ],
                    [
                        80.88350184578063,
                        -71.56186616109234
                    ],
                    [
                        80.83103237531415,
                        -71.5550471335192
                    ],
                    [
                        80.7789821717719,
                        -71.54793701259271
                    ],
                    [
                        80.7276241754049,
                        -71.54035009009274
                    ],
                    [
                        80.67626512840242,
                        -71.5327782970161
                    ],
                    [
                        80.62477776556028,
                        -71.52530593103434
                    ],
                    [
                        80.57307220184484,
                        -71.5180100475236
                    ],
                    [
                        80.52106528197997,
                        -71.5109315901801
                    ],
                    [
                        80.4691757114171,
                        -71.5038014428333
                    ],
                    [
                        80.41725830477917,
                        -71.49669381198302
                    ],
                    [
                        80.36474753633172,
                        -71.49006063611802
                    ],
                    [
                        80.31205319225019,
                        -71.48359601266303
                    ],
                    [
                        80.25965004233144,
                        -71.4769114226739
                    ],
                    [
                        80.20746632882364,
                        -71.4700577353679
                    ],
                    [
                        80.15533301785767,
                        -71.46318968751325
                    ],
                    [
                        80.10365274331701,
                        -71.45600627233979
                    ],
                    [
                        80.05231437894103,
                        -71.44858355641657
                    ],
                    [
                        80.00091796758907,
                        -71.4412182036722
                    ],
                    [
                        79.94924487500651,
                        -71.43407097471614
                    ],
                    [
                        79.89728799146282,
                        -71.42714128539451
                    ],
                    [
                        79.84537056679615,
                        -71.42019672256836
                    ],
                    [
                        79.79365157880586,
                        -71.41312790794598
                    ],
                    [
                        79.7420941234936,
                        -71.40595106404201
                    ],
                    [
                        79.69080273534469,
                        -71.39859939075887
                    ],
                    [
                        79.63986893607904,
                        -71.3910099795965
                    ],
                    [
                        79.58929743720064,
                        -71.38319244348752
                    ],
                    [
                        79.53915949410954,
                        -71.37511015233652
                    ],
                    [
                        79.48930143775071,
                        -71.36686376010006
                    ],
                    [
                        79.43973540869665,
                        -71.35845872517412
                    ],
                    [
                        79.3904942735887,
                        -71.34986981959072
                    ],
                    [
                        79.34179218237192,
                        -71.34098691286745
                    ],
                    [
                        79.29347970631692,
                        -71.33189716985582
                    ],
                    [
                        79.24578005502354,
                        -71.32250485404354
                    ],
                    [
                        79.19850227186845,
                        -71.31289914968103
                    ],
                    [
                        79.15127393692141,
                        -71.30328120574401
                    ],
                    [
                        79.10417644524975,
                        -71.29361496642012
                    ],
                    [
                        79.05722062805893,
                        -71.28388748003213
                    ],
                    [
                        79.01031713061099,
                        -71.27414350976117
                    ],
                    [
                        78.96349054809157,
                        -71.26438005071098
                    ],
                    [
                        78.91700176722178,
                        -71.25446277933021
                    ],
                    [
                        78.87128126255493,
                        -71.24419064736769
                    ],
                    [
                        78.82633872800804,
                        -71.23358764433583
                    ],
                    [
                        78.7821289000413,
                        -71.2226742681811
                    ],
                    [
                        78.73886534317387,
                        -71.21139157013646
                    ],
                    [
                        78.69657343437791,
                        -71.19974183873256
                    ],
                    [
                        78.65601181181377,
                        -71.18748218439123
                    ],
                    [
                        78.61682642094412,
                        -71.1747691491231
                    ],
                    [
                        78.57795387895598,
                        -71.16196420486209
                    ],
                    [
                        78.53902060591268,
                        -71.14918487247523
                    ],
                    [
                        78.50025273959444,
                        -71.13636820795561
                    ],
                    [
                        78.46171843905378,
                        -71.12348221711909
                    ],
                    [
                        78.42330575929384,
                        -71.11056995192827
                    ],
                    [
                        78.38499563361849,
                        -71.09763021385584
                    ],
                    [
                        78.347188392963,
                        -71.08455254144563
                    ],
                    [
                        78.31027629252462,
                        -71.07121257206381
                    ],
                    [
                        78.27401904292593,
                        -71.05769083291251
                    ],
                    [
                        78.23810304532215,
                        -71.04408098180177
                    ],
                    [
                        78.20195918230965,
                        -71.03054144189818
                    ],
                    [
                        78.16552734193442,
                        -71.01709999585164
                    ],
                    [
                        78.12920266655391,
                        -71.00362779544412
                    ],
                    [
                        78.09310987014688,
                        -70.99010141291433
                    ],
                    [
                        78.05735497693264,
                        -70.97648708884422
                    ],
                    [
                        78.02200553739125,
                        -70.96277139662669
                    ],
                    [
                        77.98709679374102,
                        -70.94893872595371
                    ],
                    [
                        77.95317127131065,
                        -70.93485769707182
                    ],
                    [
                        77.92083828741774,
                        -70.92038834193173
                    ],
                    [
                        77.89025195891382,
                        -70.90552877311902
                    ],
                    [
                        77.86191526635196,
                        -70.89019640092229
                    ],
                    [
                        77.83509793290713,
                        -70.87458387233612
                    ],
                    [
                        77.80905181287795,
                        -70.85883154235698
                    ],
                    [
                        77.78293866964766,
                        -70.84309566846254
                    ],
                    [
                        77.75673417384242,
                        -70.82738363392835
                    ],
                    [
                        77.73107464718998,
                        -70.81158046540902
                    ],
                    [
                        77.70595932739919,
                        -70.79568184002875
                    ],
                    [
                        77.6813273159616,
                        -70.77971119236516
                    ],
                    [
                        77.65704638394071,
                        -70.76368217893683
                    ],
                    [
                        77.63340260933556,
                        -70.74756067853988
                    ],
                    [
                        77.61147621655225,
                        -70.73117783911282
                    ],
                    [
                        77.59298316492817,
                        -70.71434761351865
                    ],
                    [
                        77.57800201840263,
                        -70.69713705689361
                    ],
                    [
                        77.56330959344898,
                        -70.67989930140843
                    ],
                    [
                        77.54738526998693,
                        -70.66278913150033
                    ],
                    [
                        77.53115414464186,
                        -70.64570875215267
                    ],
                    [
                        77.51542864157692,
                        -70.62858017446803
                    ],
                    [
                        77.49897859893163,
                        -70.61152852425039
                    ],
                    [
                        77.48114843207891,
                        -70.5946334364667
                    ],
                    [
                        77.4620630466136,
                        -70.57788970527322
                    ],
                    [
                        77.44140450727853,
                        -70.5613647965797
                    ],
                    [
                        77.42025810605534,
                        -70.54490930498757
                    ],
                    [
                        77.39963731716973,
                        -70.52837841751845
                    ],
                    [
                        77.37959888648963,
                        -70.51177206792154
                    ],
                    [
                        77.35761797124948,
                        -70.49545167467936
                    ],
                    [
                        77.33348155785316,
                        -70.4794781040743
                    ],
                    [
                        77.30709226399344,
                        -70.46391154165181
                    ],
                    [
                        77.27743793997061,
                        -70.44902267148521
                    ],
                    [
                        77.24644913841205,
                        -70.43444662621984
                    ],
                    [
                        77.2139226282077,
                        -70.42025879906684
                    ],
                    [
                        77.18223140186291,
                        -70.40586396911415
                    ],
                    [
                        77.15056089371372,
                        -70.39147099746812
                    ],
                    [
                        77.11934556983948,
                        -70.37697102521508
                    ],
                    [
                        77.08719059301491,
                        -70.36272030572611
                    ],
                    [
                        77.05274829024216,
                        -70.34909125646335
                    ],
                    [
                        77.01645518411493,
                        -70.33602437570583
                    ],
                    [
                        76.97891376103077,
                        -70.32336790553171
                    ],
                    [
                        76.94158237688045,
                        -70.31065192577076
                    ],
                    [
                        76.90349427579571,
                        -70.29820476701202
                    ],
                    [
                        76.86474048724588,
                        -70.28599631836704
                    ],
                    [
                        76.82603516701667,
                        -70.27378402543238
                    ],
                    [
                        76.78738685571345,
                        -70.2615594028242
                    ],
                    [
                        76.74935208657686,
                        -70.24912791243189
                    ],
                    [
                        76.71183363829807,
                        -70.23652814732431
                    ],
                    [
                        76.67473773142156,
                        -70.22378969609551
                    ],
                    [
                        76.63796962309732,
                        -70.21095117126247
                    ],
                    [
                        76.60120406073302,
                        -70.19812440576212
                    ],
                    [
                        76.56514916047861,
                        -70.1850771885741
                    ],
                    [
                        76.52960961511128,
                        -70.17186767567433
                    ],
                    [
                        76.49400465797517,
                        -70.15869710011633
                    ],
                    [
                        76.45800659283326,
                        -70.14565353584571
                    ],
                    [
                        76.42280920739792,
                        -70.13236569038858
                    ],
                    [
                        76.38902612558233,
                        -70.11867771196648
                    ],
                    [
                        76.35826486856354,
                        -70.10419449212641
                    ],
                    [
                        76.32973809853895,
                        -70.08918854835838
                    ],
                    [
                        76.29895525785892,
                        -70.07472786041238
                    ],
                    [
                        76.26459783879433,
                        -70.06124381074171
                    ],
                    [
                        76.22988871876294,
                        -70.04786251798899
                    ],
                    [
                        76.19729492671028,
                        -70.03387970916577
                    ],
                    [
                        76.16666634810412,
                        -70.01939461860339
                    ],
                    [
                        76.13819037271203,
                        -70.00441056278304
                    ],
                    [
                        76.11031455225393,
                        -69.98929917279206
                    ],
                    [
                        76.08252141869042,
                        -69.97417339076355
                    ],
                    [
                        76.05383491120358,
                        -69.95925396963139
                    ],
                    [
                        76.02271281384273,
                        -69.94493343257405
                    ],
                    [
                        75.98869027265829,
                        -69.9314143202001
                    ],
                    [
                        75.95231713985966,
                        -69.91864516381852
                    ],
                    [
                        75.91507534765263,
                        -69.90617643489236
                    ],
                    [
                        75.87755582450353,
                        -69.89381452955426
                    ],
                    [
                        75.84047441694783,
                        -69.88131275683767
                    ],
                    [
                        75.80294154788255,
                        -69.86899013393031
                    ],
                    [
                        75.76232166123789,
                        -69.8579015256373
                    ],
                    [
                        75.7225673731944,
                        -69.84644210409486
                    ],
                    [
                        75.68273729998967,
                        -69.8350227637927
                    ],
                    [
                        75.64122539485528,
                        -69.82436822484738
                    ],
                    [
                        75.59750633165142,
                        -69.8148180466254
                    ],
                    [
                        75.55356317864145,
                        -69.80539894928752
                    ],
                    [
                        75.50970949768956,
                        -69.79594045436608
                    ],
                    [
                        75.46668299760002,
                        -69.78605665209628
                    ],
                    [
                        75.42537009193912,
                        -69.77534796914884
                    ],
                    [
                        75.38615503949262,
                        -69.76374408776789
                    ],
                    [
                        75.34997702552671,
                        -69.75101764538587
                    ],
                    [
                        75.31642600211474,
                        -69.73747042280147
                    ],
                    [
                        75.28528420721817,
                        -69.72324594582128
                    ],
                    [
                        75.25659927103092,
                        -69.70842404752689
                    ],
                    [
                        75.22987779951318,
                        -69.6931689203867
                    ],
                    [
                        75.2054097834367,
                        -69.67746688954526
                    ],
                    [
                        75.18363615561853,
                        -69.66129989726657
                    ],
                    [
                        75.16373255679042,
                        -69.64484287100986
                    ],
                    [
                        75.14589497558849,
                        -69.62810574788315
                    ],
                    [
                        75.13063837031144,
                        -69.61106805460298
                    ],
                    [
                        75.1175862936014,
                        -69.59380701963369
                    ],
                    [
                        75.1022423327543,
                        -69.57677819504755
                    ],
                    [
                        75.08692446618792,
                        -69.55974881537203
                    ],
                    [
                        75.07163262957816,
                        -69.54271888514126
                    ],
                    [
                        75.05636675880447,
                        -69.52568840887662
                    ],
                    [
                        75.04112678994919,
                        -69.50865739108689
                    ],
                    [
                        75.02591265929665,
                        -69.49162583626823
                    ],
                    [
                        75.01072430333251,
                        -69.4745937489042
                    ],
                    [
                        74.99556165874296,
                        -69.45756113346593
                    ],
                    [
                        74.98042466241394,
                        -69.44052799441207
                    ],
                    [
                        74.96531325143043,
                        -69.42349433618882
                    ],
                    [
                        74.95022736307567,
                        -69.40646016323012
                    ],
                    [
                        74.93516693483043,
                        -69.3894254799575
                    ],
                    [
                        74.92013190437221,
                        -69.37239029078029
                    ],
                    [
                        74.90512220957461,
                        -69.3553546000956
                    ],
                    [
                        74.89013778850648,
                        -69.33831841228836
                    ],
                    [
                        74.87517857943124,
                        -69.32128173173143
                    ],
                    [
                        74.8602445208061,
                        -69.30424456278551
                    ],
                    [
                        74.84533555128144,
                        -69.28720690979937
                    ],
                    [
                        74.83045160969995,
                        -69.27016877710976
                    ],
                    [
                        74.81559263509597,
                        -69.25313016904151
                    ]
                ]
            }
        }
    ]
}
