{
    "type": "FeatureCollection",
    "features": [
        {
            "type": "Feature",
            "properties": {
                "name": "Greenland Glacier 0177",
                "object": "transect",
                "component": "landice",
                "author": "Matthew Hoffman, converted from Felikson et al. (2020) Zenodo dataset",
                "tags": "Greenland_Ice_Sheet;flowline;zenodo_4284759;glacier_0177",
                "citation": "Felikson, Denis, Catania, Ginny, Bartholomaus, Timothy, Morlighem, Mathieu, & No\u00ebl, Brice. (2020). Inland limits to diffusion of thinning along Greenland Ice Sheet outlet glaciers (v1.0) [Data set]. Zenodo. https://doi.org/10.5281/zenodo.4284759",
                "license": "CC-BY-4.0"
            },
            "geometry": {
                "type": "LineString",
                "coordinates": [
                    [
                        -33.50354564836949,
                        68.19284275743215
                    ],
                    [
                        -33.50421716116666,
                        68.19061953991528
                    ],
                    [
                        -33.50163130532604,
                        68.18814995023936
                    ],
                    [
                        -33.49687610965937,
                        68.18566587694491
                    ],
                    [
                        -33.4916969998837,
                        68.18395820140508
                    ],
                    [
                        -33.48619314934631,
                        68.18284491697243
                    ],
                    [
                        -33.48049850367146,
                        68.18208074938492
                    ],
                    [
                        -33.474656530654805,
                        68.18158590076779
                    ],
                    [
                        -33.46864400904782,
                        68.18140230968507
                    ],
                    [
                        -33.46243709031719,
                        68.18157294475031
                    ],
                    [
                        -33.45601682569689,
                        68.1821317221847
                    ],
                    [
                        -33.44945986988691,
                        68.18293842455856
                    ],
                    [
                        -33.442870573892,
                        68.18380277522505
                    ],
                    [
                        -33.436363458588005,
                        68.18451647744118
                    ],
                    [
                        -33.43008502217691,
                        68.18481363837972
                    ],
                    [
                        -33.42399612192206,
                        68.18476605052858
                    ],
                    [
                        -33.41801814134799,
                        68.18451695770685
                    ],
                    [
                        -33.412137491977504,
                        68.18409132400076
                    ],
                    [
                        -33.406364286113714,
                        68.18347108018783
                    ],
                    [
                        -33.40068005536348,
                        68.18268997976568
                    ],
                    [
                        -33.3950444773219,
                        68.18182129289693
                    ],
                    [
                        -33.389436782904696,
                        68.18090274640498
                    ],
                    [
                        -33.38386917127021,
                        68.17991232975723
                    ],
                    [
                        -33.37831322191955,
                        68.1789015535279
                    ],
                    [
                        -33.372787055220506,
                        68.1778376789514
                    ],
                    [
                        -33.36729376100272,
                        68.17671519152877
                    ],
                    [
                        -33.36182546921949,
                        68.17554838634385
                    ],
                    [
                        -33.356381567433345,
                        68.17433842660988
                    ],
                    [
                        -33.35096940998986,
                        68.17307209191794
                    ],
                    [
                        -33.34558741625114,
                        68.17175230551402
                    ],
                    [
                        -33.34022511038732,
                        68.1703980285918
                    ],
                    [
                        -33.334870387969445,
                        68.16903112665786
                    ],
                    [
                        -33.32952216770028,
                        68.16765356372662
                    ],
                    [
                        -33.324179187495645,
                        68.16626762621443
                    ],
                    [
                        -33.31883617100367,
                        68.16488282513667
                    ],
                    [
                        -33.31348354329284,
                        68.16351639305695
                    ],
                    [
                        -33.30811749774162,
                        68.16217515588406
                    ],
                    [
                        -33.302727156854374,
                        68.16087864461883
                    ],
                    [
                        -33.297298577758895,
                        68.1596518678087
                    ],
                    [
                        -33.29184513027644,
                        68.15847071240283
                    ],
                    [
                        -33.28638618154407,
                        68.15730033376964
                    ],
                    [
                        -33.28092357959145,
                        68.15613739997478
                    ],
                    [
                        -33.27543262341487,
                        68.15502622944258
                    ],
                    [
                        -33.269911552448875,
                        68.15396991283899
                    ],
                    [
                        -33.26437107457981,
                        68.152949178596
                    ],
                    [
                        -33.25882025865984,
                        68.15194772613798
                    ],
                    [
                        -33.25326737215409,
                        68.15095071918084
                    ],
                    [
                        -33.24771780136023,
                        68.14994850677913
                    ],
                    [
                        -33.24216465710481,
                        68.14895342617447
                    ],
                    [
                        -33.23661267863851,
                        68.14795698898831
                    ],
                    [
                        -33.2310762995564,
                        68.14693338582876
                    ],
                    [
                        -33.225583073822854,
                        68.14583340000021
                    ],
                    [
                        -33.22016523626585,
                        68.1445995351663
                    ],
                    [
                        -33.21483572426679,
                        68.14320885311774
                    ],
                    [
                        -33.209589272759764,
                        68.14167094370582
                    ],
                    [
                        -33.20439301404958,
                        68.14004463620311
                    ],
                    [
                        -33.199224318077114,
                        68.13837040289513
                    ],
                    [
                        -33.19407057827701,
                        68.13667077895425
                    ],
                    [
                        -33.188925491178274,
                        68.13495702934406
                    ],
                    [
                        -33.183784805657766,
                        68.13323674488925
                    ],
                    [
                        -33.17864277285547,
                        68.13152017298648
                    ],
                    [
                        -33.17348408563267,
                        68.12983456551558
                    ],
                    [
                        -33.16827938384189,
                        68.12823214693033
                    ],
                    [
                        -33.16301543124421,
                        68.12673637199674
                    ],
                    [
                        -33.15767611206993,
                        68.12537577731779
                    ],
                    [
                        -33.152248743570375,
                        68.12417274578885
                    ],
                    [
                        -33.14673280525325,
                        68.1231280041317
                    ],
                    [
                        -33.1411438926828,
                        68.12221364529412
                    ],
                    [
                        -33.135491697821536,
                        68.12141228782833
                    ],
                    [
                        -33.12979180132084,
                        68.12069612802847
                    ],
                    [
                        -33.12405678605492,
                        68.12004272849798
                    ],
                    [
                        -33.11829995517841,
                        68.11942841548885
                    ],
                    [
                        -33.11253037059536,
                        68.11883707513134
                    ],
                    [
                        -33.106757459720555,
                        68.1182519764389
                    ],
                    [
                        -33.1009888872018,
                        68.11765954089728
                    ],
                    [
                        -33.095229282050234,
                        68.11705158743935
                    ],
                    [
                        -33.08947791439391,
                        68.11642942883148
                    ],
                    [
                        -33.083730177347675,
                        68.11580122951467
                    ],
                    [
                        -33.07798335163946,
                        68.11517180302752
                    ],
                    [
                        -33.07223527712699,
                        68.11454496631876
                    ],
                    [
                        -33.066480904507536,
                        68.1139296297658
                    ],
                    [
                        -33.060717232487,
                        68.1133310730978
                    ],
                    [
                        -33.05494585572601,
                        68.11274645989907
                    ],
                    [
                        -33.04917217931744,
                        68.11216624154834
                    ],
                    [
                        -33.04340105990337,
                        68.11158185385018
                    ],
                    [
                        -33.037637231430644,
                        68.11098496484881
                    ],
                    [
                        -33.031885624816304,
                        68.11036691146421
                    ],
                    [
                        -33.02615487766403,
                        68.1097125243592
                    ],
                    [
                        -33.02045036625846,
                        68.10901239812128
                    ],
                    [
                        -33.014774163731246,
                        68.10826295110229
                    ],
                    [
                        -33.00913006087759,
                        68.10745758920446
                    ],
                    [
                        -33.00352072695345,
                        68.10659169929149
                    ],
                    [
                        -32.99794712182217,
                        68.1056636765693
                    ],
                    [
                        -32.9924072002038,
                        68.10467719175524
                    ],
                    [
                        -32.98689789643625,
                        68.10363769813588
                    ],
                    [
                        -32.98140267683629,
                        68.10257425394893
                    ],
                    [
                        -32.975900865195314,
                        68.10152312821232
                    ],
                    [
                        -32.97037256004836,
                        68.10051917086123
                    ],
                    [
                        -32.964800562402296,
                        68.09959243909906
                    ],
                    [
                        -32.95917555756157,
                        68.09875913589977
                    ],
                    [
                        -32.95349584173365,
                        68.09802211738099
                    ],
                    [
                        -32.94775309559434,
                        68.09739580103991
                    ],
                    [
                        -32.94194284095287,
                        68.09688786047542
                    ],
                    [
                        -32.93606410965583,
                        68.09649981866815
                    ],
                    [
                        -32.93011960068176,
                        68.09622678805752
                    ],
                    [
                        -32.924106921816325,
                        68.09607277288085
                    ],
                    [
                        -32.91802708224031,
                        68.09603583189161
                    ],
                    [
                        -32.91189309423804,
                        68.09609309630336
                    ],
                    [
                        -32.90570446507831,
                        68.09624527622525
                    ],
                    [
                        -32.8994648749684,
                        68.09648580994445
                    ],
                    [
                        -32.89317761236066,
                        68.09680882958293
                    ],
                    [
                        -32.886840106316996,
                        68.09721867186747
                    ],
                    [
                        -32.88044874934455,
                        68.09772146411309
                    ],
                    [
                        -32.87400153831284,
                        68.09832052948222
                    ],
                    [
                        -32.86749907559976,
                        68.09901465588324
                    ],
                    [
                        -32.86094783867497,
                        68.09979243403149
                    ],
                    [
                        -32.85435840990514,
                        68.10063535871437
                    ],
                    [
                        -32.847747175279046,
                        68.10151490595914
                    ],
                    [
                        -32.84114868331802,
                        68.10237115106204
                    ],
                    [
                        -32.834598121130874,
                        68.10314320623921
                    ],
                    [
                        -32.82812054279309,
                        68.10378786170588
                    ],
                    [
                        -32.82172604546485,
                        68.104287873314
                    ],
                    [
                        -32.81541520698548,
                        68.10464248609738
                    ],
                    [
                        -32.80917972839065,
                        68.1048662777027
                    ],
                    [
                        -32.80300987656604,
                        68.10497626594105
                    ],
                    [
                        -32.79689228546932,
                        68.10499569905252
                    ],
                    [
                        -32.790814569273635,
                        68.10494608356547
                    ],
                    [
                        -32.784767535338446,
                        68.10484337484866
                    ],
                    [
                        -32.778744889914925,
                        68.10469849937307
                    ],
                    [
                        -32.77274288510563,
                        68.10451797601422
                    ],
                    [
                        -32.76675932485863,
                        68.10430563861908
                    ],
                    [
                        -32.76079221015366,
                        68.10406497410371
                    ],
                    [
                        -32.75483581169738,
                        68.10380587799504
                    ],
                    [
                        -32.74888576959662,
                        68.10353587220351
                    ],
                    [
                        -32.742938536387825,
                        68.10326106794467
                    ],
                    [
                        -32.73699398742357,
                        68.10298168619545
                    ],
                    [
                        -32.731055708893955,
                        68.1026915776618
                    ],
                    [
                        -32.72512885490506,
                        68.10238191488644
                    ],
                    [
                        -32.71921885621942,
                        68.10204341299384
                    ],
                    [
                        -32.713334876668,
                        68.10166040604614
                    ],
                    [
                        -32.70748514974427,
                        68.10121885146846
                    ],
                    [
                        -32.70167822156917,
                        68.10070419698066
                    ],
                    [
                        -32.69592273479655,
                        68.10010175079242
                    ],
                    [
                        -32.690227873759106,
                        68.09939591921797
                    ],
                    [
                        -32.68460014032017,
                        68.09857572120796
                    ],
                    [
                        -32.67904912221475,
                        68.09762491626194
                    ],
                    [
                        -32.673584628499036,
                        68.09652690879635
                    ],
                    [
                        -32.66821254705985,
                        68.09527182244886
                    ],
                    [
                        -32.66293015395582,
                        68.09386449392548
                    ],
                    [
                        -32.65771167279471,
                        68.09234909186632
                    ],
                    [
                        -32.652548153552445,
                        68.0907410063816
                    ],
                    [
                        -32.6474270943778,
                        68.08906166052518
                    ],
                    [
                        -32.642344740531605,
                        68.087317531548
                    ],
                    [
                        -32.63728842741553,
                        68.08553027230607
                    ],
                    [
                        -32.63224432050716,
                        68.08372349841247
                    ],
                    [
                        -32.62721066299903,
                        68.08190022179812
                    ],
                    [
                        -32.6222014871996,
                        68.0800365667928
                    ],
                    [
                        -32.6172438431627,
                        68.0780865320712
                    ],
                    [
                        -32.61236433418455,
                        68.07600493532726
                    ],
                    [
                        -32.6075607885474,
                        68.07379559500596
                    ],
                    [
                        -32.602812180872526,
                        68.07149438165199
                    ],
                    [
                        -32.59809169251179,
                        68.0691469691311
                    ],
                    [
                        -32.59336654849349,
                        68.06680910003922
                    ],
                    [
                        -32.58861410467824,
                        68.06451923902645
                    ],
                    [
                        -32.58381696082064,
                        68.06230689792471
                    ],
                    [
                        -32.57896844764788,
                        68.06018333034447
                    ],
                    [
                        -32.57407070629726,
                        68.0581448186203
                    ],
                    [
                        -32.56911850647641,
                        68.05620015647062
                    ],
                    [
                        -32.56410639520729,
                        68.0543585016396
                    ],
                    [
                        -32.55904839736914,
                        68.05259596719297
                    ],
                    [
                        -32.55395731634842,
                        68.05089076752495
                    ],
                    [
                        -32.54883889773121,
                        68.04923310615561
                    ],
                    [
                        -32.54370013128589,
                        68.04761109211445
                    ],
                    [
                        -32.53855108304846,
                        68.04600764167813
                    ],
                    [
                        -32.53340346343349,
                        68.04440291180636
                    ],
                    [
                        -32.52827626489534,
                        68.04276476535827
                    ],
                    [
                        -32.52318669163195,
                        68.0410641353469
                    ],
                    [
                        -32.51814566992721,
                        68.03928261024984
                    ],
                    [
                        -32.513167938560635,
                        68.03739535715107
                    ],
                    [
                        -32.50830294965525,
                        68.03531891080199
                    ],
                    [
                        -32.50365724106816,
                        68.03287345971542
                    ],
                    [
                        -32.499691626262084,
                        68.03026302375545
                    ],
                    [
                        -32.496660171032005,
                        68.0277300121647
                    ],
                    [
                        -32.494274978966814,
                        68.02525059196168
                    ],
                    [
                        -32.49245680626354,
                        68.02281822729707
                    ],
                    [
                        -32.49101072513606,
                        68.02041675298231
                    ],
                    [
                        -32.48996025031763,
                        68.01804814454073
                    ],
                    [
                        -32.48916567797731,
                        68.01570080508827
                    ],
                    [
                        -32.488480857568476,
                        68.01336259181983
                    ],
                    [
                        -32.48790112754978,
                        68.01103312135515
                    ],
                    [
                        -32.48733356405166,
                        68.00870466799094
                    ],
                    [
                        -32.486717859109056,
                        68.00637221486406
                    ],
                    [
                        -32.48601730891375,
                        68.0040327060949
                    ],
                    [
                        -32.48526259606935,
                        68.00168869178431
                    ],
                    [
                        -32.484406801382484,
                        67.99933626434759
                    ],
                    [
                        -32.483408916929385,
                        67.99697200546201
                    ],
                    [
                        -32.48228499400429,
                        67.99459724513463
                    ],
                    [
                        -32.48105449221684,
                        67.99221359790538
                    ],
                    [
                        -32.47973066420437,
                        67.98982216230549
                    ],
                    [
                        -32.47833722700354,
                        67.98742490950116
                    ],
                    [
                        -32.47691947114388,
                        67.98502561017466
                    ],
                    [
                        -32.47559978422546,
                        67.98263446489551
                    ],
                    [
                        -32.47441357816929,
                        67.9802544312933
                    ],
                    [
                        -32.47332532383897,
                        67.97788255330651
                    ],
                    [
                        -32.47239353001861,
                        67.97552371556192
                    ],
                    [
                        -32.47165827125742,
                        67.97318126800819
                    ],
                    [
                        -32.47117314468804,
                        67.97085969021703
                    ],
                    [
                        -32.47094842844109,
                        67.96855984857834
                    ],
                    [
                        -32.47093518128547,
                        67.96627766673943
                    ],
                    [
                        -32.47105048215123,
                        67.96400622979323
                    ],
                    [
                        -32.47120001430671,
                        67.96173766871028
                    ],
                    [
                        -32.471274559516786,
                        67.9594628677966
                    ],
                    [
                        -32.47118244132528,
                        67.95717417228364
                    ],
                    [
                        -32.47086998442043,
                        67.95486709641082
                    ],
                    [
                        -32.47031673423974,
                        67.95253992526932
                    ],
                    [
                        -32.46950016530017,
                        67.95019076881542
                    ],
                    [
                        -32.46837907627004,
                        67.9478161742894
                    ],
                    [
                        -32.46691308638695,
                        67.9454127529754
                    ],
                    [
                        -32.465162810140846,
                        67.94298555113225
                    ],
                    [
                        -32.463178256615244,
                        67.94053873149198
                    ],
                    [
                        -32.461029608093476,
                        67.93807814675318
                    ],
                    [
                        -32.45885417950488,
                        67.9356152705831
                    ],
                    [
                        -32.45682202570844,
                        67.93316432873003
                    ],
                    [
                        -32.45509957788109,
                        67.9307392589323
                    ],
                    [
                        -32.4537723824729,
                        67.92834724086129
                    ],
                    [
                        -32.45288851934542,
                        67.92599232073282
                    ],
                    [
                        -32.452458478186024,
                        67.923675396243
                    ],
                    [
                        -32.452501587781036,
                        67.92139810134739
                    ],
                    [
                        -32.45296870270222,
                        67.91915633178164
                    ],
                    [
                        -32.453847553007215,
                        67.91694906621615
                    ],
                    [
                        -32.45513346816514,
                        67.9147759158867
                    ],
                    [
                        -32.45676717296588,
                        67.9126319159059
                    ],
                    [
                        -32.45869013365515,
                        67.91051216136952
                    ],
                    [
                        -32.460848272465014,
                        67.90841211969057
                    ],
                    [
                        -32.46320507887467,
                        67.90632872914559
                    ],
                    [
                        -32.465723975379206,
                        67.90425892271048
                    ],
                    [
                        -32.46840186492964,
                        67.9022024363448
                    ],
                    [
                        -32.47122552852719,
                        67.90015815854073
                    ],
                    [
                        -32.47419501749164,
                        67.89812608828392
                    ],
                    [
                        -32.477331283143066,
                        67.89610797252459
                    ],
                    [
                        -32.480599216471454,
                        67.89410086749324
                    ],
                    [
                        -32.48392689308372,
                        67.89209875240871
                    ],
                    [
                        -32.4872370389268,
                        67.89009516355695
                    ],
                    [
                        -32.49040354468945,
                        67.88807955962203
                    ],
                    [
                        -32.49040354468945,
                        67.88807955962203
                    ],
                    [
                        -32.493569459197964,
                        67.88606390310596
                    ],
                    [
                        -32.49647662956192,
                        67.88402662088113
                    ],
                    [
                        -32.49908305037341,
                        67.8819642129505
                    ],
                    [
                        -32.50147791004392,
                        67.87988414043474
                    ],
                    [
                        -32.5037642589464,
                        67.87779501796736
                    ],
                    [
                        -32.50602404910138,
                        67.8757036938918
                    ],
                    [
                        -32.50830546297734,
                        67.8736141932438
                    ],
                    [
                        -32.510658819350994,
                        67.87153071787316
                    ],
                    [
                        -32.513044255507104,
                        67.86944993709923
                    ],
                    [
                        -32.515347992104374,
                        67.867362349765
                    ],
                    [
                        -32.53379275506287,
                        67.85097033229472
                    ],
                    [
                        -32.55220957168456,
                        67.83457696146057
                    ],
                    [
                        -32.57059850163812,
                        67.8181822432856
                    ],
                    [
                        -32.58895960443468,
                        67.80178618377744
                    ],
                    [
                        -32.607292939428206,
                        67.78538878892823
                    ],
                    [
                        -32.62559856581605,
                        67.76899006471486
                    ],
                    [
                        -32.64387654263941,
                        67.75259001709884
                    ],
                    [
                        -32.66212692878371,
                        67.73618865202653
                    ],
                    [
                        -32.68034978297919,
                        67.719785975429
                    ],
                    [
                        -32.69854516380126,
                        67.70338199322225
                    ],
                    [
                        -32.71671312967106,
                        67.68697671130714
                    ],
                    [
                        -32.7348537388558,
                        67.67057013556952
                    ],
                    [
                        -32.75296704946934,
                        67.65416227188024
                    ],
                    [
                        -32.77105311947259,
                        67.63775312609519
                    ],
                    [
                        -32.789112006673946,
                        67.6213427040554
                    ],
                    [
                        -32.80714376872979,
                        67.60493101158701
                    ],
                    [
                        -32.82514846314491,
                        67.58851805450146
                    ],
                    [
                        -32.843126147272976,
                        67.57210383859534
                    ],
                    [
                        -32.86107687831697,
                        67.55568836965062
                    ],
                    [
                        -32.87900071332966,
                        67.53927165343461
                    ]
                ]
            }
        }
    ]
}
