{
    "type": "FeatureCollection",
    "features": [
        {
            "type": "Feature",
            "properties": {
                "name": "Greenland Glacier 0073",
                "object": "transect",
                "component": "landice",
                "author": "Matthew Hoffman, converted from Felikson et al. (2020) Zenodo dataset",
                "tags": "Greenland_Ice_Sheet;flowline;zenodo_4284759;glacier_0073",
                "citation": "Felikson, Denis, Catania, Ginny, Bartholomaus, Timothy, Morlighem, Mathieu, & No\u00ebl, Brice. (2020). Inland limits to diffusion of thinning along Greenland Ice Sheet outlet glaciers (v1.0) [Data set]. Zenodo. https://doi.org/10.5281/zenodo.4284759",
                "license": "CC-BY-4.0"
            },
            "geometry": {
                "type": "LineString",
                "coordinates": [
                    [
                        -66.74374028397327,
                        76.41571181569456
                    ],
                    [
                        -66.74170503432435,
                        76.41345134983845
                    ],
                    [
                        -66.73847335376617,
                        76.41130306952785
                    ],
                    [
                        -66.73403902791993,
                        76.40926755415336
                    ],
                    [
                        -66.73244425360417,
                        76.40696600100935
                    ],
                    [
                        -66.73233003186557,
                        76.40452572920262
                    ],
                    [
                        -66.73187945950869,
                        76.40211700515462
                    ],
                    [
                        -66.73741402310372,
                        76.3992343676807
                    ],
                    [
                        -66.74322965637474,
                        76.39651883920318
                    ],
                    [
                        -66.74694394626566,
                        76.39371908601403
                    ],
                    [
                        -66.74739112992302,
                        76.3912259380873
                    ],
                    [
                        -66.7439871702737,
                        76.38909441937933
                    ],
                    [
                        -66.73640581369722,
                        76.38735513447236
                    ],
                    [
                        -66.72504029033128,
                        76.3859708846664
                    ],
                    [
                        -66.71335578647775,
                        76.3846162399295
                    ],
                    [
                        -66.70433121150693,
                        76.38301192259475
                    ],
                    [
                        -66.69752643781788,
                        76.38119944020792
                    ],
                    [
                        -66.69507847507836,
                        76.37897864179003
                    ],
                    [
                        -66.69822492243267,
                        76.3762334486225
                    ],
                    [
                        -66.70411857968564,
                        76.37356638043327
                    ],
                    [
                        -66.71033891003447,
                        76.37109396461481
                    ],
                    [
                        -66.71677384333046,
                        76.36874978216225
                    ],
                    [
                        -66.72307822498173,
                        76.36632949565674
                    ],
                    [
                        -66.72939874381106,
                        76.36391994320829
                    ],
                    [
                        -66.7358293445525,
                        76.36157670386922
                    ],
                    [
                        -66.74178371384359,
                        76.35895289127662
                    ],
                    [
                        -66.7474503063216,
                        76.35616008144855
                    ],
                    [
                        -66.75307072679283,
                        76.35334122876658
                    ],
                    [
                        -66.75876699137447,
                        76.35056850563056
                    ],
                    [
                        -66.76519900216488,
                        76.34823214773874
                    ],
                    [
                        -66.77171639264986,
                        76.34594742537297
                    ],
                    [
                        -66.77859330483844,
                        76.34387637051218
                    ],
                    [
                        -66.78610048276475,
                        76.34217886302291
                    ],
                    [
                        -66.79391748533548,
                        76.34066529400936
                    ],
                    [
                        -66.80181509218858,
                        76.33920011882981
                    ],
                    [
                        -66.80955178547973,
                        76.33764068503051
                    ],
                    [
                        -66.81704905291987,
                        76.33594072358494
                    ],
                    [
                        -66.82428000818857,
                        76.33408447451959
                    ],
                    [
                        -66.83140001078522,
                        76.33216371816374
                    ],
                    [
                        -66.83817966188462,
                        76.33004316561319
                    ],
                    [
                        -66.84504790570156,
                        76.32797593912588
                    ],
                    [
                        -66.85190817559649,
                        76.32590506021717
                    ],
                    [
                        -66.85834652288618,
                        76.32358646356634
                    ],
                    [
                        -66.85834652288618,
                        76.32358646356634
                    ],
                    [
                        -66.86478266741942,
                        76.32126770666399
                    ],
                    [
                        -66.8708988480092,
                        76.31876148786414
                    ],
                    [
                        -66.87724049918077,
                        76.3163893446839
                    ],
                    [
                        -66.88302683783432,
                        76.3136911156214
                    ],
                    [
                        -66.88932391731332,
                        76.31129506341794
                    ],
                    [
                        -66.8952536914147,
                        76.30868377502587
                    ],
                    [
                        -66.89751207769925,
                        76.30601552663744
                    ],
                    [
                        -66.92883315030112,
                        76.28938648637478
                    ],
                    [
                        -66.96007763159321,
                        76.27275395397515
                    ],
                    [
                        -66.99124578365792,
                        76.25611794533133
                    ],
                    [
                        -67.02233786747942,
                        76.23947847626609
                    ],
                    [
                        -67.05335414294872,
                        76.22283556253278
                    ],
                    [
                        -67.08429486886874,
                        76.20618921981558
                    ],
                    [
                        -67.11516030295944,
                        76.18953946372991
                    ],
                    [
                        -67.14595070186283,
                        76.17288630982279
                    ],
                    [
                        -67.17666632114798,
                        76.15622977357319
                    ],
                    [
                        -67.20730741531594,
                        76.13956987039249
                    ],
                    [
                        -67.23787423780487,
                        76.12290661562473
                    ],
                    [
                        -67.26836704099487,
                        76.10624002454703
                    ],
                    [
                        -67.29878607621293,
                        76.08957011237003
                    ],
                    [
                        -67.32913159373781,
                        76.07289689423807
                    ],
                    [
                        -67.359403842805,
                        76.05622038522972
                    ],
                    [
                        -67.38960307161149,
                        76.03954060035801
                    ],
                    [
                        -67.41972952732064,
                        76.02285755457088
                    ],
                    [
                        -67.44978345606698,
                        76.0061712627515
                    ],
                    [
                        -67.47976510296108,
                        75.98948173971856
                    ],
                    [
                        -67.50967471209414,
                        75.97278900022673
                    ]
                ]
            }
        }
    ]
}
