{
    "type": "FeatureCollection",
    "features": [
        {
            "type": "Feature",
            "properties": {
                "name": "Greenland Glacier 0208",
                "object": "transect",
                "component": "landice",
                "author": "Matthew Hoffman, converted from Felikson et al. (2020) Zenodo dataset",
                "tags": "Greenland_Ice_Sheet;flowline;zenodo_4284759;glacier_0208",
                "citation": "Felikson, Denis, Catania, Ginny, Bartholomaus, Timothy, Morlighem, Mathieu, & No\u00ebl, Brice. (2020). Inland limits to diffusion of thinning along Greenland Ice Sheet outlet glaciers (v1.0) [Data set]. Zenodo. https://doi.org/10.5281/zenodo.4284759",
                "license": "CC-BY-4.0"
            },
            "geometry": {
                "type": "LineString",
                "coordinates": [
                    [
                        -42.17132065503909,
                        64.86130601893014
                    ],
                    [
                        -42.176627813559975,
                        64.86025170844968
                    ],
                    [
                        -42.173703642017685,
                        64.86239562248079
                    ],
                    [
                        -42.175694010707836,
                        64.86023211706625
                    ],
                    [
                        -42.17511530638871,
                        64.86242525550432
                    ],
                    [
                        -42.17530665525462,
                        64.86022398835766
                    ],
                    [
                        -42.177363847670584,
                        64.86247242518331
                    ],
                    [
                        -42.174052992847784,
                        64.86019767240423
                    ],
                    [
                        -42.179278548223785,
                        64.85984464858045
                    ],
                    [
                        -42.17390150594855,
                        64.86150294306573
                    ],
                    [
                        -42.17413115824265,
                        64.85930248733611
                    ],
                    [
                        -42.17666670735158,
                        64.86156097283387
                    ],
                    [
                        -42.171509093357706,
                        64.86132552959229
                    ],
                    [
                        -42.17687773948146,
                        64.85974082047031
                    ],
                    [
                        -42.174368134776444,
                        64.86189343740672
                    ],
                    [
                        -42.174551375167816,
                        64.85969200416604
                    ],
                    [
                        -42.1780422432471,
                        64.86197051492024
                    ],
                    [
                        -42.17301741974692,
                        64.86059051718308
                    ],
                    [
                        -42.17832773284648,
                        64.85950694007173
                    ],
                    [
                        -42.1741759149916,
                        64.86162511253399
                    ],
                    [
                        -42.17410175027919,
                        64.8594182771711
                    ],
                    [
                        -42.177445881710945,
                        64.86169372202595
                    ],
                    [
                        -42.17235897389811,
                        64.86084913321803
                    ],
                    [
                        -42.17768659085744,
                        64.85961702070264
                    ],
                    [
                        -42.174189568109725,
                        64.8617489240151
                    ],
                    [
                        -42.174378315457,
                        64.85954760750818
                    ],
                    [
                        -42.177490538222074,
                        64.86181818297453
                    ],
                    [
                        -42.17243711153987,
                        64.86068503069589
                    ],
                    [
                        -42.17780708435536,
                        64.85908710267947
                    ],
                    [
                        -42.174873166079685,
                        64.86123082326044
                    ],
                    [
                        -42.17211726983447,
                        64.85896767299019
                    ],
                    [
                        -42.17705053884489,
                        64.86113411561476
                    ],
                    [
                        -42.17174276887934,
                        64.86219221321231
                    ],
                    [
                        -42.17609667249271,
                        64.86007834484644
                    ],
                    [
                        -42.174592614057886,
                        64.8622520626341
                    ],
                    [
                        -42.17519714103115,
                        64.86005946892158
                    ],
                    [
                        -42.17721434147535,
                        64.86230706787931
                    ],
                    [
                        -42.17278053348724,
                        64.86000872852361
                    ],
                    [
                        -42.17791000462498,
                        64.86048465722487
                    ],
                    [
                        -42.17251403415358,
                        64.86230388343884
                    ],
                    [
                        -42.17594408776403,
                        64.86017060931542
                    ],
                    [
                        -42.17471122748253,
                        64.86235001910467
                    ],
                    [
                        -42.175346445504424,
                        64.86015806832349
                    ],
                    [
                        -42.17684798940043,
                        64.86239485132826
                    ],
                    [
                        -42.17416638732177,
                        64.8601332980279
                    ],
                    [
                        -42.17937659975384,
                        64.85991259616839
                    ],
                    [
                        -42.17401967488575,
                        64.86139748591769
                    ],
                    [
                        -42.173748346923155,
                        64.85918651195675
                    ],
                    [
                        -42.176744487479944,
                        64.8614546663364
                    ],
                    [
                        -42.17154240279264,
                        64.8616022549842
                    ],
                    [
                        -42.176225771940096,
                        64.8594953123162
                    ],
                    [
                        -42.17496996130527,
                        64.86167423623795
                    ],
                    [
                        -42.16958733494734,
                        64.86337441060861
                    ],
                    [
                        -42.16420164699087,
                        64.86509421686198
                    ],
                    [
                        -42.1589434477586,
                        64.86571487882276
                    ],
                    [
                        -42.1537961303627,
                        64.86538462559163
                    ],
                    [
                        -42.14846703425178,
                        64.86660737099528
                    ],
                    [
                        -42.1430384433684,
                        64.8686731215961
                    ],
                    [
                        -42.145660158356215,
                        64.87093413851393
                    ],
                    [
                        -42.140332351109464,
                        64.8721318091239
                    ],
                    [
                        -42.1454936647319,
                        64.87235384472339
                    ],
                    [
                        -42.14024044292072,
                        64.87291404064587
                    ],
                    [
                        -42.14543198123004,
                        64.87287978538606
                    ],
                    [
                        -42.14522753330548,
                        64.87508089593581
                    ],
                    [
                        -42.15016254894201,
                        64.87724098094273
                    ],
                    [
                        -42.15241299233536,
                        64.87949404954895
                    ],
                    [
                        -42.14899911522316,
                        64.88162732242479
                    ],
                    [
                        -42.146468405441674,
                        64.88377924923238
                    ],
                    [
                        -42.145440117947956,
                        64.88596299784514
                    ],
                    [
                        -42.14533644506975,
                        64.88816635387377
                    ],
                    [
                        -42.14463123152867,
                        64.8903569824911
                    ],
                    [
                        -42.143636884159676,
                        64.89254149971961
                    ],
                    [
                        -42.14144115904139,
                        64.89470055386116
                    ],
                    [
                        -42.138472641127045,
                        64.89684319252311
                    ],
                    [
                        -42.13585541581582,
                        64.89899325937253
                    ],
                    [
                        -42.13311719695314,
                        64.9011407293416
                    ],
                    [
                        -42.128973000604695,
                        64.90325823530029
                    ],
                    [
                        -42.12363121743664,
                        64.90450674215606
                    ],
                    [
                        -42.11843610364463,
                        64.90451313445679
                    ],
                    [
                        -42.11327927406481,
                        64.90419690580184
                    ],
                    [
                        -42.1080949727347,
                        64.90411254253918
                    ],
                    [
                        -42.10286522107275,
                        64.90440965698956
                    ],
                    [
                        -42.09758580460295,
                        64.90512146839858
                    ],
                    [
                        -42.092154621818665,
                        64.90709918583352
                    ],
                    [
                        -42.089582999828394,
                        64.90924953232958
                    ],
                    [
                        -42.086876168226084,
                        64.91139693602483
                    ],
                    [
                        -42.084281599875915,
                        64.9135467403028
                    ],
                    [
                        -42.082014598922086,
                        64.91570360958278
                    ],
                    [
                        -42.07947048391613,
                        64.91785446678121
                    ],
                    [
                        -42.07638437566836,
                        64.91999355681376
                    ],
                    [
                        -42.07322699332331,
                        64.92213105884016
                    ],
                    [
                        -42.07002905254059,
                        64.92426763532352
                    ],
                    [
                        -42.066422496286584,
                        64.92639528138257
                    ],
                    [
                        -42.06195835290969,
                        64.92850419090767
                    ],
                    [
                        -42.056580055112775,
                        64.93059304919512
                    ],
                    [
                        -42.05112997785317,
                        64.93265055427057
                    ],
                    [
                        -42.04588505471287,
                        64.93474197358431
                    ],
                    [
                        -42.04079175939762,
                        64.93683654987306
                    ],
                    [
                        -42.03566705419023,
                        64.93893027998837
                    ],
                    [
                        -42.03058642076158,
                        64.94102482095865
                    ],
                    [
                        -42.025559659612775,
                        64.94312039351678
                    ],
                    [
                        -42.02025601980036,
                        64.9452097040512
                    ],
                    [
                        -42.014796702353486,
                        64.94728931017693
                    ],
                    [
                        -42.00940634286702,
                        64.94937635081988
                    ],
                    [
                        -42.00394562707351,
                        64.95145176777275
                    ],
                    [
                        -41.998498898678605,
                        64.95340636482824
                    ],
                    [
                        -41.993051727570354,
                        64.95535725448579
                    ],
                    [
                        -41.98759323161641,
                        64.9573920927572
                    ],
                    [
                        -41.98229025651634,
                        64.95948018136689
                    ],
                    [
                        -41.97698886102838,
                        64.96156813399624
                    ],
                    [
                        -41.97153302691906,
                        64.96355908814675
                    ],
                    [
                        -41.96608973851083,
                        64.96544239737838
                    ],
                    [
                        -41.96064763197325,
                        64.96730933171084
                    ],
                    [
                        -41.95520810347366,
                        64.9691488615529
                    ],
                    [
                        -41.949764267792496,
                        64.97101586935814
                    ],
                    [
                        -41.944320316265596,
                        64.97287694452515
                    ],
                    [
                        -41.93889391489982,
                        64.97459220725834
                    ],
                    [
                        -41.93349366186026,
                        64.97609448760883
                    ],
                    [
                        -41.92812008923165,
                        64.97738074657691
                    ],
                    [
                        -41.92276985992271,
                        64.97847843455847
                    ],
                    [
                        -41.91743731082904,
                        64.97943308751621
                    ],
                    [
                        -41.91212090158523,
                        64.98025755327541
                    ],
                    [
                        -41.90681870396476,
                        64.98096762468028
                    ],
                    [
                        -41.901529045932506,
                        64.98157697742458
                    ],
                    [
                        -41.89625143788245,
                        64.98208995693946
                    ],
                    [
                        -41.89098369171817,
                        64.98252411672291
                    ],
                    [
                        -41.88572600708013,
                        64.98287830731874
                    ],
                    [
                        -41.88047400048636,
                        64.98318699068412
                    ],
                    [
                        -41.87522937613366,
                        64.98343718088306
                    ],
                    [
                        -41.869994540619956,
                        64.98361054064456
                    ],
                    [
                        -41.864767854204636,
                        64.98372013119572
                    ],
                    [
                        -41.85954473088759,
                        64.98380166065111
                    ],
                    [
                        -41.85432281777877,
                        64.98387339519674
                    ],
                    [
                        -41.84910014088976,
                        64.98395056529218
                    ],
                    [
                        -41.843877522234024,
                        64.98402683191802
                    ],
                    [
                        -41.83865640864831,
                        64.98409110852373
                    ],
                    [
                        -41.833436668401966,
                        64.98414446239413
                    ],
                    [
                        -41.82821781093848,
                        64.98419069523239
                    ],
                    [
                        -41.823004062447986,
                        64.9841976062005
                    ],
                    [
                        -41.81779885805422,
                        64.98413922978887
                    ],
                    [
                        -41.81260324256726,
                        64.98400794235013
                    ],
                    [
                        -41.807415751835435,
                        64.9838152126899
                    ],
                    [
                        -41.8022344232369,
                        64.98357621183305
                    ],
                    [
                        -41.797059372490494,
                        64.98329028770507
                    ],
                    [
                        -41.79189436749891,
                        64.9829292038629
                    ],
                    [
                        -41.78673888076891,
                        64.98249729837399
                    ],
                    [
                        -41.78159126118909,
                        64.9820073411797
                    ],
                    [
                        -41.7764471821585,
                        64.98149213476326
                    ],
                    [
                        -41.771305946500064,
                        64.98095703132618
                    ],
                    [
                        -41.7661680376284,
                        64.98039850150603
                    ],
                    [
                        -41.761031402541214,
                        64.97983201694403
                    ],
                    [
                        -41.75589586325837,
                        64.97925894426706
                    ],
                    [
                        -41.75076325042679,
                        64.97866565875728
                    ],
                    [
                        -41.7456315817712,
                        64.97806701770611
                    ],
                    [
                        -41.740497388910214,
                        64.977488836623
                    ],
                    [
                        -41.73536266255677,
                        64.97691623975874
                    ],
                    [
                        -41.730232044952125,
                        64.97631478810857
                    ],
                    [
                        -41.725105846276556,
                        64.97568231943397
                    ],
                    [
                        -41.71998240409151,
                        64.97503126241357
                    ],
                    [
                        -41.7148595467335,
                        64.97437772650545
                    ],
                    [
                        -41.7097359204308,
                        64.97373169644555
                    ],
                    [
                        -41.70461238104016,
                        64.97308684152298
                    ],
                    [
                        -41.69948736353702,
                        64.97245465070392
                    ],
                    [
                        -41.69435775450242,
                        64.9718578978267
                    ],
                    [
                        -41.68922396819576,
                        64.9712933864389
                    ],
                    [
                        -41.68408505809081,
                        64.9707678882173
                    ],
                    [
                        -41.67894030223182,
                        64.97028649373574
                    ],
                    [
                        -41.67378970632714,
                        64.96984895828969
                    ],
                    [
                        -41.66863780574007,
                        64.96942207392023
                    ],
                    [
                        -41.66348376586241,
                        64.96901185585044
                    ],
                    [
                        -41.65833016959127,
                        64.9685994878356
                    ],
                    [
                        -41.653181305835005,
                        64.96815391007566
                    ],
                    [
                        -41.64803134959196,
                        64.96771740670891
                    ],
                    [
                        -41.64287736846142,
                        64.96731111395704
                    ],
                    [
                        -41.637716937150124,
                        64.96695238251594
                    ],
                    [
                        -41.63255285015065,
                        64.96662087433165
                    ],
                    [
                        -41.62738660927873,
                        64.96630566807633
                    ],
                    [
                        -41.62221541961257,
                        64.96602675133974
                    ],
                    [
                        -41.61704003031448,
                        64.96577858875047
                    ],
                    [
                        -41.611856744937185,
                        64.9655874923006
                    ],
                    [
                        -41.60666745562376,
                        64.96543968083543
                    ],
                    [
                        -41.6014684582898,
                        64.96536138239615
                    ],
                    [
                        -41.5962553481382,
                        64.96538365527567
                    ],
                    [
                        -41.59102608576537,
                        64.96552054156642
                    ],
                    [
                        -41.58578211262413,
                        64.96576127496137
                    ],
                    [
                        -41.580528443559224,
                        64.96606981621538
                    ],
                    [
                        -41.57526996168918,
                        64.96641128033818
                    ],
                    [
                        -41.57001019388362,
                        64.96676058453673
                    ],
                    [
                        -41.56475324948083,
                        64.96708869043701
                    ],
                    [
                        -41.559498675769696,
                        64.96739888592694
                    ],
                    [
                        -41.55424168611941,
                        64.96772493094943
                    ],
                    [
                        -41.54898529925931,
                        64.96804554564646
                    ],
                    [
                        -41.54373531115477,
                        64.96832010098572
                    ],
                    [
                        -41.53849448988371,
                        64.96852942203316
                    ],
                    [
                        -41.53326211648612,
                        64.96867883410529
                    ],
                    [
                        -41.528034547539704,
                        64.96879404862568
                    ],
                    [
                        -41.52280262062931,
                        64.96893909772318
                    ],
                    [
                        -41.517578204018164,
                        64.96903122930453
                    ],
                    [
                        -41.51235404674029,
                        64.96912108119275
                    ],
                    [
                        -41.50713071057321,
                        64.96920476448723
                    ],
                    [
                        -41.501908312696514,
                        64.96928149460184
                    ],
                    [
                        -41.49668661412021,
                        64.96935295613928
                    ],
                    [
                        -41.49146678838749,
                        64.96941106427106
                    ],
                    [
                        -41.486244919600416,
                        64.96948289348015
                    ],
                    [
                        -41.48101306343925,
                        64.96962310656366
                    ],
                    [
                        -41.47576781847256,
                        64.96985479238059
                    ],
                    [
                        -41.47051211898909,
                        64.9701573872814
                    ],
                    [
                        -41.465238431407,
                        64.97058223245769
                    ],
                    [
                        -41.45994984269695,
                        64.97110763744719
                    ],
                    [
                        -41.45465828193424,
                        64.97165159033311
                    ],
                    [
                        -41.44937127899639,
                        64.97216260535708
                    ],
                    [
                        -41.44409900605908,
                        64.97257149748442
                    ],
                    [
                        -41.43883513517808,
                        64.97292179286237
                    ],
                    [
                        -41.43357028602269,
                        64.9732774995074
                    ],
                    [
                        -41.428299618678146,
                        64.97367143429244
                    ],
                    [
                        -41.42302308887141,
                        64.97410372569524
                    ],
                    [
                        -41.41774057170732,
                        64.97457504648106
                    ],
                    [
                        -41.412452961957705,
                        64.97507917703157
                    ],
                    [
                        -41.407165728259905,
                        64.97557908374972
                    ],
                    [
                        -41.40188838183059,
                        64.9760107271878
                    ],
                    [
                        -41.39662533896547,
                        64.97634471115482
                    ],
                    [
                        -41.39137308785964,
                        64.97660504978727
                    ],
                    [
                        -41.386129144666064,
                        64.97680872193622
                    ],
                    [
                        -41.380891248931846,
                        64.97697111061298
                    ],
                    [
                        -41.37565510508825,
                        64.97712111527888
                    ],
                    [
                        -41.370417077179695,
                        64.97728306372345
                    ],
                    [
                        -41.365179152663984,
                        64.97744365436681
                    ],
                    [
                        -41.35994053270323,
                        64.97760821049387
                    ],
                    [
                        -41.354701262445566,
                        64.97777641447074
                    ],
                    [
                        -41.34945347367724,
                        64.97800047566227
                    ],
                    [
                        -41.344193592055944,
                        64.97830384142615
                    ],
                    [
                        -41.33891712563773,
                        64.97871589453129
                    ],
                    [
                        -41.33361421160869,
                        64.97930133703893
                    ],
                    [
                        -41.32827542208957,
                        64.98012161480241
                    ],
                    [
                        -41.32289059583623,
                        64.98124262891288
                    ],
                    [
                        -41.31740598978333,
                        64.98301656400103
                    ],
                    [
                        -41.313079029714565,
                        64.98510676648137
                    ],
                    [
                        -41.30909124678619,
                        64.98720612996935
                    ],
                    [
                        -41.304634971178345,
                        64.98929260395492
                    ],
                    [
                        -41.299684330070505,
                        64.99136543677908
                    ],
                    [
                        -41.294490086636415,
                        64.99343145082194
                    ],
                    [
                        -41.289033896758845,
                        64.99498735901655
                    ],
                    [
                        -41.28368660066506,
                        64.9958290306234
                    ],
                    [
                        -41.278410361539414,
                        64.99620578918908
                    ],
                    [
                        -41.27319592578952,
                        64.99617975390996
                    ],
                    [
                        -41.26803544651848,
                        64.99580352708254
                    ],
                    [
                        -41.262918319791396,
                        64.99514725397258
                    ],
                    [
                        -41.257831387896374,
                        64.99429720430405
                    ],
                    [
                        -41.252738654819,
                        64.99348675824264
                    ],
                    [
                        -41.24764627710704,
                        64.9926760267488
                    ],
                    [
                        -41.24256198098612,
                        64.99181521639262
                    ],
                    [
                        -41.237484159942376,
                        64.99091486553577
                    ],
                    [
                        -41.23241138353116,
                        64.98998432474843
                    ],
                    [
                        -41.22734547606465,
                        64.98901200147107
                    ],
                    [
                        -41.22734547606465,
                        64.98901200147107
                    ],
                    [
                        -41.22227997480731,
                        64.98803949213585
                    ],
                    [
                        -41.21721514579802,
                        64.98706509360429
                    ],
                    [
                        -41.21214019456891,
                        64.98615783578478
                    ],
                    [
                        -41.207059131307695,
                        64.98529184612785
                    ],
                    [
                        -41.20196072416878,
                        64.9845385931224
                    ],
                    [
                        -41.19684413614039,
                        64.9839029621056
                    ],
                    [
                        -41.157532725509455,
                        64.97809808580246
                    ],
                    [
                        -41.11824013878182,
                        64.97228191900575
                    ],
                    [
                        -41.07896639937239,
                        64.96645447069007
                    ],
                    [
                        -41.03971153060273,
                        64.96061574983916
                    ],
                    [
                        -41.00047555570117,
                        64.9547657654461
                    ],
                    [
                        -40.96125849780279,
                        64.94890452651298
                    ],
                    [
                        -40.92206037994946,
                        64.94303204205106
                    ],
                    [
                        -40.88288122508989,
                        64.93714832108061
                    ],
                    [
                        -40.84372105607965,
                        64.9312533726309
                    ],
                    [
                        -40.804579895681236,
                        64.92534720574014
                    ],
                    [
                        -40.76545776656404,
                        64.91942982945538
                    ],
                    [
                        -40.72635469130448,
                        64.91350125283257
                    ],
                    [
                        -40.687270692385944,
                        64.90756148493641
                    ],
                    [
                        -40.6482057921989,
                        64.9016105348403
                    ],
                    [
                        -40.60916001304091,
                        64.89564841162635
                    ],
                    [
                        -40.57013337711669,
                        64.88967512438533
                    ],
                    [
                        -40.531125906538094,
                        64.88369068221654
                    ],
                    [
                        -40.49213762332423,
                        64.87769509422778
                    ],
                    [
                        -40.45316854940147,
                        64.8716883695354
                    ],
                    [
                        -40.41421870660349,
                        64.86567051726415
                    ]
                ]
            }
        }
    ]
}
