{
    "type": "FeatureCollection",
    "features": [
        {
            "type": "Feature",
            "properties": {
                "name": "Adelie Coast",
                "object": "transect",
                "component": "landice",
                "author": "Matthew Hoffman, converted from https://github.com/yuwang115/sl-ice",
                "tags": "Antarctic_Ice_Sheet;flowline;sl-ice;adelie_coast"
            },
            "geometry": {
                "type": "LineString",
                "coordinates": [
                    [
                        134.17995455748306,
                        -71.51493709853949
                    ],
                    [
                        134.21124185527583,
                        -71.49998633950631
                    ],
                    [
                        134.24213160738128,
                        -71.48494998849377
                    ],
                    [
                        134.2723859529202,
                        -71.46980189955576
                    ],
                    [
                        134.30240245808935,
                        -71.4546010453626
                    ],
                    [
                        134.33259628904963,
                        -71.43944426462122
                    ],
                    [
                        134.36308576176452,
                        -71.42435725226431
                    ],
                    [
                        134.39384098358968,
                        -71.40933021979426
                    ],
                    [
                        134.42469400290375,
                        -71.39432123246398
                    ],
                    [
                        134.4557526501969,
                        -71.37937179222445
                    ],
                    [
                        134.48703692443027,
                        -71.36446914170605
                    ],
                    [
                        134.51824068770594,
                        -71.34955839820918
                    ],
                    [
                        134.54945284098872,
                        -71.3346556746344
                    ],
                    [
                        134.58113610078718,
                        -71.31986670294356
                    ],
                    [
                        134.61333929450402,
                        -71.30519448433566
                    ],
                    [
                        134.64563862147207,
                        -71.29055224297146
                    ],
                    [
                        134.6779947517141,
                        -71.27592715368935
                    ],
                    [
                        134.71073191449653,
                        -71.26139897461829
                    ],
                    [
                        134.74373189680216,
                        -71.2469355911848
                    ],
                    [
                        134.77666042556098,
                        -71.23246665816261
                    ],
                    [
                        134.80952758597726,
                        -71.21798270046972
                    ],
                    [
                        134.84243151166876,
                        -71.20351553290206
                    ],
                    [
                        134.87475412695852,
                        -71.18892835493446
                    ],
                    [
                        134.905339028846,
                        -71.17396090539273
                    ],
                    [
                        134.93315917224066,
                        -71.1584457127416
                    ],
                    [
                        134.9573175393259,
                        -71.14230784185347
                    ],
                    [
                        134.97884914116983,
                        -71.12578673198169
                    ],
                    [
                        134.99901189124756,
                        -71.1090862615492
                    ],
                    [
                        135.0183954409571,
                        -71.09228926683123
                    ],
                    [
                        135.03704069999,
                        -71.07541502086387
                    ],
                    [
                        135.05489084816196,
                        -71.05844476603276
                    ],
                    [
                        135.07237692684748,
                        -71.04144195990257
                    ],
                    [
                        135.09028909818772,
                        -71.02449187111256
                    ],
                    [
                        135.10893789819997,
                        -71.00762585391091
                    ],
                    [
                        135.1287594558637,
                        -70.99090354290547
                    ],
                    [
                        135.149790083248,
                        -70.97434349455023
                    ],
                    [
                        135.17227989194478,
                        -70.95799569312315
                    ],
                    [
                        135.1963716273525,
                        -70.94189423004993
                    ],
                    [
                        135.22155760408978,
                        -70.92597568070353
                    ],
                    [
                        135.24767101367868,
                        -70.91022393382936
                    ],
                    [
                        135.27462294454298,
                        -70.89462284125307
                    ],
                    [
                        135.3016174226877,
                        -70.87904031435956
                    ],
                    [
                        135.32816989036476,
                        -70.86337586916044
                    ],
                    [
                        135.35394256402878,
                        -70.84758288337677
                    ],
                    [
                        135.37954611346828,
                        -70.83175857258117
                    ],
                    [
                        135.4055321833477,
                        -70.81601257615664
                    ],
                    [
                        135.4323348402005,
                        -70.8004164672731
                    ],
                    [
                        135.45937333395494,
                        -70.78487002842009
                    ],
                    [
                        135.4863093405568,
                        -70.76930757610135
                    ],
                    [
                        135.5132300408593,
                        -70.7537510600886
                    ],
                    [
                        135.54025113676414,
                        -70.73821911643697
                    ],
                    [
                        135.56736262140802,
                        -70.72270221825772
                    ],
                    [
                        135.5943623646873,
                        -70.70717250748942
                    ],
                    [
                        135.6210579969967,
                        -70.69159272492281
                    ],
                    [
                        135.64736326805442,
                        -70.67594117051533
                    ],
                    [
                        135.6732309781786,
                        -70.66021504292127
                    ],
                    [
                        135.69867180448313,
                        -70.64442399676793
                    ],
                    [
                        135.7236474467862,
                        -70.62854305899464
                    ],
                    [
                        135.7480446376512,
                        -70.61257926107564
                    ],
                    [
                        135.77198839472544,
                        -70.5965354619886
                    ],
                    [
                        135.79553768704804,
                        -70.58043690761302
                    ],
                    [
                        135.81879852550895,
                        -70.56429908480312
                    ],
                    [
                        135.841799844846,
                        -70.54811880469332
                    ],
                    [
                        135.86432237836456,
                        -70.53186246206765
                    ],
                    [
                        135.8861290841369,
                        -70.51550932427041
                    ],
                    [
                        135.9072022259087,
                        -70.49905344348741
                    ],
                    [
                        135.9274099643844,
                        -70.48247683330109
                    ],
                    [
                        135.94674486511184,
                        -70.46578302705744
                    ],
                    [
                        135.96541888512647,
                        -70.44901544617227
                    ],
                    [
                        135.98331931995568,
                        -70.43215598535632
                    ],
                    [
                        136.00024878738373,
                        -70.415183915336
                    ],
                    [
                        136.01653219832622,
                        -70.3981419091252
                    ],
                    [
                        136.0321810111545,
                        -70.38103958936755
                    ],
                    [
                        136.04722480714983,
                        -70.36387380053519
                    ],
                    [
                        136.06190185005212,
                        -70.34667802955994
                    ],
                    [
                        136.0761089136308,
                        -70.32943721578422
                    ],
                    [
                        136.08981919904468,
                        -70.31215482361742
                    ],
                    [
                        136.1027984370883,
                        -70.29481036645709
                    ],
                    [
                        136.11474744242489,
                        -70.27738069522059
                    ],
                    [
                        136.12526574080186,
                        -70.25985290224581
                    ],
                    [
                        136.13494815912327,
                        -70.24226441951232
                    ],
                    [
                        136.1440041336811,
                        -70.2246456212051
                    ],
                    [
                        136.15209803799962,
                        -70.20697361335667
                    ],
                    [
                        136.15949448975005,
                        -70.18926571545673
                    ],
                    [
                        136.16627971392344,
                        -70.17153092721614
                    ],
                    [
                        136.17269834292813,
                        -70.15378660713127
                    ],
                    [
                        136.17910451634506,
                        -70.13603032738376
                    ],
                    [
                        136.18570482912278,
                        -70.11829857347337
                    ],
                    [
                        136.19263695739616,
                        -70.10057453280001
                    ],
                    [
                        136.20003053401052,
                        -70.08286987560663
                    ],
                    [
                        136.20810811909902,
                        -70.06520821544373
                    ],
                    [
                        136.2164313361319,
                        -70.04756416617158
                    ],
                    [
                        136.22421014472198,
                        -70.02988340391913
                    ],
                    [
                        136.23077990042154,
                        -70.01215194383474
                    ],
                    [
                        136.23580186750942,
                        -69.99436298122022
                    ],
                    [
                        136.24004747039228,
                        -69.97654573695856
                    ],
                    [
                        136.24363051308816,
                        -69.95871840344196
                    ],
                    [
                        136.24603633659262,
                        -69.94086592332071
                    ],
                    [
                        136.24731509782683,
                        -69.9230037992539
                    ],
                    [
                        136.24776375637353,
                        -69.9051298587122
                    ],
                    [
                        136.24778053255145,
                        -69.88726325885871
                    ],
                    [
                        136.24770560205025,
                        -69.86939829762039
                    ],
                    [
                        136.24751153620306,
                        -69.8515320243167
                    ],
                    [
                        136.24688752192918,
                        -69.83366677648071
                    ],
                    [
                        136.2457619790062,
                        -69.81580941360356
                    ],
                    [
                        136.2442454810527,
                        -69.79795278836262
                    ],
                    [
                        136.24243967252121,
                        -69.78009929454764
                    ],
                    [
                        136.24055524865577,
                        -69.76225050763519
                    ],
                    [
                        136.23881997221505,
                        -69.74440156224522
                    ],
                    [
                        136.23754290177612,
                        -69.72655014596782
                    ],
                    [
                        136.23661328830192,
                        -69.70869077597938
                    ],
                    [
                        136.23579476033228,
                        -69.6908378545497
                    ],
                    [
                        136.23482318960166,
                        -69.67298388864404
                    ],
                    [
                        136.2339984657847,
                        -69.65512978938528
                    ],
                    [
                        136.23369189363967,
                        -69.63727592967972
                    ],
                    [
                        136.23437322771957,
                        -69.61942508921068
                    ],
                    [
                        136.23621225956214,
                        -69.60158542802175
                    ],
                    [
                        136.23925166529372,
                        -69.58376603001378
                    ],
                    [
                        136.24336184602075,
                        -69.56596778477231
                    ],
                    [
                        136.24805284125563,
                        -69.5481943211154
                    ],
                    [
                        136.25329588813176,
                        -69.53044263839315
                    ],
                    [
                        136.25936047261695,
                        -69.51272321761596
                    ],
                    [
                        136.26612729182077,
                        -69.49503371486874
                    ],
                    [
                        136.27354098785392,
                        -69.47738076692491
                    ],
                    [
                        136.28154560989097,
                        -69.45975839582516
                    ],
                    [
                        136.28995937181313,
                        -69.44215531582516
                    ],
                    [
                        136.29879120623326,
                        -69.42458715567312
                    ],
                    [
                        136.308228784955,
                        -69.40706178898425
                    ],
                    [
                        136.31819816848653,
                        -69.38956707158042
                    ],
                    [
                        136.328635634012,
                        -69.37210656490474
                    ],
                    [
                        136.33956744978352,
                        -69.35468940932729
                    ],
                    [
                        136.35086659693187,
                        -69.3373039281593
                    ],
                    [
                        136.36257698691844,
                        -69.31995281593102
                    ],
                    [
                        136.37482323186717,
                        -69.30264752618803
                    ],
                    [
                        136.3875597407499,
                        -69.28539146241624
                    ],
                    [
                        136.4007675632037,
                        -69.26818465365768
                    ],
                    [
                        136.4144096047092,
                        -69.25102098308096
                    ],
                    [
                        136.4284757491649,
                        -69.23389725919428
                    ],
                    [
                        136.44312696044105,
                        -69.2168434455645
                    ],
                    [
                        136.45860287372926,
                        -69.19987926026357
                    ],
                    [
                        136.47475081273745,
                        -69.1830026774494
                    ],
                    [
                        136.49146126087132,
                        -69.16618925795943
                    ],
                    [
                        136.50876114375626,
                        -69.14946061753356
                    ],
                    [
                        136.5269171454873,
                        -69.13285183313116
                    ],
                    [
                        136.54630309026547,
                        -69.11642202219008
                    ],
                    [
                        136.56736486978588,
                        -69.10026089459491
                    ],
                    [
                        136.58977906088666,
                        -69.08433309652219
                    ],
                    [
                        136.61335755583323,
                        -69.06863043495363
                    ],
                    [
                        136.6380813568312,
                        -69.05315883503165
                    ],
                    [
                        136.6636450838754,
                        -69.03786415186408
                    ],
                    [
                        136.68997721582946,
                        -69.02274669285691
                    ],
                    [
                        136.71713900221638,
                        -69.00781483020637
                    ],
                    [
                        136.7447910979444,
                        -68.99301507739808
                    ],
                    [
                        136.77279737527775,
                        -68.97830138862258
                    ],
                    [
                        136.8010506255381,
                        -68.96365585482492
                    ],
                    [
                        136.82950598603358,
                        -68.9490693842699
                    ],
                    [
                        136.85826997844404,
                        -68.93455951147317
                    ],
                    [
                        136.88746929724465,
                        -68.92017495731852
                    ],
                    [
                        136.91703132900736,
                        -68.90589111865144
                    ],
                    [
                        136.94697381452693,
                        -68.89171384934446
                    ],
                    [
                        136.97736925299373,
                        -68.87767350979598
                    ],
                    [
                        137.00809098214833,
                        -68.86372730054414
                    ],
                    [
                        137.03906782093216,
                        -68.84986331830048
                    ],
                    [
                        137.07026417362377,
                        -68.83607555347587
                    ],
                    [
                        137.10148150057174,
                        -68.82229717872643
                    ],
                    [
                        137.13273784705945,
                        -68.80853422625113
                    ],
                    [
                        137.1640338683505,
                        -68.79479295066133
                    ],
                    [
                        137.19538695707874,
                        -68.78107307256124
                    ],
                    [
                        137.22690528288584,
                        -68.76741082021792
                    ],
                    [
                        137.2587420212356,
                        -68.75385743459528
                    ],
                    [
                        137.291075920822,
                        -68.74046050040818
                    ],
                    [
                        137.3239802564342,
                        -68.72725639641915
                    ],
                    [
                        137.357627496463,
                        -68.71431459442316
                    ],
                    [
                        137.392008524664,
                        -68.70163156087902
                    ],
                    [
                        137.42697231722528,
                        -68.6891744510515
                    ],
                    [
                        137.46233729186162,
                        -68.67687008583363
                    ],
                    [
                        137.49805998349282,
                        -68.66471570535249
                    ],
                    [
                        137.53464067282871,
                        -68.6529139993924
                    ],
                    [
                        137.57274092218552,
                        -68.64178105472764
                    ],
                    [
                        137.61151523895035,
                        -68.63096755523442
                    ],
                    [
                        137.65000131001128,
                        -68.62002622052867
                    ],
                    [
                        137.68770573235875,
                        -68.60874523830907
                    ],
                    [
                        137.72592832429496,
                        -68.59770731442309
                    ],
                    [
                        137.76558282576366,
                        -68.58736520795138
                    ],
                    [
                        137.80730495166338,
                        -68.57820403252407
                    ],
                    [
                        137.8503401743562,
                        -68.56989882024985
                    ],
                    [
                        137.89423068365375,
                        -68.56222386238024
                    ],
                    [
                        137.9384458860257,
                        -68.5548104295389
                    ],
                    [
                        137.98234920411969,
                        -68.54716640814915
                    ],
                    [
                        138.02552945809336,
                        -68.53901336387558
                    ],
                    [
                        138.06757756780377,
                        -68.53009846669565
                    ],
                    [
                        138.10850717621386,
                        -68.52053574548616
                    ],
                    [
                        138.1484700451962,
                        -68.51043641642967
                    ],
                    [
                        138.18745503419308,
                        -68.4998518522687
                    ],
                    [
                        138.2257417128869,
                        -68.48893451117993
                    ],
                    [
                        138.2632680509334,
                        -68.47767676126006
                    ],
                    [
                        138.29907459679657,
                        -68.46570573657412
                    ],
                    [
                        138.33259022708774,
                        -68.4528837036084
                    ],
                    [
                        138.3636775185925,
                        -68.43926245399096
                    ],
                    [
                        138.39286268516318,
                        -68.42507461706136
                    ],
                    [
                        138.4215179689852,
                        -68.41075732276096
                    ],
                    [
                        138.45024971800245,
                        -68.3964611999978
                    ],
                    [
                        138.47972280483674,
                        -68.382385465475
                    ],
                    [
                        138.5101692641373,
                        -68.36859368596281
                    ],
                    [
                        138.54121570122885,
                        -68.35499926711175
                    ],
                    [
                        138.5725178923639,
                        -68.34148375985184
                    ],
                    [
                        138.60402371166845,
                        -68.32804189873502
                    ],
                    [
                        138.63578722974907,
                        -68.31469116376779
                    ],
                    [
                        138.6679898494318,
                        -68.30149635773817
                    ],
                    [
                        138.70074870687267,
                        -68.28849531088022
                    ],
                    [
                        138.73397461417235,
                        -68.27566459084527
                    ],
                    [
                        138.76799548047262,
                        -68.26312813649758
                    ],
                    [
                        138.80292513800887,
                        -68.25095185781916
                    ],
                    [
                        138.83881229350615,
                        -68.23916852031614
                    ],
                    [
                        138.87591568157177,
                        -68.22793782646163
                    ],
                    [
                        138.9140265655898,
                        -68.2171791157582
                    ],
                    [
                        138.95299848074006,
                        -68.20687331787258
                    ],
                    [
                        138.99282718865288,
                        -68.19703561100788
                    ],
                    [
                        139.03300798107952,
                        -68.18740766798119
                    ],
                    [
                        139.07373643605334,
                        -68.17812260720447
                    ],
                    [
                        139.11536293897197,
                        -68.1694099896994
                    ],
                    [
                        139.15752302093534,
                        -68.16108050322197
                    ],
                    [
                        139.2002491427155,
                        -68.15316117217131
                    ],
                    [
                        139.24382820745404,
                        -68.14593656224672
                    ],
                    [
                        139.28723236575337,
                        -68.13856523178114
                    ],
                    [
                        139.33044017731433,
                        -68.13106996543148
                    ],
                    [
                        139.3738358159165,
                        -68.12372034272053
                    ],
                    [
                        139.4173450567712,
                        -68.11648053416873
                    ],
                    [
                        139.46083647463496,
                        -68.10924399211287
                    ],
                    [
                        139.50432050216378,
                        -68.10201986639684
                    ],
                    [
                        139.54789310062753,
                        -68.09486201922073
                    ],
                    [
                        139.5913496526856,
                        -68.08764101207359
                    ],
                    [
                        139.6348130956527,
                        -68.08041937844219
                    ],
                    [
                        139.67808716155045,
                        -68.07307075048185
                    ],
                    [
                        139.72092967282276,
                        -68.06537899832854
                    ],
                    [
                        139.76330698408867,
                        -68.05735180018661
                    ],
                    [
                        139.80511088413652,
                        -68.04892673056275
                    ],
                    [
                        139.84657242685714,
                        -68.04027654120118
                    ],
                    [
                        139.88727834281357,
                        -68.03114366625854
                    ],
                    [
                        139.92737403512928,
                        -68.02165636538072
                    ],
                    [
                        139.96655350919124,
                        -68.01166116344349
                    ],
                    [
                        140.00507926262273,
                        -68.00131719179093
                    ],
                    [
                        140.04319489148315,
                        -67.99077132686305
                    ],
                    [
                        140.08018361167936,
                        -67.97969473723342
                    ],
                    [
                        140.1120952192675,
                        -67.96662912093763
                    ],
                    [
                        140.14344483964072,
                        -67.95343954782294
                    ],
                    [
                        140.17927166172046,
                        -67.9418618874509
                    ],
                    [
                        140.2166190082492,
                        -67.9310013632942
                    ],
                    [
                        140.2552464142114,
                        -67.92079263197522
                    ],
                    [
                        140.2952620330503,
                        -67.9113948592143
                    ],
                    [
                        140.3379422695588,
                        -67.90389072090889
                    ],
                    [
                        140.38318453125703,
                        -67.89903845295368
                    ],
                    [
                        140.42962577473315,
                        -67.8959863313855
                    ],
                    [
                        140.4755776080562,
                        -67.89203541991256
                    ],
                    [
                        140.52129923631787,
                        -67.88772841427922
                    ],
                    [
                        140.56708303845278,
                        -67.88352461375295
                    ],
                    [
                        140.6116098258276,
                        -67.8777634287072
                    ],
                    [
                        140.654879294997,
                        -67.87076429364292
                    ],
                    [
                        140.69786169134267,
                        -67.8635009560409
                    ],
                    [
                        140.7402898471183,
                        -67.85582288004763
                    ],
                    [
                        140.7825078315285,
                        -67.84799177131677
                    ],
                    [
                        140.82444851170345,
                        -67.8399472721105
                    ],
                    [
                        140.86637559601172,
                        -67.83192542319023
                    ],
                    [
                        140.90835307175118,
                        -67.82394581064453
                    ],
                    [
                        140.95004630289696,
                        -67.8157628467524
                    ],
                    [
                        140.9922489769808,
                        -67.8080141591518
                    ],
                    [
                        141.03612003025992,
                        -67.80170378357651
                    ],
                    [
                        141.08005434474876,
                        -67.7954593112108
                    ],
                    [
                        141.12356061452755,
                        -67.78881147489113
                    ],
                    [
                        141.16720723281207,
                        -67.78232751061141
                    ],
                    [
                        141.21126456275184,
                        -67.77624867080789
                    ],
                    [
                        141.25590029141247,
                        -67.77082967442435
                    ],
                    [
                        141.3005958320323,
                        -67.76550781943719
                    ],
                    [
                        141.34457968573344,
                        -67.75938428376861
                    ],
                    [
                        141.38752182542376,
                        -67.75231569666387
                    ],
                    [
                        141.431803456412,
                        -67.74658479560816
                    ],
                    [
                        141.4770027402491,
                        -67.74198143868004
                    ],
                    [
                        141.52335509385202,
                        -67.73965055711196
                    ],
                    [
                        141.57005906819904,
                        -67.73849606170036
                    ],
                    [
                        141.61678737034785,
                        -67.73747744683585
                    ],
                    [
                        141.66357093738497,
                        -67.73701661342253
                    ],
                    [
                        141.71035056814236,
                        -67.73707208314529
                    ],
                    [
                        141.75668719378504,
                        -67.73934762391518
                    ],
                    [
                        141.80197838956596,
                        -67.74381785840913
                    ],
                    [
                        141.84680114817348,
                        -67.74894769988254
                    ],
                    [
                        141.89142862850818,
                        -67.75432706914691
                    ],
                    [
                        141.93677143924015,
                        -67.75876061149735
                    ],
                    [
                        141.98264778861295,
                        -67.7623475030754
                    ],
                    [
                        142.02871744412099,
                        -67.76559606121535
                    ],
                    [
                        142.07432617890845,
                        -67.7696749739832
                    ],
                    [
                        142.12006206322454,
                        -67.77354209760173
                    ],
                    [
                        142.16653372184493,
                        -67.77571357476172
                    ],
                    [
                        142.2133523729224,
                        -67.77648197848313
                    ],
                    [
                        142.26002779575342,
                        -67.77814128201145
                    ],
                    [
                        142.30674447803543,
                        -67.77968963762511
                    ],
                    [
                        142.35330047573652,
                        -67.78183603678669
                    ],
                    [
                        142.39978023996582,
                        -67.78420647523382
                    ],
                    [
                        142.44646980603528,
                        -67.78580912504584
                    ],
                    [
                        142.4932995893004,
                        -67.78677043498456
                    ],
                    [
                        142.54018437547577,
                        -67.78731273376889
                    ],
                    [
                        142.58707376489778,
                        -67.78756183162218
                    ],
                    [
                        142.63386526111861,
                        -67.78883984057602
                    ],
                    [
                        142.680513884789,
                        -67.79069672299839
                    ],
                    [
                        142.7266875038311,
                        -67.7937831920074
                    ],
                    [
                        142.77216776597683,
                        -67.79814622888925
                    ],
                    [
                        142.8169626178936,
                        -67.80344125306841
                    ],
                    [
                        142.86183177178233,
                        -67.80866019406635
                    ],
                    [
                        142.90667523928764,
                        -67.81389693009775
                    ],
                    [
                        142.95045453716332,
                        -67.82033434005737
                    ],
                    [
                        142.9934777340732,
                        -67.82745355037348
                    ],
                    [
                        143.0349606990226,
                        -67.83579801542042
                    ],
                    [
                        143.0763649187715,
                        -67.8442165369182
                    ],
                    [
                        143.11809318062595,
                        -67.85241806444448
                    ],
                    [
                        143.16091088467235,
                        -67.85976478696013
                    ],
                    [
                        143.20476450352982,
                        -67.86621403530575
                    ],
                    [
                        143.24941909056824,
                        -67.87182186618361
                    ],
                    [
                        143.2942978778252,
                        -67.87721847989484
                    ],
                    [
                        143.3388003466605,
                        -67.88302684606688
                    ],
                    [
                        143.38419540975642,
                        -67.88774924751105
                    ],
                    [
                        143.43086094179367,
                        -67.89019883904078
                    ],
                    [
                        143.47785127426963,
                        -67.89151207554681
                    ],
                    [
                        143.52497572696336,
                        -67.89171487074238
                    ],
                    [
                        143.5718780051911,
                        -67.8901031715434
                    ],
                    [
                        143.61807714356928,
                        -67.88666274003268
                    ],
                    [
                        143.66345409774854,
                        -67.881898940249
                    ],
                    [
                        143.70761257816315,
                        -67.87572703590754
                    ],
                    [
                        143.75054445424854,
                        -67.86845623589144
                    ],
                    [
                        143.79187858391302,
                        -67.85997560692056
                    ],
                    [
                        143.83138311112802,
                        -67.85032842825775
                    ],
                    [
                        143.86942732180367,
                        -67.83991034025155
                    ],
                    [
                        143.90574779472726,
                        -67.82863951194632
                    ],
                    [
                        143.94190619887297,
                        -67.81730426759417
                    ],
                    [
                        143.97851436109292,
                        -67.80618268153947
                    ],
                    [
                        144.01446861055004,
                        -67.79478465125048
                    ],
                    [
                        144.04808784026787,
                        -67.78240811017433
                    ],
                    [
                        144.07910903301655,
                        -67.76910873512718
                    ],
                    [
                        144.1083358431295,
                        -67.75523983485026
                    ],
                    [
                        144.13695791594355,
                        -67.74119398263703
                    ],
                    [
                        144.16547399508488,
                        -67.72711899242918
                    ],
                    [
                        144.1941574838602,
                        -67.71310617342286
                    ],
                    [
                        144.22305039169632,
                        -67.6991559939658
                    ],
                    [
                        144.25214840492706,
                        -67.68527810713692
                    ],
                    [
                        144.28143929502102,
                        -67.67146359317822
                    ],
                    [
                        144.3107998733346,
                        -67.6576786804108
                    ],
                    [
                        144.33991242871633,
                        -67.64382560487131
                    ],
                    [
                        144.3684784637732,
                        -67.62981203329072
                    ],
                    [
                        144.39607271847507,
                        -67.61552210068024
                    ],
                    [
                        144.4229972861474,
                        -67.60105491853123
                    ],
                    [
                        144.44950133090938,
                        -67.5864840872982
                    ],
                    [
                        144.47586341818283,
                        -67.57187476227564
                    ],
                    [
                        144.50225916017908,
                        -67.55728573113478
                    ],
                    [
                        144.52877757493374,
                        -67.54273032629082
                    ],
                    [
                        144.55551567096697,
                        -67.52824036410614
                    ],
                    [
                        144.58248269296072,
                        -67.51381827790978
                    ],
                    [
                        144.60957466128926,
                        -67.49943568233094
                    ],
                    [
                        144.6367443214603,
                        -67.48507966620535
                    ],
                    [
                        144.66392836611467,
                        -67.4707384072816
                    ],
                    [
                        144.69116845455886,
                        -67.45641233786712
                    ],
                    [
                        144.71835421952346,
                        -67.44207687233647
                    ],
                    [
                        144.74558269530985,
                        -67.42776379355433
                    ],
                    [
                        144.772791849485,
                        -67.41344537297803
                    ],
                    [
                        144.80010963038802,
                        -67.3991671753139
                    ],
                    [
                        144.82727910462467,
                        -67.38485402509319
                    ],
                    [
                        144.85425061092377,
                        -67.37048706998726
                    ],
                    [
                        144.88104594230336,
                        -67.35607768831
                    ],
                    [
                        144.90778751631254,
                        -67.34165908788168
                    ],
                    [
                        144.93441901535425,
                        -67.32721601695108
                    ],
                    [
                        144.96077144823272,
                        -67.31270274224255
                    ],
                    [
                        144.98702357310665,
                        -67.29816771101653
                    ],
                    [
                        145.01316612384147,
                        -67.28360843087182
                    ],
                    [
                        145.03930248087966,
                        -67.26905287701811
                    ],
                    [
                        145.0654795873198,
                        -67.25451372662484
                    ],
                    [
                        145.09163176524896,
                        -67.23997320333933
                    ],
                    [
                        145.1177309317729,
                        -67.22542371286399
                    ],
                    [
                        145.14380528277434,
                        -67.21087286980874
                    ],
                    [
                        145.17007038265558,
                        -67.1963788569809
                    ],
                    [
                        145.1965663877865,
                        -67.18195783039702
                    ],
                    [
                        145.22331548256722,
                        -67.16760489743353
                    ],
                    [
                        145.2502230530136,
                        -67.15331062473145
                    ],
                    [
                        145.2771184260285,
                        -67.13900738470191
                    ],
                    [
                        145.30348345368895,
                        -67.12456635714516
                    ],
                    [
                        145.33017261327308,
                        -67.11022319024254
                    ],
                    [
                        145.35675107324852,
                        -67.09585399963281
                    ],
                    [
                        145.38329533162977,
                        -67.08148071526625
                    ],
                    [
                        145.4098054430185,
                        -67.06710334748968
                    ],
                    [
                        145.43628146193456,
                        -67.05272190662824
                    ],
                    [
                        145.4627234428159,
                        -67.0383364029855
                    ],
                    [
                        145.48913144001853,
                        -67.02394684684344
                    ],
                    [
                        145.5155055078166,
                        -67.00955324846265
                    ],
                    [
                        145.54184570040252,
                        -66.99515561808214
                    ],
                    [
                        145.56815207188663,
                        -66.98075396591962
                    ],
                    [
                        145.59442467629762,
                        -66.9663483021714
                    ],
                    [
                        145.6206635675823,
                        -66.95193863701247
                    ],
                    [
                        145.64686879960567,
                        -66.93752498059662
                    ],
                    [
                        145.67304042615098,
                        -66.9231073430564
                    ],
                    [
                        145.69917850091971,
                        -66.90868573450318
                    ],
                    [
                        145.7252830775316,
                        -66.89426016502722
                    ],
                    [
                        145.75135420952466,
                        -66.87983064469775
                    ],
                    [
                        145.77739195035522,
                        -66.86539718356292
                    ],
                    [
                        145.80339635339791,
                        -66.85095979164997
                    ],
                    [
                        145.82936747194572,
                        -66.83651847896513
                    ],
                    [
                        145.85530535921004,
                        -66.82207325549386
                    ]
                ]
            }
        }
    ]
}
