{
    "type": "FeatureCollection",
    "features": [
        {
            "type": "Feature",
            "properties": {
                "name": "Whillans",
                "object": "transect",
                "component": "landice",
                "author": "Matthew Hoffman, converted from https://github.com/yuwang115/sl-ice",
                "tags": "Antarctic_Ice_Sheet;flowline;sl-ice;whillans"
            },
            "geometry": {
                "type": "LineString",
                "coordinates": [
                    [
                        -110.6450483716472,
                        -84.7717344372268
                    ],
                    [
                        -110.54615299905369,
                        -84.75573703934371
                    ],
                    [
                        -110.45555561519926,
                        -84.73935042889056
                    ],
                    [
                        -110.38360227271055,
                        -84.72222651519134
                    ],
                    [
                        -110.36852363456438,
                        -84.70405593379142
                    ],
                    [
                        -110.38615585567676,
                        -84.68578670000566
                    ],
                    [
                        -110.36077210616557,
                        -84.66765218830949
                    ],
                    [
                        -110.32911443615451,
                        -84.64952024529583
                    ],
                    [
                        -110.30443826876152,
                        -84.63129860184075
                    ],
                    [
                        -110.28697988415344,
                        -84.61300488779958
                    ],
                    [
                        -110.28511473756679,
                        -84.59468438686186
                    ],
                    [
                        -110.33648017508098,
                        -84.5772121429425
                    ],
                    [
                        -110.4204392164495,
                        -84.56065398979001
                    ],
                    [
                        -110.50927738427959,
                        -84.54436931469377
                    ],
                    [
                        -110.56531022182456,
                        -84.52685969073285
                    ],
                    [
                        -110.60345138473092,
                        -84.50885964839725
                    ],
                    [
                        -110.6676933726065,
                        -84.49179894735647
                    ],
                    [
                        -110.78892102281674,
                        -84.47765605211593
                    ],
                    [
                        -110.93906327151544,
                        -84.46646080981863
                    ],
                    [
                        -111.10695401359685,
                        -84.45785478351473
                    ],
                    [
                        -111.28247640833266,
                        -84.45082681152479
                    ],
                    [
                        -111.45871624446877,
                        -84.44400859181097
                    ],
                    [
                        -111.63059615617757,
                        -84.43626556049254
                    ],
                    [
                        -111.80945479063473,
                        -84.43091281601434
                    ],
                    [
                        -111.9980256766785,
                        -84.42963344735514
                    ],
                    [
                        -112.18717211098553,
                        -84.43002288400075
                    ],
                    [
                        -112.37628569631174,
                        -84.43057941425786
                    ],
                    [
                        -112.56432041403248,
                        -84.43249257925433
                    ],
                    [
                        -112.7503768626621,
                        -84.43566821067803
                    ],
                    [
                        -112.93954411014073,
                        -84.43588223014743
                    ],
                    [
                        -113.12784664309808,
                        -84.43402701353818
                    ],
                    [
                        -113.3165284347619,
                        -84.43257858415078
                    ],
                    [
                        -113.5055982499003,
                        -84.43239914264946
                    ],
                    [
                        -113.6946525904326,
                        -84.43182528245616
                    ],
                    [
                        -113.88070907789808,
                        -84.4285512316372
                    ],
                    [
                        -114.06348831149097,
                        -84.42385777524748
                    ],
                    [
                        -114.24817275126534,
                        -84.42005110586331
                    ],
                    [
                        -114.43279820215149,
                        -84.41625063301527
                    ],
                    [
                        -114.61466074086378,
                        -84.41136296006515
                    ],
                    [
                        -114.7965648725101,
                        -84.40655462473013
                    ],
                    [
                        -114.97811098453755,
                        -84.4016941036558
                    ],
                    [
                        -115.1521173320704,
                        -84.39482627204075
                    ],
                    [
                        -115.32177822239836,
                        -84.38693629872357
                    ],
                    [
                        -115.49213062538496,
                        -84.37923774003599
                    ],
                    [
                        -115.66409223010366,
                        -84.3719562318465
                    ],
                    [
                        -115.83952413730866,
                        -84.36557660078503
                    ],
                    [
                        -116.02040617059535,
                        -84.36095432855578
                    ],
                    [
                        -116.20132943457004,
                        -84.35644586277371
                    ],
                    [
                        -116.3788274347845,
                        -84.3507715880538
                    ],
                    [
                        -116.55225638134715,
                        -84.34404457390005
                    ],
                    [
                        -116.72472689389741,
                        -84.33715320533481
                    ],
                    [
                        -116.90686233799558,
                        -84.33391547131495
                    ],
                    [
                        -117.09267498211453,
                        -84.33415365608286
                    ],
                    [
                        -117.27603711316333,
                        -84.33147219812408
                    ],
                    [
                        -117.45150759437529,
                        -84.3255261724743
                    ],
                    [
                        -117.618789518067,
                        -84.3175725461202
                    ],
                    [
                        -117.78610547395787,
                        -84.30967934409023
                    ],
                    [
                        -117.9553072522028,
                        -84.30223661341742
                    ],
                    [
                        -118.12771868733739,
                        -84.29562059192766
                    ],
                    [
                        -118.301261951123,
                        -84.28935276774824
                    ],
                    [
                        -118.47497645028135,
                        -84.28318460056238
                    ],
                    [
                        -118.65187418940987,
                        -84.27805811982937
                    ],
                    [
                        -118.83064291503676,
                        -84.27368560078568
                    ],
                    [
                        -119.00990688366039,
                        -84.26954768783071
                    ],
                    [
                        -119.18906279556926,
                        -84.26555252059796
                    ],
                    [
                        -119.37193303316221,
                        -84.26394701755353
                    ],
                    [
                        -119.55557784606623,
                        -84.2636741343555
                    ],
                    [
                        -119.7384960561571,
                        -84.26208958680904
                    ],
                    [
                        -119.91941671445754,
                        -84.25899639457246
                    ],
                    [
                        -120.10058133559679,
                        -84.2560943439577
                    ],
                    [
                        -120.28383935038141,
                        -84.25622765405767
                    ],
                    [
                        -120.46612884933931,
                        -84.25827498691659
                    ],
                    [
                        -120.64798959727725,
                        -84.26077539274102
                    ],
                    [
                        -120.82979299784795,
                        -84.26335591247877
                    ],
                    [
                        -121.00978988390284,
                        -84.26702001269332
                    ],
                    [
                        -121.18964556634685,
                        -84.27084311917456
                    ],
                    [
                        -121.36910397359458,
                        -84.27489904384741
                    ],
                    [
                        -121.54841001939599,
                        -84.27907340455158
                    ],
                    [
                        -121.72901666800534,
                        -84.28269589242285
                    ],
                    [
                        -121.9097272875651,
                        -84.28634605986299
                    ],
                    [
                        -122.0903566068175,
                        -84.29008019861273
                    ],
                    [
                        -122.27128789740883,
                        -84.29374580804961
                    ],
                    [
                        -122.45180874902579,
                        -84.29764099548755
                    ],
                    [
                        -122.63138013408691,
                        -84.30198732333547
                    ],
                    [
                        -122.80943416973149,
                        -84.30697995335174
                    ],
                    [
                        -122.9870794588338,
                        -84.31217192861436
                    ],
                    [
                        -123.16549567548668,
                        -84.31714206670634
                    ],
                    [
                        -123.34601221978409,
                        -84.32137235803393
                    ],
                    [
                        -123.52782737547787,
                        -84.32507342418575
                    ],
                    [
                        -123.71078882277268,
                        -84.32823678959818
                    ],
                    [
                        -123.89493462945958,
                        -84.33068649791993
                    ],
                    [
                        -124.0803670034249,
                        -84.33198566904353
                    ],
                    [
                        -124.26622369358373,
                        -84.33219375556011
                    ],
                    [
                        -124.45194616840242,
                        -84.33137339994688
                    ],
                    [
                        -124.63683863425749,
                        -84.32953311581589
                    ],
                    [
                        -124.82020171766347,
                        -84.3266122061647
                    ],
                    [
                        -125.0014596813937,
                        -84.32262819357112
                    ],
                    [
                        -125.1795866351841,
                        -84.3174985170086
                    ],
                    [
                        -125.35511132486587,
                        -84.31160861846709
                    ],
                    [
                        -125.52675609450263,
                        -84.30473785193045
                    ],
                    [
                        -125.69140457943831,
                        -84.29638667003448
                    ],
                    [
                        -125.84952863116942,
                        -84.28692448722826
                    ],
                    [
                        -126.00198106628423,
                        -84.27661280042582
                    ],
                    [
                        -126.14984833480719,
                        -84.26569351739342
                    ],
                    [
                        -126.29259785382128,
                        -84.25414504725711
                    ],
                    [
                        -126.42960229304761,
                        -84.24196045368099
                    ],
                    [
                        -126.56219919138627,
                        -84.22931995798096
                    ],
                    [
                        -126.68978284894031,
                        -84.21619852791012
                    ],
                    [
                        -126.81271557330425,
                        -84.20266163908266
                    ],
                    [
                        -126.9326488075408,
                        -84.18887409358574
                    ],
                    [
                        -127.0545566723483,
                        -84.17529671682443
                    ],
                    [
                        -127.18038423778555,
                        -84.1621190350485
                    ],
                    [
                        -127.31438453696266,
                        -84.14984349666555
                    ],
                    [
                        -127.45646975276479,
                        -84.13858972972692
                    ],
                    [
                        -127.60510966150854,
                        -84.12828876224168
                    ],
                    [
                        -127.76171144070932,
                        -84.11935603486033
                    ],
                    [
                        -127.92456246668075,
                        -84.1117435376229
                    ],
                    [
                        -128.0912319715479,
                        -84.10508598450008
                    ],
                    [
                        -128.25996955194012,
                        -84.09904910318181
                    ],
                    [
                        -128.4292414791334,
                        -84.09322328472682
                    ],
                    [
                        -128.5986174678985,
                        -84.08748969187276
                    ],
                    [
                        -128.7672801638289,
                        -84.0815880183915
                    ],
                    [
                        -128.93468747741355,
                        -84.07535300827915
                    ],
                    [
                        -129.1007942013223,
                        -84.06882065351823
                    ],
                    [
                        -129.26692761916158,
                        -84.06233932819111
                    ],
                    [
                        -129.43388472077137,
                        -84.05613857523778
                    ],
                    [
                        -129.6021269341734,
                        -84.05037760620318
                    ],
                    [
                        -129.77320623153264,
                        -84.04565742033294
                    ],
                    [
                        -129.9450684980632,
                        -84.04130979161216
                    ],
                    [
                        -130.11646879440076,
                        -84.03682023371795
                    ],
                    [
                        -130.28782669997227,
                        -84.03236664065676
                    ],
                    [
                        -130.4608907646654,
                        -84.0287883375581
                    ],
                    [
                        -130.63635822834857,
                        -84.02703440640461
                    ],
                    [
                        -130.81273149294213,
                        -84.02713013695877
                    ],
                    [
                        -130.98898593297022,
                        -84.02797338035403
                    ],
                    [
                        -131.16502296740993,
                        -84.02923064661015
                    ],
                    [
                        -131.3412019170983,
                        -84.03031891195644
                    ],
                    [
                        -131.51761913981605,
                        -84.03095458752449
                    ],
                    [
                        -131.69412300101604,
                        -84.0310373219436
                    ],
                    [
                        -131.8706308515085,
                        -84.03062211307649
                    ],
                    [
                        -132.0469657949511,
                        -84.02985383789557
                    ],
                    [
                        -132.2231507716363,
                        -84.02876736348996
                    ],
                    [
                        -132.39916416679756,
                        -84.02745185807629
                    ],
                    [
                        -132.5751508120261,
                        -84.02618104527768
                    ],
                    [
                        -132.75122326422314,
                        -84.02513463882647
                    ],
                    [
                        -132.92753942695745,
                        -84.02479952399852
                    ],
                    [
                        -133.10390231085807,
                        -84.02482121952869
                    ],
                    [
                        -133.28024080200086,
                        -84.02456683013745
                    ],
                    [
                        -133.45614418311823,
                        -84.02331842858861
                    ],
                    [
                        -133.63130076770216,
                        -84.02127261237612
                    ],
                    [
                        -133.8053505353671,
                        -84.01842749127267
                    ],
                    [
                        -133.97760604406878,
                        -84.0146284110271
                    ],
                    [
                        -134.14794522865665,
                        -84.01001585332101
                    ],
                    [
                        -134.3162659896178,
                        -84.00471220926131
                    ],
                    [
                        -134.48300168256523,
                        -83.99892935286961
                    ],
                    [
                        -134.6495605617166,
                        -83.99314142283706
                    ],
                    [
                        -134.817121782856,
                        -83.98774217208633
                    ],
                    [
                        -134.98611862184697,
                        -83.98289085368162
                    ],
                    [
                        -135.15553536129153,
                        -83.9782747285982
                    ],
                    [
                        -135.32477305430484,
                        -83.97364439437771
                    ],
                    [
                        -135.4938559275115,
                        -83.96898559485811
                    ],
                    [
                        -135.6626058866809,
                        -83.96425572764304
                    ],
                    [
                        -135.83086209147558,
                        -83.95938900993112
                    ],
                    [
                        -135.99872532764803,
                        -83.95441479023438
                    ],
                    [
                        -136.16624731976057,
                        -83.94937992533069
                    ],
                    [
                        -136.33329886313865,
                        -83.94421349882141
                    ],
                    [
                        -136.49932636000037,
                        -83.93874981354348
                    ],
                    [
                        -136.66430955758867,
                        -83.93298968516406
                    ],
                    [
                        -136.82810926223962,
                        -83.92690446899311
                    ],
                    [
                        -136.99118770596817,
                        -83.92066087724167
                    ],
                    [
                        -137.15399860371284,
                        -83.91439006832627
                    ],
                    [
                        -137.3168433988716,
                        -83.90817658055286
                    ],
                    [
                        -137.47994007555855,
                        -83.90209071310657
                    ],
                    [
                        -137.64315028582658,
                        -83.89608408605665
                    ],
                    [
                        -137.80629973900125,
                        -83.89010670860628
                    ],
                    [
                        -137.9692465405992,
                        -83.88412224997023
                    ],
                    [
                        -138.13208066848807,
                        -83.87814908097005
                    ],
                    [
                        -138.29471143570447,
                        -83.87216107734727
                    ],
                    [
                        -138.45718839111754,
                        -83.86618007041848
                    ],
                    [
                        -138.6192790117553,
                        -83.86012765615656
                    ],
                    [
                        -138.780791704656,
                        -83.85394488653283
                    ],
                    [
                        -138.94173400585953,
                        -83.84764569479921
                    ],
                    [
                        -139.10213987441617,
                        -83.84122688990868
                    ],
                    [
                        -139.26172864454728,
                        -83.83464284576544
                    ],
                    [
                        -139.42041157448372,
                        -83.82785054944438
                    ],
                    [
                        -139.57832613350084,
                        -83.8208969029593
                    ],
                    [
                        -139.73559656492057,
                        -83.81382944148818
                    ],
                    [
                        -139.8923966543298,
                        -83.80668405425611
                    ],
                    [
                        -140.0488822761485,
                        -83.79950052717861
                    ],
                    [
                        -140.2051734778716,
                        -83.79231493411713
                    ],
                    [
                        -140.36140102814926,
                        -83.78516508313913
                    ],
                    [
                        -140.51781036504477,
                        -83.77810571552597
                    ],
                    [
                        -140.674654802237,
                        -83.7712082003569
                    ],
                    [
                        -140.83263372518385,
                        -83.76466658035993
                    ],
                    [
                        -140.99198828907802,
                        -83.75859204125588
                    ],
                    [
                        -141.15293818386175,
                        -83.75308084495468
                    ],
                    [
                        -141.31582184931463,
                        -83.74835368525207
                    ],
                    [
                        -141.4800255937609,
                        -83.74424124513266
                    ],
                    [
                        -141.64527895639304,
                        -83.7407252862927
                    ],
                    [
                        -141.81168028679951,
                        -83.73799944277398
                    ],
                    [
                        -141.97881683891436,
                        -83.73593223370186
                    ],
                    [
                        -142.1464750032914,
                        -83.73448859726875
                    ],
                    [
                        -142.31453204660082,
                        -83.7338411674099
                    ],
                    [
                        -142.48265016744256,
                        -83.7336942213291
                    ],
                    [
                        -142.65073925211234,
                        -83.73410133650852
                    ],
                    [
                        -142.81859855369905,
                        -83.73522408951158
                    ],
                    [
                        -142.98606825296602,
                        -83.73692057861221
                    ],
                    [
                        -143.153064207436,
                        -83.73915523082535
                    ],
                    [
                        -143.31911596379246,
                        -83.74217284115221
                    ],
                    [
                        -143.4841618683587,
                        -83.74580447306063
                    ],
                    [
                        -143.64801444935588,
                        -83.7500937811507
                    ],
                    [
                        -143.8101387192202,
                        -83.75514772386208
                    ],
                    [
                        -143.97070521601216,
                        -83.76080903457057
                    ],
                    [
                        -144.12935813120316,
                        -83.76711581543265
                    ],
                    [
                        -144.28510283136805,
                        -83.77426919493158
                    ],
                    [
                        -144.43781232569597,
                        -83.7821968871553
                    ],
                    [
                        -144.58742930817172,
                        -83.790827243325
                    ],
                    [
                        -144.73338449378755,
                        -83.80020989084633
                    ],
                    [
                        -144.8762123323402,
                        -83.81017139572297
                    ],
                    [
                        -145.01598420207765,
                        -83.82066747881565
                    ],
                    [
                        -145.1519966795865,
                        -83.8317516181152
                    ],
                    [
                        -145.2849852644941,
                        -83.84329027273023
                    ],
                    [
                        -145.41524767239812,
                        -83.85521101535674
                    ],
                    [
                        -145.54240394439913,
                        -83.86754093364348
                    ],
                    [
                        -145.66713157773424,
                        -83.88017783722493
                    ],
                    [
                        -145.7896386743698,
                        -83.89309172705187
                    ],
                    [
                        -145.90930446548725,
                        -83.90632813911802
                    ],
                    [
                        -146.0264638179303,
                        -83.91984324589065
                    ],
                    [
                        -146.1408371170455,
                        -83.93364335242988
                    ],
                    [
                        -146.2516366800524,
                        -83.94779319771948
                    ],
                    [
                        -146.35970333928626,
                        -83.9621945061328
                    ],
                    [
                        -146.46551553254355,
                        -83.97680565307209
                    ],
                    [
                        -146.56954037626844,
                        -83.99157824004574
                    ],
                    [
                        -146.67345716378577,
                        -84.00637637170027
                    ],
                    [
                        -146.7779763447009,
                        -84.02114771287918
                    ],
                    [
                        -146.88410096239974,
                        -84.03581514988248
                    ],
                    [
                        -146.99213460906685,
                        -84.05035410747726
                    ],
                    [
                        -147.10240553479156,
                        -84.06473259777574
                    ],
                    [
                        -147.21512318872436,
                        -84.07892898879695
                    ],
                    [
                        -147.33009973570827,
                        -84.09295630851058
                    ],
                    [
                        -147.4471984894603,
                        -84.10681590062894
                    ],
                    [
                        -147.56669899664706,
                        -84.12048636664338
                    ],
                    [
                        -147.6883126695956,
                        -84.13398641545872
                    ],
                    [
                        -147.8117263425429,
                        -84.14734218434624
                    ],
                    [
                        -147.93653208136263,
                        -84.16059359272431
                    ],
                    [
                        -148.06219882903525,
                        -84.17378180803455
                    ],
                    [
                        -148.18868914842065,
                        -84.18692338860424
                    ],
                    [
                        -148.31579890555787,
                        -84.20003093427346
                    ],
                    [
                        -148.44328931073275,
                        -84.2131280592532
                    ],
                    [
                        -148.57145618884266,
                        -84.2261875410479
                    ],
                    [
                        -148.7006984560342,
                        -84.23916667691667
                    ],
                    [
                        -148.8314619843557,
                        -84.2520198972221
                    ],
                    [
                        -148.96409134158864,
                        -84.26471443151506
                    ],
                    [
                        -149.09939599374462,
                        -84.27715398491287
                    ],
                    [
                        -149.23756173840118,
                        -84.28930940096433
                    ],
                    [
                        -149.37902410969656,
                        -84.30111809338649
                    ],
                    [
                        -149.52500623137655,
                        -84.31240547311675
                    ],
                    [
                        -149.6758366890408,
                        -84.32308700107059
                    ],
                    [
                        -149.8319319648281,
                        -84.33304290563012
                    ],
                    [
                        -149.9942692448578,
                        -84.3420180166331
                    ],
                    [
                        -150.16164008695094,
                        -84.35008924649294
                    ],
                    [
                        -150.33352564469516,
                        -84.35723931292955
                    ],
                    [
                        -150.50973054249715,
                        -84.36334329739515
                    ],
                    [
                        -150.68863521166665,
                        -84.36869611820356
                    ],
                    [
                        -150.86974079600714,
                        -84.37335151003307
                    ],
                    [
                        -151.05259462820555,
                        -84.3773524293506
                    ],
                    [
                        -151.23645425701434,
                        -84.38094343462834
                    ],
                    [
                        -151.4212381307503,
                        -84.3841087544236
                    ],
                    [
                        -151.6067294837767,
                        -84.38693006515302
                    ],
                    [
                        -151.79256720726698,
                        -84.38957184320007
                    ],
                    [
                        -151.97861724421355,
                        -84.39211817604472
                    ],
                    [
                        -152.16504663984614,
                        -84.39446786555325
                    ],
                    [
                        -152.351798512512,
                        -84.3966082364912
                    ],
                    [
                        -152.53869732458787,
                        -84.39867804705645
                    ],
                    [
                        -152.72569661650968,
                        -84.40073918882634
                    ],
                    [
                        -152.9129011335207,
                        -84.40267509119542
                    ],
                    [
                        -153.1003370358433,
                        -84.40443800783142
                    ],
                    [
                        -153.28801463884895,
                        -84.40601875222175
                    ],
                    [
                        -153.4758170730735,
                        -84.40747382880636
                    ],
                    [
                        -153.6637210833369,
                        -84.40890501899322
                    ],
                    [
                        -153.85175192202956,
                        -84.41020301482448
                    ],
                    [
                        -154.03993627111802,
                        -84.41136852386055
                    ],
                    [
                        -154.2282353248594,
                        -84.41238587199211
                    ],
                    [
                        -154.4166561755282,
                        -84.41324879367328
                    ],
                    [
                        -154.6051670959961,
                        -84.41393095435053
                    ],
                    [
                        -154.7937527962262,
                        -84.41447090801671
                    ],
                    [
                        -154.98239635400154,
                        -84.41485218558705
                    ],
                    [
                        -155.17106928390848,
                        -84.41513683155517
                    ],
                    [
                        -155.35976956847895,
                        -84.41531700482751
                    ],
                    [
                        -155.5484707840311,
                        -84.41532330396586
                    ],
                    [
                        -155.73717840638457,
                        -84.4151556532973
                    ],
                    [
                        -155.92582367985528,
                        -84.41483688159386
                    ],
                    [
                        -156.1144002079285,
                        -84.41424080227604
                    ],
                    [
                        -156.30283941552753,
                        -84.41339975414557
                    ],
                    [
                        -156.4911693046656,
                        -84.41233703059596
                    ],
                    [
                        -156.67904801569463,
                        -84.41075422370771
                    ],
                    [
                        -156.86658044855,
                        -84.40888985745498
                    ],
                    [
                        -157.05387813960078,
                        -84.40685858354153
                    ],
                    [
                        -157.24076145463073,
                        -84.40454228565015
                    ],
                    [
                        -157.42713332473292,
                        -84.40193643106429
                    ],
                    [
                        -157.6130559856164,
                        -84.39908074722153
                    ],
                    [
                        -157.79830907374733,
                        -84.39588933530771
                    ],
                    [
                        -157.98308853495786,
                        -84.39251629422138
                    ],
                    [
                        -158.16741232649093,
                        -84.38896129476754
                    ],
                    [
                        -158.35117019539447,
                        -84.38518837034711
                    ],
                    [
                        -158.53438575846673,
                        -84.3812301513589
                    ],
                    [
                        -158.71702451868865,
                        -84.37708432339122
                    ],
                    [
                        -158.89897904000776,
                        -84.37270844769458
                    ],
                    [
                        -159.0801751756159,
                        -84.36809408748842
                    ],
                    [
                        -159.26075103172394,
                        -84.36331248003924
                    ],
                    [
                        -159.4411453097029,
                        -84.35851506471263
                    ],
                    [
                        -159.62152118580113,
                        -84.35376167874435
                    ],
                    [
                        -159.80177085553498,
                        -84.34902948063818
                    ],
                    [
                        -159.98124333826595,
                        -84.34406917432403
                    ],
                    [
                        -160.158980608531,
                        -84.33858919813653
                    ],
                    [
                        -160.33582680392843,
                        -84.33288361142928
                    ],
                    [
                        -160.51225333674782,
                        -84.32710846171092
                    ],
                    [
                        -160.68805287628095,
                        -84.32119658073678
                    ],
                    [
                        -160.86292848581223,
                        -84.31508211286133
                    ],
                    [
                        -161.03733796591337,
                        -84.30888666876292
                    ],
                    [
                        -161.2111992974856,
                        -84.30259041883161
                    ],
                    [
                        -161.38453552050862,
                        -84.29620531177466
                    ],
                    [
                        -161.55737397224834,
                        -84.28974239275925
                    ],
                    [
                        -161.7298781532598,
                        -84.28324224733534
                    ],
                    [
                        -161.90233474254921,
                        -84.276788743986
                    ],
                    [
                        -162.07431959816853,
                        -84.27025495136026
                    ],
                    [
                        -162.24555686298643,
                        -84.26357843318863
                    ],
                    [
                        -162.41587765576173,
                        -84.25671607789344
                    ],
                    [
                        -162.58544068828306,
                        -84.24973065889435
                    ],
                    [
                        -162.7541935395802,
                        -84.24259721139664
                    ],
                    [
                        -162.9219251979035,
                        -84.23526680350386
                    ],
                    [
                        -163.08987009135004,
                        -84.22804120169073
                    ],
                    [
                        -163.2580467216461,
                        -84.22092028952802
                    ],
                    [
                        -163.4260623774451,
                        -84.21380825776492
                    ],
                    [
                        -163.5938788084859,
                        -84.20670288696998
                    ],
                    [
                        -163.76118851385465,
                        -84.19952140507498
                    ],
                    [
                        -163.92806757037303,
                        -84.19228263569619
                    ],
                    [
                        -164.0951474743252,
                        -84.18515017042422
                    ],
                    [
                        -164.26175668020625,
                        -84.17794582631194
                    ],
                    [
                        -164.4275216326532,
                        -84.17060311980642
                    ],
                    [
                        -164.59312894503907,
                        -84.16326395663626
                    ],
                    [
                        -164.75869959369044,
                        -84.15596774272994
                    ],
                    [
                        -164.9243022647741,
                        -84.14872557714433
                    ],
                    [
                        -165.09039103247713,
                        -84.14164728400966
                    ],
                    [
                        -165.2563722379219,
                        -84.13460009900442
                    ],
                    [
                        -165.4221877914047,
                        -84.1275538169021
                    ],
                    [
                        -165.58730197329362,
                        -84.12038713921831
                    ],
                    [
                        -165.7523693081622,
                        -84.11325885095333
                    ],
                    [
                        -165.9177819511938,
                        -84.10625924348457
                    ],
                    [
                        -166.083126785179,
                        -84.09930041549532
                    ],
                    [
                        -166.2484394409031,
                        -84.09238869187956
                    ],
                    [
                        -166.41364063960694,
                        -84.08548970465374
                    ],
                    [
                        -166.5786895355446,
                        -84.07859852938569
                    ],
                    [
                        -166.74374276537108,
                        -84.07175566082665
                    ],
                    [
                        -166.90847692817746,
                        -84.06488421314225
                    ],
                    [
                        -167.07317064030713,
                        -84.05804743122084
                    ],
                    [
                        -167.23771192019248,
                        -84.0512236227925
                    ],
                    [
                        -167.40209995902194,
                        -84.04440608195247
                    ],
                    [
                        -167.56618522071184,
                        -84.03756403545836
                    ],
                    [
                        -167.7302556287596,
                        -84.0307717286654
                    ],
                    [
                        -167.89440532501757,
                        -84.0240384950057
                    ],
                    [
                        -168.05786722542385,
                        -84.0171772265152
                    ],
                    [
                        -168.2207783536619,
                        -84.01022432358174
                    ],
                    [
                        -168.3828690449243,
                        -84.0031144326647
                    ],
                    [
                        -168.54427806022235,
                        -83.99587840016534
                    ],
                    [
                        -168.7052363367583,
                        -83.9885796626744
                    ],
                    [
                        -168.865468920204,
                        -83.98116416822522
                    ],
                    [
                        -169.02450430676865,
                        -83.97351349625464
                    ],
                    [
                        -169.18252015899145,
                        -83.96567534094297
                    ],
                    [
                        -169.33975403028404,
                        -83.95770575184815
                    ],
                    [
                        -169.49621577120845,
                        -83.94962141121387
                    ],
                    [
                        -169.65195825366783,
                        -83.94143044888534
                    ],
                    [
                        -169.80719397885224,
                        -83.93317193003742
                    ],
                    [
                        -169.96137340917124,
                        -83.92474170354828
                    ],
                    [
                        -170.11444673504047,
                        -83.91613412439246
                    ],
                    [
                        -170.26686873013003,
                        -83.90743846259177
                    ],
                    [
                        -170.41849665756806,
                        -83.89862744323872
                    ],
                    [
                        -170.56937328243163,
                        -83.8897163403248
                    ],
                    [
                        -170.7195267426736,
                        -83.88070800735998
                    ],
                    [
                        -170.8688458939156,
                        -83.87158799630838
                    ],
                    [
                        -171.01692358765584,
                        -83.86228309269661
                    ],
                    [
                        -171.16450769446342,
                        -83.85292560067481
                    ],
                    [
                        -171.3115019080981,
                        -83.84350396125176
                    ],
                    [
                        -171.45742807272978,
                        -83.83392724727439
                    ],
                    [
                        -171.6028792628849,
                        -83.82431327326977
                    ],
                    [
                        -171.74740113819576,
                        -83.81457816047197
                    ],
                    [
                        -171.8907655069637,
                        -83.8046847235218
                    ],
                    [
                        -172.03295808178578,
                        -83.79462801191453
                    ],
                    [
                        -172.17362835984665,
                        -83.78437121723479
                    ],
                    [
                        -172.3132505889685,
                        -83.77397610613323
                    ],
                    [
                        -172.45201558482503,
                        -83.76348685636096
                    ],
                    [
                        -172.58969049491313,
                        -83.7528701425486
                    ],
                    [
                        -172.7265117082154,
                        -83.7421549375013
                    ],
                    [
                        -172.8620600497592,
                        -83.73128514409075
                    ],
                    [
                        -172.99536560363165,
                        -83.72012189882662
                    ],
                    [
                        -173.12782353284092,
                        -83.70887289362399
                    ],
                    [
                        -173.25936780008297,
                        -83.69752942311275
                    ],
                    [
                        -173.38971426000597,
                        -83.6860505065487
                    ],
                    [
                        -173.51870018760806,
                        -83.67442284013882
                    ],
                    [
                        -173.64687531797222,
                        -83.66271497272024
                    ],
                    [
                        -173.7734345772153,
                        -83.65082991972211
                    ],
                    [
                        -173.89842384927942,
                        -83.63877201932901
                    ],
                    [
                        -174.02229794155113,
                        -83.62660566501613
                    ],
                    [
                        -174.14520733408787,
                        -83.61434888250717
                    ],
                    [
                        -174.26631925372845,
                        -83.60189880025038
                    ],
                    [
                        -174.3853766279176,
                        -83.58922973190066
                    ],
                    [
                        -174.50387468979773,
                        -83.57653050490681
                    ],
                    [
                        -174.62045172737962,
                        -83.5636339561563
                    ],
                    [
                        -174.7357404745868,
                        -83.5506214980889
                    ],
                    [
                        -174.84952877049105,
                        -83.53746495877462
                    ],
                    [
                        -174.96124064585317,
                        -83.52411062637248
                    ],
                    [
                        -175.07066316577382,
                        -83.51054380432879
                    ],
                    [
                        -175.17881185086492,
                        -83.49687033744632
                    ],
                    [
                        -175.28571937406966,
                        -83.48309485854979
                    ],
                    [
                        -175.39175414944415,
                        -83.46925081839338
                    ],
                    [
                        -175.49588435440884,
                        -83.45524651086662
                    ],
                    [
                        -175.59787223668832,
                        -83.44106060659917
                    ],
                    [
                        -175.69821294295025,
                        -83.42674449962958
                    ],
                    [
                        -175.796800172789,
                        -83.41228523378001
                    ],
                    [
                        -175.89356486716287,
                        -83.397687706962
                    ],
                    [
                        -175.98872161024536,
                        -83.38296465911334
                    ],
                    [
                        -176.08181409635992,
                        -83.36809025212814
                    ],
                    [
                        -176.17320219454322,
                        -83.35308848823888
                    ],
                    [
                        -176.26318365388894,
                        -83.33799182597127
                    ],
                    [
                        -176.35107308507742,
                        -83.32274983677182
                    ],
                    [
                        -176.43725247071316,
                        -83.3073883033897
                    ],
                    [
                        -176.52215688146447,
                        -83.29194782214205
                    ],
                    [
                        -176.6051433966492,
                        -83.27637758243108
                    ],
                    [
                        -176.6863387859935,
                        -83.26069305031399
                    ],
                    [
                        -176.76596166128428,
                        -83.24491296181007
                    ],
                    [
                        -176.84306117943717,
                        -83.22897205130845
                    ],
                    [
                        -176.91870472856334,
                        -83.21294428917206
                    ],
                    [
                        -176.9927822489374,
                        -83.19683321751131
                    ],
                    [
                        -177.0645773536659,
                        -83.1805808749671
                    ],
                    [
                        -177.13505819702738,
                        -83.16426278254777
                    ],
                    [
                        -177.20410548714108,
                        -83.147869523279
                    ],
                    [
                        -177.27009984190076,
                        -83.13130513462544
                    ],
                    [
                        -177.33487556179526,
                        -83.11468379646406
                    ],
                    [
                        -177.39799223357844,
                        -83.09797778988037
                    ],
                    [
                        -177.45966754474003,
                        -83.08120259721139
                    ],
                    [
                        -177.51945461188598,
                        -83.06433614362027
                    ],
                    [
                        -177.57695406913948,
                        -83.04736138080372
                    ],
                    [
                        -177.63292985913267,
                        -83.03032048933713
                    ],
                    [
                        -177.6876811222949,
                        -83.01322823606114
                    ],
                    [
                        -177.7399849281683,
                        -82.99602768514103
                    ],
                    [
                        -177.7895132736758,
                        -82.97871432140731
                    ],
                    [
                        -177.83707567722686,
                        -82.96132110065368
                    ],
                    [
                        -177.88300007970315,
                        -82.94386929030091
                    ],
                    [
                        -177.92688594451036,
                        -82.92634007318756
                    ],
                    [
                        -177.96942093830594,
                        -82.9087681454278
                    ],
                    [
                        -178.0104098626361,
                        -82.89114287887801
                    ],
                    [
                        -178.04968680091255,
                        -82.87346116079813
                    ],
                    [
                        -178.08743868552534,
                        -82.85573055445893
                    ],
                    [
                        -178.12329585195226,
                        -82.83794252078076
                    ],
                    [
                        -178.15748868267352,
                        -82.82010936598155
                    ],
                    [
                        -178.1904073934063,
                        -82.80224028223361
                    ],
                    [
                        -178.22272808685005,
                        -82.7843546408725
                    ],
                    [
                        -178.25436589103157,
                        -82.76645954938441
                    ],
                    [
                        -178.2849752572945,
                        -82.74853179601934
                    ],
                    [
                        -178.31504390768262,
                        -82.73059354288559
                    ],
                    [
                        -178.3447418686034,
                        -82.7126454929523
                    ],
                    [
                        -178.37364741827093,
                        -82.69468250535009
                    ],
                    [
                        -178.4019531311346,
                        -82.67670538462735
                    ],
                    [
                        -178.42969175204286,
                        -82.658715248979
                    ],
                    [
                        -178.45690945619495,
                        -82.6407160058238
                    ],
                    [
                        -178.48386686578854,
                        -82.62270861225639
                    ],
                    [
                        -178.51093393739586,
                        -82.60470442367917
                    ],
                    [
                        -178.5373023342295,
                        -82.5866906619124
                    ],
                    [
                        -178.56302717390616,
                        -82.56866485262726
                    ],
                    [
                        -178.5880516778285,
                        -82.55061498214477
                    ],
                    [
                        -178.61263710992733,
                        -82.53256580719378
                    ],
                    [
                        -178.63695059997858,
                        -82.51450598080758
                    ],
                    [
                        -178.66097834175693,
                        -82.49644466012434
                    ],
                    [
                        -178.68497436289206,
                        -82.47838264062518
                    ],
                    [
                        -178.70884018518575,
                        -82.46032512767357
                    ],
                    [
                        -178.7320098970093,
                        -82.44224481447087
                    ],
                    [
                        -178.75465235115308,
                        -82.42415877634065
                    ],
                    [
                        -178.77681287119157,
                        -82.40606720544972
                    ],
                    [
                        -178.798392851363,
                        -82.3879588849154
                    ],
                    [
                        -178.81964931462605,
                        -82.36984925417157
                    ],
                    [
                        -178.84064692441655,
                        -82.35173577242864
                    ],
                    [
                        -178.86139490214327,
                        -82.33361482447036
                    ],
                    [
                        -178.8816751887182,
                        -82.3154895331372
                    ],
                    [
                        -178.9015599343622,
                        -82.29735646970025
                    ],
                    [
                        -178.9212557980659,
                        -82.27922078251706
                    ],
                    [
                        -178.94041172407594,
                        -82.26107153320166
                    ],
                    [
                        -178.9591585147763,
                        -82.242922848856
                    ],
                    [
                        -178.9774803047856,
                        -82.22476281933841
                    ],
                    [
                        -178.9955474545735,
                        -82.20660289092147
                    ],
                    [
                        -179.01342972169297,
                        -82.18843866869945
                    ],
                    [
                        -179.03110785337162,
                        -82.17027287381472
                    ],
                    [
                        -179.04844305242997,
                        -82.15209971156807
                    ],
                    [
                        -179.06572446378195,
                        -82.13392810790806
                    ],
                    [
                        -179.08268601421844,
                        -82.1157519822366
                    ],
                    [
                        -179.09930948236,
                        -82.09757499077088
                    ],
                    [
                        -179.11551191764224,
                        -82.07938690983288
                    ],
                    [
                        -179.13132890883563,
                        -82.06119151921341
                    ],
                    [
                        -179.1468351530083,
                        -82.0429954221412
                    ],
                    [
                        -179.16211247535156,
                        -82.02479423111322
                    ],
                    [
                        -179.17689849636844,
                        -82.00659202235614
                    ],
                    [
                        -179.191250528892,
                        -81.98837520984685
                    ],
                    [
                        -179.20523519898367,
                        -81.97016228324941
                    ],
                    [
                        -179.21875125837954,
                        -81.95194391823979
                    ],
                    [
                        -179.23192021604189,
                        -81.9337112211587
                    ],
                    [
                        -179.24474263956895,
                        -81.91548254230605
                    ],
                    [
                        -179.2570723024702,
                        -81.89724848023604
                    ],
                    [
                        -179.26894574827233,
                        -81.87899997812568
                    ],
                    [
                        -179.28035789811065,
                        -81.86075538073752
                    ],
                    [
                        -179.2913965647698,
                        -81.84250571440003
                    ],
                    [
                        -179.3021926225875,
                        -81.8242558109604
                    ],
                    [
                        -179.3127613155688,
                        -81.80599655287766
                    ],
                    [
                        -179.32287260117172,
                        -81.78773672581706
                    ],
                    [
                        -179.33263223905902,
                        -81.76947195537184
                    ],
                    [
                        -179.3419273152225,
                        -81.75120665616531
                    ],
                    [
                        -179.35087589490928,
                        -81.73293646817675
                    ],
                    [
                        -179.35956921111512,
                        -81.71466155785467
                    ],
                    [
                        -179.36786277935133,
                        -81.6963862878849
                    ],
                    [
                        -179.37560144461156,
                        -81.67810585526615
                    ],
                    [
                        -179.3828074477046,
                        -81.65982490045367
                    ],
                    [
                        -179.3895542405351,
                        -81.64153440365334
                    ],
                    [
                        -179.39604491315208,
                        -81.6232484320782
                    ],
                    [
                        -179.40230061970038,
                        -81.60495787108282
                    ],
                    [
                        -179.40827876713217,
                        -81.58666724404922
                    ],
                    [
                        -179.41370679272367,
                        -81.56837157410268
                    ],
                    [
                        -179.41868762723328,
                        -81.55007561108891
                    ],
                    [
                        -179.42346069787737,
                        -81.53177514522272
                    ],
                    [
                        -179.4279026753261,
                        -81.51347915698193
                    ],
                    [
                        -179.43186159533005,
                        -81.49517827641017
                    ],
                    [
                        -179.43535910050923,
                        -81.476872546306
                    ],
                    [
                        -179.4384841348403,
                        -81.45856668290759
                    ],
                    [
                        -179.44111610988708,
                        -81.44026051741935
                    ],
                    [
                        -179.4433560729463,
                        -81.42195877994556
                    ],
                    [
                        -179.44512753352282,
                        -81.40365220900028
                    ],
                    [
                        -179.44651262025457,
                        -81.38534550390727
                    ],
                    [
                        -179.44747112098165,
                        -81.36703860795049
                    ],
                    [
                        -179.4480726775624,
                        -81.3487316222387
                    ],
                    [
                        -179.44828313259686,
                        -81.33042449648991
                    ],
                    [
                        -179.44828671588883,
                        -81.31211749672178
                    ],
                    [
                        -179.4479215088753,
                        -81.29381038576498
                    ],
                    [
                        -179.44723178004716,
                        -81.27550780134712
                    ],
                    [
                        -179.44623821620843,
                        -81.25720061692088
                    ],
                    [
                        -179.44488808170487,
                        -81.23889790320163
                    ],
                    [
                        -179.4433277816283,
                        -81.22059529462716
                    ],
                    [
                        -179.44152244697818,
                        -81.20229731155747
                    ],
                    [
                        -179.43939061210222,
                        -81.18399467461775
                    ],
                    [
                        -179.43698139205986,
                        -81.16569660216399
                    ],
                    [
                        -179.43417790110297,
                        -81.14739833332244
                    ],
                    [
                        -179.43081617563766,
                        -81.12910418070773
                    ],
                    [
                        -179.4269411150994,
                        -81.11081419372705
                    ],
                    [
                        -179.42276297866206,
                        -81.09252410446507
                    ],
                    [
                        -179.41838946945484,
                        -81.0742386453723
                    ],
                    [
                        -179.4137750125427,
                        -81.05595316017207
                    ],
                    [
                        -179.4088799849677,
                        -81.03766757433218
                    ],
                    [
                        -179.40372954817224,
                        -81.0193819153002
                    ],
                    [
                        -179.39830710775124,
                        -81.00110529279608
                    ],
                    [
                        -179.39263243573416,
                        -80.98282857510102
                    ],
                    [
                        -179.3867242309414,
                        -80.96455635443131
                    ],
                    [
                        -179.380526094196,
                        -80.94628394653678
                    ],
                    [
                        -179.3740800738786,
                        -80.92801598083656
                    ],
                    [
                        -179.36735324729025,
                        -80.90974780966923
                    ],
                    [
                        -179.36045098211414,
                        -80.89148417514245
                    ],
                    [
                        -179.3534031551343,
                        -80.87322511865722
                    ],
                    [
                        -179.34602649826607,
                        -80.85497029741374
                    ],
                    [
                        -179.33830066805356,
                        -80.83671050206709
                    ],
                    [
                        -179.329962460019,
                        -80.81846808462183
                    ],
                    [
                        -179.32127389224902,
                        -80.80022976943647
                    ],
                    [
                        -179.3125174390706,
                        -80.78198692238685
                    ],
                    [
                        -179.30366434069614,
                        -80.76374862859878
                    ],
                    [
                        -179.29455062115053,
                        -80.74550998091279
                    ],
                    [
                        -179.2853303316168,
                        -80.72728041221215
                    ],
                    [
                        -179.27602142389867,
                        -80.70905537523294
                    ],
                    [
                        -179.26660288458422,
                        -80.69082109823711
                    ],
                    [
                        -179.25688176232055,
                        -80.67260003060791
                    ],
                    [
                        -179.24682675403,
                        -80.65438292946473
                    ],
                    [
                        -179.23633828792012,
                        -80.6361741179097
                    ],
                    [
                        -179.22568320948815,
                        -80.61796499300205
                    ],
                    [
                        -179.21505839359347,
                        -80.59975597718771
                    ],
                    [
                        -179.20436792245997,
                        -80.58155599960016
                    ],
                    [
                        -179.1936300513757,
                        -80.56335137671785
                    ],
                    [
                        -179.18283314945256,
                        -80.54515122015515
                    ],
                    [
                        -179.1720227780368,
                        -80.52694648631925
                    ],
                    [
                        -179.1612975916715,
                        -80.50875112748344
                    ],
                    [
                        -179.1506919039407,
                        -80.49054694720554
                    ],
                    [
                        -179.14028194941184,
                        -80.47233871901636
                    ],
                    [
                        -179.1300106679311,
                        -80.45413546253829
                    ],
                    [
                        -179.1199000971641,
                        -80.43592810385753
                    ],
                    [
                        -179.10992145360456,
                        -80.41772115602576
                    ],
                    [
                        -179.10016251960334,
                        -80.39950571875085
                    ],
                    [
                        -179.09067545914942,
                        -80.38129566633826
                    ],
                    [
                        -179.0812635018496,
                        -80.36307678244012
                    ],
                    [
                        -179.07187043839954,
                        -80.34486263509652
                    ],
                    [
                        -179.06240414415893,
                        -80.32664840085324
                    ],
                    [
                        -179.05285915867617,
                        -80.30843862762173
                    ],
                    [
                        -179.0432742908695,
                        -80.29022884513306
                    ],
                    [
                        -179.03383362155643,
                        -80.2720195734591
                    ],
                    [
                        -179.0246236145103,
                        -80.25380193435812
                    ],
                    [
                        -179.01551185364642,
                        -80.2355938464969
                    ],
                    [
                        -179.00627378880782,
                        -80.21737637483827
                    ],
                    [
                        -178.99696147658918,
                        -80.1991725136966
                    ],
                    [
                        -178.98760444599847,
                        -80.18095949227506
                    ],
                    [
                        -178.97806739014342,
                        -80.16275517406513
                    ],
                    [
                        -178.96837845323196,
                        -80.14455505624295
                    ],
                    [
                        -178.9585922242694,
                        -80.12635472241239
                    ],
                    [
                        -178.94886876527244,
                        -80.10815466631946
                    ],
                    [
                        -178.9392342667005,
                        -80.0899549773262
                    ],
                    [
                        -178.9297147257093,
                        -80.07175574779865
                    ],
                    [
                        -178.92038982422605,
                        -80.05354810955953
                    ],
                    [
                        -178.91121478431975,
                        -80.03534564324269
                    ],
                    [
                        -178.9021423615728,
                        -80.0171390677105
                    ],
                    [
                        -178.89288174907352,
                        -79.9989365552625
                    ],
                    [
                        -178.88334997861114,
                        -79.9807378043925
                    ],
                    [
                        -178.87366903611053,
                        -79.96254320379867
                    ],
                    [
                        -178.86382403387364,
                        -79.94435268501321
                    ],
                    [
                        -178.85374798552328,
                        -79.92616599471178
                    ],
                    [
                        -178.8434525583801,
                        -79.90798314742968
                    ],
                    [
                        -178.8330008226095,
                        -79.88980891118987
                    ],
                    [
                        -178.82232716493485,
                        -79.87163389247569
                    ],
                    [
                        -178.81150999478294,
                        -79.85346291912737
                    ],
                    [
                        -178.80069547797856,
                        -79.83529194469317
                    ],
                    [
                        -178.7898463599841,
                        -79.81712996538988
                    ],
                    [
                        -178.77898046174423,
                        -79.79895877086894
                    ],
                    [
                        -178.7681008366921,
                        -79.78079664168938
                    ],
                    [
                        -178.75721433861483,
                        -79.76262989771215
                    ],
                    [
                        -178.7463865556281,
                        -79.74446792820119
                    ],
                    [
                        -178.73558246185092,
                        -79.72630146595753
                    ],
                    [
                        -178.72473949804095,
                        -79.7081393991075
                    ],
                    [
                        -178.7138686308659,
                        -79.68997719829258
                    ],
                    [
                        -178.7028981572465,
                        -79.67181913509225
                    ],
                    [
                        -178.69187941395853,
                        -79.65366540631678
                    ],
                    [
                        -178.6808081542125,
                        -79.63551141990988
                    ],
                    [
                        -178.66965933569745,
                        -79.61735706329961
                    ],
                    [
                        -178.65850355196784,
                        -79.59920719078657
                    ],
                    [
                        -178.6473212362674,
                        -79.58105714974863
                    ],
                    [
                        -178.63604200277172,
                        -79.56290663195843
                    ],
                    [
                        -178.62453380151334,
                        -79.54476874761409
                    ],
                    [
                        -178.61291507201747,
                        -79.52663028669207
                    ],
                    [
                        -178.60127158556486,
                        -79.50849161458665
                    ],
                    [
                        -178.58963287249088,
                        -79.4903574254359
                    ],
                    [
                        -178.5779695508427,
                        -79.4722230188742
                    ],
                    [
                        -178.5661515106867,
                        -79.4540923600082
                    ],
                    [
                        -178.55407440507904,
                        -79.43596950885107
                    ],
                    [
                        -178.54199914712135,
                        -79.41784651562675
                    ],
                    [
                        -178.52990029546024,
                        -79.39972782457349
                    ],
                    [
                        -178.51763502256694,
                        -79.38160818382632
                    ],
                    [
                        -178.5053363429865,
                        -79.36349733973643
                    ],
                    [
                        -178.493055684761,
                        -79.34538183953757
                    ],
                    [
                        -178.48072763564224,
                        -79.32727049359173
                    ],
                    [
                        -178.4682737518341,
                        -79.30916290393601
                    ],
                    [
                        -178.45577320183432,
                        -79.29105944693542
                    ],
                    [
                        -178.44349772391817,
                        -79.272947793833
                    ],
                    [
                        -178.4315971840252,
                        -79.25483330633121
                    ],
                    [
                        -178.4197034150629,
                        -79.23671413930855
                    ],
                    [
                        -178.40765415705607,
                        -79.21859857785714
                    ],
                    [
                        -178.39546897281787,
                        -79.20049126498479
                    ],
                    [
                        -178.3832561035857,
                        -79.18238818788325
                    ],
                    [
                        -178.37084590091646,
                        -79.16428843336698
                    ],
                    [
                        -178.35829261545888,
                        -79.14619226302318
                    ],
                    [
                        -178.34566463627348,
                        -79.1281000259637
                    ],
                    [
                        -178.33281753623683,
                        -79.11001091448942
                    ],
                    [
                        -178.31979024100585,
                        -79.09192967270094
                    ],
                    [
                        -178.3067093987958,
                        -79.07385241599447
                    ],
                    [
                        -178.29364392400225,
                        -79.0557703962442
                    ],
                    [
                        -178.28068820229151,
                        -79.03769328030246
                    ],
                    [
                        -178.26776103086314,
                        -79.01961605187618
                    ],
                    [
                        -178.25469980992355,
                        -79.0015377681623
                    ],
                    [
                        -178.24153713595112,
                        -78.98346772377623
                    ],
                    [
                        -178.2282742184459,
                        -78.96540134389873
                    ],
                    [
                        -178.21517452209577,
                        -78.94733105832621
                    ],
                    [
                        -178.20209411166485,
                        -78.92926058682592
                    ],
                    [
                        -178.1889603123155,
                        -78.91119861423404
                    ],
                    [
                        -178.17584733727884,
                        -78.89312733376757
                    ],
                    [
                        -178.1627379185241,
                        -78.87506489119842
                    ],
                    [
                        -178.1495446970922,
                        -78.85699705131476
                    ],
                    [
                        -178.13629799432258,
                        -78.8389422396086
                    ],
                    [
                        -178.12299170578737,
                        -78.82088215616214
                    ],
                    [
                        -178.10957220046683,
                        -78.80283013234666
                    ],
                    [
                        -178.0960930919565,
                        -78.78477736898982
                    ],
                    [
                        -178.08258117122094,
                        -78.7667331528596
                    ],
                    [
                        -178.0689867747805,
                        -78.74868802501271
                    ],
                    [
                        -178.05529473632598,
                        -78.73065099233007
                    ],
                    [
                        -178.04156760023758,
                        -78.71261333047514
                    ],
                    [
                        -178.02779544471096,
                        -78.69457952586099
                    ],
                    [
                        -178.01379672307186,
                        -78.67655289326675
                    ],
                    [
                        -177.99969455134786,
                        -78.65852511282631
                    ],
                    [
                        -177.98556098642388,
                        -78.64051034724316
                    ],
                    [
                        -177.97128776804206,
                        -78.62249414715595
                    ],
                    [
                        -177.95702308753945,
                        -78.60447752972206
                    ],
                    [
                        -177.94283594564644,
                        -78.58646098464025
                    ],
                    [
                        -177.92862864331326,
                        -78.56844838394142
                    ],
                    [
                        -177.91422149823728,
                        -78.55044298284685
                    ],
                    [
                        -177.8996016897725,
                        -78.53244464810399
                    ],
                    [
                        -177.8847336111883,
                        -78.51445307501301
                    ],
                    [
                        -177.8697180152802,
                        -78.49647352154301
                    ],
                    [
                        -177.8545526999635,
                        -78.47849681835605
                    ],
                    [
                        -177.83941218342667,
                        -78.46051969047132
                    ],
                    [
                        -177.8242500431992,
                        -78.44254634669605
                    ],
                    [
                        -177.8089520637182,
                        -78.42458046285006
                    ],
                    [
                        -177.79355596705443,
                        -78.40661774083667
                    ],
                    [
                        -177.7780667232032,
                        -78.38865819683203
                    ],
                    [
                        -177.76251548536615,
                        -78.37070661437045
                    ],
                    [
                        -177.7469313394398,
                        -78.35275408880592
                    ],
                    [
                        -177.73135045938892,
                        -78.3348009002803
                    ],
                    [
                        -177.71574496728087,
                        -78.31685138081066
                    ],
                    [
                        -177.7000332778858,
                        -78.29890941692777
                    ],
                    [
                        -177.68415759905469,
                        -78.28097450846062
                    ],
                    [
                        -177.66775352366733,
                        -78.26305727642311
                    ],
                    [
                        -177.65006822268208,
                        -78.24519690253072
                    ],
                    [
                        -177.63161778675223,
                        -78.22736553086399
                    ],
                    [
                        -177.61314151819656,
                        -78.2095419195028
                    ],
                    [
                        -177.59503734228508,
                        -78.19169756487442
                    ],
                    [
                        -177.5773328601505,
                        -78.17384190768232
                    ],
                    [
                        -177.55983030506783,
                        -78.15597786463793
                    ],
                    [
                        -177.54249243671737,
                        -78.13810970824983
                    ],
                    [
                        -177.52513004162466,
                        -78.12024946431951
                    ],
                    [
                        -177.50721423568655,
                        -78.10241060974957
                    ],
                    [
                        -177.48885317109338,
                        -78.08459398923053
                    ],
                    [
                        -177.4712687583091,
                        -78.06674227675114
                    ],
                    [
                        -177.454306345186,
                        -78.04886334239099
                    ],
                    [
                        -177.4379700516202,
                        -78.03096647887511
                    ],
                    [
                        -177.42111207629918,
                        -78.0130909475082
                    ],
                    [
                        -177.4043046587132,
                        -77.99521495124162
                    ],
                    [
                        -177.38754757464537,
                        -77.97733849559829
                    ],
                    [
                        -177.37084060118542,
                        -77.95946158607335
                    ],
                    [
                        -177.35418351672013,
                        -77.94158422813436
                    ],
                    [
                        -177.33757610092405,
                        -77.92370642722152
                    ],
                    [
                        -177.3210181347505,
                        -77.9058281887478
                    ],
                    [
                        -177.30450940042203,
                        -77.88794951809929
                    ],
                    [
                        -177.28804968142185,
                        -77.87007042063516
                    ],
                    [
                        -177.27163876248449,
                        -77.8521909016881
                    ],
                    [
                        -177.25527642958696,
                        -77.83431096656433
                    ],
                    [
                        -177.23896246994002,
                        -77.81643062054388
                    ],
                    [
                        -177.2226966719794,
                        -77.7985498688808
                    ],
                    [
                        -177.206478825357,
                        -77.7806687168032
                    ],
                    [
                        -177.1903087209325,
                        -77.76278716951366
                    ],
                    [
                        -177.17418615076454,
                        -77.7449052321892
                    ],
                    [
                        -177.15811090810251,
                        -77.72702290998159
                    ],
                    [
                        -177.14208278737794,
                        -77.70914020801752
                    ],
                    [
                        -177.1261015841964,
                        -77.6912571313987
                    ],
                    [
                        -177.110167095329,
                        -77.67337368520214
                    ]
                ]
            }
        }
    ]
}
