{
    "type": "FeatureCollection",
    "features": [
        {
            "type": "Feature",
            "properties": {
                "name": "Lazarev",
                "object": "transect",
                "component": "landice",
                "author": "Matthew Hoffman, converted from https://github.com/yuwang115/sl-ice",
                "tags": "Antarctic_Ice_Sheet;flowline;sl-ice;lazarev"
            },
            "geometry": {
                "type": "LineString",
                "coordinates": [
                    [
                        13.092951206309879,
                        -72.14188377322643
                    ],
                    [
                        13.0630344722884,
                        -72.12769153302176
                    ],
                    [
                        13.0621791148092,
                        -72.10974157079559
                    ],
                    [
                        13.057407592778251,
                        -72.09182292566345
                    ],
                    [
                        13.063197864541374,
                        -72.0740241741648
                    ],
                    [
                        13.076340938290452,
                        -72.05652939631909
                    ],
                    [
                        13.088503021620001,
                        -72.03894983330578
                    ],
                    [
                        13.103955205261316,
                        -72.02170048407082
                    ],
                    [
                        13.131919261007925,
                        -72.0059911855803
                    ],
                    [
                        13.163450612700917,
                        -71.99089161855964
                    ],
                    [
                        13.196656482687866,
                        -71.97614827679986
                    ],
                    [
                        13.232728063004517,
                        -71.96208036039042
                    ],
                    [
                        13.269491165006192,
                        -71.94818385874798
                    ],
                    [
                        13.30655543702901,
                        -71.93437243670448
                    ],
                    [
                        13.34634808851936,
                        -71.92133974939632
                    ],
                    [
                        13.38993413985994,
                        -71.90953617589113
                    ],
                    [
                        13.43702993598751,
                        -71.89912140640713
                    ],
                    [
                        13.485314405315044,
                        -71.88925257420051
                    ],
                    [
                        13.531129816712498,
                        -71.87833251337211
                    ],
                    [
                        13.570222251644637,
                        -71.86515593269604
                    ],
                    [
                        13.60647652447535,
                        -71.85119414587237
                    ],
                    [
                        13.647464120705616,
                        -71.83859356376655
                    ],
                    [
                        13.68894789976372,
                        -71.8261437185902
                    ],
                    [
                        13.727375327768312,
                        -71.81277728887854
                    ],
                    [
                        13.763164207683701,
                        -71.7987223777731
                    ],
                    [
                        13.797416455328252,
                        -71.78433450521202
                    ],
                    [
                        13.827563626259826,
                        -71.76905136474029
                    ],
                    [
                        13.855220729246865,
                        -71.75332889168858
                    ],
                    [
                        13.884463562655437,
                        -71.7378870030239
                    ],
                    [
                        13.916152831001027,
                        -71.72292976719586
                    ],
                    [
                        13.946002691752872,
                        -71.7076156752216
                    ],
                    [
                        13.97540157642607,
                        -71.69221575439063
                    ],
                    [
                        14.006060980863698,
                        -71.67706241312807
                    ],
                    [
                        14.036173605694607,
                        -71.66181024612739
                    ],
                    [
                        14.065131975095655,
                        -71.64634094090495
                    ],
                    [
                        14.094218330222727,
                        -71.63090268304987
                    ],
                    [
                        14.123813678748462,
                        -71.61556510891378
                    ],
                    [
                        14.154157454646706,
                        -71.6003791755864
                    ],
                    [
                        14.185510810518991,
                        -71.58540870882887
                    ],
                    [
                        14.218838133114014,
                        -71.57087577382126
                    ],
                    [
                        14.254957833191696,
                        -71.55703273189245
                    ],
                    [
                        14.292243405613736,
                        -71.54351242047781
                    ],
                    [
                        14.330484739928524,
                        -71.53026803804075
                    ],
                    [
                        14.368835926958418,
                        -71.51706560142084
                    ],
                    [
                        14.406245098895837,
                        -71.50360067925523
                    ],
                    [
                        14.441980453022786,
                        -71.4896974585656
                    ],
                    [
                        14.47557293771407,
                        -71.47527322404723
                    ],
                    [
                        14.505527609108766,
                        -71.46007520015843
                    ],
                    [
                        14.531667893224402,
                        -71.44417869930273
                    ],
                    [
                        14.553764856486248,
                        -71.42767080621387
                    ],
                    [
                        14.574469266571848,
                        -71.41098480784639
                    ],
                    [
                        14.594513187566973,
                        -71.39421730388732
                    ],
                    [
                        14.614023483845092,
                        -71.37739053170084
                    ],
                    [
                        14.632396467611672,
                        -71.36043835446861
                    ],
                    [
                        14.649179396049297,
                        -71.34331765283595
                    ],
                    [
                        14.66846154610934,
                        -71.32647730299728
                    ],
                    [
                        14.690617975776453,
                        -71.31000404798253
                    ],
                    [
                        14.71074940550138,
                        -71.2932778411249
                    ],
                    [
                        14.721220881054988,
                        -71.27569884982292
                    ],
                    [
                        14.72277868815736,
                        -71.2577830165366
                    ],
                    [
                        14.718676619068882,
                        -71.2399059317056
                    ],
                    [
                        14.708884412877621,
                        -71.22225009806634
                    ],
                    [
                        14.696847966934133,
                        -71.20473961795257
                    ],
                    [
                        14.68463866517349,
                        -71.18724294109654
                    ],
                    [
                        14.67580026295907,
                        -71.1695465428946
                    ],
                    [
                        14.672167107360469,
                        -71.15166544482919
                    ],
                    [
                        14.672900388894126,
                        -71.13373931325557
                    ],
                    [
                        14.67596749302893,
                        -71.11583565476049
                    ],
                    [
                        14.678530008237793,
                        -71.09792421371503
                    ],
                    [
                        14.679946616149596,
                        -71.08000127017716
                    ],
                    [
                        14.681177022762592,
                        -71.06207814546804
                    ],
                    [
                        14.681243805819213,
                        -71.04415103388709
                    ],
                    [
                        14.67904450169681,
                        -71.02624006648934
                    ],
                    [
                        14.675630490164016,
                        -71.0083496236776
                    ],
                    [
                        14.67273681312702,
                        -70.9904485890438
                    ],
                    [
                        14.671102732739524,
                        -70.97253300999294
                    ],
                    [
                        14.669533662535114,
                        -70.95461766091893
                    ],
                    [
                        14.667483628295626,
                        -70.93670755358882
                    ],
                    [
                        14.665089519190591,
                        -70.91880218468857
                    ],
                    [
                        14.662000871760442,
                        -70.90091127325566
                    ],
                    [
                        14.65851120877231,
                        -70.88302831071174
                    ],
                    [
                        14.65522408575941,
                        -70.86514049074336
                    ],
                    [
                        14.652617956361505,
                        -70.84724374463609
                    ],
                    [
                        14.650427799537601,
                        -70.82934033569609
                    ],
                    [
                        14.647027102393258,
                        -70.81146075719309
                    ],
                    [
                        14.642436583911547,
                        -70.79360900321547
                    ],
                    [
                        14.637727011611016,
                        -70.77576347248764
                    ],
                    [
                        14.633482986567877,
                        -70.75790346474965
                    ],
                    [
                        14.62944957965281,
                        -70.74004161415886
                    ],
                    [
                        14.625203011702697,
                        -70.72218480448399
                    ],
                    [
                        14.622081626310067,
                        -70.70430460920979
                    ],
                    [
                        14.624042982465351,
                        -70.68641722771062
                    ],
                    [
                        14.630402994835945,
                        -70.66863685834207
                    ],
                    [
                        14.639493717418373,
                        -70.65098703151956
                    ],
                    [
                        14.651362410394325,
                        -70.63351900388115
                    ],
                    [
                        14.664555730882615,
                        -70.61615797045853
                    ],
                    [
                        14.678808516704708,
                        -70.59888938617115
                    ],
                    [
                        14.6939115957283,
                        -70.58170507604221
                    ],
                    [
                        14.709843986089473,
                        -70.56460552679593
                    ],
                    [
                        14.725698771512253,
                        -70.54749946356031
                    ],
                    [
                        14.742653197009819,
                        -70.5305177574925
                    ],
                    [
                        14.763393891791333,
                        -70.51402512698851
                    ],
                    [
                        14.787035791049634,
                        -70.4979623156213
                    ],
                    [
                        14.80994202890186,
                        -70.48178357027949
                    ],
                    [
                        14.831081731503406,
                        -70.46534182733248
                    ],
                    [
                        14.850155356180561,
                        -70.44862488880669
                    ],
                    [
                        14.86721946945107,
                        -70.43166773738669
                    ],
                    [
                        14.882281418939233,
                        -70.41450224556654
                    ],
                    [
                        14.895294707403298,
                        -70.39715114875717
                    ],
                    [
                        14.905834893266318,
                        -70.37961170738407
                    ],
                    [
                        14.91506625838714,
                        -70.36199084620993
                    ],
                    [
                        14.921959184091856,
                        -70.34425185523277
                    ],
                    [
                        14.926204266559775,
                        -70.32641968939592
                    ],
                    [
                        14.928560246818963,
                        -70.30854919910394
                    ],
                    [
                        14.928359060212413,
                        -70.29066310200567
                    ],
                    [
                        14.924489455546654,
                        -70.27282691427479
                    ],
                    [
                        14.91755703282592,
                        -70.25509780782225
                    ],
                    [
                        14.907657856683121,
                        -70.23753134002335
                    ],
                    [
                        14.894328905013035,
                        -70.2202267491754
                    ],
                    [
                        14.878024628457505,
                        -70.20322261000416
                    ],
                    [
                        14.858709549087157,
                        -70.18658567503383
                    ],
                    [
                        14.83665278448141,
                        -70.17034397276949
                    ],
                    [
                        14.813188301745472,
                        -70.15433909449325
                    ],
                    [
                        14.788861883494997,
                        -70.13848189535888
                    ],
                    [
                        14.764068182026309,
                        -70.12271823232665
                    ],
                    [
                        14.739378953636342,
                        -70.10693664200667
                    ],
                    [
                        14.714989517221403,
                        -70.09110580343685
                    ],
                    [
                        14.69119321604895,
                        -70.0751746168013
                    ],
                    [
                        14.668137536471582,
                        -70.0591217515004
                    ],
                    [
                        14.646006208132205,
                        -70.04292083484961
                    ],
                    [
                        14.624933382814394,
                        -70.02655919633592
                    ],
                    [
                        14.604860425727882,
                        -70.01005521872571
                    ],
                    [
                        14.586023341014247,
                        -69.99338898646354
                    ],
                    [
                        14.568311675314142,
                        -69.97657515022877
                    ],
                    [
                        14.551615075360912,
                        -69.95964584406377
                    ],
                    [
                        14.535973493507191,
                        -69.94260039223258
                    ],
                    [
                        14.521274512088317,
                        -69.92545719537937
                    ],
                    [
                        14.50702751245071,
                        -69.90827380299659
                    ],
                    [
                        14.492997528653316,
                        -69.89106744441675
                    ],
                    [
                        14.479397062631406,
                        -69.87382569130993
                    ],
                    [
                        14.466199885786901,
                        -69.85654720067095
                    ],
                    [
                        14.45357246177324,
                        -69.83921995234746
                    ],
                    [
                        14.441619344589022,
                        -69.82183927373012
                    ],
                    [
                        14.430144794726727,
                        -69.80442072558003
                    ],
                    [
                        14.419144543412392,
                        -69.78696745147484
                    ],
                    [
                        14.408642390887193,
                        -69.76947732781291
                    ],
                    [
                        14.398431087622082,
                        -69.75197061526542
                    ],
                    [
                        14.388449941295452,
                        -69.73444901324159
                    ],
                    [
                        14.378699645083422,
                        -69.71691429489523
                    ],
                    [
                        14.369413825155567,
                        -69.6993493547079
                    ],
                    [
                        14.360311204119828,
                        -69.68177366559522
                    ],
                    [
                        14.351059236346664,
                        -69.6642112798534
                    ],
                    [
                        14.342013671383937,
                        -69.64663422799596
                    ],
                    [
                        14.332877916997118,
                        -69.62906797903048
                    ],
                    [
                        14.323361126571509,
                        -69.6115227671123
                    ],
                    [
                        14.313615615717232,
                        -69.59399610175238
                    ],
                    [
                        14.303829004146788,
                        -69.57647680987219
                    ],
                    [
                        14.294051413223386,
                        -69.55895398035803
                    ],
                    [
                        14.283921866333001,
                        -69.5414597631991
                    ],
                    [
                        14.273389365948233,
                        -69.52399870834704
                    ],
                    [
                        14.262328947858164,
                        -69.50657458548577
                    ],
                    [
                        14.251790987113454,
                        -69.48911435100943
                    ],
                    [
                        14.241271325420268,
                        -69.4716543646436
                    ],
                    [
                        14.230769915863192,
                        -69.45419462897407
                    ],
                    [
                        14.22028671168457,
                        -69.43673514658019
                    ],
                    [
                        14.209821666283855,
                        -69.41927592003482
                    ],
                    [
                        14.199374733216953,
                        -69.40181695190445
                    ],
                    [
                        14.18894586619557,
                        -69.38435824474907
                    ],
                    [
                        14.178535019086592,
                        -69.36689980112234
                    ],
                    [
                        14.168142145911425,
                        -69.34944162357158
                    ],
                    [
                        14.157767200845367,
                        -69.3319837146377
                    ],
                    [
                        14.147410138216985,
                        -69.31452607685539
                    ],
                    [
                        14.137070912507468,
                        -69.297068712753
                    ],
                    [
                        14.126749478350014,
                        -69.27961162485266
                    ],
                    [
                        14.116445790529196,
                        -69.26215481567027
                    ],
                    [
                        14.106159803980344,
                        -69.24469828771547
                    ],
                    [
                        14.09589147378893,
                        -69.22724204349177
                    ],
                    [
                        14.085640755189962,
                        -69.20978608549652
                    ],
                    [
                        14.075407603567351,
                        -69.19233041622093
                    ],
                    [
                        14.065191974453322,
                        -69.17487503815008
                    ],
                    [
                        14.054993823527798,
                        -69.15741995376301
                    ]
                ]
            }
        }
    ]
}
