{
    "type": "FeatureCollection",
    "features": [
        {
            "type": "Feature",
            "properties": {
                "name": "Wilmarobertdowner",
                "object": "transect",
                "component": "landice",
                "author": "Matthew Hoffman, converted from https://github.com/yuwang115/sl-ice",
                "tags": "Antarctic_Ice_Sheet;flowline;sl-ice;wilmarobertdowner"
            },
            "geometry": {
                "type": "LineString",
                "coordinates": [
                    [
                        53.892831513073176,
                        -67.84908790370564
                    ],
                    [
                        53.93859840128176,
                        -67.84547004915264
                    ],
                    [
                        53.97820524813843,
                        -67.83629404569048
                    ],
                    [
                        54.01247147769455,
                        -67.82416027402982
                    ],
                    [
                        54.034981745717666,
                        -67.80866318364657
                    ],
                    [
                        54.04651805734304,
                        -67.79153210031157
                    ],
                    [
                        54.04746524453654,
                        -67.7738447858554
                    ],
                    [
                        54.048557848083924,
                        -67.75613310970903
                    ],
                    [
                        54.056076435256294,
                        -67.73862246934888
                    ],
                    [
                        54.06777145363411,
                        -67.72145355652667
                    ],
                    [
                        54.08813307491203,
                        -67.7055122725597
                    ],
                    [
                        54.11177948186642,
                        -67.69021217029427
                    ],
                    [
                        54.13167610142069,
                        -67.67417754419668
                    ],
                    [
                        54.15427452899309,
                        -67.65866755896575
                    ],
                    [
                        54.17243465315774,
                        -67.64234323359548
                    ],
                    [
                        54.184724287122435,
                        -67.62525881702828
                    ],
                    [
                        54.21281821026302,
                        -67.61112519909983
                    ],
                    [
                        54.24425342003286,
                        -67.59806786426023
                    ],
                    [
                        54.28184161455015,
                        -67.58777422380881
                    ],
                    [
                        54.31938196077368,
                        -67.57735347341922
                    ],
                    [
                        54.35362461408761,
                        -67.56538628033276
                    ],
                    [
                        54.386824625144754,
                        -67.55299476487389
                    ],
                    [
                        54.420964630795055,
                        -67.54098378128444
                    ],
                    [
                        54.45629837046711,
                        -67.52950365565312
                    ],
                    [
                        54.49232185251646,
                        -67.5183448360674
                    ],
                    [
                        54.53004320652263,
                        -67.50805932271795
                    ],
                    [
                        54.568597569434424,
                        -67.49824075669778
                    ],
                    [
                        54.607110936120975,
                        -67.48840537512312
                    ],
                    [
                        54.643620559885626,
                        -67.47753008909868
                    ],
                    [
                        54.677924958623834,
                        -67.46564922041571
                    ],
                    [
                        54.71086934292847,
                        -67.45321695729737
                    ],
                    [
                        54.744637411975624,
                        -67.4411364957532
                    ],
                    [
                        54.78225677902723,
                        -67.4309552698684
                    ],
                    [
                        54.82390534164537,
                        -67.42338952772883
                    ],
                    [
                        54.865920227822784,
                        -67.41608177880585
                    ],
                    [
                        54.907104814317094,
                        -67.40810683395425
                    ],
                    [
                        54.948189872050946,
                        -67.40006943361769
                    ],
                    [
                        54.98857832903311,
                        -67.39154363399777
                    ],
                    [
                        55.02941875885188,
                        -67.38336437652382
                    ],
                    [
                        55.07135521555811,
                        -67.37606079749851
                    ],
                    [
                        55.113880040984164,
                        -67.36928381785111
                    ],
                    [
                        55.155660272915924,
                        -67.36185939308325
                    ],
                    [
                        55.19654852951367,
                        -67.35374408403547
                    ],
                    [
                        55.237421055547884,
                        -67.34563777466435
                    ],
                    [
                        55.27887148588143,
                        -67.33797403804898
                    ],
                    [
                        55.32003356944102,
                        -67.33010572347878
                    ],
                    [
                        55.36082096608362,
                        -67.32197796001425
                    ],
                    [
                        55.403814465770374,
                        -67.3158556260375
                    ],
                    [
                        55.44869766805681,
                        -67.31225240447924
                    ],
                    [
                        55.49454421461131,
                        -67.31147591470841
                    ],
                    [
                        55.540089947067,
                        -67.30941351884653
                    ],
                    [
                        55.58492113088568,
                        -67.30567349077144
                    ],
                    [
                        55.62799968406602,
                        -67.29964132529115
                    ],
                    [
                        55.66774783741459,
                        -67.29090542393384
                    ],
                    [
                        55.70058704468514,
                        -67.27866718227193
                    ],
                    [
                        55.72554438254718,
                        -67.26380727729872
                    ],
                    [
                        55.753715100609966,
                        -67.249901445297
                    ],
                    [
                        55.78600015241314,
                        -67.23735166321921
                    ],
                    [
                        55.82345263095519,
                        -67.22724083227128
                    ],
                    [
                        55.864591233400965,
                        -67.21957011857874
                    ],
                    [
                        55.90687537481613,
                        -67.21284339872366
                    ],
                    [
                        55.94893582589857,
                        -67.20593523088382
                    ],
                    [
                        55.99045370972802,
                        -67.19854884104207
                    ],
                    [
                        56.031472039459935,
                        -67.19077127058395
                    ],
                    [
                        56.07234065993734,
                        -67.18287619993392
                    ],
                    [
                        56.113164429935914,
                        -67.17497124015244
                    ],
                    [
                        56.15272589939651,
                        -67.16617941300544
                    ],
                    [
                        56.18866059398363,
                        -67.15530635237171
                    ],
                    [
                        56.22122174137955,
                        -67.14292811805021
                    ],
                    [
                        56.2520046756371,
                        -67.129877430185
                    ],
                    [
                        56.282167567935936,
                        -67.11661595666222
                    ],
                    [
                        56.31229460330189,
                        -67.10334890817819
                    ],
                    [
                        56.34270613113413,
                        -67.09018599860484
                    ],
                    [
                        56.373853527823776,
                        -67.07729725385835
                    ],
                    [
                        56.405947944358,
                        -67.06477410447042
                    ],
                    [
                        56.43956406115395,
                        -67.05288153704726
                    ],
                    [
                        56.47554919719617,
                        -67.04210829323074
                    ],
                    [
                        56.51341258101075,
                        -67.03238884950369
                    ],
                    [
                        56.55265378464575,
                        -67.0235439718546
                    ],
                    [
                        56.59290822499887,
                        -67.01541407650589
                    ],
                    [
                        56.63357119065549,
                        -67.00762985870757
                    ],
                    [
                        56.67448051925193,
                        -67.0000482157652
                    ],
                    [
                        56.71526590843853,
                        -66.99237239437849
                    ],
                    [
                        56.755540597839655,
                        -66.9843181595164
                    ],
                    [
                        56.79472584818444,
                        -66.97548943680303
                    ],
                    [
                        56.832170063615195,
                        -66.96558360701046
                    ],
                    [
                        56.86790490170724,
                        -66.9547642313058
                    ],
                    [
                        56.902092592891016,
                        -66.94320135947537
                    ],
                    [
                        56.934844469833884,
                        -66.93101987469437
                    ],
                    [
                        56.96903165936475,
                        -66.9194725267043
                    ],
                    [
                        57.00318374066763,
                        -66.90791763987225
                    ],
                    [
                        57.03730074356513,
                        -66.89635522766669
                    ],
                    [
                        57.071382697918104,
                        -66.88478530353869
                    ],
                    [
                        57.105429633625306,
                        -66.87320788092207
                    ],
                    [
                        57.139441580623,
                        -66.86162297323331
                    ],
                    [
                        57.1734185688846,
                        -66.8500305938716
                    ],
                    [
                        57.207360628420275,
                        -66.83843075621881
                    ],
                    [
                        57.2412677892766,
                        -66.8268234736395
                    ],
                    [
                        57.27514008153615,
                        -66.81520875948088
                    ],
                    [
                        57.30897753531718,
                        -66.80358662707293
                    ],
                    [
                        57.3427801807732,
                        -66.79195708972823
                    ],
                    [
                        57.376548048092666,
                        -66.7803201607421
                    ],
                    [
                        57.410281167498574,
                        -66.76867585339247
                    ],
                    [
                        57.44397956924808,
                        -66.75702418094008
                    ],
                    [
                        57.47764328363224,
                        -66.74536515662822
                    ],
                    [
                        57.51127234097552,
                        -66.73369879368298
                    ],
                    [
                        57.54486677163549,
                        -66.72202510531305
                    ],
                    [
                        57.5784266060025,
                        -66.71034410470986
                    ],
                    [
                        57.61195187449928,
                        -66.69865580504751
                    ]
                ]
            }
        }
    ]
}
