{
    "type": "FeatureCollection",
    "features": [
        {
            "type": "Feature",
            "properties": {
                "name": "Pine Island",
                "object": "transect",
                "component": "landice",
                "author": "Matthew Hoffman, converted from https://github.com/yuwang115/sl-ice",
                "tags": "Antarctic_Ice_Sheet;flowline;sl-ice;pine_island"
            },
            "geometry": {
                "type": "LineString",
                "coordinates": [
                    [
                        -93.0514211931606,
                        -78.95254968140871
                    ],
                    [
                        -93.0285660245187,
                        -78.93484235208133
                    ],
                    [
                        -93.00025334311134,
                        -78.91744167007325
                    ],
                    [
                        -92.96483835474677,
                        -78.90052708766365
                    ],
                    [
                        -92.93928639316385,
                        -78.88300090456957
                    ],
                    [
                        -92.9278495260125,
                        -78.8649091465006
                    ],
                    [
                        -92.92143457332277,
                        -78.8467116894157
                    ],
                    [
                        -92.9144489401956,
                        -78.82852230066608
                    ],
                    [
                        -92.90802997744149,
                        -78.81032610178421
                    ],
                    [
                        -92.9074751285488,
                        -78.79209640970063
                    ],
                    [
                        -92.90936302615624,
                        -78.77385955200324
                    ],
                    [
                        -92.91329005125321,
                        -78.75563945857692
                    ],
                    [
                        -92.91901760637904,
                        -78.73743741185906
                    ],
                    [
                        -92.92589720567616,
                        -78.71925148689668
                    ],
                    [
                        -92.93421398108556,
                        -78.70108872442631
                    ],
                    [
                        -92.94440161306213,
                        -78.6829618985589
                    ],
                    [
                        -92.94854528483532,
                        -78.66477386088634
                    ],
                    [
                        -92.93970797843473,
                        -78.64663922035285
                    ],
                    [
                        -92.92952742067682,
                        -78.62851688104678
                    ],
                    [
                        -92.92984152711048,
                        -78.61028550366376
                    ],
                    [
                        -92.93305491737291,
                        -78.59206546084712
                    ],
                    [
                        -92.93522873310764,
                        -78.57383814172249
                    ],
                    [
                        -92.9367889170105,
                        -78.55561297715295
                    ],
                    [
                        -92.94543365498237,
                        -78.53747658382795
                    ],
                    [
                        -92.96143594622764,
                        -78.51953195179597
                    ],
                    [
                        -92.97727555505159,
                        -78.5015771884776
                    ],
                    [
                        -92.98997854007409,
                        -78.48352744778643
                    ],
                    [
                        -93.00167057965066,
                        -78.465446810771
                    ],
                    [
                        -93.01610855193407,
                        -78.44744915261052
                    ],
                    [
                        -93.0300295141258,
                        -78.42943898755172
                    ],
                    [
                        -93.03301515531443,
                        -78.41125556143774
                    ],
                    [
                        -93.02063527047912,
                        -78.39320421887349
                    ],
                    [
                        -93.00665819061638,
                        -78.37519942015739
                    ],
                    [
                        -93.00284460022668,
                        -78.35701541642166
                    ],
                    [
                        -93.00730709080952,
                        -78.33881544418037
                    ],
                    [
                        -93.0141827202486,
                        -78.32064393659036
                    ],
                    [
                        -93.01839268766045,
                        -78.3024436320447
                    ],
                    [
                        -93.01891771002074,
                        -78.28422023219672
                    ],
                    [
                        -93.01985446980228,
                        -78.26600026577296
                    ],
                    [
                        -93.02369389781909,
                        -78.24779523215857
                    ],
                    [
                        -93.0263120771514,
                        -78.22958278217254
                    ],
                    [
                        -93.02477856575223,
                        -78.21136821586195
                    ],
                    [
                        -93.01976145850944,
                        -78.19317821714392
                    ],
                    [
                        -93.01288350760203,
                        -78.17501260164094
                    ],
                    [
                        -93.00528373924539,
                        -78.15686087320856
                    ],
                    [
                        -92.99742445426614,
                        -78.13871346977172
                    ],
                    [
                        -92.9891484962924,
                        -78.12057480796585
                    ],
                    [
                        -92.98121020770712,
                        -78.10242947276708
                    ],
                    [
                        -92.9726903063695,
                        -78.08429828285203
                    ],
                    [
                        -92.9663082735294,
                        -78.06613110016144
                    ],
                    [
                        -92.96289988482164,
                        -78.04792904329803
                    ],
                    [
                        -92.9600856977214,
                        -78.02972400003608
                    ],
                    [
                        -92.95859076621309,
                        -78.01151273500777
                    ],
                    [
                        -92.95867724154529,
                        -77.99329877022589
                    ],
                    [
                        -92.95926230593142,
                        -77.97508548788508
                    ],
                    [
                        -92.95893219227499,
                        -77.95687170300302
                    ],
                    [
                        -92.95722164315889,
                        -77.9386643061538
                    ],
                    [
                        -92.95292903650635,
                        -77.92047540584822
                    ],
                    [
                        -92.94506577446639,
                        -77.90234028769807
                    ],
                    [
                        -92.9344276224835,
                        -77.88426848329786
                    ],
                    [
                        -92.92077337409899,
                        -77.86628699725561
                    ],
                    [
                        -92.90333300927793,
                        -77.84845113659134
                    ],
                    [
                        -92.88390009477135,
                        -77.83070846546701
                    ],
                    [
                        -92.86382489599521,
                        -77.81300152850473
                    ],
                    [
                        -92.84315606772469,
                        -77.79532422220846
                    ],
                    [
                        -92.82238621424615,
                        -77.77765579057126
                    ],
                    [
                        -92.80081094602137,
                        -77.76003359299438
                    ],
                    [
                        -92.77756133243606,
                        -77.74250924781076
                    ],
                    [
                        -92.75283173895018,
                        -77.72507856433477
                    ],
                    [
                        -92.72724535764155,
                        -77.70770842889122
                    ],
                    [
                        -92.70170147850405,
                        -77.6903348937848
                    ],
                    [
                        -92.67651665304705,
                        -77.6729429549609
                    ],
                    [
                        -92.6519580070702,
                        -77.65551364558408
                    ],
                    [
                        -92.62700739704096,
                        -77.6381117787021
                    ],
                    [
                        -92.60096313556835,
                        -77.62078690273697
                    ],
                    [
                        -92.57325366867978,
                        -77.60358523214016
                    ],
                    [
                        -92.54542972878717,
                        -77.58639581785067
                    ],
                    [
                        -92.52028518236999,
                        -77.56901908189812
                    ],
                    [
                        -92.49722129565419,
                        -77.55151142240227
                    ],
                    [
                        -92.47699202281501,
                        -77.53384531910726
                    ],
                    [
                        -92.46004060124434,
                        -77.5160199377821
                    ],
                    [
                        -92.44480638809534,
                        -77.4981239943599
                    ],
                    [
                        -92.42848291669031,
                        -77.48027461493486
                    ],
                    [
                        -92.41104190858857,
                        -77.46247553243067
                    ],
                    [
                        -92.39347638446053,
                        -77.44468384276655
                    ],
                    [
                        -92.37545114780144,
                        -77.42691529655708
                    ],
                    [
                        -92.3561952415841,
                        -77.40921223778022
                    ],
                    [
                        -92.33519001899018,
                        -77.39160636159113
                    ],
                    [
                        -92.31287981406021,
                        -77.37407607241877
                    ],
                    [
                        -92.28974011293569,
                        -77.35660142894143
                    ],
                    [
                        -92.26599596004613,
                        -77.33916934960807
                    ],
                    [
                        -92.2410515240293,
                        -77.32182029833734
                    ],
                    [
                        -92.21495722755998,
                        -77.30455625470067
                    ],
                    [
                        -92.18785256534247,
                        -77.28737025702839
                    ],
                    [
                        -92.16006790424002,
                        -77.27024105283475
                    ],
                    [
                        -92.13167898331476,
                        -77.253163254695
                    ],
                    [
                        -92.10275324203462,
                        -77.23613338770656
                    ],
                    [
                        -92.07337756609581,
                        -77.21914329426669
                    ],
                    [
                        -92.04367989423966,
                        -77.20218725580096
                    ],
                    [
                        -92.01359192808978,
                        -77.18526750622388
                    ],
                    [
                        -91.98235596966892,
                        -77.16845433112779
                    ],
                    [
                        -91.94968649285545,
                        -77.1517813246315
                    ],
                    [
                        -91.91634963825274,
                        -77.13517855462972
                    ],
                    [
                        -91.88260897697447,
                        -77.11862107921905
                    ],
                    [
                        -91.84898388343707,
                        -77.10205768048066
                    ],
                    [
                        -91.81574634618403,
                        -77.08545825845324
                    ],
                    [
                        -91.78344875500508,
                        -77.06877179355729
                    ],
                    [
                        -91.75282586710794,
                        -77.05193354384483
                    ],
                    [
                        -91.72446223751285,
                        -77.03490192495887
                    ],
                    [
                        -91.69731062033009,
                        -77.0177737477672
                    ],
                    [
                        -91.67192800341168,
                        -77.000513881867
                    ],
                    [
                        -91.65023847392976,
                        -76.98300575563518
                    ],
                    [
                        -91.62957519086883,
                        -76.96543378336845
                    ],
                    [
                        -91.60850843774486,
                        -76.94788728379184
                    ],
                    [
                        -91.58705200105899,
                        -76.93036788937792
                    ],
                    [
                        -91.56568937339856,
                        -76.9128452312507
                    ],
                    [
                        -91.54467461035695,
                        -76.89530140566094
                    ],
                    [
                        -91.5243209410296,
                        -76.8777218663403
                    ],
                    [
                        -91.50502682539336,
                        -76.8600825566872
                    ],
                    [
                        -91.48651082743619,
                        -76.84240172304587
                    ],
                    [
                        -91.46814005737849,
                        -76.82471503421617
                    ],
                    [
                        -91.45079281401993,
                        -76.80697744196374
                    ],
                    [
                        -91.43474635961296,
                        -76.78917936854388
                    ],
                    [
                        -91.42056098420677,
                        -76.77129876999747
                    ],
                    [
                        -91.40900089657565,
                        -76.75332071266794
                    ],
                    [
                        -91.40087955383285,
                        -76.7352491246923
                    ],
                    [
                        -91.39765147686018,
                        -76.71709884016282
                    ],
                    [
                        -91.39947709689213,
                        -76.69893447487122
                    ],
                    [
                        -91.40375267245739,
                        -76.68079233048734
                    ],
                    [
                        -91.41057278749334,
                        -76.66269349391283
                    ],
                    [
                        -91.42213854655395,
                        -76.64472412255789
                    ],
                    [
                        -91.43688334604369,
                        -76.62688071358238
                    ],
                    [
                        -91.45360289516279,
                        -76.60913062307759
                    ],
                    [
                        -91.47129028246812,
                        -76.591433055033
                    ],
                    [
                        -91.488556835019,
                        -76.57371529145043
                    ],
                    [
                        -91.50531765350111,
                        -76.55597249589694
                    ],
                    [
                        -91.52181412890192,
                        -76.53821782547828
                    ],
                    [
                        -91.53970156045202,
                        -76.52053908767549
                    ],
                    [
                        -91.56018278752133,
                        -76.50301822883634
                    ],
                    [
                        -91.58387404142405,
                        -76.48572048771699
                    ],
                    [
                        -91.60818970789843,
                        -76.46847378561039
                    ],
                    [
                        -91.63052613084537,
                        -76.45108181046696
                    ],
                    [
                        -91.65219168771415,
                        -76.43364531549759
                    ],
                    [
                        -91.67417955069926,
                        -76.41623488793874
                    ],
                    [
                        -91.69693660217112,
                        -76.39888182730526
                    ],
                    [
                        -91.72056943630315,
                        -76.3815960322028
                    ],
                    [
                        -91.7420270954139,
                        -76.36415749860505
                    ],
                    [
                        -91.76074148589181,
                        -76.34654646699904
                    ],
                    [
                        -91.77840859528109,
                        -76.32887746361243
                    ],
                    [
                        -91.79779282711814,
                        -76.31131096530322
                    ],
                    [
                        -91.81921411485737,
                        -76.2938786021717
                    ],
                    [
                        -91.84062314477646,
                        -76.27644917379678
                    ],
                    [
                        -91.86210052740056,
                        -76.25902477894793
                    ],
                    [
                        -91.88315319194423,
                        -76.24157473744799
                    ],
                    [
                        -91.9043329046448,
                        -76.2241356660864
                    ],
                    [
                        -91.92681631636309,
                        -76.20679252763486
                    ],
                    [
                        -91.94955021863055,
                        -76.18947082830306
                    ],
                    [
                        -91.97120959951108,
                        -76.17207423293755
                    ],
                    [
                        -91.99211254898084,
                        -76.15462584212044
                    ],
                    [
                        -92.01399975459427,
                        -76.13724923340945
                    ],
                    [
                        -92.03985254438248,
                        -76.12019467184801
                    ],
                    [
                        -92.06812016282291,
                        -76.10336249004543
                    ],
                    [
                        -92.09694716951608,
                        -76.0865892029385
                    ],
                    [
                        -92.12572723934127,
                        -76.06981643636514
                    ],
                    [
                        -92.15420003546443,
                        -76.05301568705526
                    ],
                    [
                        -92.18217224759734,
                        -76.03617159212521
                    ],
                    [
                        -92.21236733663875,
                        -76.01955582174553
                    ],
                    [
                        -92.2410215176041,
                        -76.00278907996183
                    ],
                    [
                        -92.26449202910696,
                        -75.98556824448784
                    ],
                    [
                        -92.28316126484633,
                        -75.96800030962423
                    ],
                    [
                        -92.30421727519611,
                        -75.9505911593605
                    ],
                    [
                        -92.32615827633447,
                        -75.93325048564722
                    ],
                    [
                        -92.34953742051717,
                        -75.91602512824912
                    ],
                    [
                        -92.37474019855088,
                        -75.8989533632111
                    ],
                    [
                        -92.40148438600806,
                        -75.88202833026864
                    ],
                    [
                        -92.4313144311326,
                        -75.86541860458202
                    ],
                    [
                        -92.46514713818907,
                        -75.84927934597624
                    ],
                    [
                        -92.50203415987339,
                        -75.83354708125513
                    ],
                    [
                        -92.5420738206073,
                        -75.81829087826488
                    ],
                    [
                        -92.58368555796675,
                        -75.80329772511554
                    ],
                    [
                        -92.6270684786958,
                        -75.78861802064148
                    ],
                    [
                        -92.67337050119914,
                        -75.77449533484014
                    ],
                    [
                        -92.72035438992864,
                        -75.76051641993757
                    ],
                    [
                        -92.76855244347219,
                        -75.7468042947424
                    ],
                    [
                        -92.81995341583277,
                        -75.73382423134255
                    ],
                    [
                        -92.87297787488238,
                        -75.72126583337591
                    ],
                    [
                        -92.9280521091061,
                        -75.70926689708419
                    ],
                    [
                        -92.98518409351043,
                        -75.69789207886372
                    ],
                    [
                        -93.0441133623718,
                        -75.6870942112081
                    ],
                    [
                        -93.1042190233669,
                        -75.67671951666314
                    ],
                    [
                        -93.16642239280785,
                        -75.66715304304827
                    ],
                    [
                        -93.23067933192756,
                        -75.65849269685529
                    ],
                    [
                        -93.29772957389143,
                        -75.65126654419836
                    ],
                    [
                        -93.3675061938749,
                        -75.64586285331359
                    ],
                    [
                        -93.43846121851803,
                        -75.64153325130025
                    ],
                    [
                        -93.50994326090701,
                        -75.63777176080156
                    ],
                    [
                        -93.5814170076955,
                        -75.63401860402318
                    ],
                    [
                        -93.65252645058256,
                        -75.62988427174832
                    ],
                    [
                        -93.72292457742866,
                        -75.62508391500674
                    ],
                    [
                        -93.79217896583798,
                        -75.61937441315163
                    ],
                    [
                        -93.8603266061189,
                        -75.61290953898282
                    ],
                    [
                        -93.92771727596083,
                        -75.6059849060086
                    ],
                    [
                        -93.99501237540724,
                        -75.59902484682574
                    ],
                    [
                        -94.06264837124216,
                        -75.59229341205183
                    ],
                    [
                        -94.13078822306458,
                        -75.58590189292896
                    ],
                    [
                        -94.19940675326838,
                        -75.57986124454406
                    ],
                    [
                        -94.2682235528038,
                        -75.57397451090796
                    ],
                    [
                        -94.33701546117678,
                        -75.56810029788485
                    ],
                    [
                        -94.40568296897735,
                        -75.56215142919928
                    ],
                    [
                        -94.47432176489747,
                        -75.55620338846502
                    ],
                    [
                        -94.5430722116391,
                        -75.55035341078903
                    ],
                    [
                        -94.61194992185116,
                        -75.54462290306816
                    ],
                    [
                        -94.68091609118233,
                        -75.53897708233914
                    ],
                    [
                        -94.7499954023499,
                        -75.53344263759718
                    ],
                    [
                        -94.81914865733734,
                        -75.52798482470075
                    ],
                    [
                        -94.8882942922991,
                        -75.5225425534459
                    ],
                    [
                        -94.95748171131197,
                        -75.51716295657728
                    ],
                    [
                        -95.02676150571244,
                        -75.51186307364227
                    ],
                    [
                        -95.09609780822214,
                        -75.50664089123003
                    ],
                    [
                        -95.16543782772312,
                        -75.50144750448605
                    ],
                    [
                        -95.23479975832525,
                        -75.49628157011362
                    ],
                    [
                        -95.30429786637235,
                        -75.49125416719231
                    ],
                    [
                        -95.37399414387677,
                        -75.48642835680963
                    ],
                    [
                        -95.44391627265533,
                        -75.48184065947694
                    ],
                    [
                        -95.51394546510713,
                        -75.47738090063311
                    ],
                    [
                        -95.5840195400247,
                        -75.47297768454601
                    ],
                    [
                        -95.65409855172842,
                        -75.46860100069448
                    ],
                    [
                        -95.72413410016757,
                        -75.46420105197888
                    ],
                    [
                        -95.79411839345592,
                        -75.45976803358346
                    ],
                    [
                        -95.86400369983393,
                        -75.45526584748299
                    ],
                    [
                        -95.93377481260104,
                        -75.45066852194547
                    ],
                    [
                        -96.00347110550638,
                        -75.44602974346562
                    ],
                    [
                        -96.07314590149805,
                        -75.44139095385299
                    ],
                    [
                        -96.14286851389902,
                        -75.43681225386656
                    ],
                    [
                        -96.21271230370652,
                        -75.43237727467007
                    ],
                    [
                        -96.28280207001099,
                        -75.42821739912374
                    ],
                    [
                        -96.35309797692008,
                        -75.42431536344584
                    ],
                    [
                        -96.42364093068458,
                        -75.42071366519377
                    ],
                    [
                        -96.49442912716985,
                        -75.41747059151662
                    ],
                    [
                        -96.56538365402413,
                        -75.41448890906598
                    ],
                    [
                        -96.63648900503746,
                        -75.41173434474865
                    ],
                    [
                        -96.70773615374469,
                        -75.40928100707902
                    ],
                    [
                        -96.77915665249942,
                        -75.40720914491335
                    ],
                    [
                        -96.85076137814515,
                        -75.40559781821243
                    ],
                    [
                        -96.92251705886797,
                        -75.40451378506779
                    ],
                    [
                        -96.99434285261819,
                        -75.40376701561895
                    ],
                    [
                        -97.06619502181344,
                        -75.40331696362267
                    ],
                    [
                        -97.13806822688072,
                        -75.4030853777775
                    ],
                    [
                        -97.20993254945475,
                        -75.4028687135936
                    ],
                    [
                        -97.28179937601246,
                        -75.40261729525332
                    ],
                    [
                        -97.35365829218274,
                        -75.40226201076199
                    ],
                    [
                        -97.42550122516202,
                        -75.40174094944797
                    ],
                    [
                        -97.4973112786272,
                        -75.40099154862251
                    ],
                    [
                        -97.56904124804801,
                        -75.39987545978721
                    ],
                    [
                        -97.64065280196438,
                        -75.39839204687766
                    ],
                    [
                        -97.71214222439166,
                        -75.39659165596885
                    ],
                    [
                        -97.78347678264281,
                        -75.39444244954572
                    ],
                    [
                        -97.8546410705616,
                        -75.39198517841045
                    ],
                    [
                        -97.92561997814978,
                        -75.38922677983686
                    ],
                    [
                        -97.99631170218481,
                        -75.38607023685425
                    ],
                    [
                        -98.06670001513234,
                        -75.38252260224586
                    ],
                    [
                        -98.1367171139389,
                        -75.3785443056283
                    ],
                    [
                        -98.2061575910446,
                        -75.37399557544195
                    ],
                    [
                        -98.2751617339171,
                        -75.36905828247319
                    ],
                    [
                        -98.34355418338198,
                        -75.36362650146147
                    ],
                    [
                        -98.41017520447632,
                        -75.3569480364488
                    ],
                    [
                        -98.47506154298671,
                        -75.34929001604414
                    ],
                    [
                        -98.53760352087181,
                        -75.3404852658391
                    ],
                    [
                        -98.59750497895854,
                        -75.3305842769132
                    ],
                    [
                        -98.65622537451554,
                        -75.32024548602591
                    ],
                    [
                        -98.71457435422255,
                        -75.30979198800009
                    ],
                    [
                        -98.77420496683816,
                        -75.29983572267425
                    ],
                    [
                        -98.83478715212708,
                        -75.29026685253731
                    ],
                    [
                        -98.89539577775017,
                        -75.28072538624052
                    ],
                    [
                        -98.95652752660425,
                        -75.27141879364342
                    ],
                    [
                        -99.01848129748397,
                        -75.26249327900643
                    ],
                    [
                        -99.08136063840357,
                        -75.2540100792088
                    ],
                    [
                        -99.14535546299723,
                        -75.24610845314956
                    ],
                    [
                        -99.2097706604144,
                        -75.23844931924184
                    ],
                    [
                        -99.27422670093286,
                        -75.23082884541834
                    ],
                    [
                        -99.33840403618045,
                        -75.22307406063345
                    ],
                    [
                        -99.40250160898431,
                        -75.21529423100945
                    ],
                    [
                        -99.46653153990941,
                        -75.20749713954653
                    ],
                    [
                        -99.53040210126119,
                        -75.19963623932436
                    ],
                    [
                        -99.59413089549936,
                        -75.19171728808766
                    ],
                    [
                        -99.65770633583105,
                        -75.18373443469693
                    ],
                    [
                        -99.72108109706373,
                        -75.17567146013052
                    ],
                    [
                        -99.78433902815524,
                        -75.16756337682851
                    ],
                    [
                        -99.84748738397424,
                        -75.15941083933356
                    ],
                    [
                        -99.91038073209599,
                        -75.15115881923543
                    ],
                    [
                        -99.97307205866241,
                        -75.14281795552607
                    ],
                    [
                        -100.03554674834542,
                        -75.13438902477714
                    ],
                    [
                        -100.09774777144577,
                        -75.12584256831009
                    ],
                    [
                        -100.15967346605679,
                        -75.11718802463864
                    ],
                    [
                        -100.22132779929083,
                        -75.1084170969624
                    ],
                    [
                        -100.28263653812763,
                        -75.09951224296465
                    ],
                    [
                        -100.34364245820109,
                        -75.09047995424068
                    ],
                    [
                        -100.40431284919985,
                        -75.0813210381731
                    ],
                    [
                        -100.46455120837088,
                        -75.07199702302161
                    ],
                    [
                        -100.5244513376056,
                        -75.06253592350325
                    ],
                    [
                        -100.58399071908083,
                        -75.05294271526701
                    ],
                    [
                        -100.64307670266216,
                        -75.04317974471286
                    ],
                    [
                        -100.70177016548598,
                        -75.03327842089799
                    ],
                    [
                        -100.76009618183183,
                        -75.02324513502035
                    ],
                    [
                        -100.81799537098266,
                        -75.01306830620037
                    ],
                    [
                        -100.87550515309017,
                        -75.00275649027196
                    ],
                    [
                        -100.93255203771137,
                        -74.9922887171241
                    ],
                    [
                        -100.98900267142065,
                        -74.98162128013828
                    ],
                    [
                        -101.04501250322308,
                        -74.97081126332094
                    ],
                    [
                        -101.10074413249258,
                        -74.95992446725933
                    ],
                    [
                        -101.15612662704653,
                        -74.94892871871356
                    ],
                    [
                        -101.21105667613803,
                        -74.9377963412932
                    ],
                    [
                        -101.26571172914096,
                        -74.92658857658444
                    ],
                    [
                        -101.32097678463859,
                        -74.91559454989607
                    ],
                    [
                        -101.37630641493844,
                        -74.90463836657253
                    ],
                    [
                        -101.43122853842289,
                        -74.8935583240493
                    ],
                    [
                        -101.48606920233426,
                        -74.88246484857781
                    ],
                    [
                        -101.54082848750781,
                        -74.87135797185195
                    ],
                    [
                        -101.59550647513363,
                        -74.86023772551222
                    ],
                    [
                        -101.6501032467533,
                        -74.84910414114582
                    ],
                    [
                        -101.70461888425625,
                        -74.83795725028631
                    ],
                    [
                        -101.75905346987636,
                        -74.8267970844138
                    ],
                    [
                        -101.81340708618842,
                        -74.81562367495472
                    ],
                    [
                        -101.86767981610467,
                        -74.80443705328173
                    ],
                    [
                        -101.9218717428714,
                        -74.79323725071373
                    ],
                    [
                        -101.9759829500655,
                        -74.78202429851568
                    ],
                    [
                        -102.030013521591,
                        -74.77079822789864
                    ],
                    [
                        -102.08396354167571,
                        -74.7595590700196
                    ],
                    [
                        -102.1378330948679,
                        -74.7483068559815
                    ],
                    [
                        -102.19162226603274,
                        -74.73704161683305
                    ],
                    [
                        -102.24533114034922,
                        -74.72576338356876
                    ],
                    [
                        -102.29895980330657,
                        -74.71447218712886
                    ],
                    [
                        -102.35250834070108,
                        -74.70316805839917
                    ],
                    [
                        -102.40597683863278,
                        -74.69185102821115
                    ],
                    [
                        -102.45936538350207,
                        -74.68052112734173
                    ]
                ]
            }
        }
    ]
}
