{
    "type": "FeatureCollection",
    "features": [
        {
            "type": "Feature",
            "properties": {
                "name": "Enderby Land",
                "object": "transect",
                "component": "landice",
                "author": "Matthew Hoffman, converted from https://github.com/yuwang115/sl-ice",
                "tags": "Antarctic_Ice_Sheet;flowline;sl-ice;enderby_land"
            },
            "geometry": {
                "type": "LineString",
                "coordinates": [
                    [
                        53.81194795362433,
                        -68.02196656929225
                    ],
                    [
                        53.77764985569016,
                        -68.03418277416999
                    ],
                    [
                        53.73880292597083,
                        -68.04437179750259
                    ],
                    [
                        53.69744644512663,
                        -68.05307820282978
                    ],
                    [
                        53.653914880192126,
                        -68.0598223925516
                    ],
                    [
                        53.60802298597104,
                        -68.05851787374469
                    ],
                    [
                        53.569386500162075,
                        -68.04857481741219
                    ],
                    [
                        53.53557064183897,
                        -68.03611354959062
                    ],
                    [
                        53.50534089847736,
                        -68.02247381130543
                    ],
                    [
                        53.483310035930174,
                        -68.00681133536965
                    ],
                    [
                        53.46322846951311,
                        -67.99073982467642
                    ],
                    [
                        53.43855747342018,
                        -67.9755973907762
                    ],
                    [
                        53.410511669078005,
                        -67.96130378905748
                    ],
                    [
                        53.38011446941554,
                        -67.94771044208274
                    ],
                    [
                        53.3491841546115,
                        -67.93429485460503
                    ],
                    [
                        53.320436863104426,
                        -67.92021245044934
                    ],
                    [
                        53.29086915283029,
                        -67.90637727319505
                    ],
                    [
                        53.263253479272926,
                        -67.89198949141195
                    ],
                    [
                        53.2368774576493,
                        -67.87727676478492
                    ],
                    [
                        53.21100149702964,
                        -67.86244168640727
                    ],
                    [
                        53.18491848756673,
                        -67.84766746391395
                    ],
                    [
                        53.15913329856764,
                        -67.83281948797821
                    ],
                    [
                        53.134205950322055,
                        -67.81777381191938
                    ],
                    [
                        53.11103816835028,
                        -67.80233768648712
                    ],
                    [
                        53.08951993113676,
                        -67.78656465988415
                    ],
                    [
                        53.069797213580294,
                        -67.7704589127888
                    ],
                    [
                        53.04742915139617,
                        -67.75491050877814
                    ],
                    [
                        53.02067448900394,
                        -67.74035298506446
                    ],
                    [
                        52.99237665186441,
                        -67.72621769485639
                    ],
                    [
                        52.96416758432715,
                        -67.71206487305857
                    ],
                    [
                        52.93789728124312,
                        -67.6973968749486
                    ],
                    [
                        52.913707875162345,
                        -67.6822673314206
                    ],
                    [
                        52.882165185869646,
                        -67.66926414436219
                    ],
                    [
                        52.84520181115496,
                        -67.6584877396564
                    ],
                    [
                        52.80597621301375,
                        -67.64889834802058
                    ],
                    [
                        52.7667431985203,
                        -67.63932591530943
                    ],
                    [
                        52.72836775725181,
                        -67.62927437834361
                    ],
                    [
                        52.692255672189965,
                        -67.61808732554341
                    ],
                    [
                        52.65879493526385,
                        -67.60577835700836
                    ],
                    [
                        52.628155137715524,
                        -67.59244324366496
                    ],
                    [
                        52.60056002406083,
                        -67.57817172674575
                    ],
                    [
                        52.57519528735943,
                        -67.56332570090836
                    ],
                    [
                        52.55497925748761,
                        -67.54738762900207
                    ],
                    [
                        52.540673373507786,
                        -67.53052951097749
                    ],
                    [
                        52.52981496413752,
                        -67.51329086093146
                    ],
                    [
                        52.52076922808394,
                        -67.49589836461557
                    ],
                    [
                        52.51225779309096,
                        -67.47846929438815
                    ],
                    [
                        52.50244438336594,
                        -67.46114517190809
                    ],
                    [
                        52.49175767671415,
                        -67.44389474145292
                    ],
                    [
                        52.479938645512654,
                        -67.42675815263905
                    ],
                    [
                        52.46888489333314,
                        -67.40954603554454
                    ],
                    [
                        52.45896406638122,
                        -67.39223364529786
                    ],
                    [
                        52.4450830029098,
                        -67.37536000097664
                    ],
                    [
                        52.42359449978402,
                        -67.35976348225631
                    ],
                    [
                        52.39642087958126,
                        -67.34547644192277
                    ],
                    [
                        52.36496940845185,
                        -67.33257103192064
                    ],
                    [
                        52.329662928763085,
                        -67.32128181928937
                    ],
                    [
                        52.29178131233255,
                        -67.31127723427468
                    ],
                    [
                        52.254308770885345,
                        -67.30105604700717
                    ],
                    [
                        52.21937568681474,
                        -67.28960303141977
                    ],
                    [
                        52.18761955788148,
                        -67.27683607729787
                    ],
                    [
                        52.159641731351954,
                        -67.26281466880738
                    ],
                    [
                        52.1350676321939,
                        -67.24787796865067
                    ],
                    [
                        52.11346771032915,
                        -67.23226427456108
                    ],
                    [
                        52.09160043856902,
                        -67.21670995349304
                    ],
                    [
                        52.064924126879646,
                        -67.20241911679423
                    ],
                    [
                        52.03108697004628,
                        -67.19058530782739
                    ],
                    [
                        51.99240718219923,
                        -67.18120399996783
                    ],
                    [
                        51.951598307654464,
                        -67.17331523725811
                    ],
                    [
                        51.908820469700665,
                        -67.1672152617256
                    ],
                    [
                        51.86458326548006,
                        -67.16291394898853
                    ],
                    [
                        51.82099484310811,
                        -67.15776718450563
                    ],
                    [
                        51.77862772732136,
                        -67.15125617841403
                    ],
                    [
                        51.73595494033472,
                        -67.14505477871282
                    ],
                    [
                        51.69298762465165,
                        -67.1391778728911
                    ],
                    [
                        51.650247862601205,
                        -67.1330636609504
                    ],
                    [
                        51.60738238732949,
                        -67.12709456253545
                    ],
                    [
                        51.56411488550108,
                        -67.12160928369316
                    ],
                    [
                        51.520831706023785,
                        -67.11615085746521
                    ],
                    [
                        51.47866009061398,
                        -67.10952377306182
                    ],
                    [
                        51.43777630307947,
                        -67.10178204625805
                    ],
                    [
                        51.39742915983472,
                        -67.09362075725274
                    ],
                    [
                        51.35676580674239,
                        -67.08571500058493
                    ],
                    [
                        51.31602476269496,
                        -67.07788406952272
                    ],
                    [
                        51.27615435694479,
                        -67.06941453364168
                    ],
                    [
                        51.2377610090822,
                        -67.05996839580364
                    ],
                    [
                        51.197835568595345,
                        -67.05171987000718
                    ],
                    [
                        51.154087026778676,
                        -67.04725657446046
                    ],
                    [
                        51.10878430378019,
                        -67.04648810392669
                    ],
                    [
                        51.06342648411854,
                        -67.0462620522543
                    ],
                    [
                        51.01807940333941,
                        -67.0459567443408
                    ],
                    [
                        50.97273339492645,
                        -67.04575702397582
                    ],
                    [
                        50.92740516902287,
                        -67.04520085892676
                    ],
                    [
                        50.88222574179401,
                        -67.04370159659797
                    ],
                    [
                        50.83739121161717,
                        -67.0410573455214
                    ],
                    [
                        50.79258477988981,
                        -67.03833643930585
                    ],
                    [
                        50.747579936400236,
                        -67.03622100947769
                    ],
                    [
                        50.70239632151706,
                        -67.03476404958069
                    ],
                    [
                        50.65717631888452,
                        -67.03357725875834
                    ],
                    [
                        50.611871522082815,
                        -67.03306368842591
                    ],
                    [
                        50.566681997774246,
                        -67.03428028604434
                    ],
                    [
                        50.52213388560124,
                        -67.03746288159796
                    ],
                    [
                        50.47691250761813,
                        -67.03873598476734
                    ],
                    [
                        50.43168601134059,
                        -67.03999515397888
                    ],
                    [
                        50.38645445226817,
                        -67.04124038669883
                    ],
                    [
                        50.34121788593808,
                        -67.04247168042096
                    ],
                    [
                        50.295976367924744,
                        -67.04368903266658
                    ],
                    [
                        50.25072995383953,
                        -67.04489244098455
                    ],
                    [
                        50.205478699330214,
                        -67.04608190295127
                    ],
                    [
                        50.16022266008067,
                        -67.0472574161708
                    ],
                    [
                        50.11496189181038,
                        -67.04841897827475
                    ],
                    [
                        50.069696450274144,
                        -67.04956658692242
                    ],
                    [
                        50.02442639126157,
                        -67.05070023980079
                    ],
                    [
                        49.97915177059671,
                        -67.05181993462445
                    ],
                    [
                        49.93387264413765,
                        -67.05292566913573
                    ],
                    [
                        49.88858906777613,
                        -67.05401744110472
                    ],
                    [
                        49.84330109743711,
                        -67.0550952483292
                    ],
                    [
                        49.79800878907833,
                        -67.05615908863473
                    ],
                    [
                        49.75271219868998,
                        -67.05720895987469
                    ],
                    [
                        49.707411382294225,
                        -67.05824485993023
                    ],
                    [
                        49.66210639594482,
                        -67.05926678671031
                    ],
                    [
                        49.616797295726705,
                        -67.06027473815179
                    ]
                ]
            }
        }
    ]
}
