{
    "type": "FeatureCollection",
    "features": [
        {
            "type": "Feature",
            "properties": {
                "name": "Greenland Glacier 0070",
                "object": "transect",
                "component": "landice",
                "author": "Matthew Hoffman, converted from Felikson et al. (2020) Zenodo dataset",
                "tags": "Greenland_Ice_Sheet;flowline;zenodo_4284759;glacier_0070",
                "citation": "Felikson, Denis, Catania, Ginny, Bartholomaus, Timothy, Morlighem, Mathieu, & No\u00ebl, Brice. (2020). Inland limits to diffusion of thinning along Greenland Ice Sheet outlet glaciers (v1.0) [Data set]. Zenodo. https://doi.org/10.5281/zenodo.4284759",
                "license": "CC-BY-4.0"
            },
            "geometry": {
                "type": "LineString",
                "coordinates": [
                    [
                        -65.37383057099895,
                        76.42061924390336
                    ],
                    [
                        -65.37617013011955,
                        76.41798634315602
                    ],
                    [
                        -65.37713023518309,
                        76.41547375307817
                    ],
                    [
                        -65.37962142780876,
                        76.41282747506907
                    ],
                    [
                        -65.38572511852416,
                        76.41015141715826
                    ],
                    [
                        -65.39241398472554,
                        76.40784683711074
                    ],
                    [
                        -65.39861929928637,
                        76.40523777854312
                    ],
                    [
                        -65.40487450647149,
                        76.4026616384398
                    ],
                    [
                        -65.41137000432913,
                        76.40023875676175
                    ],
                    [
                        -65.41782466183585,
                        76.39779137790401
                    ],
                    [
                        -65.42419452124456,
                        76.39529173615963
                    ],
                    [
                        -65.43036024288295,
                        76.39266445464409
                    ],
                    [
                        -65.43623092138935,
                        76.38985215640294
                    ],
                    [
                        -65.44215554624199,
                        76.38707535562145
                    ],
                    [
                        -65.44813739894714,
                        76.38433611177267
                    ],
                    [
                        -65.45388328086419,
                        76.38144924572408
                    ],
                    [
                        -65.45966246582967,
                        76.37858484288347
                    ],
                    [
                        -65.46549028905532,
                        76.3757525783815
                    ],
                    [
                        -65.47131151221751,
                        76.37291756682258
                    ],
                    [
                        -65.47698736664297,
                        76.36999220607379
                    ],
                    [
                        -65.48235122439061,
                        76.3670897034518
                    ],
                    [
                        -65.48802601164368,
                        76.36416649932151
                    ],
                    [
                        -65.49389027106591,
                        76.36136430809614
                    ],
                    [
                        -65.50041528205682,
                        76.35898047291958
                    ],
                    [
                        -65.50771640469893,
                        76.35708754701598
                    ],
                    [
                        -65.5157820108719,
                        76.35567782561782
                    ],
                    [
                        -65.52433569276619,
                        76.35457658959115
                    ],
                    [
                        -65.53316799144612,
                        76.35365150360317
                    ],
                    [
                        -65.54223269366172,
                        76.35287324618257
                    ],
                    [
                        -65.55146585996,
                        76.35220137383921
                    ],
                    [
                        -65.56073021680005,
                        76.35154935744428
                    ],
                    [
                        -65.5697911004598,
                        76.35076955691697
                    ],
                    [
                        -65.57844798412077,
                        76.34973604327008
                    ],
                    [
                        -65.58655874447595,
                        76.34835977109934
                    ],
                    [
                        -65.59381908907604,
                        76.34644985265642
                    ],
                    [
                        -65.5999487399101,
                        76.34383057123
                    ],
                    [
                        -65.60368056068391,
                        76.34106719950961
                    ],
                    [
                        -65.60368056068391,
                        76.34106719950961
                    ],
                    [
                        -65.60741085794464,
                        76.3383037857318
                    ],
                    [
                        -65.60925612273786,
                        76.33570772864446
                    ],
                    [
                        -65.61040074651716,
                        76.33317389122533
                    ],
                    [
                        -65.61152074678031,
                        76.33064221260649
                    ],
                    [
                        -65.61376937802109,
                        76.32801012583529
                    ],
                    [
                        -65.6190632442647,
                        76.32510699907417
                    ],
                    [
                        -65.6256249750534,
                        76.32276787366725
                    ],
                    [
                        -65.63230642729725,
                        76.32050523006022
                    ],
                    [
                        -65.63952344157882,
                        76.31858025210232
                    ],
                    [
                        -65.64640791372105,
                        76.31644750460063
                    ],
                    [
                        -65.65283164238073,
                        76.31402661590333
                    ],
                    [
                        -65.66061204064245,
                        76.31245872231463
                    ],
                    [
                        -65.66847423690348,
                        76.31094304613438
                    ],
                    [
                        -65.72135877919597,
                        76.29772480042293
                    ],
                    [
                        -65.77414040515053,
                        76.28449536256282
                    ],
                    [
                        -65.82681932557324,
                        76.2712547674831
                    ],
                    [
                        -65.87939575114515,
                        76.25800305000996
                    ],
                    [
                        -65.93186989241876,
                        76.24474024486692
                    ],
                    [
                        -65.9842419598145,
                        76.231466386675
                    ],
                    [
                        -66.03651216361716,
                        76.21818150995296
                    ],
                    [
                        -66.08868071397264,
                        76.20488564911757
                    ],
                    [
                        -66.1407478208844,
                        76.19157883848371
                    ],
                    [
                        -66.1927136942102,
                        76.1782611122647
                    ],
                    [
                        -66.24457854365872,
                        76.16493250457246
                    ],
                    [
                        -66.29634257878634,
                        76.1515930494177
                    ],
                    [
                        -66.34800600899383,
                        76.13824278071019
                    ],
                    [
                        -66.39956904352321,
                        76.124881732259
                    ],
                    [
                        -66.45103189145455,
                        76.11150993777264
                    ],
                    [
                        -66.50239476170283,
                        76.09812743085934
                    ],
                    [
                        -66.55365786301485,
                        76.08473424502724
                    ],
                    [
                        -66.60482140396618,
                        76.07133041368465
                    ],
                    [
                        -66.65588559295813,
                        76.05791597014023
                    ],
                    [
                        -66.70685063821472,
                        76.04449094760326
                    ]
                ]
            }
        }
    ]
}
