{
    "type": "FeatureCollection",
    "features": [
        {
            "type": "Feature",
            "properties": {
                "name": "Slessor",
                "object": "transect",
                "component": "landice",
                "author": "Matthew Hoffman, converted from https://github.com/yuwang115/sl-ice",
                "tags": "Antarctic_Ice_Sheet;flowline;sl-ice;slessor"
            },
            "geometry": {
                "type": "LineString",
                "coordinates": [
                    [
                        14.586757136160996,
                        -78.32184903705209
                    ],
                    [
                        14.505489860627577,
                        -78.32969441757156
                    ],
                    [
                        14.423569166850083,
                        -78.3372794813214
                    ],
                    [
                        14.341080899653422,
                        -78.34463521666358
                    ],
                    [
                        14.258454802768544,
                        -78.35195179109232
                    ],
                    [
                        14.175973174707783,
                        -78.35935762220514
                    ],
                    [
                        14.093417851338005,
                        -78.36675391117487
                    ],
                    [
                        14.010682457980453,
                        -78.37409996159413
                    ],
                    [
                        13.92797634696766,
                        -78.38147818264362
                    ],
                    [
                        13.845395617459657,
                        -78.38893733830618
                    ],
                    [
                        13.762647395617538,
                        -78.39634181327912
                    ],
                    [
                        13.679619377327672,
                        -78.40364826217677
                    ],
                    [
                        13.596359051208772,
                        -78.41085987000135
                    ],
                    [
                        13.512778522007824,
                        -78.41795641766753
                    ],
                    [
                        13.428927520738018,
                        -78.42494660979018
                    ],
                    [
                        13.344892362903934,
                        -78.43187024558766
                    ],
                    [
                        13.260901454371542,
                        -78.43883725067758
                    ],
                    [
                        13.17693706350088,
                        -78.44584942849578
                    ],
                    [
                        13.092805041621611,
                        -78.4527969975853
                    ],
                    [
                        13.008303100597688,
                        -78.45959289814377
                    ],
                    [
                        12.92347737124864,
                        -78.46625447897102
                    ],
                    [
                        12.838437141640451,
                        -78.47282616162211
                    ],
                    [
                        12.753301463191947,
                        -78.47937443653234
                    ],
                    [
                        12.668092880567427,
                        -78.48590666520728
                    ],
                    [
                        12.58263810036603,
                        -78.49233061765362
                    ],
                    [
                        12.49677161174134,
                        -78.4985713533304
                    ],
                    [
                        12.410606374516828,
                        -78.50466852783187
                    ],
                    [
                        12.324255503295046,
                        -78.51068427589674
                    ],
                    [
                        12.23782465716673,
                        -78.51667552371491
                    ],
                    [
                        12.151339479452295,
                        -78.52267005561536
                    ],
                    [
                        12.064675345210418,
                        -78.52858273090992
                    ],
                    [
                        11.977904867844602,
                        -78.53446260532039
                    ],
                    [
                        11.891171140084191,
                        -78.54039121605075
                    ],
                    [
                        11.804448496610732,
                        -78.54634543841195
                    ],
                    [
                        11.717596759433299,
                        -78.55225472414249
                    ],
                    [
                        11.630465316149682,
                        -78.558027450546
                    ],
                    [
                        11.54308307034005,
                        -78.5636753584667
                    ],
                    [
                        11.45545330162296,
                        -78.56920379883645
                    ],
                    [
                        11.367531941993835,
                        -78.57456235455636
                    ],
                    [
                        11.279437622823167,
                        -78.57984198579791
                    ],
                    [
                        11.191397838928253,
                        -78.58518426075712
                    ],
                    [
                        11.103371791314428,
                        -78.59055920376329
                    ],
                    [
                        11.015266849406151,
                        -78.5959118840458
                    ],
                    [
                        10.927083213916404,
                        -78.60124226704562
                    ],
                    [
                        10.838907659398878,
                        -78.60660087964611
                    ],
                    [
                        10.75078111857141,
                        -78.61202146278399
                    ],
                    [
                        10.662924045108522,
                        -78.61762850788823
                    ],
                    [
                        10.57567776854326,
                        -78.62362845103011
                    ],
                    [
                        10.48876544513077,
                        -78.62983605908171
                    ],
                    [
                        10.401302947964808,
                        -78.63576164035597
                    ],
                    [
                        10.312832776372415,
                        -78.64110718569246
                    ],
                    [
                        10.223728410312507,
                        -78.64605073620933
                    ],
                    [
                        10.134420675050546,
                        -78.6508806648661
                    ],
                    [
                        10.045534084716776,
                        -78.65602142605601
                    ],
                    [
                        9.957323064036798,
                        -78.66162919394915
                    ],
                    [
                        9.870206302557344,
                        -78.66788060689446
                    ],
                    [
                        9.783953561763074,
                        -78.67461010969087
                    ],
                    [
                        9.698403778992613,
                        -78.68169873246858
                    ],
                    [
                        9.613475122592307,
                        -78.68909877255052
                    ],
                    [
                        9.52886328427152,
                        -78.69666624577974
                    ],
                    [
                        9.444453330388534,
                        -78.70433671810117
                    ],
                    [
                        9.36015156667761,
                        -78.71208010507458
                    ],
                    [
                        9.275576842514347,
                        -78.719730366253
                    ],
                    [
                        9.190298780381843,
                        -78.72710237549823
                    ],
                    [
                        9.103885087345148,
                        -78.73397375762072
                    ],
                    [
                        9.016608116663132,
                        -78.74044618289112
                    ],
                    [
                        8.928500375508156,
                        -78.746496923624
                    ],
                    [
                        8.839781887436096,
                        -78.75223050881175
                    ],
                    [
                        8.750939123518531,
                        -78.7579069527298
                    ],
                    [
                        8.662047917057626,
                        -78.76359775259718
                    ],
                    [
                        8.573013831269446,
                        -78.76922450625648
                    ],
                    [
                        8.48378717323008,
                        -78.77475171867306
                    ],
                    [
                        8.394188661546535,
                        -78.78008398035716
                    ],
                    [
                        8.304081180943847,
                        -78.78510242143372
                    ],
                    [
                        8.213621412835503,
                        -78.78990651432242
                    ],
                    [
                        8.122801308242996,
                        -78.79447881432654
                    ],
                    [
                        8.03145409345192,
                        -78.79865426873774
                    ],
                    [
                        7.939616289613357,
                        -78.80245100495982
                    ],
                    [
                        7.847301715762732,
                        -78.80579572661067
                    ],
                    [
                        7.754351334307123,
                        -78.80841914118449
                    ],
                    [
                        7.660893884698648,
                        -78.81024874700915
                    ],
                    [
                        7.567027019563037,
                        -78.81107966923999
                    ],
                    [
                        7.473108243749636,
                        -78.81062529156821
                    ],
                    [
                        7.379368424429363,
                        -78.80938911518486
                    ],
                    [
                        7.285776670149901,
                        -78.8077982396497
                    ],
                    [
                        7.1921952789873655,
                        -78.80621762839439
                    ],
                    [
                        7.098542939750749,
                        -78.80482384270672
                    ],
                    [
                        7.004787452578944,
                        -78.80376813629067
                    ],
                    [
                        6.910911287680063,
                        -78.8033243543871
                    ],
                    [
                        6.817023637517011,
                        -78.8035032458188
                    ],
                    [
                        6.723272237694412,
                        -78.80451224761507
                    ],
                    [
                        6.629906869946264,
                        -78.80648033664848
                    ],
                    [
                        6.536926953181793,
                        -78.80907140430865
                    ],
                    [
                        6.44425861887957,
                        -78.81210447731058
                    ],
                    [
                        6.35190110954433,
                        -78.8154906442533
                    ],
                    [
                        6.259698375533333,
                        -78.81906179549073
                    ],
                    [
                        6.167504580108073,
                        -78.82267521226049
                    ],
                    [
                        6.0750017094197775,
                        -78.82599537192132
                    ],
                    [
                        5.982165370202625,
                        -78.82899054779429
                    ],
                    [
                        5.889152841643868,
                        -78.8317903991698
                    ],
                    [
                        5.79601471080984,
                        -78.83447362782569
                    ],
                    [
                        5.702849112277033,
                        -78.83713360901588
                    ],
                    [
                        5.6095948324946034,
                        -78.83973301909313
                    ],
                    [
                        5.516275956284843,
                        -78.84225120959563
                    ],
                    [
                        5.42294837418323,
                        -78.84478883394024
                    ],
                    [
                        5.329715445972457,
                        -78.8474832542134
                    ],
                    [
                        5.236650622936418,
                        -78.85041837983051
                    ],
                    [
                        5.143554587590863,
                        -78.85334226946587
                    ],
                    [
                        5.050146241973682,
                        -78.85589897732119
                    ],
                    [
                        4.956321302303757,
                        -78.85782555603993
                    ],
                    [
                        4.862256656278953,
                        -78.85928373442535
                    ],
                    [
                        4.768032137338031,
                        -78.86038751446407
                    ],
                    [
                        4.673740927800145,
                        -78.86121320327274
                    ],
                    [
                        4.579424602661488,
                        -78.8619816297064
                    ],
                    [
                        4.485130143288589,
                        -78.86289883781313
                    ],
                    [
                        4.390957628036215,
                        -78.86417918651398
                    ],
                    [
                        4.296917822351552,
                        -78.8658261647157
                    ],
                    [
                        4.203060607441362,
                        -78.86785918626164
                    ],
                    [
                        4.1094851856005095,
                        -78.87034276264124
                    ],
                    [
                        4.016164413677355,
                        -78.87319510492003
                    ],
                    [
                        3.923143355573452,
                        -78.87642306974162
                    ],
                    [
                        3.830551993655637,
                        -78.88011474765608
                    ],
                    [
                        3.738340614902762,
                        -78.8841577157232
                    ],
                    [
                        3.6464290002000808,
                        -78.88847921309765
                    ],
                    [
                        3.5548374490982817,
                        -78.8930901952416
                    ],
                    [
                        3.4634873431751076,
                        -78.89788400658449
                    ],
                    [
                        3.37228684361301,
                        -78.9028235248095
                    ],
                    [
                        3.281258254121071,
                        -78.90790041806997
                    ],
                    [
                        3.190298156866594,
                        -78.91304835510054
                    ],
                    [
                        3.0993753281231657,
                        -78.91824764762899
                    ],
                    [
                        3.0085032801189766,
                        -78.92351831323548
                    ],
                    [
                        2.917698093031928,
                        -78.92885660951326
                    ],
                    [
                        2.8270342389625376,
                        -78.93430027255415
                    ],
                    [
                        2.7366584202367306,
                        -78.93995220889381
                    ],
                    [
                        2.646521915418049,
                        -78.94576928328534
                    ],
                    [
                        2.5565257731601028,
                        -78.95169139517827
                    ],
                    [
                        2.466618658982413,
                        -78.95769264151716
                    ],
                    [
                        2.37669845181019,
                        -78.96370729633944
                    ],
                    [
                        2.286798862133853,
                        -78.96976251829439
                    ],
                    [
                        2.196854203279976,
                        -78.97582232926356
                    ],
                    [
                        2.1067025888500583,
                        -78.98179202095444
                    ],
                    [
                        2.0163703158667294,
                        -78.98770140556046
                    ],
                    [
                        1.9262351868078909,
                        -78.99373596994262
                    ],
                    [
                        1.8362419937308456,
                        -78.99986978963277
                    ],
                    [
                        1.7462233835811725,
                        -79.0060291588361
                    ],
                    [
                        1.656278548731625,
                        -79.01224275360015
                    ],
                    [
                        1.5664090633705579,
                        -79.01853166155523
                    ],
                    [
                        1.4767033768002162,
                        -79.02492658227504
                    ],
                    [
                        1.3873033328209534,
                        -79.03150735136829
                    ],
                    [
                        1.2981918402922341,
                        -79.03824697249286
                    ],
                    [
                        1.209371433234114,
                        -79.04515759243337
                    ],
                    [
                        1.1209820261778374,
                        -79.05228278799413
                    ],
                    [
                        1.0327932582290027,
                        -79.05952339390385
                    ],
                    [
                        0.9443680786000955,
                        -79.06669576787348
                    ],
                    [
                        0.8555564445163755,
                        -79.07371532053699
                    ],
                    [
                        0.7667942801627913,
                        -79.08078231057829
                    ],
                    [
                        0.6781493565474135,
                        -79.08792222703714
                    ],
                    [
                        0.5897344206972314,
                        -79.09520161070061
                    ],
                    [
                        0.5015597285734471,
                        -79.10259788550263
                    ],
                    [
                        0.4134663553730065,
                        -79.11006317108935
                    ],
                    [
                        0.32512430393486025,
                        -79.11744648078104
                    ],
                    [
                        0.23663244438266623,
                        -79.12478771878564
                    ],
                    [
                        0.14791349854817112,
                        -79.13205855741059
                    ],
                    [
                        0.05848321580307939,
                        -79.13904177812675
                    ],
                    [
                        -0.03163343921216201,
                        -79.14572767419013
                    ],
                    [
                        -0.12210269342417028,
                        -79.15227457997757
                    ],
                    [
                        -0.21277766776432416,
                        -79.15874620156457
                    ],
                    [
                        -0.3036808320737411,
                        -79.16512504075651
                    ],
                    [
                        -0.39481076835451684,
                        -79.17141915164093
                    ],
                    [
                        -0.4861897880450923,
                        -79.17761830076128
                    ],
                    [
                        -0.5778012523369347,
                        -79.18371686226996
                    ],
                    [
                        -0.6695447133242508,
                        -79.18977329305089
                    ],
                    [
                        -0.7613915778213126,
                        -79.19580492909814
                    ],
                    [
                        -0.853345544187257,
                        -79.20179984768089
                    ],
                    [
                        -0.9455514762378466,
                        -79.20769366097238
                    ],
                    [
                        -1.0379786136970028,
                        -79.21349084612106
                    ],
                    [
                        -1.1305647374331893,
                        -79.21922067665442
                    ],
                    [
                        -1.2232964591187243,
                        -79.22490500719306
                    ],
                    [
                        -1.316080039006709,
                        -79.23058157451895
                    ],
                    [
                        -1.408916801046141,
                        -79.23625949905916
                    ],
                    [
                        -1.50181971677662,
                        -79.24192410873536
                    ],
                    [
                        -1.5947259271730292,
                        -79.24761314576077
                    ],
                    [
                        -1.6876545852894598,
                        -79.25331833475344
                    ],
                    [
                        -1.7806836464184188,
                        -79.25900364318892
                    ],
                    [
                        -1.8737426024947412,
                        -79.2646868026964
                    ],
                    [
                        -1.9669330542822168,
                        -79.27033248187276
                    ],
                    [
                        -2.060107216258959,
                        -79.27601647676583
                    ],
                    [
                        -2.153195612246051,
                        -79.28177770090049
                    ],
                    [
                        -2.246144206381648,
                        -79.28762947553518
                    ],
                    [
                        -2.339167194588135,
                        -79.29348450420098
                    ],
                    [
                        -2.4329440840748346,
                        -79.29893546552766
                    ],
                    [
                        -2.5275310902347927,
                        -79.30390534572025
                    ],
                    [
                        -2.622551112875584,
                        -79.30860759620722
                    ],
                    [
                        -2.717732935302136,
                        -79.31323880964595
                    ],
                    [
                        -2.812962984736083,
                        -79.31785929308984
                    ],
                    [
                        -2.9081836811265136,
                        -79.32251070758704
                    ],
                    [
                        -3.00357049228447,
                        -79.32707715832483
                    ],
                    [
                        -3.0991878294954986,
                        -79.3315149035148
                    ],
                    [
                        -3.194884076332864,
                        -79.33590391877483
                    ],
                    [
                        -3.290837095099919,
                        -79.3401517541616
                    ],
                    [
                        -3.3868904711341448,
                        -79.34433577230828
                    ],
                    [
                        -3.4830929926644174,
                        -79.3484279170512
                    ],
                    [
                        -3.5795808941811806,
                        -79.35232497020827
                    ],
                    [
                        -3.67624196395972,
                        -79.35610205898413
                    ],
                    [
                        -3.773117644434225,
                        -79.35970271381404
                    ],
                    [
                        -3.8698786921330592,
                        -79.3634437033521
                    ],
                    [
                        -3.966396254259218,
                        -79.36742019468147
                    ],
                    [
                        -4.062971301551252,
                        -79.37139249894521
                    ],
                    [
                        -4.15946681902112,
                        -79.37545304175329
                    ],
                    [
                        -4.255947672661871,
                        -79.37954707412668
                    ],
                    [
                        -4.352406933987878,
                        -79.38370313701388
                    ],
                    [
                        -4.448614307350822,
                        -79.38807751420362
                    ],
                    [
                        -4.544534389936894,
                        -79.39267840866906
                    ],
                    [
                        -4.640184752278364,
                        -79.39750961849141
                    ],
                    [
                        -4.735522957953352,
                        -79.40256301616449
                    ],
                    [
                        -4.8306362428780165,
                        -79.40779919252753
                    ],
                    [
                        -4.925502442580431,
                        -79.41320325153119
                    ],
                    [
                        -5.020075968464784,
                        -79.41880651242555
                    ],
                    [
                        -5.114500840874972,
                        -79.42452543936393
                    ],
                    [
                        -5.208896769423555,
                        -79.43029318320421
                    ],
                    [
                        -5.302998854076414,
                        -79.43623537038346
                    ],
                    [
                        -5.396968130751282,
                        -79.44228725355397
                    ],
                    [
                        -5.4908480284576235,
                        -79.44841160660253
                    ],
                    [
                        -5.584295158378184,
                        -79.45477801490603
                    ],
                    [
                        -5.677329398167903,
                        -79.46137565899753
                    ],
                    [
                        -5.769820488333684,
                        -79.46824968227479
                    ],
                    [
                        -5.861452017184159,
                        -79.47552323394216
                    ],
                    [
                        -5.952182985762443,
                        -79.48318890483392
                    ],
                    [
                        -6.041728217202689,
                        -79.49133124862932
                    ],
                    [
                        -6.129420918486055,
                        -79.50014548506194
                    ],
                    [
                        -6.215241634846566,
                        -79.50957143259974
                    ],
                    [
                        -6.298856865074954,
                        -79.51965159900286
                    ],
                    [
                        -6.3800426430966395,
                        -79.53039441601511
                    ],
                    [
                        -6.459931880602447,
                        -79.5414791878132
                    ],
                    [
                        -6.538990667968304,
                        -79.55277238508454
                    ],
                    [
                        -6.616520828109516,
                        -79.56443281753022
                    ],
                    [
                        -6.691998995271648,
                        -79.57654274352612
                    ],
                    [
                        -6.765908945109679,
                        -79.58898398418951
                    ],
                    [
                        -6.84235843191012,
                        -79.60093030901821
                    ],
                    [
                        -6.923766124088537,
                        -79.6117483391756
                    ],
                    [
                        -7.010618363713901,
                        -79.62113804996388
                    ],
                    [
                        -7.100430226254558,
                        -79.6296039218484
                    ],
                    [
                        -7.192929755393197,
                        -79.63709313378745
                    ],
                    [
                        -7.28842855901737,
                        -79.64327813628779
                    ],
                    [
                        -7.386533196149873,
                        -79.64801554130011
                    ],
                    [
                        -7.485842148463914,
                        -79.65188410963626
                    ],
                    [
                        -7.585635686070727,
                        -79.65537568499781
                    ],
                    [
                        -7.685349948826451,
                        -79.65896859948369
                    ],
                    [
                        -7.785154872378748,
                        -79.66251784953936
                    ],
                    [
                        -7.885189238639698,
                        -79.66587148324403
                    ],
                    [
                        -7.984885790061861,
                        -79.66957276842943
                    ],
                    [
                        -8.083959207452475,
                        -79.67379468373743
                    ],
                    [
                        -8.182395119843015,
                        -79.67850815053102
                    ],
                    [
                        -8.280221188723464,
                        -79.6836423773589
                    ],
                    [
                        -8.376567694542173,
                        -79.68960612643893
                    ],
                    [
                        -8.47106997166003,
                        -79.69650156150175
                    ],
                    [
                        -8.567015483366385,
                        -79.70274262199585
                    ],
                    [
                        -8.665741435616264,
                        -79.7073683345767
                    ],
                    [
                        -8.766677794859335,
                        -79.71020864725554
                    ],
                    [
                        -8.868604628926077,
                        -79.71164071181813
                    ],
                    [
                        -8.970541585579383,
                        -79.71306677645009
                    ],
                    [
                        -9.072694320249749,
                        -79.71372631811506
                    ],
                    [
                        -9.174497222247966,
                        -79.71215372789999
                    ],
                    [
                        -9.275637689994511,
                        -79.70947347265343
                    ],
                    [
                        -9.377553921667664,
                        -79.70839837573928
                    ],
                    [
                        -9.479179525348524,
                        -79.71030809401996
                    ],
                    [
                        -9.580738988882176,
                        -79.71237211297642
                    ],
                    [
                        -9.682854548648399,
                        -79.71323852122849
                    ],
                    [
                        -9.785090015225556,
                        -79.7130183167826
                    ],
                    [
                        -9.88716620288189,
                        -79.71195826223651
                    ],
                    [
                        -9.989102167973028,
                        -79.71055046988083
                    ],
                    [
                        -10.090815032051669,
                        -79.70871668263244
                    ],
                    [
                        -10.19225237147311,
                        -79.7064945837367
                    ],
                    [
                        -10.293560991386403,
                        -79.70411134586362
                    ],
                    [
                        -10.394941487723855,
                        -79.70186303600067
                    ],
                    [
                        -10.496420841300555,
                        -79.6997915332202
                    ],
                    [
                        -10.598118188684863,
                        -79.69814934617233
                    ],
                    [
                        -10.700166126622031,
                        -79.69755118128975
                    ],
                    [
                        -10.802175604394524,
                        -79.69694464609127
                    ],
                    [
                        -10.9036513805308,
                        -79.69501038908201
                    ],
                    [
                        -11.004434079010272,
                        -79.6921354969859
                    ],
                    [
                        -11.105505237737036,
                        -79.68962440289593
                    ],
                    [
                        -11.206373446797489,
                        -79.68689599945586
                    ],
                    [
                        -11.306917821469504,
                        -79.6838335067144
                    ],
                    [
                        -11.407220269443174,
                        -79.68055968549223
                    ],
                    [
                        -11.50725490057711,
                        -79.67706149841861
                    ],
                    [
                        -11.60700835166412,
                        -79.67335995343531
                    ],
                    [
                        -11.706244593046739,
                        -79.66924656475604
                    ],
                    [
                        -11.805173053448092,
                        -79.66494675538087
                    ],
                    [
                        -11.904559616079384,
                        -79.6610195726809
                    ],
                    [
                        -12.003608244546447,
                        -79.65686235855341
                    ],
                    [
                        -12.102232733483536,
                        -79.65241685004285
                    ],
                    [
                        -12.200080061612015,
                        -79.64747822041251
                    ],
                    [
                        -12.297548615915556,
                        -79.64233479446159
                    ],
                    [
                        -12.39536570552645,
                        -79.63744597219845
                    ],
                    [
                        -12.493705235126946,
                        -79.6329300556908
                    ],
                    [
                        -12.591717018121924,
                        -79.62821855910244
                    ],
                    [
                        -12.68960960148019,
                        -79.6234575347864
                    ],
                    [
                        -12.788479786872273,
                        -79.6194486145892
                    ],
                    [
                        -12.887119024961008,
                        -79.6152795187175
                    ],
                    [
                        -12.985957101080722,
                        -79.61129785095073
                    ],
                    [
                        -13.085211391298698,
                        -79.60770823669598
                    ],
                    [
                        -13.184893767231333,
                        -79.60459086500734
                    ],
                    [
                        -13.285404321254616,
                        -79.6025189553833
                    ],
                    [
                        -13.386235631835914,
                        -79.60106800115766
                    ],
                    [
                        -13.487170686033542,
                        -79.59986474852518
                    ],
                    [
                        -13.588189592148066,
                        -79.59903240100458
                    ],
                    [
                        -13.689212087275633,
                        -79.59815197454796
                    ],
                    [
                        -13.790190654716385,
                        -79.59721611398044
                    ],
                    [
                        -13.891221302913943,
                        -79.59654313667616
                    ],
                    [
                        -13.992329410152228,
                        -79.5963721610075
                    ],
                    [
                        -14.093438678227747,
                        -79.59637491650668
                    ],
                    [
                        -14.19454284188033,
                        -79.59634943317707
                    ],
                    [
                        -14.295638891826917,
                        -79.59629394625479
                    ],
                    [
                        -14.39673516096003,
                        -79.5961118947822
                    ],
                    [
                        -14.49782775128921,
                        -79.59579198450294
                    ],
                    [
                        -14.598924236473007,
                        -79.59572243517862
                    ],
                    [
                        -14.700000092317863,
                        -79.59608978760949
                    ],
                    [
                        -14.800957186746919,
                        -79.59706464555049
                    ],
                    [
                        -14.901591509284952,
                        -79.59885149838011
                    ],
                    [
                        -15.00181957905753,
                        -79.60128664388964
                    ],
                    [
                        -15.101631579925158,
                        -79.604270687109
                    ],
                    [
                        -15.200851767373635,
                        -79.60785791279747
                    ],
                    [
                        -15.299624707800309,
                        -79.61185612440757
                    ],
                    [
                        -15.39808246823311,
                        -79.61614519178025
                    ],
                    [
                        -15.496182600986813,
                        -79.62070618497422
                    ],
                    [
                        -15.593791420291746,
                        -79.625638538102
                    ],
                    [
                        -15.691785375720556,
                        -79.63033647618178
                    ],
                    [
                        -15.791413187838394,
                        -79.6337726276582
                    ],
                    [
                        -15.891973875481419,
                        -79.63619799465864
                    ],
                    [
                        -15.99290098662513,
                        -79.63815241153875
                    ],
                    [
                        -16.093718761070768,
                        -79.64030582891606
                    ],
                    [
                        -16.19432794342496,
                        -79.64277322436101
                    ],
                    [
                        -16.29493589290295,
                        -79.64528278064408
                    ],
                    [
                        -16.395461071030734,
                        -79.64794552635355
                    ],
                    [
                        -16.495716052877697,
                        -79.65092797884238
                    ],
                    [
                        -16.595684253548228,
                        -79.65424991703577
                    ],
                    [
                        -16.695457483056988,
                        -79.65777947899024
                    ],
                    [
                        -16.79584495287721,
                        -79.66068927769194
                    ],
                    [
                        -16.897206035145448,
                        -79.66219279584517
                    ],
                    [
                        -16.998940844590734,
                        -79.66260436982324
                    ],
                    [
                        -17.10061308337384,
                        -79.66330269984368
                    ],
                    [
                        -17.202073951597143,
                        -79.66470288836287
                    ],
                    [
                        -17.30325615987397,
                        -79.66667138954965
                    ],
                    [
                        -17.40417025435876,
                        -79.66907964626884
                    ],
                    [
                        -17.50491064593914,
                        -79.67177682903825
                    ],
                    [
                        -17.605630853126385,
                        -79.67448566454097
                    ],
                    [
                        -17.706820560723724,
                        -79.67660399344122
                    ],
                    [
                        -17.808221970439533,
                        -79.67840903555003
                    ],
                    [
                        -17.90970591239223,
                        -79.68011007711347
                    ],
                    [
                        -18.010959745241163,
                        -79.68222445251372
                    ],
                    [
                        -18.111973104646527,
                        -79.68470761250904
                    ],
                    [
                        -18.212996885742808,
                        -79.68720822679195
                    ],
                    [
                        -18.31419722770303,
                        -79.68952508450815
                    ],
                    [
                        -18.415443025796428,
                        -79.69178683301196
                    ],
                    [
                        -18.51675712045301,
                        -79.69398333653704
                    ],
                    [
                        -18.61833858056241,
                        -79.69578059090772
                    ],
                    [
                        -18.72006856253271,
                        -79.69732083292452
                    ],
                    [
                        -18.821623733576335,
                        -79.69921368659348
                    ],
                    [
                        -18.92284043301322,
                        -79.70166407336706
                    ],
                    [
                        -19.023694985367122,
                        -79.70456179469569
                    ],
                    [
                        -19.124100465083078,
                        -79.70795595579746
                    ],
                    [
                        -19.22400030346701,
                        -79.71182725652949
                    ],
                    [
                        -19.323480482208154,
                        -79.71605845055363
                    ],
                    [
                        -19.422387383522228,
                        -79.72072903892668
                    ],
                    [
                        -19.520556542537495,
                        -79.72589825476788
                    ],
                    [
                        -19.617820792199947,
                        -79.73161515445645
                    ],
                    [
                        -19.71431317176989,
                        -79.737766325321
                    ],
                    [
                        -19.811073620792214,
                        -79.74381279793138
                    ],
                    [
                        -19.908309485387015,
                        -79.7496320782735
                    ],
                    [
                        -20.00579413802586,
                        -79.75535863428293
                    ],
                    [
                        -20.103722481903514,
                        -79.76086471159654
                    ],
                    [
                        -20.20294038861007,
                        -79.76561157376806
                    ],
                    [
                        -20.304099364919193,
                        -79.76881769002931
                    ],
                    [
                        -20.406239814517697,
                        -79.77091891034972
                    ],
                    [
                        -20.508224515490383,
                        -79.77327980094786
                    ],
                    [
                        -20.608932157633244,
                        -79.77699173624472
                    ],
                    [
                        -20.708322749639677,
                        -79.78172438125192
                    ],
                    [
                        -20.806449379740496,
                        -79.78725652068405
                    ],
                    [
                        -20.902541635213268,
                        -79.79384144025767
                    ],
                    [
                        -20.996401711504326,
                        -79.8013954884701
                    ],
                    [
                        -21.087954920381176,
                        -79.80981276637024
                    ],
                    [
                        -21.17770805667215,
                        -79.8188531884006
                    ],
                    [
                        -21.268450844926647,
                        -79.82759811544939
                    ],
                    [
                        -21.36040616181858,
                        -79.83597414391264
                    ],
                    [
                        -21.453227540578407,
                        -79.84406762906096
                    ],
                    [
                        -21.545861315402515,
                        -79.85225821112546
                    ],
                    [
                        -21.638054332353928,
                        -79.86062588327661
                    ],
                    [
                        -21.729543882356424,
                        -79.86925567607348
                    ],
                    [
                        -21.819860987981574,
                        -79.87827906884183
                    ],
                    [
                        -21.908592358482228,
                        -79.88780463296293
                    ],
                    [
                        -21.99604249112482,
                        -79.89771330050672
                    ],
                    [
                        -22.082734041490976,
                        -79.9078452611001
                    ],
                    [
                        -22.16886629382156,
                        -79.91814482473572
                    ],
                    [
                        -22.260213863764054,
                        -79.92693581181662
                    ],
                    [
                        -22.35838972622888,
                        -79.93306661529037
                    ],
                    [
                        -22.461133568699644,
                        -79.93626560813841
                    ],
                    [
                        -22.565459575704434,
                        -79.93741091516155
                    ],
                    [
                        -22.669857477973675,
                        -79.93846503510609
                    ],
                    [
                        -22.774088852939656,
                        -79.93990793013128
                    ],
                    [
                        -22.877996751811366,
                        -79.94198924168535
                    ],
                    [
                        -22.981675550656316,
                        -79.94441700148224
                    ],
                    [
                        -23.085306487353662,
                        -79.94695830664286
                    ],
                    [
                        -23.188893435562306,
                        -79.94957148092968
                    ],
                    [
                        -23.292421297208783,
                        -79.9522817879624
                    ],
                    [
                        -23.39592323904407,
                        -79.95506913832799
                    ],
                    [
                        -23.49943768149027,
                        -79.95786313259207
                    ],
                    [
                        -23.60296094132725,
                        -79.9606780671243
                    ],
                    [
                        -23.706427445141493,
                        -79.96359888041235
                    ],
                    [
                        -23.80969494575038,
                        -79.96676269070237
                    ],
                    [
                        -23.912629562820992,
                        -79.97026060289538
                    ],
                    [
                        -24.01512470379711,
                        -79.97414604348415
                    ],
                    [
                        -24.116948388970012,
                        -79.97857959558537
                    ],
                    [
                        -24.2185946955772,
                        -79.98316989768097
                    ],
                    [
                        -24.320358095269565,
                        -79.98770691070678
                    ],
                    [
                        -24.42236853332993,
                        -79.99211700505266
                    ],
                    [
                        -24.524556286172174,
                        -79.9964142996211
                    ],
                    [
                        -24.627010876517975,
                        -80.00055914745761
                    ],
                    [
                        -24.7298862755224,
                        -80.00439686970437
                    ],
                    [
                        -24.833102121096108,
                        -80.00800031500795
                    ],
                    [
                        -24.936505383652356,
                        -80.01145758815751
                    ],
                    [
                        -25.040165122996964,
                        -80.01472228626868
                    ],
                    [
                        -25.144115626037163,
                        -80.01771425857457
                    ],
                    [
                        -25.248414808718277,
                        -80.02036322322994
                    ],
                    [
                        -25.353108303024783,
                        -80.02252072263096
                    ],
                    [
                        -25.458121542980646,
                        -80.0241710851192
                    ],
                    [
                        -25.56340603380135,
                        -80.02526611165985
                    ],
                    [
                        -25.66885313296792,
                        -80.02569456422276
                    ],
                    [
                        -25.77433365781612,
                        -80.02566118499159
                    ],
                    [
                        -25.879789969443088,
                        -80.02528027888118
                    ],
                    [
                        -25.98514697380179,
                        -80.02448310748201
                    ],
                    [
                        -26.090373151697754,
                        -80.02326524356677
                    ],
                    [
                        -26.195407697121546,
                        -80.02164514255784
                    ],
                    [
                        -26.30029754112301,
                        -80.01978810723209
                    ],
                    [
                        -26.40512913387606,
                        -80.01788717145753
                    ],
                    [
                        -26.509934293495697,
                        -80.01597220629051
                    ],
                    [
                        -26.61471761073679,
                        -80.01403463636817
                    ],
                    [
                        -26.719450253113166,
                        -80.0120605840666
                    ],
                    [
                        -26.824121463963216,
                        -80.01002843006333
                    ],
                    [
                        -26.928726888454598,
                        -80.00792309821347
                    ],
                    [
                        -27.03326365878758,
                        -80.00577446185937
                    ],
                    [
                        -27.137835380650888,
                        -80.00368208765806
                    ],
                    [
                        -27.242417938811098,
                        -80.00164107024936
                    ],
                    [
                        -27.34701119796519,
                        -79.99965465159497
                    ],
                    [
                        -27.451637831571976,
                        -79.99776933043339
                    ],
                    [
                        -27.55633014884188,
                        -79.99601439038847
                    ],
                    [
                        -27.661097073270888,
                        -79.99443060024277
                    ],
                    [
                        -27.7659242647925,
                        -79.99304655002376
                    ],
                    [
                        -27.870912426032085,
                        -79.99204161911098
                    ],
                    [
                        -27.97596072084222,
                        -79.99138056200164
                    ],
                    [
                        -28.08105070856063,
                        -79.99108469891057
                    ],
                    [
                        -28.186159276540337,
                        -79.9912277293093
                    ],
                    [
                        -28.291245579697353,
                        -79.99172244024696
                    ],
                    [
                        -28.39623637862621,
                        -79.9926069339493
                    ],
                    [
                        -28.501057946376264,
                        -79.99402980932703
                    ],
                    [
                        -28.60565123324707,
                        -79.99590585021927
                    ],
                    [
                        -28.709951237465607,
                        -79.99825952204766
                    ],
                    [
                        -28.81379589857795,
                        -80.00117166215878
                    ],
                    [
                        -28.917175795617034,
                        -80.00458893890284
                    ],
                    [
                        -29.02000788209171,
                        -80.00850355930254
                    ],
                    [
                        -29.122085290155415,
                        -80.01299714301548
                    ],
                    [
                        -29.223463653469473,
                        -80.01798504413405
                    ],
                    [
                        -29.32414180901122,
                        -80.02340345159155
                    ],
                    [
                        -29.4240212684263,
                        -80.02927856547568
                    ],
                    [
                        -29.523381694582113,
                        -80.0354442969525
                    ],
                    [
                        -29.622351292970286,
                        -80.04183049861562
                    ],
                    [
                        -29.72091331679901,
                        -80.04841774651948
                    ],
                    [
                        -29.81934084621822,
                        -80.05510519888584
                    ],
                    [
                        -29.917725931150812,
                        -80.06184096885995
                    ],
                    [
                        -30.016190191928487,
                        -80.06856782104293
                    ],
                    [
                        -30.114928029464828,
                        -80.0752050568863
                    ],
                    [
                        -30.214047007334123,
                        -80.08170133150632
                    ],
                    [
                        -30.313644497976664,
                        -80.08800812958113
                    ],
                    [
                        -30.413699542655127,
                        -80.09412567502952
                    ],
                    [
                        -30.514224444312784,
                        -80.10004234736245
                    ],
                    [
                        -30.615249693071892,
                        -80.105733988924
                    ],
                    [
                        -30.716721808546662,
                        -80.111211443101
                    ],
                    [
                        -30.81862880489588,
                        -80.11647607200649
                    ],
                    [
                        -30.921036483122673,
                        -80.12148929470871
                    ],
                    [
                        -31.02386683507083,
                        -80.12625697767011
                    ],
                    [
                        -31.127124200282434,
                        -80.13078723206193
                    ],
                    [
                        -31.230804193046943,
                        -80.13505917206598
                    ],
                    [
                        -31.334835731194463,
                        -80.13910370410967
                    ],
                    [
                        -31.439234087732704,
                        -80.14289684227133
                    ],
                    [
                        -31.544014301577114,
                        -80.14639733453615
                    ],
                    [
                        -31.64910564232252,
                        -80.14964683251574
                    ],
                    [
                        -31.75449529192957,
                        -80.15263490061815
                    ],
                    [
                        -31.860250927046742,
                        -80.1552747193894
                    ],
                    [
                        -31.966212548848517,
                        -80.15765623503482
                    ],
                    [
                        -32.07241921884059,
                        -80.1597645440644
                    ],
                    [
                        -32.17884120773393,
                        -80.16154558788948
                    ],
                    [
                        -32.285430305765715,
                        -80.16305733669505
                    ],
                    [
                        -32.39214246528978,
                        -80.16430027142185
                    ],
                    [
                        -32.49898682001291,
                        -80.16522795853359
                    ],
                    [
                        -32.6059112343523,
                        -80.16587310444599
                    ],
                    [
                        -32.712890146182545,
                        -80.16622444015086
                    ],
                    [
                        -32.81986822840403,
                        -80.16623262408278
                    ],
                    [
                        -32.926858799671834,
                        -80.16596793289372
                    ],
                    [
                        -33.03381899742413,
                        -80.16545487670727
                    ],
                    [
                        -33.14067272522286,
                        -80.16464216973074
                    ],
                    [
                        -33.24746509238041,
                        -80.1635707914169
                    ],
                    [
                        -33.35414335889481,
                        -80.16224581884907
                    ],
                    [
                        -33.46065349008988,
                        -80.16061231925654
                    ],
                    [
                        -33.56700028146455,
                        -80.15870390487035
                    ],
                    [
                        -33.67313964504553,
                        -80.15653465623751
                    ],
                    [
                        -33.77904098521465,
                        -80.15406116540103
                    ],
                    [
                        -33.88466585919279,
                        -80.15130900324588
                    ],
                    [
                        -33.99001357161293,
                        -80.14828854205619
                    ],
                    [
                        -34.09496503299748,
                        -80.14492791786435
                    ],
                    [
                        -34.19956437720892,
                        -80.1412753013328
                    ],
                    [
                        -34.3037483283786,
                        -80.13733185555758
                    ],
                    [
                        -34.40739152743331,
                        -80.13301530445823
                    ],
                    [
                        -34.51051068436774,
                        -80.12838942192462
                    ],
                    [
                        -34.613158894185666,
                        -80.12348287743227
                    ],
                    [
                        -34.7151413755183,
                        -80.11821603330868
                    ],
                    [
                        -34.816455710861035,
                        -80.11261529358676
                    ],
                    [
                        -34.91704263167352,
                        -80.1066672161074
                    ],
                    [
                        -35.01672800186481,
                        -80.10031755674827
                    ],
                    [
                        -35.11550937151567,
                        -80.09358961240802
                    ],
                    [
                        -35.213331115311384,
                        -80.08648866504777
                    ],
                    [
                        -35.30988542045757,
                        -80.0789142910497
                    ],
                    [
                        -35.40522122558755,
                        -80.07092302135693
                    ],
                    [
                        -35.499302578909145,
                        -80.0625281749615
                    ],
                    [
                        -35.59181360550083,
                        -80.05365646590842
                    ],
                    [
                        -35.683001815978905,
                        -80.04441006097107
                    ],
                    [
                        -35.772744429698626,
                        -80.03477298127414
                    ],
                    [
                        -35.86061992823998,
                        -80.0246608276191
                    ],
                    [
                        -35.946908702484336,
                        -80.01416082509017
                    ],
                    [
                        -36.03166316897205,
                        -80.00331890172419
                    ],
                    [
                        -36.11454417324566,
                        -79.9920701769648
                    ],
                    [
                        -36.19575830903135,
                        -79.9804752864827
                    ],
                    [
                        -36.27522701270407,
                        -79.96854514190814
                    ],
                    [
                        -36.35264972076753,
                        -79.95622859243113
                    ],
                    [
                        -36.428318948202666,
                        -79.94360271487766
                    ],
                    [
                        -36.50237723532085,
                        -79.93070702125802
                    ],
                    [
                        -36.57460666166219,
                        -79.91751403710207
                    ],
                    [
                        -36.64534634111866,
                        -79.90409239575757
                    ],
                    [
                        -36.71465146516077,
                        -79.89045418672606
                    ],
                    [
                        -36.782203729288966,
                        -79.87656474727696
                    ],
                    [
                        -36.84815272328882,
                        -79.86245363402381
                    ],
                    [
                        -36.91264610527609,
                        -79.84814824941083
                    ],
                    [
                        -36.97543983570668,
                        -79.83362045027847
                    ],
                    [
                        -37.03674551373245,
                        -79.81891090169879
                    ],
                    [
                        -37.096598507956074,
                        -79.80402641445502
                    ],
                    [
                        -37.15487314287851,
                        -79.78895873653164
                    ],
                    [
                        -37.2118946319135,
                        -79.77374908193036
                    ],
                    [
                        -37.26762520954638,
                        -79.75839904272951
                    ],
                    [
                        -37.322050203447894,
                        -79.74291402905601
                    ],
                    [
                        -37.37527340754857,
                        -79.72730748199297
                    ],
                    [
                        -37.42739188427024,
                        -79.7115867450446
                    ],
                    [
                        -37.478203094828395,
                        -79.69574029566591
                    ],
                    [
                        -37.52786842165758,
                        -79.67978739967367
                    ],
                    [
                        -37.57635290852636,
                        -79.66372700400915
                    ],
                    [
                        -37.62353259100167,
                        -79.64754622316418
                    ],
                    [
                        -37.66969469228046,
                        -79.63128015233912
                    ],
                    [
                        -37.714762191668164,
                        -79.6149208387157
                    ],
                    [
                        -37.758595919470984,
                        -79.59846218468925
                    ],
                    [
                        -37.80128193524151,
                        -79.58191174572048
                    ],
                    [
                        -37.84266685395096,
                        -79.56525401247944
                    ],
                    [
                        -37.88279363646201,
                        -79.54850725363038
                    ],
                    [
                        -37.92194236822165,
                        -79.53168854542045
                    ],
                    [
                        -37.9600514105236,
                        -79.51479480841702
                    ],
                    [
                        -37.9969549469234,
                        -79.49781934290631
                    ],
                    [
                        -38.03280981902564,
                        -79.48076984849678
                    ],
                    [
                        -38.06761973568484,
                        -79.46365836060393
                    ],
                    [
                        -38.10104455486264,
                        -79.44645351600983
                    ],
                    [
                        -38.13339553090919,
                        -79.42918720117214
                    ],
                    [
                        -38.16472787791842,
                        -79.41185824999103
                    ],
                    [
                        -38.19472742403652,
                        -79.39445735894783
                    ],
                    [
                        -38.223564517256705,
                        -79.37699240586738
                    ],
                    [
                        -38.25129827838336,
                        -79.35946748351365
                    ],
                    [
                        -38.27760271902742,
                        -79.34187306371807
                    ],
                    [
                        -38.30279170529312,
                        -79.324222688958
                    ],
                    [
                        -38.32692304779033,
                        -79.30652751610657
                    ],
                    [
                        -38.34979965241607,
                        -79.28877561127157
                    ],
                    [
                        -38.3715366206466,
                        -79.27097675953665
                    ],
                    [
                        -38.39213552589367,
                        -79.25313176553084
                    ],
                    [
                        -38.41137453604972,
                        -79.23523725070156
                    ],
                    [
                        -38.42955849586775,
                        -79.21730509520741
                    ],
                    [
                        -38.44685351861559,
                        -79.19934414821773
                    ],
                    [
                        -38.46296657549084,
                        -79.1813429659925
                    ],
                    [
                        -38.47807063481952,
                        -79.1633163707224
                    ],
                    [
                        -38.49212309030703,
                        -79.14525764493027
                    ],
                    [
                        -38.50500436663763,
                        -79.12717399567192
                    ],
                    [
                        -38.516865790284776,
                        -79.10906350304195
                    ],
                    [
                        -38.527746942264685,
                        -79.09093157447063
                    ],
                    [
                        -38.53757299128681,
                        -79.07277985126314
                    ],
                    [
                        -38.54664694813422,
                        -79.05461353575066
                    ],
                    [
                        -38.55487138924299,
                        -79.03643636558418
                    ],
                    [
                        -38.561979937306084,
                        -79.01823934711264
                    ],
                    [
                        -38.5681930212381,
                        -79.00003302695313
                    ],
                    [
                        -38.57351957556822,
                        -78.98181561085404
                    ],
                    [
                        -38.577788381045224,
                        -78.96359180047081
                    ],
                    [
                        -38.58127580552961,
                        -78.94536100121444
                    ],
                    [
                        -38.58391082270904,
                        -78.92712421980887
                    ],
                    [
                        -38.58559844056174,
                        -78.90888387701565
                    ],
                    [
                        -38.58657243057129,
                        -78.89064560191778
                    ],
                    [
                        -38.58679797680164,
                        -78.87240597423909
                    ],
                    [
                        -38.586115995125716,
                        -78.85416210757113
                    ],
                    [
                        -38.5846757743089,
                        -78.83592428882471
                    ],
                    [
                        -38.5824898812605,
                        -78.8176888065159
                    ],
                    [
                        -38.57943293932349,
                        -78.79945931262256
                    ],
                    [
                        -38.575665826953454,
                        -78.78123596758904
                    ],
                    [
                        -38.57116131784771,
                        -78.76302001684446
                    ],
                    [
                        -38.56581867586146,
                        -78.74481367167779
                    ],
                    [
                        -38.559850297814044,
                        -78.72661240019848
                    ],
                    [
                        -38.55332316652182,
                        -78.7084201746803
                    ],
                    [
                        -38.54608969177537,
                        -78.6902394619049
                    ],
                    [
                        -38.53792201954638,
                        -78.672076092503
                    ],
                    [
                        -38.52941594100433,
                        -78.65391658256624
                    ],
                    [
                        -38.52157013567436,
                        -78.63575012936231
                    ],
                    [
                        -38.51388735930574,
                        -78.6175786744158
                    ],
                    [
                        -38.50571782152309,
                        -78.59941811747832
                    ],
                    [
                        -38.49651230030883,
                        -78.58127607837012
                    ],
                    [
                        -38.486425719956934,
                        -78.56315325824971
                    ],
                    [
                        -38.475437829346276,
                        -78.54505225188468
                    ],
                    [
                        -38.46331153505001,
                        -78.5269843200147
                    ],
                    [
                        -38.45021302152744,
                        -78.50894131784416
                    ],
                    [
                        -38.43619308432439,
                        -78.4909274152786
                    ],
                    [
                        -38.42107425377866,
                        -78.47294801531423
                    ],
                    [
                        -38.40499661733994,
                        -78.45500476697596
                    ],
                    [
                        -38.38807885938076,
                        -78.4370956185402
                    ],
                    [
                        -38.370440403206985,
                        -78.41921597696047
                    ],
                    [
                        -38.35204479221397,
                        -78.40136736718352
                    ],
                    [
                        -38.33287970958775,
                        -78.3835544565584
                    ],
                    [
                        -38.31267721433401,
                        -78.36579012844237
                    ],
                    [
                        -38.291537791623284,
                        -78.34806929544575
                    ],
                    [
                        -38.26947646229645,
                        -78.33040043459872
                    ],
                    [
                        -38.246238324693536,
                        -78.31279332953886
                    ],
                    [
                        -38.22207974502866,
                        -78.29523881748409
                    ],
                    [
                        -38.1971881237538,
                        -78.27773396247908
                    ],
                    [
                        -38.171303196230824,
                        -78.26028706545684
                    ],
                    [
                        -38.14441470843881,
                        -78.24290592265551
                    ],
                    [
                        -38.11663824042737,
                        -78.2255897347513
                    ],
                    [
                        -38.08994649117117,
                        -78.20820349056658
                    ],
                    [
                        -38.06333387564312,
                        -78.19081523551539
                    ],
                    [
                        -38.03680005388123,
                        -78.17342498182771
                    ],
                    [
                        -38.01034468779847,
                        -78.15603274166779
                    ],
                    [
                        -37.98396744117038,
                        -78.13863852713469
                    ],
                    [
                        -37.95766797962274,
                        -78.12124235026258
                    ],
                    [
                        -37.931445970619436,
                        -78.10384422302134
                    ],
                    [
                        -37.90530108345036,
                        -78.08644415731696
                    ],
                    [
                        -37.87923298921936,
                        -78.06904216499191
                    ],
                    [
                        -37.853241360832364,
                        -78.05163825782569
                    ],
                    [
                        -37.82732587298554,
                        -78.03423244753522
                    ],
                    [
                        -37.80148620215354,
                        -78.01682474577522
                    ],
                    [
                        -37.77572202657789,
                        -77.99941516413878
                    ],
                    [
                        -37.75003302625537,
                        -77.98200371415767
                    ],
                    [
                        -37.724418882926585,
                        -77.96459040730274
                    ],
                    [
                        -37.69887928006456,
                        -77.9471752549845
                    ],
                    [
                        -37.67341390286339,
                        -77.92975826855334
                    ],
                    [
                        -37.64802243822708,
                        -77.91233945930009
                    ],
                    [
                        -37.622704574758366,
                        -77.89491883845635
                    ],
                    [
                        -37.597460002747674,
                        -77.87749641719493
                    ]
                ]
            }
        }
    ]
}
