{
    "type": "FeatureCollection",
    "features": [
        {
            "type": "Feature",
            "properties": {
                "name": "Greenland Glacier 0058",
                "object": "transect",
                "component": "landice",
                "author": "Matthew Hoffman, converted from Felikson et al. (2020) Zenodo dataset",
                "tags": "Greenland_Ice_Sheet;flowline;zenodo_4284759;glacier_0058",
                "citation": "Felikson, Denis, Catania, Ginny, Bartholomaus, Timothy, Morlighem, Mathieu, & No\u00ebl, Brice. (2020). Inland limits to diffusion of thinning along Greenland Ice Sheet outlet glaciers (v1.0) [Data set]. Zenodo. https://doi.org/10.5281/zenodo.4284759",
                "license": "CC-BY-4.0"
            },
            "geometry": {
                "type": "LineString",
                "coordinates": [
                    [
                        -61.02320475158577,
                        76.81229109661972
                    ],
                    [
                        -61.01249506850476,
                        76.81203479860312
                    ],
                    [
                        -61.02041927250769,
                        76.81007711877888
                    ],
                    [
                        -61.01432582927906,
                        76.81284698608762
                    ],
                    [
                        -61.01124580543551,
                        76.81067815714749
                    ],
                    [
                        -61.018486206150286,
                        76.81257443856722
                    ],
                    [
                        -61.008507859061645,
                        76.81289979809806
                    ],
                    [
                        -61.01664151124393,
                        76.81110788461174
                    ],
                    [
                        -61.01544523461252,
                        76.81355686308844
                    ],
                    [
                        -61.01388436417716,
                        76.8112885129065
                    ],
                    [
                        -61.019892603071135,
                        76.8132655056625
                    ],
                    [
                        -61.00823598274328,
                        76.81225642836678
                    ],
                    [
                        -61.017322576067116,
                        76.81122250590546
                    ],
                    [
                        -61.01496577945498,
                        76.81374751188586
                    ],
                    [
                        -61.0143261006032,
                        76.81141881872394
                    ],
                    [
                        -61.02058889750025,
                        76.81337912992602
                    ],
                    [
                        -61.01226106625884,
                        76.81155408436803
                    ],
                    [
                        -61.0214154071657,
                        76.81057451033132
                    ],
                    [
                        -61.013819796111065,
                        76.81279363101409
                    ],
                    [
                        -61.01011576895975,
                        76.81066567125994
                    ],
                    [
                        -61.0199563228657,
                        76.81239160903773
                    ],
                    [
                        -61.00983961108549,
                        76.81260683658743
                    ],
                    [
                        -61.00706529806004,
                        76.8104179879485
                    ],
                    [
                        -61.01870266929412,
                        76.81202627953927
                    ],
                    [
                        -61.00993337850232,
                        76.81331297429873
                    ],
                    [
                        -61.016857133767935,
                        76.81055901815733
                    ],
                    [
                        -61.01521602681216,
                        76.81303713942417
                    ],
                    [
                        -61.010405852662,
                        76.81098162743936
                    ],
                    [
                        -61.021384408820886,
                        76.811452445456
                    ],
                    [
                        -61.012625655712284,
                        76.81274709633895
                    ],
                    [
                        -61.00920971717357,
                        76.81060026613996
                    ],
                    [
                        -61.02073436272728,
                        76.81221587388637
                    ],
                    [
                        -61.01071732839015,
                        76.81251029139247
                    ],
                    [
                        -61.00805086891107,
                        76.8103143817167
                    ],
                    [
                        -61.01732323738008,
                        76.81207759084228
                    ],
                    [
                        -61.00914373093302,
                        76.8138334658908
                    ],
                    [
                        -61.015816746933744,
                        76.81102585058237
                    ],
                    [
                        -61.01598309780799,
                        76.81338556025503
                    ],
                    [
                        -61.009077339357546,
                        76.81146728431045
                    ],
                    [
                        -61.01922968540263,
                        76.81128110660254
                    ],
                    [
                        -61.01179205432831,
                        76.81362641375792
                    ],
                    [
                        -61.015094361572594,
                        76.81103953589844
                    ],
                    [
                        -61.01655969845574,
                        76.81331414750014
                    ],
                    [
                        -61.009862509362456,
                        76.81138222580313
                    ],
                    [
                        -61.01999890019997,
                        76.81118339460932
                    ],
                    [
                        -61.012358656072536,
                        76.81336745564185
                    ],
                    [
                        -61.01501818121275,
                        76.81082267188432
                    ],
                    [
                        -61.01627467578446,
                        76.8131109614105
                    ],
                    [
                        -61.01116720292429,
                        76.81107492872722
                    ],
                    [
                        -61.02178114385281,
                        76.81125583053073
                    ],
                    [
                        -61.013146805015175,
                        76.8126492931671
                    ],
                    [
                        -61.00990738020089,
                        76.81049090617492
                    ],
                    [
                        -61.01801194269155,
                        76.81233058865205
                    ],
                    [
                        -61.00884162341535,
                        76.8132985136624
                    ],
                    [
                        -61.01634918152685,
                        76.8110086238946
                    ],
                    [
                        -61.015606009822484,
                        76.81342791810242
                    ],
                    [
                        -61.013489378743074,
                        76.81119597454949
                    ],
                    [
                        -61.02010880795955,
                        76.81313292281519
                    ],
                    [
                        -61.00863092599816,
                        76.81226595483086
                    ],
                    [
                        -61.01757588533031,
                        76.81111943197739
                    ],
                    [
                        -61.01482134323363,
                        76.81367049646215
                    ],
                    [
                        -61.01423094256121,
                        76.81133857712102
                    ],
                    [
                        -61.01902731712905,
                        76.81339496935182
                    ],
                    [
                        -61.010372942655536,
                        76.8115912710379
                    ],
                    [
                        -61.019926430011736,
                        76.81092893888389
                    ],
                    [
                        -61.012794089446686,
                        76.8135167664437
                    ],
                    [
                        -61.01472299442878,
                        76.81101983888472
                    ],
                    [
                        -61.02550739581064,
                        76.81133604061687
                    ],
                    [
                        -61.03647176369363,
                        76.81179426515212
                    ],
                    [
                        -61.04741952154979,
                        76.8122382229416
                    ],
                    [
                        -61.05425980812054,
                        76.809423742973
                    ],
                    [
                        -61.05330190311264,
                        76.80711563100034
                    ],
                    [
                        -61.05562634581872,
                        76.8045918597326
                    ],
                    [
                        -61.064069632304566,
                        76.80305324232485
                    ],
                    [
                        -61.07317107541988,
                        76.80203765572966
                    ],
                    [
                        -61.08221551466728,
                        76.80097769725006
                    ],
                    [
                        -61.090537470292354,
                        76.7993464317135
                    ],
                    [
                        -61.097613216229746,
                        76.79672994638531
                    ],
                    [
                        -61.10295181159297,
                        76.79400629237072
                    ],
                    [
                        -61.106736747096036,
                        76.79138494695363
                    ],
                    [
                        -61.11007442182334,
                        76.78879299162796
                    ],
                    [
                        -61.11210515074561,
                        76.78628724922955
                    ],
                    [
                        -61.11238389120376,
                        76.78389720502966
                    ],
                    [
                        -61.11396693851959,
                        76.78142097389282
                    ],
                    [
                        -61.118150199835654,
                        76.77877280513181
                    ],
                    [
                        -61.12205545568603,
                        76.77614285745022
                    ],
                    [
                        -61.12520305203352,
                        76.77356289594691
                    ],
                    [
                        -61.128054030052404,
                        76.77100246131943
                    ],
                    [
                        -61.133448653007186,
                        76.76827347296457
                    ],
                    [
                        -61.14058083461693,
                        76.7657206274415
                    ],
                    [
                        -61.14497412485654,
                        76.76305748064777
                    ],
                    [
                        -61.14736139295627,
                        76.7605272255885
                    ],
                    [
                        -61.15127330274197,
                        76.75789572605665
                    ],
                    [
                        -61.156801664692885,
                        76.75515674901769
                    ],
                    [
                        -61.16172942533137,
                        76.75245741255725
                    ],
                    [
                        -61.167192771046686,
                        76.74972225810755
                    ],
                    [
                        -61.17320314601133,
                        76.74695046467585
                    ],
                    [
                        -61.17666186705825,
                        76.74434817281718
                    ],
                    [
                        -61.18001158152532,
                        76.74175301132595
                    ],
                    [
                        -61.18557596678455,
                        76.73901023527864
                    ],
                    [
                        -61.1924237227711,
                        76.7362517925088
                    ],
                    [
                        -61.19972752531718,
                        76.73385580242821
                    ],
                    [
                        -61.207482165374685,
                        76.7318178252315
                    ],
                    [
                        -61.21545700669971,
                        76.72995537904943
                    ],
                    [
                        -61.223570385635476,
                        76.72820380934029
                    ],
                    [
                        -61.231681824128955,
                        76.72645215500583
                    ],
                    [
                        -61.23953907983729,
                        76.72450148694809
                    ],
                    [
                        -61.2473198563698,
                        76.72249212110317
                    ],
                    [
                        -61.25520842172014,
                        76.7205693390488
                    ],
                    [
                        -61.26321132753241,
                        76.71873820521219
                    ],
                    [
                        -61.271264782825156,
                        76.71694838010436
                    ],
                    [
                        -61.279302384692436,
                        76.71514754498372
                    ],
                    [
                        -61.287202469479524,
                        76.71323997903272
                    ],
                    [
                        -61.29465605091655,
                        76.71098274923311
                    ],
                    [
                        -61.3019124596918,
                        76.70857226125779
                    ],
                    [
                        -61.30935035155196,
                        76.70630633403093
                    ],
                    [
                        -61.31682769068265,
                        76.70407320607336
                    ],
                    [
                        -61.3240126725281,
                        76.70161216049331
                    ],
                    [
                        -61.330718410669995,
                        76.69878627289735
                    ],
                    [
                        -61.33657130501702,
                        76.69601757344599
                    ],
                    [
                        -61.342227444585646,
                        76.69326186913908
                    ],
                    [
                        -61.34765187638734,
                        76.69052154364728
                    ],
                    [
                        -61.35221153306504,
                        76.68783940876419
                    ],
                    [
                        -61.35605259254045,
                        76.68520566722714
                    ],
                    [
                        -61.359491948897855,
                        76.68259894850974
                    ],
                    [
                        -61.36232638205041,
                        76.6800330377021
                    ],
                    [
                        -61.36473881425722,
                        76.67749559857782
                    ],
                    [
                        -61.36700286929323,
                        76.67496813293984
                    ],
                    [
                        -61.36981754545126,
                        76.67240330349266
                    ],
                    [
                        -61.37371107365828,
                        76.66976527235119
                    ],
                    [
                        -61.37848387094216,
                        76.66706747397318
                    ],
                    [
                        -61.383729199353034,
                        76.66433741065367
                    ],
                    [
                        -61.38943495706595,
                        76.66157585188442
                    ],
                    [
                        -61.396159952478015,
                        76.65878078462266
                    ],
                    [
                        -61.40322080936073,
                        76.65625119613746
                    ],
                    [
                        -61.41030819734457,
                        76.65374433874354
                    ],
                    [
                        -61.417410727514245,
                        76.65125126556298
                    ],
                    [
                        -61.424728526782296,
                        76.64892879001792
                    ],
                    [
                        -61.43202831931258,
                        76.64659401459872
                    ],
                    [
                        -61.43918452886991,
                        76.64414860266162
                    ],
                    [
                        -61.44654950161483,
                        76.64186851441008
                    ],
                    [
                        -61.454219650838134,
                        76.63982905675387
                    ],
                    [
                        -61.462042422163904,
                        76.63791062736739
                    ],
                    [
                        -61.46992094457743,
                        76.63603733294639
                    ],
                    [
                        -61.47774066163079,
                        76.63411956244583
                    ],
                    [
                        -61.48505601704278,
                        76.63180913744131
                    ],
                    [
                        -61.49205351484517,
                        76.62925214004049
                    ],
                    [
                        -61.499108468317694,
                        76.62674194886546
                    ],
                    [
                        -61.50650352253084,
                        76.6244992521518
                    ],
                    [
                        -61.51406862079058,
                        76.62239104560302
                    ],
                    [
                        -61.52179678739885,
                        76.6204117516902
                    ],
                    [
                        -61.529420508412684,
                        76.61835254323321
                    ],
                    [
                        -61.537065919526235,
                        76.61631186934727
                    ],
                    [
                        -61.54501574724054,
                        76.61451011893273
                    ],
                    [
                        -61.55321970052324,
                        76.61290783267034
                    ],
                    [
                        -61.56155367686363,
                        76.61140810123793
                    ],
                    [
                        -61.569948275449484,
                        76.60995675986648
                    ],
                    [
                        -61.57822308905757,
                        76.6084133426966
                    ],
                    [
                        -61.58631739817559,
                        76.60673072668082
                    ],
                    [
                        -61.59425379288038,
                        76.60492664291736
                    ],
                    [
                        -61.60192781201459,
                        76.60292001912896
                    ],
                    [
                        -61.60891013513284,
                        76.60037740260375
                    ],
                    [
                        -61.615351249611216,
                        76.59755501785938
                    ],
                    [
                        -61.622148628337484,
                        76.59487256051291
                    ],
                    [
                        -61.62934198870851,
                        76.59249960364653
                    ],
                    [
                        -61.63652292444282,
                        76.59011879587823
                    ],
                    [
                        -61.64314667187205,
                        76.58730728273285
                    ],
                    [
                        -61.64836850498007,
                        76.58456776133961
                    ],
                    [
                        -61.65356487193942,
                        76.58182976334952
                    ],
                    [
                        -61.659228361908006,
                        76.57905906718563
                    ],
                    [
                        -61.66552931306435,
                        76.57624377583456
                    ],
                    [
                        -61.67177193617431,
                        76.57343221134599
                    ],
                    [
                        -61.67795078409799,
                        76.57062476007829
                    ],
                    [
                        -61.68449984928526,
                        76.56779120336383
                    ],
                    [
                        -61.691081875982995,
                        76.56496264980514
                    ],
                    [
                        -61.697178668292544,
                        76.56215992621712
                    ],
                    [
                        -61.70281300249653,
                        76.55938915571687
                    ],
                    [
                        -61.70797409916148,
                        76.55665114488684
                    ],
                    [
                        -61.71243988325327,
                        76.55396145632132
                    ],
                    [
                        -61.71667425792147,
                        76.55128774506944
                    ],
                    [
                        -61.72027194488461,
                        76.54865836469325
                    ],
                    [
                        -61.72261462165534,
                        76.54611661003176
                    ],
                    [
                        -61.7234540996467,
                        76.54367992841169
                    ],
                    [
                        -61.723050195895,
                        76.54133021759125
                    ],
                    [
                        -61.7218150544258,
                        76.53903868231464
                    ],
                    [
                        -61.720114696859135,
                        76.53677972996584
                    ],
                    [
                        -61.718026654155736,
                        76.53454794156292
                    ],
                    [
                        -61.715555744406224,
                        76.53234298247575
                    ],
                    [
                        -61.71273239132081,
                        76.53016272443135
                    ],
                    [
                        -61.709778316314704,
                        76.52799165368361
                    ],
                    [
                        -61.706824449337724,
                        76.52582060942832
                    ],
                    [
                        -61.703784512595476,
                        76.52365562756505
                    ],
                    [
                        -61.70055015226845,
                        76.52150428741913
                    ],
                    [
                        -61.69720811239791,
                        76.51936051913071
                    ],
                    [
                        -61.69387743925218,
                        76.51721599443063
                    ],
                    [
                        -61.69082873074962,
                        76.5150517865592
                    ],
                    [
                        -61.68809149185318,
                        76.5128658339119
                    ],
                    [
                        -61.685634771596604,
                        76.51066030227318
                    ],
                    [
                        -61.683278531744854,
                        76.50844778427559
                    ],
                    [
                        -61.680861586363626,
                        76.50623955402232
                    ],
                    [
                        -61.67820956817449,
                        76.50404780783671
                    ],
                    [
                        -61.67515138603713,
                        76.50188451191757
                    ],
                    [
                        -61.67166952616533,
                        76.49975088799553
                    ],
                    [
                        -61.66762903313859,
                        76.49765636777687
                    ],
                    [
                        -61.662863796541195,
                        76.49561255352266
                    ],
                    [
                        -61.65735644251979,
                        76.49362063629613
                    ],
                    [
                        -61.65157808431502,
                        76.49164765851506
                    ],
                    [
                        -61.64625549306055,
                        76.48964282437358
                    ],
                    [
                        -61.64180832697535,
                        76.48757683225432
                    ],
                    [
                        -61.638238763236956,
                        76.48544955435968
                    ],
                    [
                        -61.63519022595283,
                        76.48328591458085
                    ],
                    [
                        -61.63240243314882,
                        76.48110409994874
                    ],
                    [
                        -61.62976731038187,
                        76.47891166134822
                    ],
                    [
                        -61.627299325637445,
                        76.47670758833118
                    ],
                    [
                        -61.6249242574691,
                        76.47449706580313
                    ],
                    [
                        -61.62246772142865,
                        76.47229227594975
                    ],
                    [
                        -61.61973522119061,
                        76.47010680600285
                    ],
                    [
                        -61.61659992004822,
                        76.46794951525236
                    ],
                    [
                        -61.612926271029025,
                        76.46582986793288
                    ],
                    [
                        -61.60875651977302,
                        76.46374490448696
                    ],
                    [
                        -61.604322047615575,
                        76.4616784553052
                    ],
                    [
                        -61.599921626714014,
                        76.45960965207998
                    ],
                    [
                        -61.59571189754673,
                        76.45752755996128
                    ],
                    [
                        -61.59171614753297,
                        76.45543055796797
                    ],
                    [
                        -61.58796699164392,
                        76.45331637410187
                    ],
                    [
                        -61.58455855594617,
                        76.45117844306036
                    ],
                    [
                        -61.58165588889444,
                        76.44900524975326
                    ],
                    [
                        -61.57942076811741,
                        76.4467855056537
                    ],
                    [
                        -61.5779329840699,
                        76.44451363874123
                    ],
                    [
                        -61.577185441350586,
                        76.44219013344133
                    ],
                    [
                        -61.57709741984885,
                        76.4398206070605
                    ],
                    [
                        -61.577665251422786,
                        76.4374052928396
                    ],
                    [
                        -61.57897835703392,
                        76.43493791534218
                    ],
                    [
                        -61.581323245404754,
                        76.43239841320917
                    ],
                    [
                        -61.58510200716927,
                        76.42975860538768
                    ],
                    [
                        -61.59038338396471,
                        76.42701355376332
                    ],
                    [
                        -61.59695628656923,
                        76.4242197924078
                    ],
                    [
                        -61.60383695574827,
                        76.42167043168112
                    ],
                    [
                        -61.61094491786661,
                        76.41930191850113
                    ],
                    [
                        -61.61821242473213,
                        76.4170607696268
                    ],
                    [
                        -61.62560751098293,
                        76.41492171491954
                    ],
                    [
                        -61.633097164396524,
                        76.41285868711445
                    ],
                    [
                        -61.64066855515382,
                        76.41086152137225
                    ],
                    [
                        -61.64831784412773,
                        76.40892713230308
                    ],
                    [
                        -61.655987010953055,
                        76.40700985840037
                    ],
                    [
                        -61.66361386202481,
                        76.4050608227743
                    ],
                    [
                        -61.67114143807898,
                        76.40303532603096
                    ],
                    [
                        -61.67856349489149,
                        76.40092854135982
                    ],
                    [
                        -61.685945282916514,
                        76.39879175646693
                    ],
                    [
                        -61.693371739476156,
                        76.39669163919234
                    ],
                    [
                        -61.70088485358135,
                        76.39466108654055
                    ],
                    [
                        -61.70850810515257,
                        76.39271843845295
                    ],
                    [
                        -61.7162395622787,
                        76.3908620896582
                    ],
                    [
                        -61.72405537545905,
                        76.38907326172617
                    ],
                    [
                        -61.7318749468127,
                        76.3872887561931
                    ],
                    [
                        -61.739628474506475,
                        76.38545391890672
                    ],
                    [
                        -61.74726210760565,
                        76.3835266571652
                    ],
                    [
                        -61.75477047796958,
                        76.38150286566065
                    ],
                    [
                        -61.76219875501615,
                        76.37941796783163
                    ],
                    [
                        -61.76957096551781,
                        76.37729080791733
                    ],
                    [
                        -61.77693385559965,
                        76.37515796411199
                    ],
                    [
                        -61.784319710913365,
                        76.3730446692583
                    ],
                    [
                        -61.791760825419495,
                        76.37097613089496
                    ],
                    [
                        -61.799221487015934,
                        76.36892441757742
                    ],
                    [
                        -61.80680701548147,
                        76.36697172975337
                    ],
                    [
                        -61.81441875993804,
                        76.36504098224805
                    ],
                    [
                        -61.82214021004884,
                        76.36319728250953
                    ],
                    [
                        -61.83006051581505,
                        76.36151005752467
                    ],
                    [
                        -61.83816724467038,
                        76.35996943859546
                    ],
                    [
                        -61.846542031854796,
                        76.35863885660793
                    ],
                    [
                        -61.855142167132584,
                        76.35748477692853
                    ],
                    [
                        -61.86396107316312,
                        76.35650183694666
                    ],
                    [
                        -61.872895089683276,
                        76.35560913720445
                    ],
                    [
                        -61.881839628950786,
                        76.35472521088619
                    ],
                    [
                        -61.89071267928008,
                        76.35378629986246
                    ],
                    [
                        -61.8994585520532,
                        76.35274922024614
                    ],
                    [
                        -61.908022884427204,
                        76.35157189611418
                    ],
                    [
                        -61.91635218096353,
                        76.3502129934233
                    ],
                    [
                        -61.924373063925614,
                        76.34861580811096
                    ],
                    [
                        -61.93213506965314,
                        76.3468190393189
                    ],
                    [
                        -61.93981966201934,
                        76.34496360344208
                    ],
                    [
                        -61.94720877381233,
                        76.34288053326273
                    ],
                    [
                        -61.9545499939937,
                        76.3407618986164
                    ],
                    [
                        -61.961730963490744,
                        76.33852069127202
                    ],
                    [
                        -61.96831835563656,
                        76.33582141438659
                    ],
                    [
                        -61.97383229753154,
                        76.33304361845606
                    ],
                    [
                        -61.97849749670146,
                        76.33032681481603
                    ],
                    [
                        -61.98244392448797,
                        76.32766170721897
                    ],
                    [
                        -61.985112015891524,
                        76.32508878679036
                    ],
                    [
                        -61.985112015891524,
                        76.32508878679036
                    ],
                    [
                        -61.98777909427288,
                        76.32251585030107
                    ],
                    [
                        -61.98975788279713,
                        76.31999257949455
                    ],
                    [
                        -61.99144935171181,
                        76.31749002740196
                    ],
                    [
                        -61.993190013750265,
                        76.3149838729324
                    ],
                    [
                        -61.99536851532221,
                        76.31244599459328
                    ],
                    [
                        -61.99827433773229,
                        76.309855410537
                    ],
                    [
                        -62.0141714463077,
                        76.29203879426046
                    ],
                    [
                        -62.03002690412797,
                        76.27422177500648
                    ],
                    [
                        -62.04584087224886,
                        76.25640435777659
                    ],
                    [
                        -62.061613510909574,
                        76.23858654755065
                    ],
                    [
                        -62.07734497953793,
                        76.2207683492871
                    ],
                    [
                        -62.093035436755365,
                        76.20294976792297
                    ],
                    [
                        -62.10868504038197,
                        76.1851308083741
                    ],
                    [
                        -62.124293947441444,
                        76.16731147553524
                    ],
                    [
                        -62.139862314166045,
                        76.14949177428016
                    ],
                    [
                        -62.15539029600144,
                        76.13167170946187
                    ],
                    [
                        -62.17087804761166,
                        76.11385128591263
                    ],
                    [
                        -62.186325722883815,
                        76.09603050844416
                    ],
                    [
                        -62.20173347493303,
                        76.07820938184776
                    ],
                    [
                        -62.217101456107024,
                        76.06038791089439
                    ],
                    [
                        -62.23242981799101,
                        76.0425661003349
                    ],
                    [
                        -62.247718711412304,
                        76.0247439549
                    ],
                    [
                        -62.26296828644493,
                        76.00692147930053
                    ],
                    [
                        -62.278178692414315,
                        75.9890986782275
                    ],
                    [
                        -62.293350077901906,
                        75.9712755563523
                    ],
                    [
                        -62.308482590749605,
                        75.95345211832665
                    ]
                ]
            }
        }
    ]
}
