{
    "type": "FeatureCollection",
    "features": [
        {
            "type": "Feature",
            "properties": {
                "name": "Greenland Glacier 0065",
                "object": "transect",
                "component": "landice",
                "author": "Matthew Hoffman, converted from Felikson et al. (2020) Zenodo dataset",
                "tags": "Greenland_Ice_Sheet;flowline;zenodo_4284759;glacier_0065;yngvar_nielsen_gletsjer",
                "citation": "Felikson, Denis, Catania, Ginny, Bartholomaus, Timothy, Morlighem, Mathieu, & No\u00ebl, Brice. (2020). Inland limits to diffusion of thinning along Greenland Ice Sheet outlet glaciers (v1.0) [Data set]. Zenodo. https://doi.org/10.5281/zenodo.4284759",
                "license": "CC-BY-4.0",
                "officialName": "Yngvar Nielsen Gletsjer",
                "foreignName": "Yngvar Nielsen Gletsjer"
            },
            "geometry": {
                "type": "LineString",
                "coordinates": [
                    [
                        -64.47591311540143,
                        76.57501559252592
                    ],
                    [
                        -64.48100399031985,
                        76.57701322176031
                    ],
                    [
                        -64.47219348621091,
                        76.57532107467334
                    ],
                    [
                        -64.47014287647512,
                        76.57790513868679
                    ],
                    [
                        -64.47023862111679,
                        76.58031297502475
                    ],
                    [
                        -64.47205044620641,
                        76.58257998853581
                    ],
                    [
                        -64.47449322627816,
                        76.58479526735648
                    ],
                    [
                        -64.46763872321434,
                        76.58712877994091
                    ],
                    [
                        -64.46795423597057,
                        76.58951860557873
                    ],
                    [
                        -64.45694228648077,
                        76.58912444298126
                    ],
                    [
                        -64.44584041949288,
                        76.58867026764314
                    ],
                    [
                        -64.43485577507303,
                        76.58829218171805
                    ],
                    [
                        -64.42410886622825,
                        76.58806963132702
                    ],
                    [
                        -64.41322439079725,
                        76.58775579914186
                    ],
                    [
                        -64.40134945791844,
                        76.58678855972394
                    ],
                    [
                        -64.38930347459045,
                        76.58535813648624
                    ],
                    [
                        -64.37932218548772,
                        76.58375878224044
                    ],
                    [
                        -64.37088621861022,
                        76.58203310872469
                    ],
                    [
                        -64.36261104299473,
                        76.58029421275845
                    ],
                    [
                        -64.35367714381434,
                        76.57860894703185
                    ],
                    [
                        -64.34548839780157,
                        76.57686279631643
                    ],
                    [
                        -64.33791363608809,
                        76.57506651181558
                    ],
                    [
                        -64.33092880482657,
                        76.57322209728476
                    ],
                    [
                        -64.32358623286854,
                        76.57140679270489
                    ],
                    [
                        -64.31740141940787,
                        76.56949714647071
                    ],
                    [
                        -64.31248191081947,
                        76.56748445861456
                    ],
                    [
                        -64.30833544166022,
                        76.5654088544897
                    ],
                    [
                        -64.304576158976,
                        76.56330176787179
                    ],
                    [
                        -64.30155623321471,
                        76.56113452897323
                    ],
                    [
                        -64.29977698678465,
                        76.55886631755585
                    ],
                    [
                        -64.2989819579438,
                        76.55651800007267
                    ],
                    [
                        -64.29844166634994,
                        76.55414896501867
                    ],
                    [
                        -64.2979478876634,
                        76.55177616639767
                    ],
                    [
                        -64.29702490278449,
                        76.54943836171643
                    ],
                    [
                        -64.29571883055306,
                        76.54713180564212
                    ],
                    [
                        -64.29376449315197,
                        76.54487811554439
                    ],
                    [
                        -64.29105210672739,
                        76.54268624610287
                    ],
                    [
                        -64.2878138689194,
                        76.54053727841503
                    ],
                    [
                        -64.28413691578525,
                        76.53842410945421
                    ],
                    [
                        -64.28059623675244,
                        76.53629988613143
                    ],
                    [
                        -64.27727891530702,
                        76.53415751479697
                    ],
                    [
                        -64.27427442899014,
                        76.53198970699376
                    ],
                    [
                        -64.2719959983905,
                        76.52976279614353
                    ],
                    [
                        -64.26977939837873,
                        76.5275308980026
                    ],
                    [
                        -64.26752773187837,
                        76.52530190742688
                    ],
                    [
                        -64.26523354049766,
                        76.52307643246633
                    ],
                    [
                        -64.26281513503483,
                        76.5208611301211
                    ],
                    [
                        -64.25994318632611,
                        76.51868283757403
                    ],
                    [
                        -64.25698093539393,
                        76.5165119556047
                    ],
                    [
                        -64.2544761659914,
                        76.51430384681466
                    ],
                    [
                        -64.25277366886016,
                        76.51203041082786
                    ],
                    [
                        -64.25191591104067,
                        76.50968817265739
                    ],
                    [
                        -64.25162509822044,
                        76.50729975211802
                    ],
                    [
                        -64.25135503417754,
                        76.50490965937634
                    ],
                    [
                        -64.25076822098391,
                        76.50254541387591
                    ],
                    [
                        -64.25000239009097,
                        76.50019579423143
                    ],
                    [
                        -64.24929881090237,
                        76.49784112770556
                    ],
                    [
                        -64.24872675085288,
                        76.49547576189956
                    ],
                    [
                        -64.2482410738543,
                        76.49310337476899
                    ],
                    [
                        -64.2478066863678,
                        76.49072682679837
                    ],
                    [
                        -64.24766322728031,
                        76.48832655903554
                    ],
                    [
                        -64.24797670566468,
                        76.48588900884698
                    ],
                    [
                        -64.2483659443609,
                        76.48344527543148
                    ],
                    [
                        -64.24832348405809,
                        76.48103679362265
                    ],
                    [
                        -64.24771939307874,
                        76.47867419307957
                    ],
                    [
                        -64.24681078832857,
                        76.47633649200047
                    ],
                    [
                        -64.24582514796926,
                        76.47400511718911
                    ],
                    [
                        -64.24497205741453,
                        76.4716629482429
                    ],
                    [
                        -64.24446535230864,
                        76.46929250889856
                    ],
                    [
                        -64.24435621217103,
                        76.46688960440983
                    ],
                    [
                        -64.24441998664165,
                        76.46447258095579
                    ],
                    [
                        -64.24448528476557,
                        76.4620554426708
                    ],
                    [
                        -64.24477618739418,
                        76.45961986690392
                    ],
                    [
                        -64.24572582527942,
                        76.45713041880157
                    ],
                    [
                        -64.24785001211806,
                        76.45454486123984
                    ],
                    [
                        -64.25152531989384,
                        76.4518322854848
                    ],
                    [
                        -64.25709456386875,
                        76.4489644659693
                    ],
                    [
                        -64.26341716057117,
                        76.44630342880318
                    ],
                    [
                        -64.26983822378455,
                        76.44370996620634
                    ],
                    [
                        -64.27605225197466,
                        76.44097916983809
                    ],
                    [
                        -64.28179902400797,
                        76.43809548647405
                    ],
                    [
                        -64.28605685528962,
                        76.43533373279486
                    ],
                    [
                        -64.28857361467257,
                        76.43271477694616
                    ],
                    [
                        -64.28932340098551,
                        76.43024088835955
                    ],
                    [
                        -64.28828355642277,
                        76.42791402474458
                    ],
                    [
                        -64.28576617800468,
                        76.42570859369468
                    ],
                    [
                        -64.28226487948992,
                        76.42358405004357
                    ],
                    [
                        -64.27801317423872,
                        76.42152120118031
                    ],
                    [
                        -64.27310981368954,
                        76.419511919553
                    ],
                    [
                        -64.2677887861882,
                        76.4175369684842
                    ],
                    [
                        -64.26237523695659,
                        76.41556963436683
                    ],
                    [
                        -64.25715679372378,
                        76.41358629994645
                    ],
                    [
                        -64.25236434856407,
                        76.41156801896358
                    ],
                    [
                        -64.24826321030368,
                        76.40949302746209
                    ],
                    [
                        -64.24503676058555,
                        76.40734628724616
                    ],
                    [
                        -64.24271363907329,
                        76.4051254530642
                    ],
                    [
                        -64.24112015672675,
                        76.4028447760919
                    ],
                    [
                        -64.2399522357831,
                        76.40052920674049
                    ],
                    [
                        -64.23888196748833,
                        76.3982056576803
                    ],
                    [
                        -64.23769011686986,
                        76.39589212860336
                    ],
                    [
                        -64.23623843982334,
                        76.39359997522212
                    ],
                    [
                        -64.23443162756271,
                        76.39133703021498
                    ],
                    [
                        -64.23221094750468,
                        76.38910812261894
                    ],
                    [
                        -64.22943944297356,
                        76.38692450422933
                    ],
                    [
                        -64.2259804826976,
                        76.38479739622991
                    ],
                    [
                        -64.2217114140686,
                        76.38273686369915
                    ],
                    [
                        -64.21648700263135,
                        76.38075481302046
                    ],
                    [
                        -64.21011832249415,
                        76.37886671723999
                    ],
                    [
                        -64.20259188208037,
                        76.37707362099987
                    ],
                    [
                        -64.19426370060462,
                        76.37534623479466
                    ],
                    [
                        -64.18572438234659,
                        76.37363605866904
                    ],
                    [
                        -64.1774417872579,
                        76.37190472041765
                    ],
                    [
                        -64.16964339314386,
                        76.37013359928629
                    ],
                    [
                        -64.16241741284097,
                        76.36831550499812
                    ],
                    [
                        -64.15580538590646,
                        76.36644707375586
                    ],
                    [
                        -64.14985479142288,
                        76.36452445309521
                    ],
                    [
                        -64.14451698144411,
                        76.36255165826455
                    ],
                    [
                        -64.13968486947925,
                        76.36053748036225
                    ],
                    [
                        -64.13527248518679,
                        76.3584889729049
                    ],
                    [
                        -64.13123267320745,
                        76.35641000624014
                    ],
                    [
                        -64.1275490543085,
                        76.35430192814226
                    ],
                    [
                        -64.12419957466103,
                        76.35216654855284
                    ],
                    [
                        -64.12114530019845,
                        76.35000705698427
                    ],
                    [
                        -64.11836948565212,
                        76.3478248251947
                    ],
                    [
                        -64.11587790729092,
                        76.3456193803603
                    ],
                    [
                        -64.11372887959443,
                        76.34338594806607
                    ],
                    [
                        -64.11372887959443,
                        76.34338594806607
                    ],
                    [
                        -64.11158056112917,
                        76.3411525067574
                    ],
                    [
                        -64.10991799665179,
                        76.33887935086476
                    ],
                    [
                        -64.10857910086331,
                        76.33657974177328
                    ],
                    [
                        -64.10749656983793,
                        76.33425918299072
                    ],
                    [
                        -64.09683079070525,
                        76.31622350072517
                    ],
                    [
                        -64.08619334782043,
                        76.29818800439377
                    ],
                    [
                        -64.07558412914042,
                        76.28015269673824
                    ],
                    [
                        -64.06500302320822,
                        76.2621175804902
                    ],
                    [
                        -64.05444991914908,
                        76.24408265837114
                    ],
                    [
                        -64.04392470666671,
                        76.22604793309257
                    ],
                    [
                        -64.03342727603955,
                        76.20801340735599
                    ],
                    [
                        -64.02295751811698,
                        76.18997908385305
                    ],
                    [
                        -64.0125153243158,
                        76.17194496526555
                    ],
                    [
                        -64.00210058661641,
                        76.15391105426554
                    ],
                    [
                        -63.991713197559285,
                        76.13587735351533
                    ],
                    [
                        -63.98135305024131,
                        76.11784386566761
                    ],
                    [
                        -63.971020038312226,
                        76.09981059336549
                    ],
                    [
                        -63.96071405597115,
                        76.08177753924254
                    ],
                    [
                        -63.95043499796292,
                        76.0637447059229
                    ],
                    [
                        -63.94018275957475,
                        76.04571209602128
                    ],
                    [
                        -63.92995723663263,
                        76.02767971214303
                    ],
                    [
                        -63.91975832549802,
                        76.00964755688425
                    ],
                    [
                        -63.90958592306431,
                        75.9916156328318
                    ],
                    [
                        -63.89943992675354,
                        75.9735839425634
                    ]
                ]
            }
        }
    ]
}
