{
    "type": "FeatureCollection",
    "features": [
        {
            "type": "Feature",
            "properties": {
                "name": "Greenland Glacier 0212",
                "object": "transect",
                "component": "landice",
                "author": "Matthew Hoffman, converted from Felikson et al. (2020) Zenodo dataset",
                "tags": "Greenland_Ice_Sheet;flowline;zenodo_4284759;glacier_0212;gr\u00e5ulv",
                "citation": "Felikson, Denis, Catania, Ginny, Bartholomaus, Timothy, Morlighem, Mathieu, & No\u00ebl, Brice. (2020). Inland limits to diffusion of thinning along Greenland Ice Sheet outlet glaciers (v1.0) [Data set]. Zenodo. https://doi.org/10.5281/zenodo.4284759",
                "license": "CC-BY-4.0",
                "officialName": "Gr\u00e5ulv",
                "foreignName": "Gr\u00e5ulv"
            },
            "geometry": {
                "type": "LineString",
                "coordinates": [
                    [
                        -44.20351903009686,
                        64.1837871344806
                    ],
                    [
                        -44.20819807698898,
                        64.18601256827893
                    ],
                    [
                        -44.20315809707828,
                        64.18603445980105
                    ],
                    [
                        -44.204408963057894,
                        64.18384488386624
                    ],
                    [
                        -44.20939850244783,
                        64.18540279903019
                    ],
                    [
                        -44.2043269839882,
                        64.18641879230584
                    ],
                    [
                        -44.206806704564904,
                        64.18423662658459
                    ],
                    [
                        -44.20881493796042,
                        64.18644589102935
                    ],
                    [
                        -44.20378613022297,
                        64.1861145796517
                    ],
                    [
                        -44.20578441515338,
                        64.18392951737286
                    ],
                    [
                        -44.208979476192965,
                        64.18614594538407
                    ],
                    [
                        -44.20393732806291,
                        64.18623508043514
                    ],
                    [
                        -44.20606370708401,
                        64.18405078893215
                    ],
                    [
                        -44.20884484535548,
                        64.18626471943894
                    ],
                    [
                        -44.20380739705139,
                        64.18620563155015
                    ],
                    [
                        -44.20583406243963,
                        64.18402073968913
                    ],
                    [
                        -44.20868892381231,
                        64.18623511892565
                    ],
                    [
                        -44.203651933809276,
                        64.1861618480266
                    ],
                    [
                        -44.20554932359769,
                        64.1839761772811
                    ],
                    [
                        -44.2086619552639,
                        64.18619211511357
                    ],
                    [
                        -44.20362320169025,
                        64.18617443497106
                    ],
                    [
                        -44.20549372839697,
                        64.18398860207942
                    ],
                    [
                        -44.208272967302086,
                        64.18620253302112
                    ],
                    [
                        -44.203241017796,
                        64.18597146290782
                    ],
                    [
                        -44.204755567097855,
                        64.18378348298647
                    ],
                    [
                        -44.208987432448325,
                        64.18600618087824
                    ],
                    [
                        -44.203938289434525,
                        64.18631569550993
                    ],
                    [
                        -44.206094283078244,
                        64.18413158221311
                    ],
                    [
                        -44.20759501238948,
                        64.18633779764558
                    ],
                    [
                        -44.20252290031217,
                        64.18736407529552
                    ],
                    [
                        -44.2075549693418,
                        64.18519735184996
                    ],
                    [
                        -44.20596347750123,
                        64.18738491009763
                    ],
                    [
                        -44.20091211131717,
                        64.18775392124346
                    ],
                    [
                        -44.196843064458854,
                        64.18992630722991
                    ],
                    [
                        -44.192209446629334,
                        64.19209512103404
                    ],
                    [
                        -44.1871007893415,
                        64.19418820741257
                    ],
                    [
                        -44.18202858573899,
                        64.19514214229281
                    ],
                    [
                        -44.17700798727941,
                        64.19451837217515
                    ],
                    [
                        -44.171965620338675,
                        64.19455848862397
                    ],
                    [
                        -44.166901170110194,
                        64.19525986734624
                    ],
                    [
                        -44.16180799111603,
                        64.1968084400788
                    ],
                    [
                        -44.156731705499595,
                        64.19783792357944
                    ],
                    [
                        -44.15164262859627,
                        64.19923135659192
                    ],
                    [
                        -44.146578598175815,
                        64.19987526515854
                    ],
                    [
                        -44.141543423809246,
                        64.19967216890731
                    ],
                    [
                        -44.136456059287404,
                        64.20098020862827
                    ],
                    [
                        -44.131378451000685,
                        64.20199233786552
                    ],
                    [
                        -44.126308364166945,
                        64.20277760138056
                    ],
                    [
                        -44.121241210338326,
                        64.20347029217737
                    ],
                    [
                        -44.11616655183868,
                        64.20436681071784
                    ],
                    [
                        -44.111100183916506,
                        64.20502008716886
                    ],
                    [
                        -44.106034865956275,
                        64.20563644973384
                    ],
                    [
                        -44.10098518080692,
                        64.20581163196704
                    ],
                    [
                        -44.09592595654404,
                        64.20624803736949
                    ],
                    [
                        -44.09092549443113,
                        64.20841097210186
                    ],
                    [
                        -44.08681548618126,
                        64.21057992663187
                    ],
                    [
                        -44.08243015237228,
                        64.21274685533865
                    ],
                    [
                        -44.07794108105431,
                        64.21491293409132
                    ],
                    [
                        -44.07381381227177,
                        64.21708143104674
                    ],
                    [
                        -44.070286898981266,
                        64.21925406576925
                    ],
                    [
                        -44.067138061899996,
                        64.22142930971661
                    ],
                    [
                        -44.06397406688592,
                        64.22360439259106
                    ],
                    [
                        -44.05965885216196,
                        64.22577119981047
                    ],
                    [
                        -44.05456350625453,
                        64.22703318299637
                    ],
                    [
                        -44.049514202204094,
                        64.22707330504441
                    ],
                    [
                        -44.044481087000854,
                        64.22669023307691
                    ],
                    [
                        -44.03942669568236,
                        64.22686344878015
                    ],
                    [
                        -44.03435175194801,
                        64.22756551178973
                    ],
                    [
                        -44.0292679315688,
                        64.22848810773964
                    ],
                    [
                        -44.02418464861812,
                        64.22938716384624
                    ],
                    [
                        -44.01911385475423,
                        64.2299591766439
                    ],
                    [
                        -44.01404664177254,
                        64.2304345383979
                    ],
                    [
                        -44.00897813990878,
                        64.23093727998338
                    ],
                    [
                        -44.00391503862155,
                        64.23129950467154
                    ],
                    [
                        -43.998840257534624,
                        64.23194880148155
                    ],
                    [
                        -43.99373398195696,
                        64.23337183653717
                    ],
                    [
                        -43.98893976806426,
                        64.23553280159564
                    ],
                    [
                        -43.98381630513279,
                        64.23734530718812
                    ],
                    [
                        -43.978738982021056,
                        64.23801309445103
                    ],
                    [
                        -43.97369107713736,
                        64.23795945497382
                    ],
                    [
                        -43.96863524354421,
                        64.23809781332896
                    ],
                    [
                        -43.963539686239145,
                        64.2391901617615
                    ],
                    [
                        -43.95843550610966,
                        64.24047801682133
                    ],
                    [
                        -43.95335272947292,
                        64.24124335080825
                    ],
                    [
                        -43.94828469452672,
                        64.2416516848275
                    ],
                    [
                        -43.9432168682173,
                        64.24205098785657
                    ],
                    [
                        -43.93812546519936,
                        64.24299975046797
                    ],
                    [
                        -43.93301000459256,
                        64.24450128106673
                    ],
                    [
                        -43.92815614396786,
                        64.24665970048407
                    ],
                    [
                        -43.92302631992034,
                        64.24846197213034
                    ],
                    [
                        -43.917953739141154,
                        64.24892861844572
                    ],
                    [
                        -43.91290150484262,
                        64.24892428598064
                    ],
                    [
                        -43.90784340649116,
                        64.24905361029313
                    ],
                    [
                        -43.902754868403626,
                        64.24987291408306
                    ],
                    [
                        -43.89765939670854,
                        64.2508412049016
                    ],
                    [
                        -43.89255620056112,
                        64.25197420315793
                    ],
                    [
                        -43.88747171882368,
                        64.2526774651601
                    ],
                    [
                        -43.88243281457752,
                        64.25235793967488
                    ],
                    [
                        -43.87744248677465,
                        64.25096279411365
                    ],
                    [
                        -43.8724410863254,
                        64.24982453731168
                    ],
                    [
                        -43.867401834277196,
                        64.24952902891825
                    ],
                    [
                        -43.86234075666228,
                        64.24971404622032
                    ],
                    [
                        -43.85733620382532,
                        64.24866448658851
                    ],
                    [
                        -43.85228334583507,
                        64.24867282956204
                    ],
                    [
                        -43.848262248388394,
                        64.2464398059974
                    ],
                    [
                        -43.843309936902074,
                        64.24429097329026
                    ],
                    [
                        -43.83824234857532,
                        64.2446337374817
                    ],
                    [
                        -43.833129408079934,
                        64.24594206629735
                    ],
                    [
                        -43.82804918794457,
                        64.24654296376089
                    ],
                    [
                        -43.82299971366464,
                        64.24648744775318
                    ],
                    [
                        -43.81799842200264,
                        64.24541625499653
                    ],
                    [
                        -43.81298073484662,
                        64.24469817638003
                    ],
                    [
                        -43.807913331869855,
                        64.24502546572722
                    ],
                    [
                        -43.802801719365405,
                        64.24627017777054
                    ],
                    [
                        -43.79787738988082,
                        64.24842326962764
                    ],
                    [
                        -43.79275501348907,
                        64.24986507009348
                    ],
                    [
                        -43.787627756278184,
                        64.25139481695055
                    ],
                    [
                        -43.78250024608102,
                        64.25291666899844
                    ],
                    [
                        -43.777371876127106,
                        64.25444308903596
                    ],
                    [
                        -43.77228231122798,
                        64.25516909098772
                    ],
                    [
                        -43.76722336197389,
                        64.25527016515004
                    ],
                    [
                        -43.762175937419606,
                        64.25513825182867
                    ],
                    [
                        -43.757132377897776,
                        64.25492973699323
                    ],
                    [
                        -43.752074227863886,
                        64.25501402073266
                    ],
                    [
                        -43.74699317417086,
                        64.25555285062721
                    ],
                    [
                        -43.741910343690044,
                        64.25612232063305
                    ],
                    [
                        -43.73684435189601,
                        64.25635490193882
                    ],
                    [
                        -43.73181059281168,
                        64.25595222236264
                    ],
                    [
                        -43.72680393334929,
                        64.2550222394117
                    ],
                    [
                        -43.72180761822767,
                        64.25389771308978
                    ],
                    [
                        -43.716799390427035,
                        64.25301307589632
                    ],
                    [
                        -43.71178733596252,
                        64.25220914708302
                    ],
                    [
                        -43.70675905370174,
                        64.2517239368793
                    ],
                    [
                        -43.701742302455216,
                        64.25102097340684
                    ],
                    [
                        -43.69671300894261,
                        64.25056304169833
                    ],
                    [
                        -43.691663698667874,
                        64.2504896873456
                    ],
                    [
                        -43.686610861068466,
                        64.2504836277055
                    ],
                    [
                        -43.681570573339044,
                        64.2502402252103
                    ],
                    [
                        -43.67653932735819,
                        64.24982823964243
                    ],
                    [
                        -43.67147741988925,
                        64.24999431302595
                    ],
                    [
                        -43.666391326441136,
                        64.25061085524501
                    ],
                    [
                        -43.661306969221954,
                        64.25119020178077
                    ],
                    [
                        -43.656230658690276,
                        64.25161576194878
                    ],
                    [
                        -43.65117155510533,
                        64.25172005921408
                    ],
                    [
                        -43.64612238823779,
                        64.2516405047302
                    ],
                    [
                        -43.64109962641198,
                        64.2510771732824
                    ],
                    [
                        -43.636067252917314,
                        64.25069340090049
                    ],
                    [
                        -43.63101659517799,
                        64.25064507231464
                    ],
                    [
                        -43.625946422899915,
                        64.25095079905223
                    ],
                    [
                        -43.62086707098399,
                        64.2514199381013
                    ],
                    [
                        -43.61579371788849,
                        64.25177745622472
                    ],
                    [
                        -43.61070935955271,
                        64.25232954699254
                    ],
                    [
                        -43.60562172982814,
                        64.25293587412133
                    ],
                    [
                        -43.600523600595686,
                        64.25372452587514
                    ],
                    [
                        -43.59540538830191,
                        64.25486348985571
                    ],
                    [
                        -43.59026611117461,
                        64.25636625402602
                    ],
                    [
                        -43.58514951677635,
                        64.25745853605923
                    ],
                    [
                        -43.580054299130985,
                        64.2581677332626
                    ],
                    [
                        -43.574948452458564,
                        64.25905746468032
                    ],
                    [
                        -43.56983234175482,
                        64.26011942012092
                    ],
                    [
                        -43.564723009989386,
                        64.26105596902751
                    ],
                    [
                        -43.559646411451645,
                        64.2614196390263
                    ],
                    [
                        -43.55458161010149,
                        64.2615772702938
                    ],
                    [
                        -43.549515530393734,
                        64.26175555892235
                    ],
                    [
                        -43.544447460720264,
                        64.26196646503435
                    ],
                    [
                        -43.53937364238805,
                        64.26227374203496
                    ],
                    [
                        -43.534307553905414,
                        64.2624473432858
                    ],
                    [
                        -43.5292526867362,
                        64.26242952538556
                    ],
                    [
                        -43.52420132869344,
                        64.26235241333572
                    ],
                    [
                        -43.51914734698455,
                        64.26231976250945
                    ],
                    [
                        -43.5140822419811,
                        64.26247358850759
                    ],
                    [
                        -43.508994853429776,
                        64.26299841156144
                    ],
                    [
                        -43.50390554067574,
                        64.26355150388663
                    ],
                    [
                        -43.49881832409929,
                        64.26406587588964
                    ],
                    [
                        -43.493749486644816,
                        64.26427269591323
                    ],
                    [
                        -43.48868015092089,
                        64.26448614565514
                    ],
                    [
                        -43.483601433035794,
                        64.26485206154577
                    ],
                    [
                        -43.478523577049586,
                        64.2652012327891
                    ],
                    [
                        -43.47345986473664,
                        64.2653171508948
                    ],
                    [
                        -43.46841878868891,
                        64.26506404126685
                    ],
                    [
                        -43.46337157732911,
                        64.26491183518755
                    ],
                    [
                        -43.458284588127306,
                        64.26540298724005
                    ],
                    [
                        -43.453177851072404,
                        64.26620864627728
                    ],
                    [
                        -43.44805678787217,
                        64.26723868333494
                    ],
                    [
                        -43.44291895007604,
                        64.26853001243742
                    ],
                    [
                        -43.43773224786778,
                        64.27066709802155
                    ],
                    [
                        -43.433287280535204,
                        64.27281282732582
                    ],
                    [
                        -43.42921993593537,
                        64.27496293451289
                    ],
                    [
                        -43.42470593791648,
                        64.27710760510135
                    ],
                    [
                        -43.41951414272719,
                        64.27919672429363
                    ],
                    [
                        -43.414345121504596,
                        64.28091451279373
                    ],
                    [
                        -43.40917845944251,
                        64.28258404231991
                    ],
                    [
                        -43.40400468387022,
                        64.28435349400267
                    ],
                    [
                        -43.399360358974825,
                        64.28649584333772
                    ],
                    [
                        -43.39520074202514,
                        64.2886439562326
                    ],
                    [
                        -43.390464405771084,
                        64.29078492683603
                    ],
                    [
                        -43.385265666574966,
                        64.2928915515573
                    ],
                    [
                        -43.38020787704405,
                        64.2950282733572
                    ],
                    [
                        -43.37572056196817,
                        64.2971718554863
                    ],
                    [
                        -43.371715591642946,
                        64.29932126680518
                    ],
                    [
                        -43.36808592362924,
                        64.30147522584004
                    ],
                    [
                        -43.36446489802711,
                        64.30362921775674
                    ],
                    [
                        -43.36120520897013,
                        64.30578762425714
                    ],
                    [
                        -43.357805127161136,
                        64.30794422804468
                    ],
                    [
                        -43.354284371837124,
                        64.31009926460464
                    ],
                    [
                        -43.35040186268096,
                        64.31224971156773
                    ],
                    [
                        -43.346811556557476,
                        64.31440373076201
                    ],
                    [
                        -43.34358426995963,
                        64.31656223389531
                    ],
                    [
                        -43.34056802783659,
                        64.31872333620356
                    ],
                    [
                        -43.33745279466192,
                        64.32088314752444
                    ],
                    [
                        -43.33420646377393,
                        64.32304125607055
                    ],
                    [
                        -43.33097519273377,
                        64.32519950015475
                    ],
                    [
                        -43.32757971315174,
                        64.32735561050534
                    ],
                    [
                        -43.32375721007922,
                        64.32950623925925
                    ],
                    [
                        -43.32002292133104,
                        64.33165790568809
                    ],
                    [
                        -43.316132069984505,
                        64.3338074966151
                    ],
                    [
                        -43.3120978391681,
                        64.33595516715062
                    ],
                    [
                        -43.30812392408014,
                        64.33810351361487
                    ],
                    [
                        -43.30404860213872,
                        64.34025046528748
                    ],
                    [
                        -43.300075725930824,
                        64.3423986361524
                    ],
                    [
                        -43.2960491032059,
                        64.34454602100278
                    ],
                    [
                        -43.291580965887654,
                        64.34668760227221
                    ],
                    [
                        -43.28700054325557,
                        64.34882760457764
                    ],
                    [
                        -43.28236317308481,
                        64.35096673582919
                    ],
                    [
                        -43.27715158521285,
                        64.35294110502196
                    ],
                    [
                        -43.27195838097662,
                        64.35463932144226
                    ],
                    [
                        -43.26677263330808,
                        64.35622039402564
                    ],
                    [
                        -43.26158664791286,
                        64.35779523730035
                    ],
                    [
                        -43.2564022900831,
                        64.35933735651282
                    ],
                    [
                        -43.251220204632304,
                        64.36083789600276
                    ],
                    [
                        -43.246042037600425,
                        64.36227394166397
                    ],
                    [
                        -43.2408634092641,
                        64.36370784816383
                    ],
                    [
                        -43.23568747343979,
                        64.36509528047563
                    ],
                    [
                        -43.23050990003347,
                        64.36649736472181
                    ],
                    [
                        -43.225330560379845,
                        64.36791576704631
                    ],
                    [
                        -43.22015271415728,
                        64.36930490683186
                    ],
                    [
                        -43.21497671069735,
                        64.37066018671129
                    ],
                    [
                        -43.209802925750004,
                        64.37197669724945
                    ],
                    [
                        -43.20463347025333,
                        64.37322561385963
                    ],
                    [
                        -43.19946481316026,
                        64.3744561676952
                    ],
                    [
                        -43.19429312954775,
                        64.37572105324418
                    ],
                    [
                        -43.18911976942379,
                        64.3770014811292
                    ],
                    [
                        -43.18394294986332,
                        64.37832166130586
                    ],
                    [
                        -43.17875751294757,
                        64.37975147686296
                    ],
                    [
                        -43.173564100543764,
                        64.38128126015503
                    ],
                    [
                        -43.16836028794465,
                        64.3829429646898
                    ],
                    [
                        -43.16314493988272,
                        64.38475076565615
                    ],
                    [
                        -43.15792101860852,
                        64.38666352286445
                    ],
                    [
                        -43.15268903164276,
                        64.38867350991343
                    ],
                    [
                        -43.14745596639346,
                        64.39068638450856
                    ],
                    [
                        -43.142284495395394,
                        64.39281373894457
                    ],
                    [
                        -43.13704840592277,
                        64.39484360437926
                    ],
                    [
                        -43.131819570753265,
                        64.39676567430813
                    ],
                    [
                        -43.126589353363485,
                        64.39869510991116
                    ],
                    [
                        -43.12135208922252,
                        64.4007065572373
                    ],
                    [
                        -43.11611500380439,
                        64.40270428306025
                    ],
                    [
                        -43.110881636169744,
                        64.40464198875544
                    ],
                    [
                        -43.10564734261979,
                        64.40658090847545
                    ],
                    [
                        -43.10041119314163,
                        64.40853315643544
                    ],
                    [
                        -43.09518380049728,
                        64.41036061411539
                    ],
                    [
                        -43.08996490350471,
                        64.4120677156604
                    ],
                    [
                        -43.08474614792368,
                        64.41376349468297
                    ],
                    [
                        -43.07952154466463,
                        64.41552527254126
                    ],
                    [
                        -43.07429348459299,
                        64.4173217521112
                    ],
                    [
                        -43.06905938540792,
                        64.4191857556159
                    ],
                    [
                        -43.063828071528945,
                        64.42100387402593
                    ],
                    [
                        -43.058603843572946,
                        64.42272164111891
                    ],
                    [
                        -43.0533841772075,
                        64.42437198519231
                    ],
                    [
                        -43.04816975391811,
                        64.42594681419267
                    ],
                    [
                        -43.04295468841814,
                        64.42752118206491
                    ],
                    [
                        -43.03773492684742,
                        64.42914622541902
                    ],
                    [
                        -43.032508602015554,
                        64.43084501787115
                    ],
                    [
                        -43.0272741470842,
                        64.43263661331343
                    ],
                    [
                        -43.022038934869045,
                        64.43442801062973
                    ],
                    [
                        -43.016799372998875,
                        64.43626403224764
                    ],
                    [
                        -43.011561842943046,
                        64.43806490496611
                    ],
                    [
                        -43.00632988081646,
                        64.43978702652652
                    ],
                    [
                        -43.00110222724696,
                        64.44144661535307
                    ],
                    [
                        -42.99587725760559,
                        64.44306422452821
                    ],
                    [
                        -42.99065501484854,
                        64.44463965817044
                    ],
                    [
                        -42.98543795830351,
                        64.44614305277719
                    ],
                    [
                        -42.98023126619755,
                        64.44751156322337
                    ],
                    [
                        -42.975033084949885,
                        64.44876888928398
                    ],
                    [
                        -42.969839478467776,
                        64.44996385061398
                    ],
                    [
                        -42.96464048361672,
                        64.45121799141452
                    ],
                    [
                        -42.95943039655488,
                        64.45259997467227
                    ],
                    [
                        -42.954216038104946,
                        64.45402635544299
                    ],
                    [
                        -42.94900690509068,
                        64.45538229128661
                    ],
                    [
                        -42.943801958045164,
                        64.45668082645219
                    ],
                    [
                        -42.938597242291905,
                        64.45796983555891
                    ],
                    [
                        -42.93339640825994,
                        64.45920571914402
                    ],
                    [
                        -42.928204737992566,
                        64.46032585361776
                    ],
                    [
                        -42.92301899654361,
                        64.46136962483901
                    ],
                    [
                        -42.91783304852886,
                        64.46241045367303
                    ],
                    [
                        -42.912649262865926,
                        64.46342030732484
                    ],
                    [
                        -42.90747127659976,
                        64.46435645495191
                    ],
                    [
                        -42.90229909386115,
                        64.4652194006515
                    ],
                    [
                        -42.8971308786935,
                        64.4660312706663
                    ],
                    [
                        -42.89196102082386,
                        64.46685822359161
                    ],
                    [
                        -42.88679125732411,
                        64.46767983018377
                    ],
                    [
                        -42.881625726487734,
                        64.46844784874153
                    ],
                    [
                        -42.87646340782366,
                        64.46917455086864
                    ],
                    [
                        -42.871304292556985,
                        64.46986034175778
                    ],
                    [
                        -42.86614876734269,
                        64.47050104276826
                    ],
                    [
                        -42.86099967742045,
                        64.47106411145084
                    ],
                    [
                        -42.855859755179125,
                        64.47151862054864
                    ],
                    [
                        -42.85072988771558,
                        64.47185515503728
                    ],
                    [
                        -42.84560705876203,
                        64.472109158865
                    ],
                    [
                        -42.84048733430927,
                        64.47232623743245
                    ],
                    [
                        -42.83537055718863,
                        64.47250844752628
                    ],
                    [
                        -42.83025619655012,
                        64.47266208187516
                    ],
                    [
                        -42.82514554487986,
                        64.4727726574131
                    ],
                    [
                        -42.820039161964466,
                        64.4728341321068
                    ],
                    [
                        -42.81493809049047,
                        64.47283505911251
                    ],
                    [
                        -42.80984179530128,
                        64.47278189921636
                    ],
                    [
                        -42.80474784953623,
                        64.47270234564408
                    ],
                    [
                        -42.79965523420181,
                        64.47260802453373
                    ],
                    [
                        -42.79456408175996,
                        64.47249755355995
                    ],
                    [
                        -42.789475059513855,
                        64.47236358441742
                    ],
                    [
                        -42.78438763850776,
                        64.47221217768988
                    ],
                    [
                        -42.77930098689638,
                        64.47205270873067
                    ],
                    [
                        -42.774215035401525,
                        64.47188600139151
                    ],
                    [
                        -42.769129348130335,
                        64.47171693284469
                    ],
                    [
                        -42.76404292996998,
                        64.47155651613407
                    ],
                    [
                        -42.758955722805375,
                        64.4714053327895
                    ],
                    [
                        -42.75386739542639,
                        64.47126696349581
                    ],
                    [
                        -42.7487781545985,
                        64.47113905144687
                    ],
                    [
                        -42.743690154855855,
                        64.47099792939508
                    ],
                    [
                        -42.73860518749551,
                        64.4708241119794
                    ],
                    [
                        -42.7335228827867,
                        64.4706218495314
                    ],
                    [
                        -42.72844354903112,
                        64.4703879782358
                    ],
                    [
                        -42.7233677636763,
                        64.47011644080925
                    ],
                    [
                        -42.718295932874106,
                        64.46980308856139
                    ],
                    [
                        -42.71322771125767,
                        64.4694519302908
                    ],
                    [
                        -42.708162664603385,
                        64.46906789724024
                    ],
                    [
                        -42.703101354828924,
                        64.46864515956403
                    ],
                    [
                        -42.69804216874468,
                        64.46820128903697
                    ],
                    [
                        -42.69298365438984,
                        64.46775197695565
                    ],
                    [
                        -42.68792481437054,
                        64.46730791932069
                    ],
                    [
                        -42.68286604318127,
                        64.46686487388118
                    ],
                    [
                        -42.67780738240638,
                        64.46642239099876
                    ],
                    [
                        -42.6727481958299,
                        64.46598722289181
                    ],
                    [
                        -42.66768918173004,
                        64.46555192230984
                    ],
                    [
                        -42.662631344061964,
                        64.46510587386835
                    ],
                    [
                        -42.65757424944802,
                        64.46465371892236
                    ],
                    [
                        -42.65251535993047,
                        64.46422221748372
                    ],
                    [
                        -42.64745295266442,
                        64.46382933707923
                    ],
                    [
                        -42.64238946485746,
                        64.46344927895021
                    ],
                    [
                        -42.637328390856936,
                        64.4630454050877
                    ],
                    [
                        -42.63227032482313,
                        64.46261166433543
                    ],
                    [
                        -42.62721385925629,
                        64.46216290800507
                    ],
                    [
                        -42.622158749328754,
                        64.46170177576721
                    ],
                    [
                        -42.61710509556334,
                        64.46122730262049
                    ],
                    [
                        -42.61205214374523,
                        64.46074737932804
                    ],
                    [
                        -42.6069980621261,
                        64.4602809610057
                    ],
                    [
                        -42.60194090637274,
                        64.45984800457502
                    ],
                    [
                        -42.596879644842176,
                        64.45945891155438
                    ],
                    [
                        -42.59181606777749,
                        64.45909502980709
                    ],
                    [
                        -42.586754645189764,
                        64.45871041256794
                    ],
                    [
                        -42.581697767271514,
                        64.4582807558425
                    ],
                    [
                        -42.57664456598038,
                        64.45781519426966
                    ],
                    [
                        -42.571593295338616,
                        64.45733172396558
                    ],
                    [
                        -42.56654119320055,
                        64.4568585157892
                    ],
                    [
                        -42.56148605342997,
                        64.45641787190274
                    ],
                    [
                        -42.55642850335475,
                        64.45600324424683
                    ],
                    [
                        -42.55136989079837,
                        64.45560086393043
                    ],
                    [
                        -42.54631079747826,
                        64.45520479396151
                    ],
                    [
                        -42.54125093782557,
                        64.45481786658814
                    ],
                    [
                        -42.53619088078574,
                        64.4544343162183
                    ],
                    [
                        -42.531131183465156,
                        64.45404854281648
                    ],
                    [
                        -42.52607180742268,
                        64.4536609436688
                    ],
                    [
                        -42.52101245964585,
                        64.45327445180008
                    ],
                    [
                        -42.5159518350504,
                        64.45290204991721
                    ],
                    [
                        -42.51088816463168,
                        64.45256122387781
                    ],
                    [
                        -42.50582015137082,
                        64.45226463926512
                    ],
                    [
                        -42.50074994312766,
                        64.45199077885825
                    ],
                    [
                        -42.495681964033245,
                        64.45169582509804
                    ],
                    [
                        -42.490616285425915,
                        64.451379201937
                    ],
                    [
                        -42.48555009848663,
                        64.45106865974608
                    ],
                    [
                        -42.480483622783176,
                        64.4507620067953
                    ],
                    [
                        -42.475418880027114,
                        64.45043941839431
                    ],
                    [
                        -42.4703563838268,
                        64.45009596905358
                    ],
                    [
                        -42.465296131517206,
                        64.44973180871948
                    ],
                    [
                        -42.46023463982384,
                        64.44938097297747
                    ],
                    [
                        -42.45516914780794,
                        64.44907020930543
                    ],
                    [
                        -42.45010012125533,
                        64.44879476262221
                    ],
                    [
                        -42.44502965772644,
                        64.44853412252341
                    ],
                    [
                        -42.43995761089201,
                        64.4482896143367
                    ],
                    [
                        -42.43488336192517,
                        64.44806710777776
                    ],
                    [
                        -42.429808585479364,
                        64.44785036060016
                    ],
                    [
                        -42.424733699995734,
                        64.44763532052488
                    ],
                    [
                        -42.41965609042555,
                        64.4474470378707
                    ],
                    [
                        -42.414576672380235,
                        64.44727659758759
                    ],
                    [
                        -42.409496709847325,
                        64.44711182880688
                    ],
                    [
                        -42.40441515184068,
                        64.44696271074912
                    ],
                    [
                        -42.399331392738446,
                        64.44683490996916
                    ],
                    [
                        -42.394248583981394,
                        64.44669839440613
                    ],
                    [
                        -42.389170299655426,
                        64.44651936244352
                    ],
                    [
                        -42.384095946686806,
                        64.44630366727789
                    ],
                    [
                        -42.37902009617623,
                        64.44610274243523
                    ],
                    [
                        -42.37393798504204,
                        64.44596135477941
                    ],
                    [
                        -42.368850669037464,
                        64.4458692368615
                    ],
                    [
                        -42.36376302332482,
                        64.44578037233079
                    ],
                    [
                        -42.358677728159336,
                        64.44566964857849
                    ],
                    [
                        -42.3535938038016,
                        64.44554634620634
                    ],
                    [
                        -42.348509428592564,
                        64.44542752678079
                    ],
                    [
                        -42.34342335906246,
                        64.44532473920269
                    ],
                    [
                        -42.33833496052758,
                        64.44524378798077
                    ],
                    [
                        -42.33324311574485,
                        64.44519490804599
                    ],
                    [
                        -42.32814827465913,
                        64.44517375116473
                    ],
                    [
                        -42.323052432686545,
                        64.44516172539001
                    ],
                    [
                        -42.31795737343405,
                        64.44514233308848
                    ],
                    [
                        -42.312863240676016,
                        64.44511429272694
                    ],
                    [
                        -42.3077700449531,
                        64.44507755625136
                    ],
                    [
                        -42.302678544105724,
                        64.44502522478214
                    ],
                    [
                        -42.29758915931179,
                        64.44495353209021
                    ],
                    [
                        -42.29250175105789,
                        64.44486386123809
                    ],
                    [
                        -42.28741463887466,
                        64.44477163270054
                    ],
                    [
                        -42.28232572723545,
                        64.44469592821412
                    ],
                    [
                        -42.27723322326403,
                        64.44465293807446
                    ],
                    [
                        -42.27213911380294,
                        64.44462446736813
                    ],
                    [
                        -42.26704648331017,
                        64.44458252525475
                    ],
                    [
                        -42.26195660721441,
                        64.4445156675349
                    ],
                    [
                        -42.256870048256175,
                        64.44441895958613
                    ],
                    [
                        -42.25178771999467,
                        64.44428434640955
                    ],
                    [
                        -42.246708467625204,
                        64.44412240926096
                    ],
                    [
                        -42.24162845217944,
                        64.4439677150152
                    ],
                    [
                        -42.23654509199586,
                        64.44384332560878
                    ],
                    [
                        -42.23145973452497,
                        64.44373703830045
                    ],
                    [
                        -42.22637651225839,
                        64.44361190888036
                    ],
                    [
                        -42.22129543972782,
                        64.44346791097463
                    ],
                    [
                        -42.216213758737254,
                        64.44332964923746
                    ],
                    [
                        -42.2111315131599,
                        64.4431967029635
                    ],
                    [
                        -42.2060505197804,
                        64.44305296247332
                    ],
                    [
                        -42.2009712717752,
                        64.44289412892162
                    ],
                    [
                        -42.19589423887623,
                        64.44271614127213
                    ],
                    [
                        -42.19082048851308,
                        64.442509706114
                    ],
                    [
                        -42.1857465929738,
                        64.44230509685116
                    ],
                    [
                        -42.18066911169478,
                        64.44213248217372
                    ],
                    [
                        -42.175589427485015,
                        64.44197958200118
                    ],
                    [
                        -42.17051278492563,
                        64.44180045211738
                    ],
                    [
                        -42.16544185336245,
                        64.44157194421787
                    ],
                    [
                        -42.1603769291459,
                        64.44129174076976
                    ],
                    [
                        -42.155314102300245,
                        64.44099410797224
                    ],
                    [
                        -42.15025124262916,
                        64.44069762413818
                    ],
                    [
                        -42.145219893326875,
                        64.44012902631681
                    ],
                    [
                        -42.14019408261178,
                        64.43951434081413
                    ],
                    [
                        -42.13514102217168,
                        64.43913686529515
                    ],
                    [
                        -42.13008789900293,
                        64.43876106684853
                    ],
                    [
                        -42.12504238326921,
                        64.43832095243721
                    ],
                    [
                        -42.11998895097694,
                        64.43795017303096
                    ],
                    [
                        -42.11493966361325,
                        64.43754496631573
                    ],
                    [
                        -42.10990599952798,
                        64.43700728013431
                    ],
                    [
                        -42.10488177931452,
                        64.43639059101139
                    ],
                    [
                        -42.09985959524435,
                        64.43575848263879
                    ],
                    [
                        -42.09483209299678,
                        64.43517364887678
                    ],
                    [
                        -42.0898018306859,
                        64.43461410422303
                    ],
                    [
                        -42.0847761488076,
                        64.43401743469904
                    ],
                    [
                        -42.079758262137375,
                        64.43335659839813
                    ],
                    [
                        -42.07474025183156,
                        64.43269888487362
                    ],
                    [
                        -42.06972119667062,
                        64.43205205469097
                    ],
                    [
                        -42.06470178769205,
                        64.43141022839335
                    ],
                    [
                        -42.05968461686053,
                        64.43075157279799
                    ],
                    [
                        -42.054668199131406,
                        64.43008864575397
                    ],
                    [
                        -42.04964827777272,
                        64.42945716189877
                    ],
                    [
                        -42.04462539864677,
                        64.42885239296861
                    ],
                    [
                        -42.03959975979702,
                        64.42827254900669
                    ],
                    [
                        -42.034571671358655,
                        64.42771491674695
                    ],
                    [
                        -42.0295421370288,
                        64.42717102429958
                    ],
                    [
                        -42.024514824276515,
                        64.42661030689852
                    ],
                    [
                        -42.01949643204502,
                        64.42597723873206
                    ],
                    [
                        -42.01448954867989,
                        64.4252507288347
                    ],
                    [
                        -42.00948338712658,
                        64.42452049049251
                    ],
                    [
                        -42.00447581513462,
                        64.42380415453715
                    ],
                    [
                        -41.99947185909545,
                        64.42306020099596
                    ],
                    [
                        -41.994465900206166,
                        64.42233502564005
                    ],
                    [
                        -41.98945206866349,
                        64.42167678298942
                    ],
                    [
                        -41.98443284451511,
                        64.42106479154917
                    ],
                    [
                        -41.97941008721473,
                        64.42048358932217
                    ],
                    [
                        -41.97438493676619,
                        64.41992370003005
                    ],
                    [
                        -41.96935575886115,
                        64.41939836354092
                    ],
                    [
                        -41.96432482367126,
                        64.41888890241205
                    ],
                    [
                        -41.959292018943664,
                        64.4183961517978
                    ],
                    [
                        -41.95425702903001,
                        64.41792259402624
                    ],
                    [
                        -41.94922212070273,
                        64.41744974592393
                    ],
                    [
                        -41.94418999288061,
                        64.41695574511469
                    ],
                    [
                        -41.939165060076895,
                        64.41640499960388
                    ],
                    [
                        -41.93414502897306,
                        64.41581629851524
                    ],
                    [
                        -41.92912610585497,
                        64.41522040173795
                    ],
                    [
                        -41.92410265846069,
                        64.4146626647638
                    ],
                    [
                        -41.91907584743545,
                        64.41413357824392
                    ],
                    [
                        -41.91405068549904,
                        64.41359279753983
                    ],
                    [
                        -41.909024624407856,
                        64.41306078460359
                    ],
                    [
                        -41.90400075979189,
                        64.41251274734954
                    ],
                    [
                        -41.898977839979366,
                        64.41195875348683
                    ],
                    [
                        -41.89395173528486,
                        64.41143174219869
                    ],
                    [
                        -41.88891721817803,
                        64.41097317689722
                    ],
                    [
                        -41.88387215469488,
                        64.4105996799708
                    ],
                    [
                        -41.87881894634623,
                        64.4102917949065
                    ],
                    [
                        -41.87375949012868,
                        64.41003418401526
                    ],
                    [
                        -41.86869619316977,
                        64.40980757485441
                    ],
                    [
                        -41.863631587317634,
                        64.40959183433125
                    ],
                    [
                        -41.85856016587852,
                        64.40943030239013
                    ],
                    [
                        -41.85347879631667,
                        64.40934736149032
                    ],
                    [
                        -41.84839226759162,
                        64.40930501612011
                    ],
                    [
                        -41.84330376380357,
                        64.40927810027867
                    ],
                    [
                        -41.838213498140306,
                        64.40926486995694
                    ],
                    [
                        -41.83312049753928,
                        64.40927286476827
                    ],
                    [
                        -41.82802724947114,
                        64.4092825696918
                    ],
                    [
                        -41.82293657614402,
                        64.40927198699164
                    ],
                    [
                        -41.81785034375293,
                        64.40922669673517
                    ],
                    [
                        -41.81276746660552,
                        64.4091552970896
                    ],
                    [
                        -41.80768212136946,
                        64.40910306802293
                    ],
                    [
                        -41.80259605329201,
                        64.40905640618868
                    ],
                    [
                        -41.7975095796143,
                        64.409012832587
                    ],
                    [
                        -41.79242178230347,
                        64.4089794169293
                    ],
                    [
                        -41.78733150851511,
                        64.40896499329976
                    ],
                    [
                        -41.782236634650474,
                        64.40898580755214
                    ],
                    [
                        -41.777137307280896,
                        64.40904056606887
                    ],
                    [
                        -41.77203375553877,
                        64.4091273500437
                    ],
                    [
                        -41.7669279872825,
                        64.40923063423415
                    ],
                    [
                        -41.761823496665436,
                        64.40932363021659
                    ],
                    [
                        -41.75672562230037,
                        64.4093656418652
                    ],
                    [
                        -41.75163777398016,
                        64.40933092672215
                    ],
                    [
                        -41.74655890751384,
                        64.40922778934554
                    ],
                    [
                        -41.74148271009695,
                        64.40910450372007
                    ],
                    [
                        -41.736401784240165,
                        64.40901727011915
                    ],
                    [
                        -41.73131428448882,
                        64.40897989520624
                    ],
                    [
                        -41.7262254824446,
                        64.40895228780998
                    ],
                    [
                        -41.72114370795773,
                        64.40887151849898
                    ],
                    [
                        -41.71606811358849,
                        64.40874422145494
                    ],
                    [
                        -41.710995951658326,
                        64.40859129047769
                    ],
                    [
                        -41.70593268808123,
                        64.40837177048735
                    ],
                    [
                        -41.70088148310904,
                        64.40806225562949
                    ],
                    [
                        -41.69584050729945,
                        64.40767686163754
                    ],
                    [
                        -41.690815405314545,
                        64.4071737086724
                    ],
                    [
                        -41.68581170858135,
                        64.40651201154313
                    ],
                    [
                        -41.68083096531595,
                        64.40568093014052
                    ],
                    [
                        -41.67585905846026,
                        64.40478634534168
                    ],
                    [
                        -41.6708800233831,
                        64.4039472540841
                    ],
                    [
                        -41.66589591162428,
                        64.40314817832127
                    ],
                    [
                        -41.660903260925934,
                        64.40241461226975
                    ],
                    [
                        -41.65587344342875,
                        64.40195821196045
                    ],
                    [
                        -41.65079769189732,
                        64.4018425484963
                    ],
                    [
                        -41.64567759009333,
                        64.40205438609941
                    ],
                    [
                        -41.64052663308536,
                        64.40249276639608
                    ],
                    [
                        -41.63537955860046,
                        64.40290103930852
                    ],
                    [
                        -41.6302449938833,
                        64.40321596304362
                    ],
                    [
                        -41.62512572940904,
                        64.40341749824462
                    ],
                    [
                        -41.62003845144161,
                        64.40338394802275
                    ],
                    [
                        -41.61499461442346,
                        64.40303260174818
                    ],
                    [
                        -41.6099973024997,
                        64.40234234559382
                    ],
                    [
                        -41.60506959660194,
                        64.40114633536767
                    ],
                    [
                        -41.60024346638334,
                        64.39921388493134
                    ],
                    [
                        -41.596074457044125,
                        64.3969040400476
                    ],
                    [
                        -41.59265916195259,
                        64.39461348488175
                    ],
                    [
                        -41.58962470515592,
                        64.39233266732764
                    ],
                    [
                        -41.58669155741576,
                        64.39005440086792
                    ],
                    [
                        -41.58384244203254,
                        64.3877782465223
                    ],
                    [
                        -41.580924854985646,
                        64.3855002664212
                    ],
                    [
                        -41.57805307123692,
                        64.3832234136307
                    ],
                    [
                        -41.5752238878714,
                        64.38094760844074
                    ],
                    [
                        -41.57221824466502,
                        64.37866717300967
                    ],
                    [
                        -41.56901359721121,
                        64.37638150886066
                    ],
                    [
                        -41.565537522477705,
                        64.37408871801767
                    ],
                    [
                        -41.561830879851904,
                        64.37178984034503
                    ],
                    [
                        -41.5581459500524,
                        64.36949142678152
                    ],
                    [
                        -41.55470543702386,
                        64.36719928698358
                    ],
                    [
                        -41.551712284642186,
                        64.36491873911245
                    ],
                    [
                        -41.54921814171803,
                        64.36265116579237
                    ],
                    [
                        -41.54717500025321,
                        64.36039534361089
                    ],
                    [
                        -41.545445122589456,
                        64.35814769382027
                    ],
                    [
                        -41.54381212158261,
                        64.35590256792632
                    ],
                    [
                        -41.54217220193617,
                        64.3536572522728
                    ],
                    [
                        -41.540529124854224,
                        64.35141184509693
                    ],
                    [
                        -41.53884597099215,
                        64.34916537842463
                    ],
                    [
                        -41.53713716830301,
                        64.3469182289043
                    ],
                    [
                        -41.53537430219115,
                        64.3446696496143
                    ],
                    [
                        -41.533439811883454,
                        64.34241655065358
                    ],
                    [
                        -41.531088496112744,
                        64.34015247908502
                    ],
                    [
                        -41.52847871537342,
                        64.3378815755387
                    ],
                    [
                        -41.52575713923913,
                        64.3356076844409
                    ],
                    [
                        -41.52575713923913,
                        64.3356076844409
                    ],
                    [
                        -41.523036061214974,
                        64.33333375711241
                    ],
                    [
                        -41.520344873015254,
                        64.33106056871902
                    ],
                    [
                        -41.51772888384773,
                        64.32878931721412
                    ],
                    [
                        -41.49930485930489,
                        64.31312653291836
                    ],
                    [
                        -41.48090403106053,
                        64.29746212193047
                    ],
                    [
                        -41.46252635912372,
                        64.28179609004583
                    ],
                    [
                        -41.44417180358508,
                        64.26612844304756
                    ],
                    [
                        -41.425840324616566,
                        64.25045918670665
                    ],
                    [
                        -41.407531882471346,
                        64.23478832678195
                    ],
                    [
                        -41.3892464374836,
                        64.21911586902024
                    ],
                    [
                        -41.37098395006835,
                        64.20344181915617
                    ],
                    [
                        -41.3527443807213,
                        64.1877661829124
                    ],
                    [
                        -41.33452769001865,
                        64.17208896599956
                    ],
                    [
                        -41.316333838616956,
                        64.15641017411632
                    ],
                    [
                        -41.29816278725293,
                        64.14072981294939
                    ],
                    [
                        -41.28001449674328,
                        64.1250478881736
                    ],
                    [
                        -41.261888927984565,
                        64.10936440545186
                    ],
                    [
                        -41.24378604195298,
                        64.09367937043524
                    ],
                    [
                        -41.22570579970424,
                        64.07799278876301
                    ],
                    [
                        -41.20764816237337,
                        64.06230466606266
                    ],
                    [
                        -41.18961309117455,
                        64.0466150079499
                    ],
                    [
                        -41.17160054740097,
                        64.03092382002869
                    ],
                    [
                        -41.15361049242464,
                        64.01523110789137
                    ]
                ]
            }
        }
    ]
}
