{
    "type": "FeatureCollection",
    "features": [
        {
            "type": "Feature",
            "properties": {
                "name": "Cook",
                "object": "transect",
                "component": "landice",
                "author": "Matthew Hoffman, converted from https://github.com/yuwang115/sl-ice",
                "tags": "Antarctic_Ice_Sheet;flowline;sl-ice;cook"
            },
            "geometry": {
                "type": "LineString",
                "coordinates": [
                    [
                        141.85504732836225,
                        -72.87248234770023
                    ],
                    [
                        141.90716313133015,
                        -72.86306801388737
                    ],
                    [
                        141.95891289700023,
                        -72.8535002498122
                    ],
                    [
                        142.01061345641705,
                        -72.84391539609376
                    ],
                    [
                        142.0627320340289,
                        -72.83454665192507
                    ],
                    [
                        142.11515369779607,
                        -72.82534979515482
                    ],
                    [
                        142.16792771640738,
                        -72.81633559256262
                    ],
                    [
                        142.22097103838712,
                        -72.80748441017761
                    ],
                    [
                        142.2740781576256,
                        -72.7986689832887
                    ],
                    [
                        142.32707639302242,
                        -72.7898155637969
                    ],
                    [
                        142.3798795511248,
                        -72.78087615448587
                    ],
                    [
                        142.43248996090117,
                        -72.77185721260064
                    ],
                    [
                        142.48481817961704,
                        -72.76270454745767
                    ],
                    [
                        142.53678556056636,
                        -72.75338931883594
                    ],
                    [
                        142.58873494854083,
                        -72.74407486109183
                    ],
                    [
                        142.6405643187087,
                        -72.73472668888269
                    ],
                    [
                        142.69219039757905,
                        -72.72528075816385
                    ],
                    [
                        142.74348637254963,
                        -72.71569734498391
                    ],
                    [
                        142.79451477392152,
                        -72.70599661887096
                    ],
                    [
                        142.84549091796254,
                        -72.69629524418062
                    ],
                    [
                        142.8962408724896,
                        -72.68649759257681
                    ],
                    [
                        142.94668595142522,
                        -72.67657494296442
                    ],
                    [
                        142.99684064596312,
                        -72.66653653525084
                    ],
                    [
                        143.04677374535703,
                        -72.65641502224953
                    ],
                    [
                        143.09646988724325,
                        -72.64620155540976
                    ],
                    [
                        143.14585936604604,
                        -72.63586390128944
                    ],
                    [
                        143.1948693317073,
                        -72.62538610491
                    ],
                    [
                        143.24366831837054,
                        -72.61482865670398
                    ],
                    [
                        143.29235891059182,
                        -72.60424832334635
                    ],
                    [
                        143.34081100118547,
                        -72.59357690086932
                    ],
                    [
                        143.38889438081898,
                        -72.58276882607923
                    ],
                    [
                        143.4366479296297,
                        -72.5718387040133
                    ],
                    [
                        143.4842379400962,
                        -72.5608629653776
                    ],
                    [
                        143.53175509480002,
                        -72.54987302407334
                    ],
                    [
                        143.57898434864157,
                        -72.53878211797398
                    ],
                    [
                        143.6256861463844,
                        -72.5274983698396
                    ],
                    [
                        143.6717120907174,
                        -72.51598388328571
                    ],
                    [
                        143.71649272634585,
                        -72.50404650939754
                    ],
                    [
                        143.75942941083778,
                        -72.49152173503253
                    ],
                    [
                        143.80039979416125,
                        -72.47842297282395
                    ],
                    [
                        143.83946637862374,
                        -72.46480979204
                    ],
                    [
                        143.87735253758925,
                        -72.45090372522874
                    ],
                    [
                        143.9141324718837,
                        -72.43674388221088
                    ],
                    [
                        143.9492295655138,
                        -72.42220384130187
                    ],
                    [
                        143.9827376468633,
                        -72.40733813639405
                    ],
                    [
                        144.0149114508139,
                        -72.39220313667457
                    ],
                    [
                        144.0463211823591,
                        -72.37692994678515
                    ],
                    [
                        144.0773339078182,
                        -72.36158819273662
                    ],
                    [
                        144.108199155094,
                        -72.34622715741287
                    ],
                    [
                        144.1391505957273,
                        -72.33088703774347
                    ],
                    [
                        144.1700921536791,
                        -72.3155467148267
                    ],
                    [
                        144.20096725363976,
                        -72.30019930590795
                    ],
                    [
                        144.2324610549073,
                        -72.28497845212269
                    ],
                    [
                        144.26502445578316,
                        -72.26997733794344
                    ],
                    [
                        144.29847970169,
                        -72.25516228328914
                    ],
                    [
                        144.33337095138046,
                        -72.2406633041657
                    ],
                    [
                        144.36978865627086,
                        -72.2265329080583
                    ],
                    [
                        144.40717783259916,
                        -72.21264350263807
                    ],
                    [
                        144.44462730674508,
                        -72.19877330137768
                    ],
                    [
                        144.48212853962897,
                        -72.18492590794408
                    ],
                    [
                        144.51974474554146,
                        -72.17112058837306
                    ],
                    [
                        144.55741276644792,
                        -72.15733794772758
                    ],
                    [
                        144.59508990701286,
                        -72.14355758495772
                    ],
                    [
                        144.63273535071738,
                        -72.12978160432152
                    ],
                    [
                        144.6706425816737,
                        -72.11608492423973
                    ],
                    [
                        144.70881647252367,
                        -72.10245742460596
                    ],
                    [
                        144.74723157727792,
                        -72.08890992758224
                    ],
                    [
                        144.78602745189792,
                        -72.07546709377479
                    ],
                    [
                        144.82516328744194,
                        -72.06213082504708
                    ],
                    [
                        144.86466640170406,
                        -72.04891231185522
                    ],
                    [
                        144.90435580730806,
                        -72.03575007293864
                    ],
                    [
                        144.94401352844363,
                        -72.02259124375081
                    ],
                    [
                        144.98373493896392,
                        -72.00945645387625
                    ],
                    [
                        145.02417848395532,
                        -71.99654842196924
                    ],
                    [
                        145.0651119622328,
                        -71.98378903290207
                    ],
                    [
                        145.10609255605885,
                        -71.97106037049431
                    ],
                    [
                        145.14689646519645,
                        -71.95828120178032
                    ],
                    [
                        145.18755477794025,
                        -71.94546926726885
                    ],
                    [
                        145.22786642532284,
                        -71.93256489238775
                    ],
                    [
                        145.26707811009598,
                        -71.91934594591532
                    ],
                    [
                        145.3056948868212,
                        -71.9059654348646
                    ],
                    [
                        145.34495205987116,
                        -71.89277662620108
                    ],
                    [
                        145.385578125705,
                        -71.88001200727948
                    ],
                    [
                        145.42673748400819,
                        -71.86741490762236
                    ],
                    [
                        145.46816970433449,
                        -71.85491272181733
                    ],
                    [
                        145.5105517072726,
                        -71.84273742708034
                    ],
                    [
                        145.5537221181683,
                        -71.8308427980592
                    ],
                    [
                        145.5972204534465,
                        -71.81908068458675
                    ],
                    [
                        145.641118259606,
                        -71.80746602937887
                    ],
                    [
                        145.6854821669204,
                        -71.79603984525613
                    ],
                    [
                        145.7303752889504,
                        -71.7848368320268
                    ],
                    [
                        145.77583013235352,
                        -71.77385789824655
                    ],
                    [
                        145.82152034021908,
                        -71.76298961259694
                    ],
                    [
                        145.86725352624546,
                        -71.752152834742
                    ],
                    [
                        145.91352175683627,
                        -71.74156030548406
                    ],
                    [
                        145.96064886624507,
                        -71.73135043634528
                    ],
                    [
                        146.0085136676544,
                        -71.72150736270001
                    ],
                    [
                        146.05733053067343,
                        -71.71214033909864
                    ],
                    [
                        146.10644728805988,
                        -71.70294271358907
                    ],
                    [
                        146.15552961243785,
                        -71.69374083347685
                    ],
                    [
                        146.20433278299893,
                        -71.68440755015463
                    ],
                    [
                        146.25317626923524,
                        -71.67510754570836
                    ],
                    [
                        146.30219478342372,
                        -71.66590676520818
                    ],
                    [
                        146.3508426378567,
                        -71.65652874028574
                    ],
                    [
                        146.3985486619308,
                        -71.6467088309416
                    ],
                    [
                        146.44534265053161,
                        -71.63646520153742
                    ],
                    [
                        146.49127870379317,
                        -71.6258532984814
                    ],
                    [
                        146.5367046856638,
                        -71.61503271085667
                    ],
                    [
                        146.5818026970344,
                        -71.60409567497878
                    ],
                    [
                        146.62663180464247,
                        -71.59305477161871
                    ],
                    [
                        146.67131102077064,
                        -71.581967218065
                    ],
                    [
                        146.71595148520854,
                        -71.57087767615911
                    ],
                    [
                        146.76085915397547,
                        -71.55990863402003
                    ],
                    [
                        146.806109714929,
                        -71.5490808176067
                    ],
                    [
                        146.85195143964518,
                        -71.5385363466666
                    ],
                    [
                        146.89839680244972,
                        -71.52826099728692
                    ],
                    [
                        146.94489746817482,
                        -71.51802840317866
                    ],
                    [
                        146.99091884139708,
                        -71.50758908075318
                    ],
                    [
                        147.03621698545365,
                        -71.49683981838186
                    ],
                    [
                        147.08092403690404,
                        -71.48587270554026
                    ],
                    [
                        147.12515382616206,
                        -71.47470633433258
                    ],
                    [
                        147.16890312502736,
                        -71.46336720484008
                    ],
                    [
                        147.21195671017037,
                        -71.4517795752352
                    ],
                    [
                        147.25440133544942,
                        -71.4399671383974
                    ],
                    [
                        147.29591929741778,
                        -71.42783872733254
                    ],
                    [
                        147.3367177070996,
                        -71.41547470566432
                    ],
                    [
                        147.37710714308366,
                        -71.40298697199361
                    ],
                    [
                        147.41719845007574,
                        -71.39040373569088
                    ],
                    [
                        147.45677433070276,
                        -71.37767555608369
                    ],
                    [
                        147.49546827724058,
                        -71.36466955636246
                    ],
                    [
                        147.53228369222649,
                        -71.35113553892339
                    ],
                    [
                        147.56751295145116,
                        -71.33718713750493
                    ],
                    [
                        147.6010993447989,
                        -71.32282947226864
                    ],
                    [
                        147.6337847011406,
                        -71.30826705935239
                    ],
                    [
                        147.66604357453363,
                        -71.29361252301275
                    ],
                    [
                        147.69772307664718,
                        -71.27883493603173
                    ],
                    [
                        147.7288593649097,
                        -71.26394179215993
                    ],
                    [
                        147.75990251657248,
                        -71.24904044905243
                    ],
                    [
                        147.7909308614206,
                        -71.23414149050384
                    ],
                    [
                        147.82170447948275,
                        -71.21919096799874
                    ],
                    [
                        147.8518940491386,
                        -71.20412220241194
                    ],
                    [
                        147.881775486927,
                        -71.18899650351908
                    ],
                    [
                        147.91097286626072,
                        -71.1737378050559
                    ],
                    [
                        147.939444620518,
                        -71.1583431100664
                    ],
                    [
                        147.96769720644886,
                        -71.14291502169415
                    ],
                    [
                        147.9955034761969,
                        -71.12740231928694
                    ],
                    [
                        148.02260302070115,
                        -71.1117629651614
                    ],
                    [
                        148.04937247616263,
                        -71.09607319796798
                    ],
                    [
                        148.07629895231477,
                        -71.0804103856302
                    ],
                    [
                        148.10311420497985,
                        -71.06473612454009
                    ],
                    [
                        148.1297247729116,
                        -71.04903152557702
                    ],
                    [
                        148.1562202545291,
                        -71.03330942068527
                    ],
                    [
                        148.1822938805969,
                        -71.01751840232512
                    ],
                    [
                        148.20794643579268,
                        -71.00165865768268
                    ],
                    [
                        148.23310860000132,
                        -70.9857162160894
                    ],
                    [
                        148.25765451654382,
                        -70.96968150575918
                    ],
                    [
                        148.28160429358698,
                        -70.95355333329003
                    ],
                    [
                        148.30481640368657,
                        -70.9373136772706
                    ],
                    [
                        148.3272313410623,
                        -70.92096105446785
                    ],
                    [
                        148.34882748828264,
                        -70.90449107743673
                    ],
                    [
                        148.3696504631488,
                        -70.88792343482551
                    ],
                    [
                        148.39022014533694,
                        -70.87131564525997
                    ],
                    [
                        148.4106157843651,
                        -70.85469420130907
                    ],
                    [
                        148.43019976899916,
                        -70.83797243910577
                    ],
                    [
                        148.44795877641317,
                        -70.82103506089693
                    ],
                    [
                        148.46322370104866,
                        -70.80384126005409
                    ],
                    [
                        148.47477102612066,
                        -70.78633245760507
                    ],
                    [
                        148.4856505139709,
                        -70.76877716685581
                    ],
                    [
                        148.49640489095117,
                        -70.75122712340027
                    ],
                    [
                        148.50718369708093,
                        -70.73367051571627
                    ],
                    [
                        148.5186893335774,
                        -70.71616549843874
                    ],
                    [
                        148.53175134285684,
                        -70.69878575779215
                    ],
                    [
                        148.54639325789333,
                        -70.68154175004706
                    ],
                    [
                        148.56141528020794,
                        -70.66434300744976
                    ],
                    [
                        148.57636403084805,
                        -70.6471344722773
                    ],
                    [
                        148.59021470556854,
                        -70.62982906376354
                    ],
                    [
                        148.60289853800018,
                        -70.61242303963299
                    ],
                    [
                        148.61555919341663,
                        -70.59501695357416
                    ],
                    [
                        148.62859726871585,
                        -70.5776501396178
                    ],
                    [
                        148.64104574444025,
                        -70.56023124650544
                    ],
                    [
                        148.65290362809938,
                        -70.54277038087437
                    ],
                    [
                        148.66394729518098,
                        -70.52525336636089
                    ],
                    [
                        148.67462881295688,
                        -70.50770894523251
                    ],
                    [
                        148.6849053768459,
                        -70.49014400547475
                    ],
                    [
                        148.6949454882286,
                        -70.47256125795877
                    ],
                    [
                        148.70662220668314,
                        -70.45510095275058
                    ],
                    [
                        148.72134643721108,
                        -70.43790423242808
                    ],
                    [
                        148.7386141467974,
                        -70.42096863779174
                    ],
                    [
                        148.75717039637507,
                        -70.40419081082644
                    ],
                    [
                        148.77654015568658,
                        -70.3875212524674
                    ],
                    [
                        148.7965530044561,
                        -70.370941016272
                    ],
                    [
                        148.8166065536909,
                        -70.35436930244038
                    ],
                    [
                        148.83637321422887,
                        -70.33775507772087
                    ],
                    [
                        148.85542834024795,
                        -70.32105887155105
                    ],
                    [
                        148.87351010234912,
                        -70.30423772507682
                    ],
                    [
                        148.89076130465978,
                        -70.28732583019442
                    ],
                    [
                        148.9085381381132,
                        -70.27047402704333
                    ],
                    [
                        148.92739010164073,
                        -70.25376301659541
                    ],
                    [
                        148.9476703860444,
                        -70.23724398133805
                    ],
                    [
                        148.96995975006718,
                        -70.2210300951934
                    ],
                    [
                        148.99330200014074,
                        -70.20498915528788
                    ],
                    [
                        149.017050982243,
                        -70.18901557747544
                    ],
                    [
                        149.04087841355667,
                        -70.173068546789
                    ],
                    [
                        149.06453134506256,
                        -70.15709132698741
                    ],
                    [
                        149.08771908248107,
                        -70.14104037856076
                    ],
                    [
                        149.11048308182038,
                        -70.12491894501524
                    ],
                    [
                        149.13309457720248,
                        -70.10878223874296
                    ],
                    [
                        149.15572046545532,
                        -70.09264859502115
                    ],
                    [
                        149.17847326873766,
                        -70.07654090050131
                    ],
                    [
                        149.20144274945912,
                        -70.06047739966928
                    ],
                    [
                        149.22465985645846,
                        -70.04444875800561
                    ],
                    [
                        149.24822763937544,
                        -70.02849151667516
                    ],
                    [
                        149.2720219829291,
                        -70.01258039446363
                    ],
                    [
                        149.2958808314112,
                        -69.99667721549218
                    ],
                    [
                        149.3195261229814,
                        -69.9807410348339
                    ],
                    [
                        149.34308156698492,
                        -69.96479700018891
                    ],
                    [
                        149.36682950630438,
                        -69.94889209050615
                    ],
                    [
                        149.39063525088156,
                        -69.93299891339481
                    ],
                    [
                        149.4142504676542,
                        -69.91707739181632
                    ],
                    [
                        149.4376485691079,
                        -69.90111694245613
                    ],
                    [
                        149.46085029002117,
                        -69.88513215858944
                    ],
                    [
                        149.48342291897674,
                        -69.86905074259622
                    ],
                    [
                        149.5050215510215,
                        -69.85280269443066
                    ],
                    [
                        149.52646455266793,
                        -69.83654379501075
                    ],
                    [
                        149.54854267860094,
                        -69.82038272395123
                    ],
                    [
                        149.57088107154314,
                        -69.80427445778408
                    ],
                    [
                        149.59295383132925,
                        -69.78812261106411
                    ],
                    [
                        149.61426129157869,
                        -69.77185168635114
                    ],
                    [
                        149.63461852566763,
                        -69.75543969016833
                    ],
                    [
                        149.653508441999,
                        -69.73882307043634
                    ],
                    [
                        149.67068215457186,
                        -69.72199260304393
                    ],
                    [
                        149.6873835467066,
                        -69.7050971032983
                    ],
                    [
                        149.705012767256,
                        -69.68832246882646
                    ],
                    [
                        149.72307895591916,
                        -69.67160534008583
                    ],
                    [
                        149.74163010916428,
                        -69.65496066287598
                    ],
                    [
                        149.76102508801557,
                        -69.63843031000195
                    ],
                    [
                        149.78127137142476,
                        -69.62202616795966
                    ],
                    [
                        149.80206961311455,
                        -69.6057133083408
                    ],
                    [
                        149.82364162428684,
                        -69.58952641002317
                    ],
                    [
                        149.84631273021233,
                        -69.5735262947493
                    ],
                    [
                        149.87066435802438,
                        -69.55784115154421
                    ],
                    [
                        149.89797326770895,
                        -69.54276577011969
                    ],
                    [
                        149.92611083960506,
                        -69.52787313842268
                    ],
                    [
                        149.95314522317207,
                        -69.51274582498839
                    ],
                    [
                        149.98038133502052,
                        -69.49766385261556
                    ],
                    [
                        150.00771341084186,
                        -69.48261089682619
                    ],
                    [
                        150.03444473392264,
                        -69.46743046249657
                    ],
                    [
                        150.06092197250973,
                        -69.45219796426977
                    ],
                    [
                        150.08804413964373,
                        -69.43711584956732
                    ],
                    [
                        150.1151037239496,
                        -69.4220254766642
                    ],
                    [
                        150.1413018996755,
                        -69.40674484546446
                    ],
                    [
                        150.16721247244573,
                        -69.3914157716048
                    ],
                    [
                        150.19260698044695,
                        -69.37598187630776
                    ],
                    [
                        150.2164579594575,
                        -69.36025121572484
                    ],
                    [
                        150.23877577919868,
                        -69.34424663084737
                    ],
                    [
                        150.26036474955305,
                        -69.32812031682234
                    ],
                    [
                        150.2821556100973,
                        -69.3120344787995
                    ],
                    [
                        150.3046874747031,
                        -69.29607734881125
                    ],
                    [
                        150.32715107338151,
                        -69.28011124822265
                    ],
                    [
                        150.35021505252516,
                        -69.26426078813556
                    ],
                    [
                        150.37471519659238,
                        -69.24868930652127
                    ],
                    [
                        150.40128923775168,
                        -69.23355588230609
                    ],
                    [
                        150.43223206919026,
                        -69.21951711916134
                    ],
                    [
                        150.46631197877085,
                        -69.20643594801297
                    ],
                    [
                        150.50202368900375,
                        -69.19391558545418
                    ],
                    [
                        150.53848663403002,
                        -69.18167555931532
                    ],
                    [
                        150.57315804055193,
                        -69.16881588722627
                    ],
                    [
                        150.60599653458257,
                        -69.15535501487986
                    ],
                    [
                        150.63821607992554,
                        -69.14171635136687
                    ],
                    [
                        150.6713815692301,
                        -69.1283721853433
                    ],
                    [
                        150.70432601938217,
                        -69.11497082366881
                    ],
                    [
                        150.73677174011317,
                        -69.10141594676897
                    ],
                    [
                        150.76922760841188,
                        -69.0878759217935
                    ],
                    [
                        150.8012104260965,
                        -69.07420314401594
                    ],
                    [
                        150.83241495169932,
                        -69.06030117685421
                    ],
                    [
                        150.86164109846104,
                        -69.04587992274635
                    ],
                    [
                        150.88866618681595,
                        -69.03091101789491
                    ],
                    [
                        150.91468756626594,
                        -69.01572560580233
                    ],
                    [
                        150.93899492504582,
                        -69.00018743989426
                    ],
                    [
                        150.96159333166761,
                        -68.98432330516704
                    ],
                    [
                        150.9826676463438,
                        -68.9681906028443
                    ],
                    [
                        151.00301178843551,
                        -68.95194759617758
                    ],
                    [
                        151.02306390968175,
                        -68.93565103476655
                    ],
                    [
                        151.04192998006496,
                        -68.919183913731
                    ],
                    [
                        151.05890946485536,
                        -68.90245244808658
                    ],
                    [
                        151.07496217248743,
                        -68.88560702632651
                    ],
                    [
                        151.0906623595787,
                        -68.86871619142316
                    ],
                    [
                        151.1055900912608,
                        -68.85174198526774
                    ],
                    [
                        151.11913140605355,
                        -68.83461784650783
                    ],
                    [
                        151.12740253430195,
                        -68.81711817040703
                    ],
                    [
                        151.125541895421,
                        -68.79936405756308
                    ],
                    [
                        151.12178652052015,
                        -68.78161304200657
                    ],
                    [
                        151.1181532317509,
                        -68.76386064084637
                    ],
                    [
                        151.11395311450275,
                        -68.74612662335544
                    ],
                    [
                        151.11253739573706,
                        -68.72833479832528
                    ],
                    [
                        151.11681100942846,
                        -68.7106217457563
                    ],
                    [
                        151.12768559289393,
                        -68.69327943992698
                    ],
                    [
                        151.14288340343617,
                        -68.67637112098846
                    ],
                    [
                        151.1605435316629,
                        -68.65977309385846
                    ],
                    [
                        151.1788537270179,
                        -68.64326933707021
                    ],
                    [
                        151.19818789354832,
                        -68.62692469420325
                    ],
                    [
                        151.2165662971655,
                        -68.6104384494076
                    ],
                    [
                        151.2349157488079,
                        -68.59395091869595
                    ],
                    [
                        151.2532363130797,
                        -68.5774621080731
                    ],
                    [
                        151.27152805440548,
                        -68.56097202352777
                    ],
                    [
                        151.28979103703074,
                        -68.54448067103273
                    ],
                    [
                        151.3080253250225,
                        -68.52798805654479
                    ],
                    [
                        151.3262309822699,
                        -68.5114941860049
                    ],
                    [
                        151.34440807248473,
                        -68.49499906533818
                    ],
                    [
                        151.36255665920189,
                        -68.47850270045396
                    ],
                    [
                        151.3806768057802,
                        -68.4620050972459
                    ],
                    [
                        151.39876857540276,
                        -68.44550626159203
                    ],
                    [
                        151.41683203107755,
                        -68.42900619935467
                    ],
                    [
                        151.434867235638,
                        -68.41250491638073
                    ],
                    [
                        151.45287425174357,
                        -68.39600241850152
                    ],
                    [
                        151.4708531418802,
                        -68.37949871153295
                    ],
                    [
                        151.4888039683611,
                        -68.3629938012756
                    ],
                    [
                        151.50672679332698,
                        -68.34648769351465
                    ],
                    [
                        151.52462167874683,
                        -68.32998039402001
                    ],
                    [
                        151.54248868641832,
                        -68.31347190854642
                    ],
                    [
                        151.56032787796858,
                        -68.29696224283342
                    ]
                ]
            }
        }
    ]
}
