{
    "type": "FeatureCollection",
    "features": [
        {
            "type": "Feature",
            "properties": {
                "name": "Greenland Glacier 0147",
                "object": "transect",
                "component": "landice",
                "author": "Matthew Hoffman, converted from Felikson et al. (2020) Zenodo dataset",
                "tags": "Greenland_Ice_Sheet;flowline;zenodo_4284759;glacier_0147",
                "citation": "Felikson, Denis, Catania, Ginny, Bartholomaus, Timothy, Morlighem, Mathieu, & No\u00ebl, Brice. (2020). Inland limits to diffusion of thinning along Greenland Ice Sheet outlet glaciers (v1.0) [Data set]. Zenodo. https://doi.org/10.5281/zenodo.4284759",
                "license": "CC-BY-4.0"
            },
            "geometry": {
                "type": "LineString",
                "coordinates": [
                    [
                        -29.52408282803071,
                        70.71698312893248
                    ],
                    [
                        -29.52811216776348,
                        70.71968178789857
                    ],
                    [
                        -29.529466307578193,
                        70.72213566454307
                    ],
                    [
                        -29.527738467127858,
                        70.72430771938835
                    ],
                    [
                        -29.52363663472762,
                        70.72626269950293
                    ],
                    [
                        -29.518237703551122,
                        70.72809901103328
                    ],
                    [
                        -29.5121791935992,
                        70.72987490018753
                    ],
                    [
                        -29.505289868776853,
                        70.73157463214629
                    ],
                    [
                        -29.497226763005713,
                        70.73316670702351
                    ],
                    [
                        -29.489122441146606,
                        70.73441204298325
                    ],
                    [
                        -29.481288811895908,
                        70.7353338714741
                    ],
                    [
                        -29.473687300978895,
                        70.73597859339728
                    ],
                    [
                        -29.46624808007046,
                        70.73642960417008
                    ],
                    [
                        -29.45891936034135,
                        70.73674869175818
                    ],
                    [
                        -29.45171519140254,
                        70.73691938711782
                    ],
                    [
                        -29.444625754684363,
                        70.73695355554226
                    ],
                    [
                        -29.437630703549267,
                        70.73687551391151
                    ],
                    [
                        -29.43072894788001,
                        70.73668671141127
                    ],
                    [
                        -29.423934774726625,
                        70.73637037793362
                    ],
                    [
                        -29.4172172362321,
                        70.73596332148351
                    ],
                    [
                        -29.410566831153652,
                        70.73547690330768
                    ],
                    [
                        -29.403987292675144,
                        70.73490680824483
                    ],
                    [
                        -29.397447944937227,
                        70.73428941180761
                    ],
                    [
                        -29.39094978071809,
                        70.73362359859091
                    ],
                    [
                        -29.38448821548006,
                        70.73291484362466
                    ],
                    [
                        -29.378063569643352,
                        70.73216281982148
                    ],
                    [
                        -29.37166977645126,
                        70.73137474027587
                    ],
                    [
                        -29.365299715856885,
                        70.73055904929015
                    ],
                    [
                        -29.35894636644881,
                        70.7297240614203
                    ],
                    [
                        -29.3525970058047,
                        70.72888480068464
                    ],
                    [
                        -29.346239682310237,
                        70.72805535938477
                    ],
                    [
                        -29.339894067164455,
                        70.7272125483034
                    ],
                    [
                        -29.333573133179648,
                        70.72634110320607
                    ],
                    [
                        -29.327313780061306,
                        70.72539761212033
                    ],
                    [
                        -29.321098759264316,
                        70.72440245595428
                    ],
                    [
                        -29.314970393775308,
                        70.72330589777089
                    ],
                    [
                        -29.308953647716045,
                        70.72207868502937
                    ],
                    [
                        -29.303017192391973,
                        70.72075778559595
                    ],
                    [
                        -29.297101725902152,
                        70.71941299262454
                    ],
                    [
                        -29.291213802040154,
                        70.7180366290624
                    ],
                    [
                        -29.285379254454103,
                        70.71659838181151
                    ],
                    [
                        -29.279617455035638,
                        70.71507556298236
                    ],
                    [
                        -29.2739555586541,
                        70.71343637459186
                    ],
                    [
                        -29.268434880196324,
                        70.71163243533083
                    ],
                    [
                        -29.26311337992386,
                        70.70959588149306
                    ],
                    [
                        -29.258039450025862,
                        70.70727012693433
                    ],
                    [
                        -29.253185667671758,
                        70.70468752490942
                    ],
                    [
                        -29.253185667671758,
                        70.70468752490942
                    ],
                    [
                        -29.248333208401633,
                        70.70210480599233
                    ],
                    [
                        -29.24379948676344,
                        70.6993486720045
                    ],
                    [
                        -29.240100073691757,
                        70.69667021179599
                    ],
                    [
                        -29.237244996380337,
                        70.69407045071925
                    ],
                    [
                        -29.235058080763217,
                        70.69153300716457
                    ],
                    [
                        -29.233337969399777,
                        70.68903911780272
                    ],
                    [
                        -29.23198230779923,
                        70.68657924809776
                    ],
                    [
                        -29.23095994881265,
                        70.68415050832368
                    ],
                    [
                        -29.23028487876536,
                        70.68175422377672
                    ],
                    [
                        -29.229908739684205,
                        70.67938588879603
                    ],
                    [
                        -29.229747980280226,
                        70.67703770197963
                    ],
                    [
                        -29.229648388688688,
                        70.67469524798096
                    ],
                    [
                        -29.229511032347666,
                        70.67234927480715
                    ],
                    [
                        -29.229303449497596,
                        70.66999674425851
                    ],
                    [
                        -29.229070667833177,
                        70.66764186675955
                    ],
                    [
                        -29.228929267523707,
                        70.66529555057558
                    ],
                    [
                        -29.22895393461015,
                        70.66296478862168
                    ],
                    [
                        -29.228945169254366,
                        70.66063091356475
                    ],
                    [
                        -29.22859626220663,
                        70.65826521317337
                    ],
                    [
                        -29.227790702647614,
                        70.65585676539447
                    ],
                    [
                        -29.22650417525268,
                        70.65340327089801
                    ],
                    [
                        -29.224845816386875,
                        70.65091492431449
                    ],
                    [
                        -29.222692374933587,
                        70.64838015326683
                    ],
                    [
                        -29.21999694964054,
                        70.6457945244768
                    ],
                    [
                        -29.21685230915315,
                        70.64316668849143
                    ],
                    [
                        -29.21344634292641,
                        70.64051422431407
                    ],
                    [
                        -29.209969184685757,
                        70.6378549445408
                    ],
                    [
                        -29.206568203284878,
                        70.63520267345395
                    ],
                    [
                        -29.203317534679886,
                        70.63256437929958
                    ],
                    [
                        -29.200247396256092,
                        70.62994291481489
                    ],
                    [
                        -29.197401604661408,
                        70.62734241361642
                    ],
                    [
                        -29.194819253404784,
                        70.62476656981018
                    ],
                    [
                        -29.192484520766268,
                        70.62221391833693
                    ],
                    [
                        -29.190385492180067,
                        70.61968335856956
                    ],
                    [
                        -29.188536659067694,
                        70.61717627112219
                    ],
                    [
                        -29.186944420996543,
                        70.61469327551065
                    ],
                    [
                        -29.18553939458751,
                        70.61222785969134
                    ],
                    [
                        -29.18419286535822,
                        70.60976792111293
                    ],
                    [
                        -29.182797010177044,
                        70.6073033133059
                    ],
                    [
                        -29.181279706352427,
                        70.60482724244731
                    ],
                    [
                        -29.179635540220914,
                        70.60233919100159
                    ],
                    [
                        -29.17790554215523,
                        70.59984301573327
                    ],
                    [
                        -29.176145170880925,
                        70.59734393639008
                    ],
                    [
                        -29.17438679229091,
                        70.59484500127697
                    ],
                    [
                        -29.17265369881143,
                        70.59234840628443
                    ],
                    [
                        -29.17097082203167,
                        70.58985650395392
                    ],
                    [
                        -29.16933938385209,
                        70.58736941286809
                    ],
                    [
                        -29.16773316104283,
                        70.58488466263216
                    ],
                    [
                        -29.16612345453632,
                        70.58239954693781
                    ],
                    [
                        -29.16447504896734,
                        70.57991074197899
                    ],
                    [
                        -29.16273223687861,
                        70.57741298635325
                    ],
                    [
                        -29.160857103313816,
                        70.57490269354024
                    ],
                    [
                        -29.15878877470176,
                        70.57237410472486
                    ],
                    [
                        -29.156510558679425,
                        70.56982562849055
                    ],
                    [
                        -29.154041254240685,
                        70.56725902487908
                    ],
                    [
                        -29.151406720573153,
                        70.56467672262427
                    ],
                    [
                        -29.148704214421436,
                        70.56208790425418
                    ],
                    [
                        -29.14603311137795,
                        70.55950196378996
                    ],
                    [
                        -29.143416588623285,
                        70.55692109693022
                    ],
                    [
                        -29.140837083078164,
                        70.55434364604278
                    ],
                    [
                        -29.138256502225673,
                        70.55176600784554
                    ],
                    [
                        -29.13562076600904,
                        70.54918306065619
                    ],
                    [
                        -29.132879907120294,
                        70.54659006616149
                    ],
                    [
                        -29.129892427098,
                        70.54397360615226
                    ],
                    [
                        -29.12640773018304,
                        70.54130990171008
                    ],
                    [
                        -29.1220107301302,
                        70.53855953562143
                    ],
                    [
                        -29.117068728415223,
                        70.5361495445024
                    ],
                    [
                        -29.111802456604504,
                        70.53412083023072
                    ],
                    [
                        -29.106274847845974,
                        70.53239939281575
                    ],
                    [
                        -29.100527975808014,
                        70.53093570605378
                    ],
                    [
                        -29.094594474569217,
                        70.52969133065105
                    ],
                    [
                        -29.0884922254376,
                        70.52864512434462
                    ],
                    [
                        -29.082220742734755,
                        70.52779744575672
                    ],
                    [
                        -29.0757681290188,
                        70.52716198393337
                    ],
                    [
                        -29.069135679237096,
                        70.52673697359411
                    ],
                    [
                        -29.062348369705383,
                        70.52649297206392
                    ],
                    [
                        -29.05544313052258,
                        70.52638661747554
                    ],
                    [
                        -29.048454295196503,
                        70.52637764939456
                    ],
                    [
                        -29.041407690152177,
                        70.52643580243814
                    ],
                    [
                        -29.0343217443412,
                        70.52653949213146
                    ],
                    [
                        -29.027207422026578,
                        70.52667587434712
                    ],
                    [
                        -29.02007295361512,
                        70.52683531387179
                    ],
                    [
                        -29.012926032876575,
                        70.52700881856228
                    ],
                    [
                        -29.005772449450074,
                        70.52718962958741
                    ],
                    [
                        -28.998621744543826,
                        70.52736663679288
                    ],
                    [
                        -28.991468072930473,
                        70.52754664206357
                    ],
                    [
                        -28.984304351684656,
                        70.52773787268352
                    ],
                    [
                        -28.977130721915717,
                        70.5279401483623
                    ],
                    [
                        -28.969949347510145,
                        70.52815094050827
                    ],
                    [
                        -28.9627611565623,
                        70.52836915953631
                    ],
                    [
                        -28.955558336676734,
                        70.5286038565295
                    ],
                    [
                        -28.948333979216176,
                        70.52886301714729
                    ],
                    [
                        -28.941075867912556,
                        70.52916076192064
                    ],
                    [
                        -28.933771096825506,
                        70.52951198206283
                    ],
                    [
                        -28.92641228308572,
                        70.529925144575
                    ],
                    [
                        -28.918999620670302,
                        70.53039993131998
                    ],
                    [
                        -28.91153491684628,
                        70.53093415782952
                    ],
                    [
                        -28.90402462769406,
                        70.53152026951103
                    ],
                    [
                        -28.896471991398645,
                        70.53215444404998
                    ],
                    [
                        -28.888889100915303,
                        70.53282264217037
                    ],
                    [
                        -28.881280460653926,
                        70.53351961127441
                    ],
                    [
                        -28.8736458846796,
                        70.5342455195664
                    ],
                    [
                        -28.865980556678636,
                        70.53500587250444
                    ],
                    [
                        -28.858269586059805,
                        70.53581777063746
                    ],
                    [
                        -28.85049523204141,
                        70.53670155869219
                    ],
                    [
                        -28.84261898434111,
                        70.5377014385026
                    ],
                    [
                        -28.83457266036015,
                        70.53889563841355
                    ],
                    [
                        -28.82627467146302,
                        70.54037760481665
                    ],
                    [
                        -28.81872227721105,
                        70.54198417478948
                    ],
                    [
                        -28.811888812658996,
                        70.54366011471468
                    ],
                    [
                        -28.805677540571775,
                        70.54539613625107
                    ],
                    [
                        -28.800001056858648,
                        70.54718383405347
                    ],
                    [
                        -28.79468371046957,
                        70.54900623992792
                    ],
                    [
                        -28.789665814632254,
                        70.55085759854907
                    ],
                    [
                        -28.784915065054605,
                        70.55273480029085
                    ],
                    [
                        -28.780404215969188,
                        70.5546352214824
                    ],
                    [
                        -28.776037506869258,
                        70.55654959376524
                    ],
                    [
                        -28.7717415452456,
                        70.55847080967072
                    ],
                    [
                        -28.76742588906306,
                        70.56039010300428
                    ],
                    [
                        -28.76305191502671,
                        70.56230372677867
                    ],
                    [
                        -28.75862104327853,
                        70.56421181557154
                    ],
                    [
                        -28.754082203799015,
                        70.5661094111344
                    ],
                    [
                        -28.749423849081637,
                        70.56799538655186
                    ],
                    [
                        -28.744582782573755,
                        70.56986360028215
                    ],
                    [
                        -28.73946319230535,
                        70.57170473814752
                    ],
                    [
                        -28.73396355137044,
                        70.57350892070988
                    ],
                    [
                        -28.72800260229196,
                        70.57526822459423
                    ],
                    [
                        -28.721501925875558,
                        70.57697498893542
                    ],
                    [
                        -28.714454385022677,
                        70.57862846691921
                    ],
                    [
                        -28.706832459023033,
                        70.58022592226705
                    ],
                    [
                        -28.698540592199254,
                        70.58175798798
                    ],
                    [
                        -28.690366019161253,
                        70.58306002666778
                    ],
                    [
                        -28.682394238804957,
                        70.58412997340456
                    ],
                    [
                        -28.674602059929743,
                        70.5849945624937
                    ],
                    [
                        -28.666965257503502,
                        70.58568162881063
                    ],
                    [
                        -28.659464966336433,
                        70.58621285646346
                    ],
                    [
                        -28.652083406632674,
                        70.58660864601995
                    ],
                    [
                        -28.644802352801815,
                        70.58688985641722
                    ],
                    [
                        -28.637602224319817,
                        70.58707883652059
                    ],
                    [
                        -28.63047509428771,
                        70.58718469347552
                    ],
                    [
                        -28.6234095300551,
                        70.58722048312669
                    ],
                    [
                        -28.616395914864757,
                        70.5871971812845
                    ],
                    [
                        -28.609427630175276,
                        70.58712235222649
                    ],
                    [
                        -28.6024969864485,
                        70.58700475641913
                    ],
                    [
                        -28.595590187226893,
                        70.58686003808019
                    ],
                    [
                        -28.5886924822314,
                        70.58670489089772
                    ],
                    [
                        -28.58179353169401,
                        70.58655100049988
                    ],
                    [
                        -28.574890237014834,
                        70.58640186145357
                    ],
                    [
                        -28.567988235639476,
                        70.58625110910089
                    ],
                    [
                        -28.561102644113525,
                        70.58608170334864
                    ],
                    [
                        -28.554248435717064,
                        70.58587679506934
                    ],
                    [
                        -28.547432772115457,
                        70.58562836295437
                    ],
                    [
                        -28.540651252109395,
                        70.58534141791846
                    ],
                    [
                        -28.533894092303022,
                        70.58502701942149
                    ],
                    [
                        -28.52715317341016,
                        70.58469433598808
                    ],
                    [
                        -28.520422694718228,
                        70.58434991342205
                    ],
                    [
                        -28.513697269741602,
                        70.58399982098898
                    ],
                    [
                        -28.506970058766605,
                        70.58365175073955
                    ],
                    [
                        -28.50023479707343,
                        70.58331273618884
                    ],
                    [
                        -28.493489539798368,
                        70.5829849493941
                    ],
                    [
                        -28.486736811522047,
                        70.5826655431438
                    ],
                    [
                        -28.479986100878108,
                        70.58234386311867
                    ],
                    [
                        -28.473255741971823,
                        70.58199935455328
                    ],
                    [
                        -28.466557019720977,
                        70.58161939738496
                    ],
                    [
                        -28.45989120552465,
                        70.58120261062999
                    ],
                    [
                        -28.453252037839206,
                        70.5807560513199
                    ],
                    [
                        -28.446632593223335,
                        70.58028750576985
                    ],
                    [
                        -28.44002734271475,
                        70.57980318721076
                    ],
                    [
                        -28.433433552432163,
                        70.5793061723903
                    ],
                    [
                        -28.426853334617924,
                        70.57879411453213
                    ],
                    [
                        -28.420288708016987,
                        70.57826477499904
                    ],
                    [
                        -28.413735998108113,
                        70.57772227939635
                    ],
                    [
                        -28.407185519363388,
                        70.57717745999585
                    ],
                    [
                        -28.40062549865474,
                        70.5766434626772
                    ],
                    [
                        -28.394043537768034,
                        70.57613411026112
                    ],
                    [
                        -28.387425164346954,
                        70.57566551733082
                    ],
                    [
                        -28.3807550580451,
                        70.57525471792478
                    ],
                    [
                        -28.37401674906277,
                        70.57491999880698
                    ],
                    [
                        -28.367193548950677,
                        70.57467985859493
                    ],
                    [
                        -28.360253988201556,
                        70.57456922272095
                    ],
                    [
                        -28.35311848094409,
                        70.57467651037679
                    ],
                    [
                        -28.345704857380422,
                        70.57509284129944
                    ],
                    [
                        -28.337907939186135,
                        70.57593471530934
                    ],
                    [
                        -28.329646131563656,
                        70.577292124399
                    ],
                    [
                        -28.322022577605484,
                        70.57887548487587
                    ],
                    [
                        -28.314880483721193,
                        70.58050665781896
                    ],
                    [
                        -28.30797473528406,
                        70.58216124326927
                    ],
                    [
                        -28.301181940781397,
                        70.58382695208108
                    ],
                    [
                        -28.294352611315126,
                        70.58548887197522
                    ],
                    [
                        -28.287386315184882,
                        70.58713696902707
                    ],
                    [
                        -28.2436770207109,
                        70.59768393331522
                    ],
                    [
                        -28.199919319534075,
                        70.60822011908823
                    ],
                    [
                        -28.156113182325708,
                        70.61874550674432
                    ],
                    [
                        -28.11225857991864,
                        70.6292600766601
                    ],
                    [
                        -28.06835548330828,
                        70.63976380919081
                    ],
                    [
                        -28.024403863653657,
                        70.65025668467011
                    ],
                    [
                        -27.98040369227842,
                        70.6607386834104
                    ],
                    [
                        -27.936354940671894,
                        70.6712097857027
                    ],
                    [
                        -27.892257580490124,
                        70.68166997181677
                    ],
                    [
                        -27.848111583556918,
                        70.69211922200117
                    ],
                    [
                        -27.803916921864865,
                        70.70255751648324
                    ],
                    [
                        -27.75967356757643,
                        70.71298483546926
                    ],
                    [
                        -27.71538149302496,
                        70.72340115914446
                    ],
                    [
                        -27.671040670715755,
                        70.7338064676731
                    ],
                    [
                        -27.62665107332714,
                        70.74420074119841
                    ],
                    [
                        -27.582212673711492,
                        70.75458395984288
                    ],
                    [
                        -27.53772544489633,
                        70.76495610370804
                    ],
                    [
                        -27.493189360085367,
                        70.77531715287479
                    ],
                    [
                        -27.448604392659565,
                        70.78566708740325
                    ],
                    [
                        -27.403970516178237,
                        70.7960058873329
                    ]
                ]
            }
        }
    ]
}
