{
    "type": "FeatureCollection",
    "features": [
        {
            "type": "Feature",
            "properties": {
                "name": "Greenland Glacier 0067",
                "object": "transect",
                "component": "landice",
                "author": "Matthew Hoffman, converted from Felikson et al. (2020) Zenodo dataset",
                "tags": "Greenland_Ice_Sheet;flowline;zenodo_4284759;glacier_0067",
                "citation": "Felikson, Denis, Catania, Ginny, Bartholomaus, Timothy, Morlighem, Mathieu, & No\u00ebl, Brice. (2020). Inland limits to diffusion of thinning along Greenland Ice Sheet outlet glaciers (v1.0) [Data set]. Zenodo. https://doi.org/10.5281/zenodo.4284759",
                "license": "CC-BY-4.0"
            },
            "geometry": {
                "type": "LineString",
                "coordinates": [
                    [
                        -65.10629380848121,
                        76.6476292046678
                    ],
                    [
                        -65.11079249645614,
                        76.64967446014751
                    ],
                    [
                        -65.11440654896938,
                        76.65179458612704
                    ],
                    [
                        -65.1172640354241,
                        76.65397875919518
                    ],
                    [
                        -65.12032083194669,
                        76.65614613057645
                    ],
                    [
                        -65.12338295375487,
                        76.65831310781934
                    ],
                    [
                        -65.1268687239787,
                        76.66044430746402
                    ],
                    [
                        -65.1314029664272,
                        76.66248687136297
                    ],
                    [
                        -65.13579857039036,
                        76.66454120806495
                    ],
                    [
                        -65.13867204729976,
                        76.66672436853783
                    ],
                    [
                        -65.14063096997933,
                        76.6689849540498
                    ],
                    [
                        -65.14297686572375,
                        76.67121285653332
                    ],
                    [
                        -65.14599054133113,
                        76.67338432593588
                    ],
                    [
                        -65.14944152076541,
                        76.67551885892397
                    ],
                    [
                        -65.15158974421152,
                        76.67776365179203
                    ],
                    [
                        -65.15042510843567,
                        76.68028869083115
                    ],
                    [
                        -65.1504132534066,
                        76.6827162306331
                    ],
                    [
                        -65.15196267718491,
                        76.68501178708995
                    ],
                    [
                        -65.15387467887257,
                        76.68727673736035
                    ],
                    [
                        -65.1547165099624,
                        76.68963220317558
                    ],
                    [
                        -65.1542908081897,
                        76.69209482944277
                    ],
                    [
                        -65.14887223438556,
                        76.69497926598233
                    ],
                    [
                        -65.14088282844321,
                        76.69658033218612
                    ],
                    [
                        -65.13145472291892,
                        76.69727903784491
                    ],
                    [
                        -65.12408353747925,
                        76.6992700594548
                    ],
                    [
                        -65.11716071420868,
                        76.70154394095819
                    ],
                    [
                        -65.1087976553587,
                        76.70291411857458
                    ],
                    [
                        -65.10012579560635,
                        76.70409098088686
                    ],
                    [
                        -65.0922000496703,
                        76.70573773892308
                    ],
                    [
                        -65.08822853565539,
                        76.708497577189
                    ],
                    [
                        -65.08231953157801,
                        76.71141510284453
                    ],
                    [
                        -65.07707528681398,
                        76.71428143923998
                    ],
                    [
                        -65.07638474032774,
                        76.71676501074948
                    ],
                    [
                        -65.0710531208282,
                        76.71963830096942
                    ],
                    [
                        -65.06786509414376,
                        76.72233139517938
                    ],
                    [
                        -65.06755645001815,
                        76.72478275207172
                    ],
                    [
                        -65.06751404509366,
                        76.727211773553
                    ],
                    [
                        -65.06749738393665,
                        76.72963864573266
                    ],
                    [
                        -65.06814704240207,
                        76.73200964419084
                    ],
                    [
                        -65.06853478339669,
                        76.73440263594968
                    ],
                    [
                        -65.06043594800049,
                        76.73595366145575
                    ],
                    [
                        -65.05084915413636,
                        76.73657001782337
                    ],
                    [
                        -65.04110962981106,
                        76.73709048326886
                    ],
                    [
                        -65.0316539618933,
                        76.73778972588069
                    ],
                    [
                        -65.02283726941154,
                        76.73889160995766
                    ],
                    [
                        -65.01654332026084,
                        76.74158307459548
                    ],
                    [
                        -65.01027933896962,
                        76.7442948939592
                    ],
                    [
                        -65.0027594649045,
                        76.74621700156067
                    ],
                    [
                        -64.99465786670558,
                        76.74777366563839
                    ],
                    [
                        -64.98615528903898,
                        76.74907848442194
                    ],
                    [
                        -64.97721666970747,
                        76.75010906775458
                    ],
                    [
                        -64.9684015235782,
                        76.75121812679092
                    ],
                    [
                        -64.95941921666692,
                        76.75222230032443
                    ],
                    [
                        -64.94943991150907,
                        76.75259738979364
                    ],
                    [
                        -64.93746558033574,
                        76.75116978680651
                    ],
                    [
                        -64.92805837735665,
                        76.74952844515173
                    ],
                    [
                        -64.91731735734234,
                        76.74799778066506
                    ],
                    [
                        -64.90748649815187,
                        76.74639127575732
                    ],
                    [
                        -64.90065653680479,
                        76.7445354307025
                    ],
                    [
                        -64.89556741702819,
                        76.74253504067055
                    ],
                    [
                        -64.89080037777607,
                        76.74050794592021
                    ],
                    [
                        -64.8867161000938,
                        76.73842421545864
                    ],
                    [
                        -64.88292052472833,
                        76.73631657040455
                    ],
                    [
                        -64.87931736493135,
                        76.73419300643896
                    ],
                    [
                        -64.87633582947211,
                        76.73201790059832
                    ],
                    [
                        -64.87400719367898,
                        76.72978865709469
                    ],
                    [
                        -64.87213153177598,
                        76.72752186584103
                    ],
                    [
                        -64.87055954821174,
                        76.72522991368619
                    ],
                    [
                        -64.86902294272956,
                        76.7229350700689
                    ],
                    [
                        -64.86749605238028,
                        76.72063946507691
                    ],
                    [
                        -64.86614239267473,
                        76.71832952021096
                    ],
                    [
                        -64.86532048526578,
                        76.71597545606461
                    ],
                    [
                        -64.86472026717306,
                        76.7136030104337
                    ],
                    [
                        -64.86426110793266,
                        76.71121887385236
                    ],
                    [
                        -64.86401570148257,
                        76.70881700095566
                    ],
                    [
                        -64.86386814943029,
                        76.70640701454455
                    ],
                    [
                        -64.86411413713529,
                        76.70396433356059
                    ],
                    [
                        -64.86462452772743,
                        76.70149967502151
                    ],
                    [
                        -64.86518297607256,
                        76.69903101524089
                    ],
                    [
                        -64.86605087111664,
                        76.69653661117354
                    ],
                    [
                        -64.8674974171967,
                        76.69399404844152
                    ],
                    [
                        -64.86909120986789,
                        76.69143918993004
                    ],
                    [
                        -64.87067598749583,
                        76.68888503304056
                    ],
                    [
                        -64.87220872151184,
                        76.6863351611361
                    ],
                    [
                        -64.87389807810861,
                        76.68377219852461
                    ],
                    [
                        -64.87545311636995,
                        76.68122037283264
                    ],
                    [
                        -64.87681199378706,
                        76.67868484671028
                    ],
                    [
                        -64.87776135034038,
                        76.67618341705054
                    ],
                    [
                        -64.87826140150543,
                        76.6737194248641
                    ],
                    [
                        -64.87855487541475,
                        76.67127265371987
                    ],
                    [
                        -64.87891134994321,
                        76.6688206305016
                    ],
                    [
                        -64.87913645840287,
                        76.66637956592217
                    ],
                    [
                        -64.87916515686214,
                        76.66395489315495
                    ],
                    [
                        -64.87907416892294,
                        76.66154021865059
                    ],
                    [
                        -64.87883694027688,
                        76.6591377638592
                    ],
                    [
                        -64.8785035382423,
                        76.65674335543362
                    ],
                    [
                        -64.87833720946382,
                        76.65433501919622
                    ],
                    [
                        -64.87864163488462,
                        76.65188738937576
                    ],
                    [
                        -64.87929529373693,
                        76.64941059264427
                    ],
                    [
                        -64.88022618748643,
                        76.64691062492511
                    ],
                    [
                        -64.8812684283585,
                        76.6444013321052
                    ],
                    [
                        -64.88237562432884,
                        76.64188658507086
                    ],
                    [
                        -64.88369859524602,
                        76.6393537705278
                    ],
                    [
                        -64.88529922158254,
                        76.63679769953039
                    ],
                    [
                        -64.88697913162031,
                        76.63423494716092
                    ],
                    [
                        -64.88865163684122,
                        76.6316727615442
                    ],
                    [
                        -64.8904142326051,
                        76.6291029829458
                    ],
                    [
                        -64.89210083782791,
                        76.6265395097169
                    ],
                    [
                        -64.89356833496882,
                        76.62399433262112
                    ],
                    [
                        -64.89460100384825,
                        76.6214855362852
                    ],
                    [
                        -64.89486925680646,
                        76.61904076056315
                    ],
                    [
                        -64.89503433079899,
                        76.61660463414582
                    ],
                    [
                        -64.89511461137842,
                        76.61417562097124
                    ],
                    [
                        -64.89451194639774,
                        76.61180386548003
                    ],
                    [
                        -64.89305669229272,
                        76.60950361350147
                    ],
                    [
                        -64.89051858100191,
                        76.60729418855563
                    ],
                    [
                        -64.88703010082044,
                        76.60516449050341
                    ],
                    [
                        -64.88283578760387,
                        76.60309401325144
                    ],
                    [
                        -64.8773288796786,
                        76.60113359746921
                    ],
                    [
                        -64.8715175302597,
                        76.59919871418589
                    ],
                    [
                        -64.86562414221704,
                        76.59727071681243
                    ],
                    [
                        -64.85910887044501,
                        76.59539482141247
                    ],
                    [
                        -64.85174322019765,
                        76.59359012817688
                    ],
                    [
                        -64.84422661135369,
                        76.59179802713832
                    ],
                    [
                        -64.8368370582617,
                        76.58999523957738
                    ],
                    [
                        -64.82970405302217,
                        76.58817093914452
                    ],
                    [
                        -64.82274740208118,
                        76.58633185066074
                    ],
                    [
                        -64.81596070469219,
                        76.58447852023473
                    ],
                    [
                        -64.80903705953303,
                        76.58263661876362
                    ],
                    [
                        -64.8020296707069,
                        76.580801690383
                    ],
                    [
                        -64.7948397064338,
                        76.57898198912524
                    ],
                    [
                        -64.78752651474561,
                        76.57717254462393
                    ],
                    [
                        -64.78025031276222,
                        76.57535996644656
                    ],
                    [
                        -64.77336044542268,
                        76.57351508535092
                    ],
                    [
                        -64.76701938569985,
                        76.57162436040173
                    ],
                    [
                        -64.76136477367606,
                        76.56967633109893
                    ],
                    [
                        -64.75576185119569,
                        76.567724003789
                    ],
                    [
                        -64.75036698554631,
                        76.56575433225963
                    ],
                    [
                        -64.74534440463454,
                        76.56375362192475
                    ],
                    [
                        -64.74057374036178,
                        76.56173192671
                    ],
                    [
                        -64.7361543426598,
                        76.55968096614401
                    ],
                    [
                        -64.73219763775687,
                        76.55759145393779
                    ],
                    [
                        -64.72867436996458,
                        76.55546583775818
                    ],
                    [
                        -64.7255379557576,
                        76.5533080072074
                    ],
                    [
                        -64.72266233704227,
                        76.55112847810348
                    ],
                    [
                        -64.72034670638278,
                        76.54890229433472
                    ],
                    [
                        -64.71872259865383,
                        76.54661847854543
                    ],
                    [
                        -64.71818265094446,
                        76.54424425982954
                    ],
                    [
                        -64.71923488220196,
                        76.54173720542026
                    ],
                    [
                        -64.72232913166175,
                        76.53905966681353
                    ],
                    [
                        -64.72819407478511,
                        76.53615059539801
                    ],
                    [
                        -64.73480031566642,
                        76.53369551783226
                    ],
                    [
                        -64.74144113385525,
                        76.53126430227213
                    ],
                    [
                        -64.74756352885255,
                        76.52849794997074
                    ],
                    [
                        -64.7517338079429,
                        76.52572933589782
                    ],
                    [
                        -64.75488170447701,
                        76.52304612632722
                    ],
                    [
                        -64.75731416566668,
                        76.52042270759168
                    ],
                    [
                        -64.75927026677736,
                        76.51783910844016
                    ],
                    [
                        -64.76071447211666,
                        76.51529834221519
                    ],
                    [
                        -64.761505404661,
                        76.5128122933333
                    ],
                    [
                        -64.76171196962002,
                        76.5103752218807
                    ],
                    [
                        -64.76135510682678,
                        76.50798539980494
                    ],
                    [
                        -64.76021542484904,
                        76.50566124699078
                    ],
                    [
                        -64.75812032068333,
                        76.50341725947767
                    ],
                    [
                        -64.75521288558939,
                        76.5012414489248
                    ],
                    [
                        -64.75186792743332,
                        76.49910238392745
                    ],
                    [
                        -64.74834123005266,
                        76.4969786122825
                    ],
                    [
                        -64.74454763833451,
                        76.49487727265497
                    ],
                    [
                        -64.74031852762441,
                        76.49281249978752
                    ],
                    [
                        -64.73562647697369,
                        76.49078658352899
                    ],
                    [
                        -64.73041772129261,
                        76.48880401781962
                    ],
                    [
                        -64.72473123473299,
                        76.48686151774213
                    ],
                    [
                        -64.71883653393607,
                        76.4849364788203
                    ],
                    [
                        -64.71257878660715,
                        76.48304186285351
                    ],
                    [
                        -64.70596069409183,
                        76.48117742468962
                    ],
                    [
                        -64.69902178421685,
                        76.47933983361767
                    ],
                    [
                        -64.69193674021784,
                        76.47751444587566
                    ],
                    [
                        -64.68500331469686,
                        76.47567633172562
                    ],
                    [
                        -64.6780148794464,
                        76.4738427900605
                    ],
                    [
                        -64.67095861893041,
                        76.47201488937735
                    ],
                    [
                        -64.66376084698966,
                        76.47019878766484
                    ],
                    [
                        -64.65655294893865,
                        76.46838349057414
                    ],
                    [
                        -64.64969656112468,
                        76.46653876922898
                    ],
                    [
                        -64.64370439443866,
                        76.46462179745416
                    ],
                    [
                        -64.63928670226956,
                        76.46257326624604
                    ],
                    [
                        -64.6368115373513,
                        76.46036245666805
                    ],
                    [
                        -64.63574139033899,
                        76.4580342802799
                    ],
                    [
                        -64.6353277289185,
                        76.45565126796737
                    ],
                    [
                        -64.63541453822401,
                        76.45322643839458
                    ],
                    [
                        -64.6357656078498,
                        76.45077952079306
                    ],
                    [
                        -64.63597678761074,
                        76.4483443036625
                    ],
                    [
                        -64.63588888479337,
                        76.44593411002305
                    ],
                    [
                        -64.63556319311247,
                        76.4435438246594
                    ],
                    [
                        -64.6344416196246,
                        76.44122015390464
                    ],
                    [
                        -64.63001928371942,
                        76.43917270126072
                    ],
                    [
                        -64.62180386478656,
                        76.43744256365353
                    ],
                    [
                        -64.61054119827644,
                        76.43596708387113
                    ],
                    [
                        -64.59902660240621,
                        76.43516805153658
                    ],
                    [
                        -64.58862644532927,
                        76.43510241288871
                    ],
                    [
                        -64.578726178755,
                        76.435366045338
                    ],
                    [
                        -64.56842491512852,
                        76.4353648536296
                    ],
                    [
                        -64.55697284709336,
                        76.43460314103378
                    ],
                    [
                        -64.54479986345112,
                        76.43320130963741
                    ],
                    [
                        -64.53385645569978,
                        76.43169671035838
                    ],
                    [
                        -64.52359929667236,
                        76.43013471590496
                    ],
                    [
                        -64.51386658992062,
                        76.428528864328
                    ],
                    [
                        -64.50456279486541,
                        76.42688715594856
                    ],
                    [
                        -64.49589525932832,
                        76.42519239668336
                    ],
                    [
                        -64.48804953811624,
                        76.42342922315416
                    ],
                    [
                        -64.48105077166542,
                        76.42159560962209
                    ],
                    [
                        -64.47465964447018,
                        76.41971148861555
                    ],
                    [
                        -64.46872379927781,
                        76.41778954617827
                    ],
                    [
                        -64.4631208927722,
                        76.41583996254445
                    ],
                    [
                        -64.45778539365521,
                        76.41386819226484
                    ],
                    [
                        -64.45275799327258,
                        76.41187086776057
                    ],
                    [
                        -64.44809947404356,
                        76.40984295438402
                    ],
                    [
                        -64.44370212243594,
                        76.40779340185875
                    ],
                    [
                        -64.43935365520753,
                        76.40573983279265
                    ],
                    [
                        -64.43490788194426,
                        76.4036943787004
                    ],
                    [
                        -64.43032011710538,
                        76.401660744581
                    ],
                    [
                        -64.42554321333306,
                        76.39964283779395
                    ],
                    [
                        -64.42056021770824,
                        76.39764205882534
                    ],
                    [
                        -64.41537700048822,
                        76.3956579139644
                    ],
                    [
                        -64.41002327478417,
                        76.39368793206576
                    ],
                    [
                        -64.40455804220726,
                        76.39172721476405
                    ],
                    [
                        -64.39911254685586,
                        76.3897648781036
                    ],
                    [
                        -64.39388382349436,
                        76.38778459223143
                    ],
                    [
                        -64.38898587608475,
                        76.38577691743389
                    ],
                    [
                        -64.38440851835936,
                        76.38374270826375
                    ],
                    [
                        -64.38014123121195,
                        76.38168284488482
                    ],
                    [
                        -64.37620077132202,
                        76.37959594586621
                    ],
                    [
                        -64.37262816268456,
                        76.37747861814705
                    ],
                    [
                        -64.36951411425963,
                        76.37532335127842
                    ],
                    [
                        -64.36701596369271,
                        76.37311711263901
                    ],
                    [
                        -64.36507346749615,
                        76.37086489040799
                    ],
                    [
                        -64.36339635160535,
                        76.36859072831089
                    ],
                    [
                        -64.36179257194195,
                        76.36631053500463
                    ],
                    [
                        -64.36179257194195,
                        76.36631053500463
                    ],
                    [
                        -64.36018933353523,
                        76.36403034153989
                    ],
                    [
                        -64.3585425586343,
                        76.36175380082314
                    ],
                    [
                        -64.35681163397076,
                        76.35948427965691
                    ],
                    [
                        -64.35502171322646,
                        76.35721969456647
                    ],
                    [
                        -64.35323318197293,
                        76.35495504109628
                    ],
                    [
                        -64.33927145859622,
                        76.3370439847776
                    ],
                    [
                        -64.32534662736091,
                        76.31913277121004
                    ],
                    [
                        -64.311458543874,
                        76.30122140446278
                    ],
                    [
                        -64.29760706448624,
                        76.28330988858804
                    ],
                    [
                        -64.28379204628754,
                        76.26539822762112
                    ],
                    [
                        -64.27001334710222,
                        76.24748642558058
                    ],
                    [
                        -64.25627082548432,
                        76.22957448646825
                    ],
                    [
                        -64.24256434071309,
                        76.21166241426945
                    ],
                    [
                        -64.22889375278825,
                        76.19375021295303
                    ],
                    [
                        -64.2152589224256,
                        76.17583788647146
                    ],
                    [
                        -64.20165971105239,
                        76.157925438761
                    ],
                    [
                        -64.18809598080288,
                        76.14001287374171
                    ],
                    [
                        -64.1745675945139,
                        76.12210019531766
                    ],
                    [
                        -64.1610744157204,
                        76.10418740737691
                    ],
                    [
                        -64.14761630865108,
                        76.08627451379172
                    ],
                    [
                        -64.13419313822405,
                        76.06836151841863
                    ],
                    [
                        -64.12080477004253,
                        76.05044842509845
                    ],
                    [
                        -64.10745107039047,
                        76.03253523765655
                    ],
                    [
                        -64.0941319062284,
                        76.01462195990273
                    ],
                    [
                        -64.08084714518921,
                        75.99670859563155
                    ]
                ]
            }
        }
    ]
}
