{
    "type": "FeatureCollection",
    "features": [
        {
            "type": "Feature",
            "properties": {
                "name": "Greenland Glacier 0183",
                "object": "transect",
                "component": "landice",
                "author": "Matthew Hoffman, converted from Felikson et al. (2020) Zenodo dataset",
                "tags": "Greenland_Ice_Sheet;flowline;zenodo_4284759;glacier_0183",
                "citation": "Felikson, Denis, Catania, Ginny, Bartholomaus, Timothy, Morlighem, Mathieu, & No\u00ebl, Brice. (2020). Inland limits to diffusion of thinning along Greenland Ice Sheet outlet glaciers (v1.0) [Data set]. Zenodo. https://doi.org/10.5281/zenodo.4284759",
                "license": "CC-BY-4.0"
            },
            "geometry": {
                "type": "LineString",
                "coordinates": [
                    [
                        -34.680231551110666,
                        67.2530055094845
                    ],
                    [
                        -34.67411131889429,
                        67.2536138179127
                    ],
                    [
                        -34.66830543093285,
                        67.2535538018454
                    ],
                    [
                        -34.662101682173876,
                        67.25433780310918
                    ],
                    [
                        -34.658149625182226,
                        67.25631690369164
                    ],
                    [
                        -34.655419388228566,
                        67.25838226998533
                    ],
                    [
                        -34.652950702780615,
                        67.26046611401846
                    ],
                    [
                        -34.651101838381166,
                        67.26259375753611
                    ],
                    [
                        -34.64886755660002,
                        67.26469418462732
                    ],
                    [
                        -34.64538582791424,
                        67.26670645879508
                    ],
                    [
                        -34.64050753059269,
                        67.26861996727402
                    ],
                    [
                        -34.63503348003082,
                        67.27049124405117
                    ],
                    [
                        -34.628813576351895,
                        67.2723096069311
                    ],
                    [
                        -34.62236440337042,
                        67.27411155570643
                    ],
                    [
                        -34.61612919378409,
                        67.27592846996733
                    ],
                    [
                        -34.61027927704928,
                        67.27777252027728
                    ],
                    [
                        -34.60408801833175,
                        67.2795922091794
                    ],
                    [
                        -34.59745505729183,
                        67.28125735146307
                    ],
                    [
                        -34.59087676588728,
                        67.2828050629393
                    ],
                    [
                        -34.58426176526325,
                        67.28442775200853
                    ],
                    [
                        -34.57767776062031,
                        67.28598298401832
                    ],
                    [
                        -34.571142880044704,
                        67.28743283496884
                    ],
                    [
                        -34.564677612764996,
                        67.28873453016858
                    ],
                    [
                        -34.55830085268273,
                        67.28984875329871
                    ],
                    [
                        -34.55199793488697,
                        67.29080661379868
                    ],
                    [
                        -34.545744378542864,
                        67.29165968975487
                    ],
                    [
                        -34.539523679373985,
                        67.29244272713308
                    ],
                    [
                        -34.53331757414514,
                        67.29319406021622
                    ],
                    [
                        -34.52712865153155,
                        67.29390833819036
                    ],
                    [
                        -34.52095781380987,
                        67.29458374636616
                    ],
                    [
                        -34.514806249508176,
                        67.29521787666289
                    ],
                    [
                        -34.508660358824436,
                        67.29583918066501
                    ],
                    [
                        -34.50250631943031,
                        67.29647650268357
                    ],
                    [
                        -34.49635473560673,
                        67.29710771557471
                    ],
                    [
                        -34.49023716162383,
                        67.29766711972613
                    ],
                    [
                        -34.4841738610791,
                        67.29811267540353
                    ],
                    [
                        -34.47815970033845,
                        67.29845526781283
                    ],
                    [
                        -34.47217016078628,
                        67.29874604926756
                    ],
                    [
                        -34.46617987534754,
                        67.29903781188445
                    ],
                    [
                        -34.46016244805765,
                        67.29938535844786
                    ],
                    [
                        -34.45410956661927,
                        67.29980583663374
                    ],
                    [
                        -34.44803912632377,
                        67.30026200402939
                    ],
                    [
                        -34.44198496216266,
                        67.30068367330566
                    ],
                    [
                        -34.4359775872611,
                        67.30100770674981
                    ],
                    [
                        -34.4300354317987,
                        67.30119612732655
                    ],
                    [
                        -34.42415594325603,
                        67.3012544527165
                    ],
                    [
                        -34.418323602071176,
                        67.30121499530314
                    ],
                    [
                        -34.412524809219,
                        67.30110602280179
                    ],
                    [
                        -34.40674734896976,
                        67.30095288136556
                    ],
                    [
                        -34.400979100145086,
                        67.30078066530767
                    ],
                    [
                        -34.39520714658485,
                        67.3006160537195
                    ],
                    [
                        -34.389420366897966,
                        67.30048196618588
                    ],
                    [
                        -34.383618313491205,
                        67.30037927444009
                    ],
                    [
                        -34.377808468633944,
                        67.30029251487319
                    ],
                    [
                        -34.37199556347058,
                        67.30021192146522
                    ],
                    [
                        -34.366188967423064,
                        67.30011820702943
                    ],
                    [
                        -34.36040485131171,
                        67.29997814154478
                    ],
                    [
                        -34.3546529837006,
                        67.29977172541538
                    ],
                    [
                        -34.34893309156327,
                        67.29949962761724
                    ],
                    [
                        -34.34324990061109,
                        67.29915225230597
                    ],
                    [
                        -34.33760698649892,
                        67.29872238242442
                    ],
                    [
                        -34.33201002784296,
                        67.29819850149383
                    ],
                    [
                        -34.32644844955804,
                        67.29760243131324
                    ],
                    [
                        -34.32090851876793,
                        67.29696241716191
                    ],
                    [
                        -34.31539587226299,
                        67.29626698269736
                    ],
                    [
                        -34.309887854799896,
                        67.29556257963205
                    ],
                    [
                        -34.30434593541366,
                        67.29492804366367
                    ],
                    [
                        -34.298749025156624,
                        67.29440638834532
                    ],
                    [
                        -34.29309856382064,
                        67.29399449741453
                    ],
                    [
                        -34.28740290262154,
                        67.2936751414449
                    ],
                    [
                        -34.281668596814995,
                        67.29343479124068
                    ],
                    [
                        -34.27590306755067,
                        67.29325817816195
                    ],
                    [
                        -34.27012629422441,
                        67.29310445718305
                    ],
                    [
                        -34.264360680622005,
                        67.29292793073729
                    ],
                    [
                        -34.2586238553175,
                        67.29269272714227
                    ],
                    [
                        -34.25293091079943,
                        67.29236821424607
                    ],
                    [
                        -34.247272749409284,
                        67.29197304564204
                    ],
                    [
                        -34.24162630030708,
                        67.29155425254874
                    ],
                    [
                        -34.23598463120189,
                        67.29112596299576
                    ],
                    [
                        -34.23034155072755,
                        67.29070077034379
                    ],
                    [
                        -34.22467151427979,
                        67.29033054037303
                    ],
                    [
                        -34.218963398995065,
                        67.29003776073503
                    ],
                    [
                        -34.21321445975113,
                        67.2898278765162
                    ],
                    [
                        -34.20743990276089,
                        67.28966992622308
                    ],
                    [
                        -34.20165869994534,
                        67.28952538410115
                    ],
                    [
                        -34.19587136535789,
                        67.28939318720259
                    ],
                    [
                        -34.19008727234432,
                        67.28925434340232
                    ],
                    [
                        -34.18429772823245,
                        67.28912644805257
                    ],
                    [
                        -34.17848796928576,
                        67.28903933292386
                    ],
                    [
                        -34.17264165277517,
                        67.28902595501823
                    ],
                    [
                        -34.16674749411825,
                        67.28910898213083
                    ],
                    [
                        -34.16078975098331,
                        67.28932002670928
                    ],
                    [
                        -34.154765981398185,
                        67.2896637951703
                    ],
                    [
                        -34.14866007534219,
                        67.29017253365886
                    ],
                    [
                        -34.142461482470566,
                        67.2908672032111
                    ],
                    [
                        -34.136194983558056,
                        67.29169756444355
                    ],
                    [
                        -34.129898974064176,
                        67.29258610079977
                    ],
                    [
                        -34.123567208034736,
                        67.29354526252068
                    ],
                    [
                        -34.117208099187145,
                        67.29455800543462
                    ],
                    [
                        -34.110848807181156,
                        67.2955696785139
                    ],
                    [
                        -34.104470782658716,
                        67.29661751426119
                    ],
                    [
                        -34.098069376448905,
                        67.29771076789972
                    ],
                    [
                        -34.09164104082091,
                        67.29885646233402
                    ],
                    [
                        -34.08513939775618,
                        67.30014739866246
                    ],
                    [
                        -34.07851992197205,
                        67.30167241865024
                    ],
                    [
                        -34.07192485230898,
                        67.30344358311018
                    ],
                    [
                        -34.06607245178338,
                        67.30526995560258
                    ],
                    [
                        -34.06086249220655,
                        67.3071441336854
                    ],
                    [
                        -34.056005266945135,
                        67.30904454488339
                    ],
                    [
                        -34.05131055929932,
                        67.31095701085303
                    ],
                    [
                        -34.0467369415051,
                        67.31287844921674
                    ],
                    [
                        -34.042358597496445,
                        67.31481441435143
                    ],
                    [
                        -34.03811864919187,
                        67.31676066798262
                    ],
                    [
                        -34.033929377793584,
                        67.31871065928952
                    ],
                    [
                        -34.029680741238735,
                        67.32065615901573
                    ],
                    [
                        -34.02540167198324,
                        67.3225993282744
                    ],
                    [
                        -34.02090763716878,
                        67.32452635004627
                    ],
                    [
                        -34.01607154801639,
                        67.326427690059
                    ],
                    [
                        -34.01110359588832,
                        67.32831906775648
                    ],
                    [
                        -34.006468002597366,
                        67.33023526492488
                    ],
                    [
                        -34.002077357610005,
                        67.33216975455969
                    ],
                    [
                        -33.99780151152589,
                        67.33411279414014
                    ],
                    [
                        -33.99363729601187,
                        67.33606415419798
                    ],
                    [
                        -33.98956431267162,
                        67.33802231173003
                    ],
                    [
                        -33.985596624400564,
                        67.3399883284692
                    ],
                    [
                        -33.98171125769393,
                        67.34196048630774
                    ],
                    [
                        -33.97786187843612,
                        67.34393531054849
                    ],
                    [
                        -33.97410269972142,
                        67.34591687619144
                    ],
                    [
                        -33.970496218734645,
                        67.34790988494497
                    ],
                    [
                        -33.967081882063766,
                        67.34991731034434
                    ],
                    [
                        -33.96382001464538,
                        67.3519361798485
                    ],
                    [
                        -33.96069563996985,
                        67.35396537486062
                    ],
                    [
                        -33.957685506393005,
                        67.3560031530652
                    ],
                    [
                        -33.95475039191726,
                        67.35804656914969
                    ],
                    [
                        -33.95184971531832,
                        67.36009257315833
                    ],
                    [
                        -33.94893803397448,
                        67.36213774702101
                    ],
                    [
                        -33.94594188364327,
                        67.36417656112997
                    ],
                    [
                        -33.942770686710375,
                        67.36620219323686
                    ],
                    [
                        -33.939355904886696,
                        67.36820947439246
                    ],
                    [
                        -33.93563860860186,
                        67.37019395347333
                    ],
                    [
                        -33.93151445565194,
                        67.37214775163417
                    ],
                    [
                        -33.92686070458478,
                        67.37406159088371
                    ],
                    [
                        -33.92168439073242,
                        67.37593595970294
                    ],
                    [
                        -33.91605544238132,
                        67.37777608544957
                    ],
                    [
                        -33.909955285472364,
                        67.37958052102879
                    ],
                    [
                        -33.90328697993682,
                        67.38134189477549
                    ],
                    [
                        -33.89659845542436,
                        67.38292223870288
                    ],
                    [
                        -33.88995991777375,
                        67.38440242857087
                    ],
                    [
                        -33.883270790635756,
                        67.38597968171486
                    ],
                    [
                        -33.87680849195338,
                        67.38775579402608
                    ],
                    [
                        -33.87010035537541,
                        67.38936583027413
                    ],
                    [
                        -33.863411669075795,
                        67.39112439686795
                    ],
                    [
                        -33.857097223740936,
                        67.39291111936687
                    ],
                    [
                        -33.850807917478754,
                        67.39469956869685
                    ],
                    [
                        -33.84455344082788,
                        67.39649048299977
                    ],
                    [
                        -33.838274491124096,
                        67.39827936483317
                    ],
                    [
                        -33.831896994955464,
                        67.40006058592832
                    ],
                    [
                        -33.825297684193565,
                        67.40182476827758
                    ],
                    [
                        -33.81854604241909,
                        67.4035771677295
                    ],
                    [
                        -33.811850335096096,
                        67.40533360798402
                    ],
                    [
                        -33.80507533898754,
                        67.4070511126601
                    ],
                    [
                        -33.79833915349767,
                        67.40869090759854
                    ],
                    [
                        -33.791699171543975,
                        67.41014178361914
                    ],
                    [
                        -33.78511274801658,
                        67.41148681581623
                    ],
                    [
                        -33.77850331073606,
                        67.41287460279547
                    ],
                    [
                        -33.77184953597698,
                        67.41434635462505
                    ],
                    [
                        -33.76521621784739,
                        67.41577650605095
                    ],
                    [
                        -33.75862527981301,
                        67.41712273880859
                    ],
                    [
                        -33.752088770129966,
                        67.41836193129119
                    ],
                    [
                        -33.745546435042485,
                        67.41961067348076
                    ],
                    [
                        -33.73896001475998,
                        67.42094279788334
                    ],
                    [
                        -33.732312486390136,
                        67.4223909766703
                    ],
                    [
                        -33.72563309014534,
                        67.42389861177708
                    ],
                    [
                        -33.71896426936204,
                        67.4253838207745
                    ],
                    [
                        -33.71230925148227,
                        67.42684043483375
                    ],
                    [
                        -33.70568248696852,
                        67.42824071020166
                    ],
                    [
                        -33.69908641883313,
                        67.42958006106998
                    ],
                    [
                        -33.69258632650994,
                        67.43073318299935
                    ],
                    [
                        -33.68622316883811,
                        67.43162178463969
                    ],
                    [
                        -33.68004855876358,
                        67.43214730594343
                    ],
                    [
                        -33.674055684221905,
                        67.43232344574446
                    ],
                    [
                        -33.668243539863106,
                        67.43215270789696
                    ],
                    [
                        -33.662591377463585,
                        67.43167538716983
                    ],
                    [
                        -33.65706241434159,
                        67.43096238003332
                    ],
                    [
                        -33.651623261044676,
                        67.43007793569852
                    ],
                    [
                        -33.64627401914273,
                        67.42902209349485
                    ],
                    [
                        -33.64102590823736,
                        67.4277736200987
                    ],
                    [
                        -33.635866287860445,
                        67.42635692571137
                    ],
                    [
                        -33.630727605944806,
                        67.42490131349032
                    ],
                    [
                        -33.625596297719476,
                        67.42343274320288
                    ],
                    [
                        -33.62042277785965,
                        67.42204591548511
                    ],
                    [
                        -33.61516272515652,
                        67.42082532735846
                    ],
                    [
                        -33.60979943244499,
                        67.41980264311202
                    ],
                    [
                        -33.604332465410174,
                        67.41897842939679
                    ],
                    [
                        -33.59871515992599,
                        67.41844135991431
                    ],
                    [
                        -33.59300324853191,
                        67.41808484063701
                    ],
                    [
                        -33.587175056076724,
                        67.41794987401173
                    ],
                    [
                        -33.58122476551126,
                        67.41804718587764
                    ],
                    [
                        -33.5751788651217,
                        67.41832601814794
                    ],
                    [
                        -33.569051312638535,
                        67.41875953507297
                    ],
                    [
                        -33.562891782605604,
                        67.41925309666625
                    ],
                    [
                        -33.55675254175349,
                        67.41970735516593
                    ],
                    [
                        -33.55064192510866,
                        67.42010655985356
                    ],
                    [
                        -33.5445762932892,
                        67.4204197729465
                    ],
                    [
                        -33.5385670258668,
                        67.42062556629192
                    ],
                    [
                        -33.532615301325265,
                        67.42072188318734
                    ],
                    [
                        -33.52674629996222,
                        67.42066121763241
                    ],
                    [
                        -33.52674629996222,
                        67.42066121763241
                    ],
                    [
                        -33.52087733099721,
                        67.42060032103062
                    ],
                    [
                        -33.51509215133657,
                        67.42038075320556
                    ],
                    [
                        -33.50939703975986,
                        67.41999088424002
                    ],
                    [
                        -33.50379914330302,
                        67.41941745883483
                    ],
                    [
                        -33.49822303049724,
                        67.41880322674513
                    ],
                    [
                        -33.492639323272414,
                        67.41820371345176
                    ],
                    [
                        -33.44807463943766,
                        67.41344046558804
                    ],
                    [
                        -33.40352925122736,
                        67.4086639735274
                    ],
                    [
                        -33.35900319992821,
                        67.40387424658618
                    ],
                    [
                        -33.314496526697596,
                        67.3990712940988
                    ],
                    [
                        -33.27000927256354,
                        67.39425512541764
                    ],
                    [
                        -33.225541478424645,
                        67.38942574991302
                    ],
                    [
                        -33.18109318504995,
                        67.38458317697307
                    ],
                    [
                        -33.136664433078856,
                        67.37972741600373
                    ],
                    [
                        -33.09225526302103,
                        67.37485847642864
                    ],
                    [
                        -33.04786571525635,
                        67.369976367689
                    ],
                    [
                        -33.00349583003479,
                        67.36508109924361
                    ],
                    [
                        -32.95914564747632,
                        67.36017268056872
                    ],
                    [
                        -32.914815207570854,
                        67.35525112115798
                    ],
                    [
                        -32.87050455017819,
                        67.35031643052235
                    ],
                    [
                        -32.826213715027855,
                        67.34536861819008
                    ],
                    [
                        -32.781942741719135,
                        67.34040769370655
                    ],
                    [
                        -32.737691669720896,
                        67.33543366663423
                    ],
                    [
                        -32.69346053837159,
                        67.33044654655266
                    ],
                    [
                        -32.649249386879134,
                        67.32544634305832
                    ],
                    [
                        -32.60505825432087,
                        67.3204330657645
                    ]
                ]
            }
        }
    ]
}
