{
    "type": "FeatureCollection",
    "features": [
        {
            "type": "Feature",
            "properties": {
                "name": "Greenland Glacier 0129",
                "object": "transect",
                "component": "landice",
                "author": "Matthew Hoffman, converted from Felikson et al. (2020) Zenodo dataset",
                "tags": "Greenland_Ice_Sheet;flowline;zenodo_4284759;glacier_0129;nordenski\u00f6ld_gletsjer",
                "citation": "Felikson, Denis, Catania, Ginny, Bartholomaus, Timothy, Morlighem, Mathieu, & No\u00ebl, Brice. (2020). Inland limits to diffusion of thinning along Greenland Ice Sheet outlet glaciers (v1.0) [Data set]. Zenodo. https://doi.org/10.5281/zenodo.4284759",
                "license": "CC-BY-4.0",
                "officialName": "Nordenski\u00f6ld Gletsjer",
                "foreignName": "Nordenski\u00f6ld Gletsjer"
            },
            "geometry": {
                "type": "LineString",
                "coordinates": [
                    [
                        -28.97935831271034,
                        72.7897319424297
                    ],
                    [
                        -28.97604101969281,
                        72.7871004718103
                    ],
                    [
                        -28.978584419292627,
                        72.78496733962464
                    ],
                    [
                        -28.986952108875247,
                        72.7845192236564
                    ],
                    [
                        -28.99336901006739,
                        72.78271525995778
                    ],
                    [
                        -28.99671939679532,
                        72.78534905937174
                    ],
                    [
                        -28.994629140703157,
                        72.78752073040404
                    ],
                    [
                        -28.991394932754435,
                        72.78959527198298
                    ],
                    [
                        -28.984378255466428,
                        72.7913484777904
                    ],
                    [
                        -28.978467689072023,
                        72.78925997194462
                    ],
                    [
                        -28.975946355799113,
                        72.7866961608514
                    ],
                    [
                        -28.980646385421487,
                        72.78474641595713
                    ],
                    [
                        -28.9900201116257,
                        72.78325971568024
                    ],
                    [
                        -28.996701296034946,
                        72.78455149110157
                    ],
                    [
                        -28.99572013118816,
                        72.78681734815441
                    ],
                    [
                        -28.992555348377074,
                        72.7888977783642
                    ],
                    [
                        -28.989321436954896,
                        72.7909723615741
                    ],
                    [
                        -28.98170809658149,
                        72.79063954566608
                    ],
                    [
                        -28.97686910398615,
                        72.78787877169074
                    ],
                    [
                        -28.976991636467446,
                        72.7855397683301
                    ],
                    [
                        -28.983990587454944,
                        72.78378548862871
                    ],
                    [
                        -28.990862140963014,
                        72.78488073177135
                    ],
                    [
                        -29.000055755045288,
                        72.78331248895499
                    ],
                    [
                        -29.006074481346754,
                        72.78528916512381
                    ],
                    [
                        -29.00910517144265,
                        72.78789542521855
                    ],
                    [
                        -29.013257712031038,
                        72.79059672826116
                    ],
                    [
                        -29.016890849563577,
                        72.79325381398182
                    ],
                    [
                        -29.01994368075382,
                        72.79586157225435
                    ],
                    [
                        -29.02162125498934,
                        72.79835270029574
                    ],
                    [
                        -29.02138563933632,
                        72.80068171307074
                    ],
                    [
                        -29.019637316397016,
                        72.8028825960679
                    ],
                    [
                        -29.01711569658063,
                        72.80501799961844
                    ],
                    [
                        -29.014547839247932,
                        72.80714951817268
                    ],
                    [
                        -29.01267383457006,
                        72.8093398587017
                    ],
                    [
                        -29.011060264824287,
                        72.81155230008615
                    ],
                    [
                        -29.009809742753532,
                        72.81379553469107
                    ],
                    [
                        -29.00872413309566,
                        72.81605277306488
                    ],
                    [
                        -29.007618827757693,
                        72.81830837432055
                    ],
                    [
                        -29.006539944466528,
                        72.82056624527429
                    ],
                    [
                        -29.00554691698114,
                        72.82283141975128
                    ],
                    [
                        -29.004762331849637,
                        72.82511427902503
                    ],
                    [
                        -29.00393988899523,
                        72.82739396010079
                    ],
                    [
                        -29.00273167139853,
                        72.82964100047086
                    ],
                    [
                        -29.00085549474047,
                        72.83183150806418
                    ],
                    [
                        -28.998382528069445,
                        72.83397151020155
                    ],
                    [
                        -28.99548112444116,
                        72.83607525934791
                    ],
                    [
                        -28.99236564900029,
                        72.83816090511462
                    ],
                    [
                        -28.98919674188623,
                        72.84024205074479
                    ],
                    [
                        -28.986061220258286,
                        72.84232605001199
                    ],
                    [
                        -28.9829649465879,
                        72.84441340038468
                    ],
                    [
                        -28.979846939414845,
                        72.84649893563476
                    ],
                    [
                        -28.976686361781535,
                        72.84858088957446
                    ],
                    [
                        -28.973584152425918,
                        72.85066781557694
                    ],
                    [
                        -28.970635662480383,
                        72.8527677963317
                    ],
                    [
                        -28.967861616514657,
                        72.85488259138398
                    ],
                    [
                        -28.965330012009055,
                        72.85701796720804
                    ],
                    [
                        -28.963123829123322,
                        72.85918096044277
                    ],
                    [
                        -28.96131486423702,
                        72.86137765875064
                    ],
                    [
                        -28.95980830389828,
                        72.86360002501658
                    ],
                    [
                        -28.958425178879043,
                        72.8658328880041
                    ],
                    [
                        -28.95696902096276,
                        72.86805959475637
                    ],
                    [
                        -28.955353147400317,
                        72.87027279908246
                    ],
                    [
                        -28.95358597249992,
                        72.872473214918
                    ],
                    [
                        -28.951726112474162,
                        72.87466581056698
                    ],
                    [
                        -28.949812013141962,
                        72.8768538445311
                    ],
                    [
                        -28.947898351605247,
                        72.87904195091855
                    ],
                    [
                        -28.945998079586786,
                        72.88123122745088
                    ],
                    [
                        -28.944101327459045,
                        72.88342083764415
                    ],
                    [
                        -28.942232211257426,
                        72.8856128254416
                    ],
                    [
                        -28.940285994724967,
                        72.88779831400485
                    ],
                    [
                        -28.938143143562254,
                        72.889967172066
                    ],
                    [
                        -28.93580453154143,
                        72.89211947281527
                    ],
                    [
                        -28.933308152701645,
                        72.89425843516732
                    ],
                    [
                        -28.930777644385568,
                        72.8963945377228
                    ],
                    [
                        -28.928368304810522,
                        72.89854094466392
                    ],
                    [
                        -28.926167916221093,
                        72.9007050985195
                    ],
                    [
                        -28.924154635254574,
                        72.9028851487432
                    ],
                    [
                        -28.922252986487788,
                        72.90507469757789
                    ],
                    [
                        -28.920339786765453,
                        72.90726330263853
                    ],
                    [
                        -28.918268500042664,
                        72.90943854173004
                    ],
                    [
                        -28.91585644294219,
                        72.91158492733781
                    ],
                    [
                        -28.912955772392465,
                        72.91368992200452
                    ],
                    [
                        -28.90945405418264,
                        72.91574398357396
                    ],
                    [
                        -28.9052858802179,
                        72.9177415479193
                    ],
                    [
                        -28.90043009553212,
                        72.91968079360204
                    ],
                    [
                        -28.894897745471187,
                        72.92156262143112
                    ],
                    [
                        -28.888846473450908,
                        72.9234003665939
                    ],
                    [
                        -28.88253168226537,
                        72.92521567329271
                    ],
                    [
                        -28.876138654476758,
                        72.92702425545535
                    ],
                    [
                        -28.869965083699476,
                        72.92885139544896
                    ],
                    [
                        -28.86412919452018,
                        72.93070715579618
                    ],
                    [
                        -28.858747975092665,
                        72.9326015033652
                    ],
                    [
                        -28.853708350827297,
                        72.93452485400857
                    ],
                    [
                        -28.84895774385642,
                        72.93647275637474
                    ],
                    [
                        -28.844540861215446,
                        72.93844902720224
                    ],
                    [
                        -28.840524465395347,
                        72.94045935999453
                    ],
                    [
                        -28.83689947377217,
                        72.94250299727035
                    ],
                    [
                        -28.83361096587788,
                        72.94457527881183
                    ],
                    [
                        -28.830620391364654,
                        72.94667293308852
                    ],
                    [
                        -28.827790261354934,
                        72.94878426765867
                    ],
                    [
                        -28.825076648183643,
                        72.95090554737595
                    ],
                    [
                        -28.822405132304205,
                        72.95303044124663
                    ],
                    [
                        -28.82000348216991,
                        72.95517833252232
                    ],
                    [
                        -28.817705203646685,
                        72.95733505504988
                    ],
                    [
                        -28.815500093997553,
                        72.9594997412835
                    ],
                    [
                        -28.813256454808368,
                        72.9616611837833
                    ],
                    [
                        -28.810915415094282,
                        72.96381437207104
                    ],
                    [
                        -28.808413526094988,
                        72.9659539053381
                    ],
                    [
                        -28.80576993530387,
                        72.96808141162767
                    ],
                    [
                        -28.802987788313494,
                        72.97019715686015
                    ],
                    [
                        -28.799940609166885,
                        72.97229037260205
                    ],
                    [
                        -28.796488961799128,
                        72.9743491827106
                    ],
                    [
                        -28.79270723444457,
                        72.9763799099902
                    ],
                    [
                        -28.788753670604418,
                        72.97839601925638
                    ],
                    [
                        -28.784516385078252,
                        72.98038797485616
                    ],
                    [
                        -28.779928496116405,
                        72.9823500675769
                    ],
                    [
                        -28.77497384387342,
                        72.98428090382816
                    ],
                    [
                        -28.76971693894866,
                        72.98618596174023
                    ],
                    [
                        -28.764184517417277,
                        72.98806750252143
                    ],
                    [
                        -28.758444455832628,
                        72.9899312962905
                    ],
                    [
                        -28.752285911256557,
                        72.99175934518678
                    ],
                    [
                        -28.746138667260507,
                        72.99358828742136
                    ],
                    [
                        -28.740101150152896,
                        72.99542652411085
                    ],
                    [
                        -28.733745148978567,
                        72.99723750703873
                    ],
                    [
                        -28.727659241953457,
                        72.99907147429941
                    ],
                    [
                        -28.721794401297355,
                        73.00092425810853
                    ],
                    [
                        -28.71615133964366,
                        73.00279593496452
                    ],
                    [
                        -28.71068125681399,
                        73.00468234905652
                    ],
                    [
                        -28.705146161319515,
                        73.0065631670547
                    ],
                    [
                        -28.699578976518712,
                        73.00844119996277
                    ],
                    [
                        -28.693751683941993,
                        73.01029694371259
                    ],
                    [
                        -28.687781012598663,
                        73.01214036681456
                    ],
                    [
                        -28.681826311920883,
                        73.0139850957012
                    ],
                    [
                        -28.67593365577835,
                        73.01583507553383
                    ],
                    [
                        -28.67001000904414,
                        73.01768234471218
                    ],
                    [
                        -28.663903340300955,
                        73.01951387978535
                    ],
                    [
                        -28.657486700582776,
                        73.0213187907545
                    ],
                    [
                        -28.650557627154093,
                        73.02307970079464
                    ],
                    [
                        -28.642976937590895,
                        73.02478463092596
                    ],
                    [
                        -28.6347127241446,
                        73.02643077857034
                    ],
                    [
                        -28.625116070649415,
                        73.02796237616764
                    ],
                    [
                        -28.615937612323155,
                        73.02907007430176
                    ],
                    [
                        -28.606922807063935,
                        73.03001368250085
                    ],
                    [
                        -28.59810952201009,
                        73.03075594479203
                    ],
                    [
                        -28.58942529469249,
                        73.03136907659002
                    ],
                    [
                        -28.580883953465825,
                        73.03183960459052
                    ],
                    [
                        -28.572456978468733,
                        73.0321960205635
                    ],
                    [
                        -28.56410464650281,
                        73.03247783604859
                    ],
                    [
                        -28.55583874445792,
                        73.03267351383819
                    ],
                    [
                        -28.54770911333125,
                        73.03273391248685
                    ],
                    [
                        -28.539734756377634,
                        73.03264046469025
                    ],
                    [
                        -28.531894797970732,
                        73.03241402478342
                    ],
                    [
                        -28.524177192940083,
                        73.03206668057449
                    ],
                    [
                        -28.516553933794714,
                        73.03162624378774
                    ],
                    [
                        -28.509005587053483,
                        73.03111201318033
                    ],
                    [
                        -28.501531887141887,
                        73.03052435103757
                    ],
                    [
                        -28.494100849828246,
                        73.02989487704274
                    ],
                    [
                        -28.486704777597126,
                        73.02923122911747
                    ],
                    [
                        -28.479330635329486,
                        73.02854628722548
                    ],
                    [
                        -28.471967126734004,
                        73.02785119732717
                    ],
                    [
                        -28.464590833381283,
                        73.0271690122327
                    ],
                    [
                        -28.457162688511712,
                        73.02653813339663
                    ],
                    [
                        -28.44968667538932,
                        73.02595457774476
                    ],
                    [
                        -28.442188067375707,
                        73.02539345041036
                    ],
                    [
                        -28.434678818427393,
                        73.02484298140338
                    ],
                    [
                        -28.427163399243433,
                        73.02429876762274
                    ],
                    [
                        -28.419625583737606,
                        73.02377672155863
                    ],
                    [
                        -28.41205326332307,
                        73.02328868862232
                    ],
                    [
                        -28.404446099399294,
                        73.02283495417817
                    ],
                    [
                        -28.39680196922938,
                        73.0224175508219
                    ],
                    [
                        -28.389118879100348,
                        73.02203838055073
                    ],
                    [
                        -28.381414410718094,
                        73.0216801783321
                    ],
                    [
                        -28.37366756545111,
                        73.02136346091176
                    ],
                    [
                        -28.365881855850834,
                        73.02108473378081
                    ],
                    [
                        -28.35806958257221,
                        73.02083191797846
                    ],
                    [
                        -28.350213249575116,
                        73.02062207034729
                    ],
                    [
                        -28.342288848218132,
                        73.02047857391929
                    ],
                    [
                        -28.33424083880503,
                        73.02045554054483
                    ],
                    [
                        -28.326014711409954,
                        73.0206059630521
                    ],
                    [
                        -28.31760229213075,
                        73.02093753470703
                    ],
                    [
                        -28.30896708382605,
                        73.02148551941819
                    ],
                    [
                        -28.300029933695985,
                        73.02232662392392
                    ],
                    [
                        -28.290723211539152,
                        73.02352612562248
                    ],
                    [
                        -28.281413999112697,
                        73.02506867686338
                    ],
                    [
                        -28.272908042242936,
                        73.02668145686309
                    ],
                    [
                        -28.264880616127254,
                        73.02833604333938
                    ],
                    [
                        -28.257414809068056,
                        73.03003978800339
                    ],
                    [
                        -28.250695593290597,
                        73.03180900199456
                    ],
                    [
                        -28.244491832644414,
                        73.03362343099795
                    ],
                    [
                        -28.23867362182423,
                        73.03547169187455
                    ],
                    [
                        -28.233203004394024,
                        73.03735047305362
                    ],
                    [
                        -28.228096329078593,
                        73.03926123459716
                    ],
                    [
                        -28.22341071906837,
                        73.04120902301229
                    ],
                    [
                        -28.219111579764572,
                        73.04319081454575
                    ],
                    [
                        -28.215073860144226,
                        73.04519561950512
                    ],
                    [
                        -28.21114779577454,
                        73.04721026496814
                    ],
                    [
                        -28.20714960558814,
                        73.04921857582397
                    ],
                    [
                        -28.203064259235205,
                        73.05121922610606
                    ],
                    [
                        -28.198919876652436,
                        73.05321468880815
                    ],
                    [
                        -28.1945817218221,
                        73.05519309491432
                    ],
                    [
                        -28.18975542971836,
                        73.05712850545106
                    ],
                    [
                        -28.184201638478193,
                        73.05899980482225
                    ],
                    [
                        -28.177748418762217,
                        73.06079179269142
                    ],
                    [
                        -28.17043899309711,
                        73.06250820787668
                    ],
                    [
                        -28.16289096341697,
                        73.06420344518543
                    ],
                    [
                        -28.15536298084352,
                        73.06590030393478
                    ],
                    [
                        -28.147778096068446,
                        73.06759199377112
                    ],
                    [
                        -28.140246865169143,
                        73.06928827173047
                    ],
                    [
                        -28.133079557757615,
                        73.0710165514947
                    ],
                    [
                        -28.1264236034574,
                        73.0727898945468
                    ],
                    [
                        -28.12013352787436,
                        73.07459548547553
                    ],
                    [
                        -28.114177264059585,
                        73.07643051747358
                    ],
                    [
                        -28.108548654055095,
                        73.0782944698062
                    ],
                    [
                        -28.103172986707694,
                        73.08018075534318
                    ],
                    [
                        -28.098044217394317,
                        73.08208885471456
                    ],
                    [
                        -28.093294234726123,
                        73.08403045284808
                    ],
                    [
                        -28.089006657511536,
                        73.08601296919063
                    ],
                    [
                        -28.08518418241775,
                        73.08803666150212
                    ],
                    [
                        -28.08172456248269,
                        73.09009249375724
                    ],
                    [
                        -28.0785795268555,
                        73.09217620203526
                    ],
                    [
                        -28.07572803199302,
                        73.09428592970875
                    ],
                    [
                        -28.073128319109564,
                        73.09641798396889
                    ],
                    [
                        -28.070721353502872,
                        73.09856714048286
                    ],
                    [
                        -28.06844104801473,
                        73.10072754906774
                    ],
                    [
                        -28.066270253561974,
                        73.10289769190089
                    ],
                    [
                        -28.0640837734878,
                        73.1050664837285
                    ],
                    [
                        -28.061609728248605,
                        73.1072098501847
                    ],
                    [
                        -28.058571864049856,
                        73.10930332550804
                    ],
                    [
                        -28.054895097142683,
                        73.11134024951052
                    ],
                    [
                        -28.050688448355924,
                        73.11333025991806
                    ],
                    [
                        -28.0459680246083,
                        73.11527476279674
                    ],
                    [
                        -28.040364553008107,
                        73.1171410101567
                    ],
                    [
                        -28.033398441075022,
                        73.11888643198444
                    ],
                    [
                        -28.025053865118895,
                        73.12050950361036
                    ],
                    [
                        -28.015872981712594,
                        73.12205817258277
                    ],
                    [
                        -28.006420596267887,
                        73.12331054812579
                    ],
                    [
                        -27.997480033332696,
                        73.12407494818372
                    ],
                    [
                        -27.98886285043617,
                        73.12453115914043
                    ],
                    [
                        -27.980410683954783,
                        73.12482996901234
                    ],
                    [
                        -27.972019728395253,
                        73.12507007965861
                    ],
                    [
                        -27.96362806104341,
                        73.12531027884843
                    ],
                    [
                        -27.955186914557228,
                        73.12559676528622
                    ],
                    [
                        -27.94666463498896,
                        73.12595943384295
                    ],
                    [
                        -27.937999200818982,
                        73.1264568478574
                    ],
                    [
                        -27.929199244896406,
                        73.12708061330625
                    ],
                    [
                        -27.920311261611857,
                        73.12778656425701
                    ],
                    [
                        -27.911498609265305,
                        73.1284202457758
                    ],
                    [
                        -27.902901955005834,
                        73.12884898380345
                    ],
                    [
                        -27.894615685210532,
                        73.12898405984492
                    ],
                    [
                        -27.88671146118234,
                        73.1287583472663
                    ],
                    [
                        -27.87923413509829,
                        73.12813007891394
                    ],
                    [
                        -27.87210567211662,
                        73.12717330893867
                    ],
                    [
                        -27.865135049106307,
                        73.12606836850864
                    ],
                    [
                        -27.858165749939985,
                        73.12496280997382
                    ],
                    [
                        -27.851113168684744,
                        73.12393627548725
                    ],
                    [
                        -27.843921458701775,
                        73.12304122438111
                    ],
                    [
                        -27.836535751621664,
                        73.1223291082645
                    ],
                    [
                        -27.828931778292816,
                        73.1218225151906
                    ],
                    [
                        -27.821116738204452,
                        73.12151440763354
                    ],
                    [
                        -27.81316083685937,
                        73.12133856789426
                    ],
                    [
                        -27.805112383631243,
                        73.12124945250557
                    ],
                    [
                        -27.79694893099766,
                        73.12126799616631
                    ],
                    [
                        -27.78860245435003,
                        73.12145783075535
                    ],
                    [
                        -27.77999911308055,
                        73.12188789686996
                    ],
                    [
                        -27.771117040592532,
                        73.12257827744637
                    ],
                    [
                        -27.76194560200175,
                        73.12353846941825
                    ],
                    [
                        -27.752535224757693,
                        73.12472079216084
                    ],
                    [
                        -27.742981158659905,
                        73.12603576097882
                    ],
                    [
                        -27.742981158659905,
                        73.12603576097882
                    ],
                    [
                        -27.733425582743113,
                        73.12735027132757
                    ],
                    [
                        -27.677131057284,
                        73.13508089942317
                    ],
                    [
                        -27.620784229131022,
                        73.14279560532046
                    ],
                    [
                        -27.564385134502903,
                        73.1504943656465
                    ],
                    [
                        -27.507933810090737,
                        73.15817715703457
                    ],
                    [
                        -27.45143029305921,
                        73.16584395612446
                    ],
                    [
                        -27.394874621047837,
                        73.1734947395626
                    ],
                    [
                        -27.338266832172174,
                        73.18112948400247
                    ],
                    [
                        -27.281606965025052,
                        73.18874816610462
                    ],
                    [
                        -27.224895058677763,
                        73.19635076253712
                    ],
                    [
                        -27.168131152681283,
                        73.20393724997564
                    ],
                    [
                        -27.111315287067445,
                        73.21150760510382
                    ],
                    [
                        -27.054447502350154,
                        73.21906180461342
                    ],
                    [
                        -26.997527839526562,
                        73.22659982520457
                    ],
                    [
                        -26.940556340078242,
                        73.23412164358612
                    ],
                    [
                        -26.883533045972385,
                        73.2416272364757
                    ],
                    [
                        -26.826457999662924,
                        73.24911658060016
                    ],
                    [
                        -26.76933124409173,
                        73.25658965269568
                    ],
                    [
                        -26.712152822689767,
                        73.26404642950807
                    ],
                    [
                        -26.654922779378207,
                        73.27148688779307
                    ],
                    [
                        -26.597641158569612,
                        73.27891100431646
                    ]
                ]
            }
        }
    ]
}
