{
    "type": "FeatureCollection",
    "features": [
        {
            "type": "Feature",
            "properties": {
                "name": "Greenland Glacier 0239",
                "object": "transect",
                "component": "landice",
                "author": "Matthew Hoffman, converted from Felikson et al. (2020) Zenodo dataset",
                "tags": "Greenland_Ice_Sheet;flowline;zenodo_4284759;glacier_0239",
                "citation": "Felikson, Denis, Catania, Ginny, Bartholomaus, Timothy, Morlighem, Mathieu, & No\u00ebl, Brice. (2020). Inland limits to diffusion of thinning along Greenland Ice Sheet outlet glaciers (v1.0) [Data set]. Zenodo. https://doi.org/10.5281/zenodo.4284759",
                "license": "CC-BY-4.0"
            },
            "geometry": {
                "type": "LineString",
                "coordinates": [
                    [
                        -43.97771964209087,
                        60.85924275601567
                    ],
                    [
                        -43.980598074143145,
                        60.85710037274102
                    ],
                    [
                        -43.979331775182345,
                        60.85925677561386
                    ],
                    [
                        -43.983741282192526,
                        60.86020040515771
                    ],
                    [
                        -43.98825818922188,
                        60.858186122755015
                    ],
                    [
                        -43.9927775736357,
                        60.85608488561211
                    ],
                    [
                        -43.99729262472929,
                        60.854085330039496
                    ],
                    [
                        -44.00178141095704,
                        60.85280290898031
                    ],
                    [
                        -44.006245437153396,
                        60.85220511025764
                    ],
                    [
                        -44.01071353160742,
                        60.851486812851846
                    ],
                    [
                        -44.01357244945705,
                        60.853678186903124
                    ],
                    [
                        -44.01646736742613,
                        60.855869810109354
                    ],
                    [
                        -44.01753850100282,
                        60.85804613847381
                    ],
                    [
                        -44.01511816551657,
                        60.860193254239505
                    ],
                    [
                        -44.01154456720708,
                        60.86233064518056
                    ],
                    [
                        -44.00716296994594,
                        60.864461126352204
                    ],
                    [
                        -44.002652940109755,
                        60.86629332545914
                    ],
                    [
                        -43.998154679930884,
                        60.86778069845947
                    ],
                    [
                        -43.9936630257979,
                        60.869071246197954
                    ],
                    [
                        -43.989175413640766,
                        60.87023846871247
                    ],
                    [
                        -43.984686030043704,
                        60.871443942279384
                    ],
                    [
                        -43.98018750977399,
                        60.87288887277677
                    ],
                    [
                        -43.975672767229774,
                        60.87476326194143
                    ],
                    [
                        -43.971361675911965,
                        60.876893178832525
                    ],
                    [
                        -43.96763455194141,
                        60.87902809398781
                    ],
                    [
                        -43.96446359975941,
                        60.881167817093086
                    ],
                    [
                        -43.96161438151383,
                        60.883310321498
                    ],
                    [
                        -43.958975176693,
                        60.88545464075634
                    ],
                    [
                        -43.956746241515674,
                        60.887602565866544
                    ],
                    [
                        -43.95480597569683,
                        60.889753038506
                    ],
                    [
                        -43.95320782647211,
                        60.891906548294784
                    ],
                    [
                        -43.95185576731754,
                        60.894062252664035
                    ],
                    [
                        -43.95064614651646,
                        60.896219234787694
                    ],
                    [
                        -43.949465315269485,
                        60.89837648366147
                    ],
                    [
                        -43.94824593281446,
                        60.90053339792382
                    ],
                    [
                        -43.94693563049421,
                        60.90268950759823
                    ],
                    [
                        -43.94543192748846,
                        60.90484389109114
                    ],
                    [
                        -43.94359191475408,
                        60.90699525806105
                    ],
                    [
                        -43.94119435473537,
                        60.90914160239556
                    ],
                    [
                        -43.938027229664186,
                        60.91128097745916
                    ],
                    [
                        -43.933947328277405,
                        60.91341202503094
                    ],
                    [
                        -43.92942682102906,
                        60.915183353039964
                    ],
                    [
                        -43.92492362373674,
                        60.916490547123765
                    ],
                    [
                        -43.92042892558354,
                        60.91756709983929
                    ],
                    [
                        -43.91593788522771,
                        60.91854045634291
                    ],
                    [
                        -43.91145097029591,
                        60.919399921297625
                    ],
                    [
                        -43.906968875459505,
                        60.9201291811031
                    ],
                    [
                        -43.90249117360252,
                        60.92074069210983
                    ],
                    [
                        -43.89801741100486,
                        60.92124737777006
                    ],
                    [
                        -43.89354737846999,
                        60.92165578653228
                    ],
                    [
                        -43.889080628151945,
                        60.921978349868404
                    ],
                    [
                        -43.884617049822914,
                        60.92221885706399
                    ],
                    [
                        -43.88015676959279,
                        60.92237515030644
                    ],
                    [
                        -43.87570001499726,
                        60.92244258906683
                    ],
                    [
                        -43.87124661572467,
                        60.92242643357989
                    ],
                    [
                        -43.86679583991725,
                        60.92234567858558
                    ],
                    [
                        -43.86234727554889,
                        60.92221118093236
                    ],
                    [
                        -43.857900633942194,
                        60.9220306160024
                    ],
                    [
                        -43.853454513855446,
                        60.921838599767085
                    ],
                    [
                        -43.84900723125698,
                        60.92167606537049
                    ],
                    [
                        -43.84455716490459,
                        60.9215818008679
                    ],
                    [
                        -43.84010348494938,
                        60.92157497174948
                    ],
                    [
                        -43.83564643909701,
                        60.92164864122092
                    ],
                    [
                        -43.83118675159062,
                        60.921784607425316
                    ],
                    [
                        -43.82672498202668,
                        60.921968857949864
                    ],
                    [
                        -43.822262913501454,
                        60.92215862297747
                    ],
                    [
                        -43.81780231788762,
                        60.922312044172344
                    ],
                    [
                        -43.81334410554915,
                        60.922408138350214
                    ],
                    [
                        -43.808888078268495,
                        60.92245218983263
                    ],
                    [
                        -43.80443297909661,
                        60.922474097591596
                    ],
                    [
                        -43.79997663237122,
                        60.92252466475109
                    ],
                    [
                        -43.79551792728665,
                        60.92262928904206
                    ],
                    [
                        -43.791056907449615,
                        60.92278636519811
                    ],
                    [
                        -43.78659279870547,
                        60.92301310378854
                    ],
                    [
                        -43.78212264601624,
                        60.92337639543689
                    ],
                    [
                        -43.77764068994535,
                        60.92400611922499
                    ],
                    [
                        -43.77314398835315,
                        60.92496620487642
                    ],
                    [
                        -43.76863077994571,
                        60.926292882263496
                    ],
                    [
                        -43.76410238767382,
                        60.927952242312166
                    ],
                    [
                        -43.75956876578168,
                        60.92971686420609
                    ],
                    [
                        -43.75504322810186,
                        60.93128745213916
                    ],
                    [
                        -43.75053387702831,
                        60.93248537229001
                    ],
                    [
                        -43.74604541032447,
                        60.93321025412007
                    ],
                    [
                        -43.741577877155734,
                        60.933466102811344
                    ],
                    [
                        -43.73713180722504,
                        60.93324621598367
                    ],
                    [
                        -43.73271018464074,
                        60.93248995128352
                    ],
                    [
                        -43.72832106916741,
                        60.93102618260728
                    ],
                    [
                        -43.7239626328029,
                        60.9289020531637
                    ],
                    [
                        -43.71960822325935,
                        60.92670455485532
                    ],
                    [
                        -43.715247130060895,
                        60.924666866843324
                    ],
                    [
                        -43.71087754357555,
                        60.922826537486955
                    ],
                    [
                        -43.706501427798344,
                        60.9211392561643
                    ],
                    [
                        -43.70211332769208,
                        60.91972070714346
                    ],
                    [
                        -43.69771259436511,
                        60.91858210267502
                    ],
                    [
                        -43.693300199343454,
                        60.91769990643827
                    ],
                    [
                        -43.688878261750766,
                        60.91702647198977
                    ],
                    [
                        -43.68444832411037,
                        60.91652700400219
                    ],
                    [
                        -43.6800124262365,
                        60.91615665821128
                    ],
                    [
                        -43.67557244464719,
                        60.91587462396059
                    ],
                    [
                        -43.67113004241759,
                        60.915645112488896
                    ],
                    [
                        -43.666686100102865,
                        60.915449179369006
                    ],
                    [
                        -43.662239701720225,
                        60.91530558716061
                    ],
                    [
                        -43.65779021025454,
                        60.915227052717526
                    ],
                    [
                        -43.653336832167625,
                        60.91522936591213
                    ],
                    [
                        -43.648878936257816,
                        60.91532475613963
                    ],
                    [
                        -43.64441525020565,
                        60.91553848081526
                    ],
                    [
                        -43.63994230012966,
                        60.915940609066986
                    ],
                    [
                        -43.63545656583192,
                        60.91660122822687
                    ],
                    [
                        -43.63095598574329,
                        60.917559775698415
                    ],
                    [
                        -43.62644004919169,
                        60.91882366212854
                    ],
                    [
                        -43.62190523133505,
                        60.92046117296861
                    ],
                    [
                        -43.61735238150931,
                        60.92245144214731
                    ],
                    [
                        -43.612941797788565,
                        60.92456785120635
                    ],
                    [
                        -43.60865425860784,
                        60.92668557706167
                    ],
                    [
                        -43.60424605120427,
                        60.92880174324753
                    ],
                    [
                        -43.59969187798201,
                        60.93076554444165
                    ],
                    [
                        -43.5951574727858,
                        60.932324217665794
                    ],
                    [
                        -43.59064316394816,
                        60.93347523790071
                    ],
                    [
                        -43.58614715653085,
                        60.93425794063189
                    ],
                    [
                        -43.58166897381841,
                        60.93468522438475
                    ],
                    [
                        -43.57720574714623,
                        60.93481665840373
                    ],
                    [
                        -43.57275587772065,
                        60.93468624587225
                    ],
                    [
                        -43.56831581211344,
                        60.93436560735219
                    ],
                    [
                        -43.5638822814529,
                        60.93391994767576
                    ],
                    [
                        -43.559452871487316,
                        60.93339713097272
                    ],
                    [
                        -43.55502663846718,
                        60.93281606832126
                    ],
                    [
                        -43.550602527723036,
                        60.93219757337458
                    ],
                    [
                        -43.54618144519977,
                        60.93152461441751
                    ],
                    [
                        -43.5417634514794,
                        60.93079652472994
                    ],
                    [
                        -43.537350812810416,
                        60.92997060658811
                    ],
                    [
                        -43.53294645098141,
                        60.92899221319815
                    ],
                    [
                        -43.528550631195955,
                        60.92785767464397
                    ],
                    [
                        -43.52416050106132,
                        60.92662225314383
                    ],
                    [
                        -43.51976710998523,
                        60.925455422909636
                    ],
                    [
                        -43.51536652513953,
                        60.9244304403905
                    ],
                    [
                        -43.510964967834234,
                        60.923429564912006
                    ],
                    [
                        -43.50656173339605,
                        60.922465741097426
                    ],
                    [
                        -43.50215972650824,
                        60.92148457017391
                    ],
                    [
                        -43.49775420026159,
                        60.92057431524191
                    ],
                    [
                        -43.49333201278976,
                        60.919977590701556
                    ],
                    [
                        -43.48890298326977,
                        60.91951045754437
                    ],
                    [
                        -43.48447206271535,
                        60.919080684439415
                    ],
                    [
                        -43.48447206271535,
                        60.919080684439415
                    ],
                    [
                        -43.48004127872954,
                        60.918650745333224
                    ],
                    [
                        -43.4756126491644,
                        60.91818372695542
                    ],
                    [
                        -43.44074369980753,
                        60.91464646925717
                    ],
                    [
                        -43.405883604880486,
                        60.911098937071884
                    ],
                    [
                        -43.371032386810164,
                        60.90754113482498
                    ],
                    [
                        -43.33619006798572,
                        60.903973066952645
                    ],
                    [
                        -43.30135667075857,
                        60.9003947379017
                    ],
                    [
                        -43.266532217442304,
                        60.89680615212966
                    ],
                    [
                        -43.23171673031263,
                        60.89320731410462
                    ],
                    [
                        -43.19691023160727,
                        60.889598228305324
                    ],
                    [
                        -43.16211274352597,
                        60.88597889922108
                    ],
                    [
                        -43.127324288230355,
                        60.882349331351804
                    ],
                    [
                        -43.09254488784396,
                        60.8787095292079
                    ],
                    [
                        -43.057774564452046,
                        60.87505949731035
                    ],
                    [
                        -43.02301334010166,
                        60.871399240190584
                    ],
                    [
                        -42.98826123680149,
                        60.86772876239051
                    ],
                    [
                        -42.95351827652184,
                        60.86404806846254
                    ],
                    [
                        -42.91878448119456,
                        60.860357162969436
                    ],
                    [
                        -42.884059872712974,
                        60.85665605048444
                    ],
                    [
                        -42.84934447293185,
                        60.85294473559112
                    ],
                    [
                        -42.814638303667316,
                        60.84922322288344
                    ],
                    [
                        -42.779941386696784,
                        60.845491516965666
                    ]
                ]
            }
        }
    ]
}
