{
    "type": "FeatureCollection",
    "features": [
        {
            "type": "Feature",
            "properties": {
                "name": "Greenland Glacier 0234",
                "object": "transect",
                "component": "landice",
                "author": "Matthew Hoffman, converted from Felikson et al. (2020) Zenodo dataset",
                "tags": "Greenland_Ice_Sheet;flowline;zenodo_4284759;glacier_0234",
                "citation": "Felikson, Denis, Catania, Ginny, Bartholomaus, Timothy, Morlighem, Mathieu, & No\u00ebl, Brice. (2020). Inland limits to diffusion of thinning along Greenland Ice Sheet outlet glaciers (v1.0) [Data set]. Zenodo. https://doi.org/10.5281/zenodo.4284759",
                "license": "CC-BY-4.0"
            },
            "geometry": {
                "type": "LineString",
                "coordinates": [
                    [
                        -43.36406275608305,
                        61.55319064106648
                    ],
                    [
                        -43.36724556967325,
                        61.55105951274408
                    ],
                    [
                        -43.36449902658565,
                        61.55319658457718
                    ],
                    [
                        -43.36912542769977,
                        61.552049525292446
                    ],
                    [
                        -43.36689091760049,
                        61.554193613893375
                    ],
                    [
                        -43.371559953273255,
                        61.552332153360176
                    ],
                    [
                        -43.36911516849009,
                        61.55447343167048
                    ],
                    [
                        -43.37360317698294,
                        61.55235984854852
                    ],
                    [
                        -43.37169381239159,
                        61.55450842865088
                    ],
                    [
                        -43.37631322488412,
                        61.55347735892666
                    ],
                    [
                        -43.37507560884636,
                        61.55563508280899
                    ],
                    [
                        -43.37389070598978,
                        61.55779353027947
                    ],
                    [
                        -43.372741985209345,
                        61.55995247875625
                    ],
                    [
                        -43.37069943067029,
                        61.56209931613101
                    ],
                    [
                        -43.36602683235659,
                        61.56399149936378
                    ],
                    [
                        -43.36138840722545,
                        61.56530306510421
                    ],
                    [
                        -43.356773442359774,
                        61.56621708519865
                    ],
                    [
                        -43.35215534418403,
                        61.56717775091174
                    ],
                    [
                        -43.3475276972379,
                        61.56829070529344
                    ],
                    [
                        -43.34290338832353,
                        61.56934225543833
                    ],
                    [
                        -43.33830130262495,
                        61.57002252626739
                    ],
                    [
                        -43.33371881779738,
                        61.57037760107141
                    ],
                    [
                        -43.329150790130925,
                        61.570494245130384
                    ],
                    [
                        -43.324598955219,
                        61.570346119585835
                    ],
                    [
                        -43.3200645075054,
                        61.56991595494649
                    ],
                    [
                        -43.31554520401325,
                        61.569242386136274
                    ],
                    [
                        -43.31103280711757,
                        61.56846056525388
                    ],
                    [
                        -43.3065294503858,
                        61.56753693753464
                    ],
                    [
                        -43.302051848272725,
                        61.566203737707866
                    ],
                    [
                        -43.29759552817243,
                        61.56453591129325
                    ],
                    [
                        -43.29314883676613,
                        61.56272253441691
                    ],
                    [
                        -43.2887076849138,
                        61.560829994526124
                    ],
                    [
                        -43.28426589153105,
                        61.55895731632699
                    ],
                    [
                        -43.279813830204965,
                        61.55725724792647
                    ],
                    [
                        -43.275361252352674,
                        61.555573985252664
                    ],
                    [
                        -43.270902101654904,
                        61.55400310831798
                    ],
                    [
                        -43.266430538029994,
                        61.55263582233536
                    ],
                    [
                        -43.26195693240697,
                        61.551307518065045
                    ],
                    [
                        -43.2574767868025,
                        61.55008844204025
                    ],
                    [
                        -43.25299133654444,
                        61.54895844013791
                    ],
                    [
                        -43.24849833105989,
                        61.54795195399588
                    ],
                    [
                        -43.24399545516962,
                        61.54710408013511
                    ],
                    [
                        -43.23948394964683,
                        61.54639435022931
                    ],
                    [
                        -43.23496016385281,
                        61.545878243998935
                    ],
                    [
                        -43.230419899945765,
                        61.54561912277289
                    ],
                    [
                        -43.22585994710179,
                        61.545664483698225
                    ],
                    [
                        -43.22128093737626,
                        61.546002269649364
                    ],
                    [
                        -43.2166853369754,
                        61.546592419452594
                    ],
                    [
                        -43.21207300254485,
                        61.54743516220807
                    ],
                    [
                        -43.207446597640995,
                        61.54848791680431
                    ],
                    [
                        -43.202811797614174,
                        61.549662738006624
                    ],
                    [
                        -43.19817484215051,
                        61.55086403492142
                    ],
                    [
                        -43.19353303553377,
                        61.55213237678423
                    ],
                    [
                        -43.188883458447414,
                        61.55351128274966
                    ],
                    [
                        -43.1842192192265,
                        61.55510359078447
                    ],
                    [
                        -43.179535600738454,
                        61.556978420082594
                    ],
                    [
                        -43.1749158674274,
                        61.55908301744957
                    ],
                    [
                        -43.17085252454759,
                        61.56119594285385
                    ],
                    [
                        -43.167386665864626,
                        61.5633178781792
                    ],
                    [
                        -43.16429119316015,
                        61.56544540255048
                    ],
                    [
                        -43.16131725697847,
                        61.567574734379654
                    ],
                    [
                        -43.158349466007735,
                        61.569704113260926
                    ],
                    [
                        -43.15540008053538,
                        61.57183372790248
                    ],
                    [
                        -43.15258538122378,
                        61.573965367770406
                    ],
                    [
                        -43.149797325792214,
                        61.57609737816441
                    ],
                    [
                        -43.147116125795115,
                        61.578230997825926
                    ],
                    [
                        -43.14459305706476,
                        61.58036702533484
                    ],
                    [
                        -43.142620912666864,
                        61.58251154187708
                    ],
                    [
                        -43.14108448112664,
                        61.58466279080976
                    ],
                    [
                        -43.139537979128434,
                        61.586813887700664
                    ],
                    [
                        -43.13782851926933,
                        61.58896246363531
                    ],
                    [
                        -43.13782851926933,
                        61.58896246363531
                    ],
                    [
                        -43.13611879033733,
                        61.59111103494631
                    ],
                    [
                        -43.134286208075736,
                        61.593257699161846
                    ],
                    [
                        -43.13218057729962,
                        61.595400117630525
                    ],
                    [
                        -43.12936152990108,
                        61.59753142600088
                    ],
                    [
                        -43.12498242752435,
                        61.59963837653669
                    ],
                    [
                        -43.12037691075341,
                        61.600207671802295
                    ],
                    [
                        -43.115867376620805,
                        61.59938418382551
                    ],
                    [
                        -43.111432743592566,
                        61.59748236506706
                    ],
                    [
                        -43.107080634417336,
                        61.59523875546458
                    ],
                    [
                        -43.102664206449646,
                        61.59309330011517
                    ],
                    [
                        -43.09823805088541,
                        61.59109725709808
                    ],
                    [
                        -43.09379028680732,
                        61.58941971695087
                    ],
                    [
                        -43.0893297533976,
                        61.58793223909833
                    ],
                    [
                        -43.061016364478895,
                        61.57696262112337
                    ],
                    [
                        -43.03272571546591,
                        61.56598685235152
                    ],
                    [
                        -43.00445779275241,
                        61.555004941907136
                    ],
                    [
                        -42.9762125827098,
                        61.544016898906115
                    ],
                    [
                        -42.947990071687165,
                        61.53302273245596
                    ],
                    [
                        -42.9197902460115,
                        61.522022451655694
                    ],
                    [
                        -42.891613091987814,
                        61.511016065595925
                    ],
                    [
                        -42.86345859589924,
                        61.500003583358804
                    ],
                    [
                        -42.8353267440072,
                        61.48898501401803
                    ],
                    [
                        -42.80721752255153,
                        61.47796036663881
                    ],
                    [
                        -42.77913091775065,
                        61.466929650277976
                    ],
                    [
                        -42.75106691580164,
                        61.45589287398379
                    ],
                    [
                        -42.723025502880404,
                        61.4448500467961
                    ],
                    [
                        -42.695006665141825,
                        61.43380117774629
                    ],
                    [
                        -42.66701038871987,
                        61.42274627585726
                    ],
                    [
                        -42.63903665972774,
                        61.411685350143394
                    ],
                    [
                        -42.61108546425799,
                        61.40061840961064
                    ],
                    [
                        -42.58315678838267,
                        61.38954546325642
                    ],
                    [
                        -42.55525061815346,
                        61.37846652006971
                    ],
                    [
                        -42.5273669396018,
                        61.367381589030956
                    ]
                ]
            }
        }
    ]
}
