{
    "type": "FeatureCollection",
    "features": [
        {
            "type": "Feature",
            "properties": {
                "name": "Beardmore",
                "object": "transect",
                "component": "landice",
                "author": "Matthew Hoffman, converted from https://github.com/yuwang115/sl-ice",
                "tags": "Antarctic_Ice_Sheet;flowline;sl-ice;beardmore"
            },
            "geometry": {
                "type": "LineString",
                "coordinates": [
                    [
                        154.47514885410783,
                        -86.68064118123849
                    ],
                    [
                        154.63271127252608,
                        -86.66468537628943
                    ],
                    [
                        154.7814272679715,
                        -86.64846596300502
                    ],
                    [
                        154.92263349873195,
                        -86.63204108345802
                    ],
                    [
                        155.0488529516582,
                        -86.61522222418137
                    ],
                    [
                        155.1597957933397,
                        -86.5980466472199
                    ],
                    [
                        155.26333781962245,
                        -86.58071628744763
                    ],
                    [
                        155.36407186527086,
                        -86.56334073512245
                    ],
                    [
                        155.46613349881244,
                        -86.54600002628703
                    ],
                    [
                        155.56994614738454,
                        -86.52871274364212
                    ],
                    [
                        155.6726788265099,
                        -86.5114099288688
                    ],
                    [
                        155.77436294935907,
                        -86.49409625261933
                    ],
                    [
                        155.87604835613772,
                        -86.47679634510374
                    ],
                    [
                        155.97847713476378,
                        -86.45952035998796
                    ],
                    [
                        156.08195693861836,
                        -86.44228262368881
                    ],
                    [
                        156.18270396524082,
                        -86.42499387302172
                    ],
                    [
                        156.27496586449254,
                        -86.40753163079174
                    ],
                    [
                        156.36137446978032,
                        -86.38995978419402
                    ],
                    [
                        156.44489754712575,
                        -86.37234355366503
                    ],
                    [
                        156.52817782156583,
                        -86.35472944713152
                    ],
                    [
                        156.60624068657518,
                        -86.33702592229427
                    ],
                    [
                        156.67515417397627,
                        -86.31917753723819
                    ],
                    [
                        156.7402906707702,
                        -86.30127181076517
                    ],
                    [
                        156.8070693724439,
                        -86.28339857854546
                    ],
                    [
                        156.8728986923383,
                        -86.26551390827184
                    ],
                    [
                        156.93623588338014,
                        -86.24759657249335
                    ],
                    [
                        156.99983956907508,
                        -86.22968614560531
                    ],
                    [
                        157.06860936829574,
                        -86.21186865336117
                    ],
                    [
                        157.1415285419136,
                        -86.19412421985791
                    ],
                    [
                        157.20206433709677,
                        -86.17619541431762
                    ],
                    [
                        157.24755058347105,
                        -86.15806404703453
                    ],
                    [
                        157.28816268430015,
                        -86.13987893851784
                    ],
                    [
                        157.33391017061996,
                        -86.121755285606
                    ],
                    [
                        157.39490317165763,
                        -86.10384387426483
                    ],
                    [
                        157.47584659254608,
                        -86.08630608451985
                    ],
                    [
                        157.56704546659262,
                        -86.06901187550977
                    ],
                    [
                        157.66364145151658,
                        -86.05186443438815
                    ],
                    [
                        157.76807859604656,
                        -86.03495335974782
                    ],
                    [
                        157.88183862590213,
                        -86.01834544468593
                    ],
                    [
                        158.0067089230115,
                        -86.00214703323988
                    ],
                    [
                        158.14390893626725,
                        -85.98645912059702
                    ],
                    [
                        158.2901870235393,
                        -85.97120665617763
                    ],
                    [
                        158.44482778460744,
                        -85.95638979162207
                    ],
                    [
                        158.60787823200093,
                        -85.94206314096321
                    ],
                    [
                        158.7768789101473,
                        -85.92811974796132
                    ],
                    [
                        158.94972075471546,
                        -85.9144497520183
                    ],
                    [
                        159.1233167113136,
                        -85.90086487957781
                    ],
                    [
                        159.2948682523103,
                        -85.88718902300613
                    ],
                    [
                        159.464871936928,
                        -85.87344506370768
                    ],
                    [
                        159.63300655796505,
                        -85.85962380855757
                    ],
                    [
                        159.79940003988006,
                        -85.84572431144042
                    ],
                    [
                        159.96519319381258,
                        -85.83182231209629
                    ],
                    [
                        160.1332841241214,
                        -85.81810251433907
                    ],
                    [
                        160.29779650822127,
                        -85.80419336824147
                    ],
                    [
                        160.45361481378302,
                        -85.78978946587631
                    ],
                    [
                        160.59408941235884,
                        -85.77459259337047
                    ],
                    [
                        160.7201033208816,
                        -85.75874042383161
                    ],
                    [
                        160.83206766931292,
                        -85.74234499475482
                    ],
                    [
                        160.93099768277284,
                        -85.72550044646742
                    ],
                    [
                        161.01843916428507,
                        -85.70832311390184
                    ],
                    [
                        161.08892271113018,
                        -85.69072351544503
                    ],
                    [
                        161.14395713705068,
                        -85.67281511342783
                    ],
                    [
                        161.19718926022034,
                        -85.65487788937537
                    ],
                    [
                        161.25114315938035,
                        -85.6369574016911
                    ],
                    [
                        161.2994173782536,
                        -85.618951231785
                    ],
                    [
                        161.34031441127837,
                        -85.60083897870312
                    ],
                    [
                        161.38230885585435,
                        -85.58274250720665
                    ],
                    [
                        161.4348869482074,
                        -85.56481823855611
                    ],
                    [
                        161.49725275515888,
                        -85.54708707585719
                    ],
                    [
                        161.56832470305233,
                        -85.52955898984739
                    ],
                    [
                        161.64491944496388,
                        -85.51218116334782
                    ],
                    [
                        161.7220556871448,
                        -85.49482498432539
                    ],
                    [
                        161.80066599426232,
                        -85.47751836441205
                    ],
                    [
                        161.8832968020887,
                        -85.46033574872756
                    ],
                    [
                        161.97359060179502,
                        -85.44341336709176
                    ],
                    [
                        162.0753054437036,
                        -85.42691843233013
                    ],
                    [
                        162.182586329085,
                        -85.41065826873051
                    ],
                    [
                        162.29277557990343,
                        -85.39454773187849
                    ],
                    [
                        162.4136625121001,
                        -85.3789573191348
                    ],
                    [
                        162.54735082500267,
                        -85.36408007097454
                    ],
                    [
                        162.6804737509335,
                        -85.34919780644022
                    ],
                    [
                        162.80087202765196,
                        -85.33364176116835
                    ],
                    [
                        162.90977028660737,
                        -85.317550912928
                    ],
                    [
                        163.01554279744448,
                        -85.30133591034046
                    ],
                    [
                        163.1188102057152,
                        -85.28502632246298
                    ],
                    [
                        163.21929922872653,
                        -85.26862060261398
                    ],
                    [
                        163.31602799712232,
                        -85.25207089151544
                    ],
                    [
                        163.40822587488054,
                        -85.23536070406783
                    ],
                    [
                        163.49671189096418,
                        -85.21852441589351
                    ],
                    [
                        163.59010539782787,
                        -85.20189850519954
                    ],
                    [
                        163.70931390624816,
                        -85.18651090143351
                    ],
                    [
                        163.87020511068565,
                        -85.17410773338446
                    ],
                    [
                        164.0482501369768,
                        -85.16350532784854
                    ],
                    [
                        164.23469155851365,
                        -85.15402549651301
                    ],
                    [
                        164.42947014714758,
                        -85.14588177871198
                    ],
                    [
                        164.62838669650952,
                        -85.13854388544036
                    ],
                    [
                        164.8268358702093,
                        -85.13117554479055
                    ],
                    [
                        165.019371889583,
                        -85.12282368144297
                    ],
                    [
                        165.20254643770974,
                        -85.11311048225467
                    ],
                    [
                        165.37907983312863,
                        -85.10257417601682
                    ],
                    [
                        165.55234326600348,
                        -85.09169826178557
                    ],
                    [
                        165.72551002814382,
                        -85.08085313263054
                    ],
                    [
                        165.89691838616406,
                        -85.06985100257604
                    ],
                    [
                        166.06410487267817,
                        -85.05841790176521
                    ],
                    [
                        166.2290794912017,
                        -85.04679345846705
                    ],
                    [
                        166.38776357251683,
                        -85.03457411278481
                    ],
                    [
                        166.53351426011065,
                        -85.02123709707065
                    ],
                    [
                        166.66841198632707,
                        -85.00709692176656
                    ],
                    [
                        166.79334868123155,
                        -84.99230512057608
                    ],
                    [
                        166.90767203625765,
                        -84.97689268494756
                    ],
                    [
                        167.0139003629987,
                        -84.96105535326897
                    ],
                    [
                        167.1153938741757,
                        -84.94499652646606
                    ],
                    [
                        167.21723173233278,
                        -84.92897305499841
                    ],
                    [
                        167.31840671227351,
                        -84.91293347159872
                    ],
                    [
                        167.41672344692248,
                        -84.89676835224891
                    ],
                    [
                        167.51307339612435,
                        -84.88052712904748
                    ],
                    [
                        167.60944697018212,
                        -84.86430019526061
                    ],
                    [
                        167.70800565464893,
                        -84.84819361214095
                    ],
                    [
                        167.81120938463934,
                        -84.83234080954738
                    ],
                    [
                        167.92416540744438,
                        -84.81706502078875
                    ],
                    [
                        168.04825635678935,
                        -84.80252913493962
                    ],
                    [
                        168.17963376324852,
                        -84.78854983833763
                    ],
                    [
                        168.31176212779965,
                        -84.77465531848972
                    ],
                    [
                        168.44311929978124,
                        -84.76072737101313
                    ],
                    [
                        168.57822053484009,
                        -84.74714302478384
                    ],
                    [
                        168.7256693114655,
                        -84.73472960399206
                    ],
                    [
                        168.88546597183725,
                        -84.7237025361706
                    ],
                    [
                        169.05052655283475,
                        -84.71338231444967
                    ],
                    [
                        169.21445588197662,
                        -84.70295949686688
                    ],
                    [
                        169.36450855980868,
                        -84.69094438921526
                    ],
                    [
                        169.4964951681655,
                        -84.67724188694977
                    ],
                    [
                        169.6211872150414,
                        -84.66298610824258
                    ],
                    [
                        169.74184576591637,
                        -84.64845534159565
                    ],
                    [
                        169.86118145408966,
                        -84.63385920919501
                    ],
                    [
                        169.98705341478072,
                        -84.61978161540083
                    ],
                    [
                        170.12549840917518,
                        -84.60681702989339
                    ],
                    [
                        170.26984835590466,
                        -84.59445488216346
                    ],
                    [
                        170.40895133937508,
                        -84.5816120925402
                    ],
                    [
                        170.53664917836403,
                        -84.56777964398782
                    ],
                    [
                        170.65630158177964,
                        -84.55333321761232
                    ],
                    [
                        170.77657526836933,
                        -84.538958135014
                    ],
                    [
                        170.89794600164274,
                        -84.5246899330021
                    ],
                    [
                        171.01567572055697,
                        -84.51017161678563
                    ],
                    [
                        171.1250135546565,
                        -84.49509400572902
                    ],
                    [
                        171.22326762524946,
                        -84.47934391109955
                    ],
                    [
                        171.30662254626506,
                        -84.46283236907074
                    ],
                    [
                        171.3773267161585,
                        -84.44579215136484
                    ],
                    [
                        171.43483529207936,
                        -84.42830191470173
                    ],
                    [
                        171.474256459996,
                        -84.41034536738708
                    ],
                    [
                        171.49980788950995,
                        -84.3921580333567
                    ],
                    [
                        171.51433343145226,
                        -84.3738510276922
                    ],
                    [
                        171.5136764560142,
                        -84.35549166446931
                    ],
                    [
                        171.50072341491054,
                        -84.33717877884152
                    ],
                    [
                        171.47665669365,
                        -84.31897096886676
                    ],
                    [
                        171.4323277258255,
                        -84.30116116231939
                    ],
                    [
                        171.3676685662598,
                        -84.28397494520482
                    ],
                    [
                        171.28789876956523,
                        -84.26743640627167
                    ],
                    [
                        171.19761145343105,
                        -84.2514490028346
                    ],
                    [
                        171.11671195737762,
                        -84.23498690398934
                    ],
                    [
                        171.06456686324674,
                        -84.21744569606578
                    ],
                    [
                        171.07047833570115,
                        -84.19918693936242
                    ],
                    [
                        171.12497043156245,
                        -84.18176900778016
                    ],
                    [
                        171.21289467982646,
                        -84.16575932996825
                    ],
                    [
                        171.32319730611565,
                        -84.15123832875928
                    ],
                    [
                        171.43918821273584,
                        -84.1372004092938
                    ],
                    [
                        171.55036470920444,
                        -84.12278815844014
                    ],
                    [
                        171.65003557097523,
                        -84.10754884017668
                    ],
                    [
                        171.7329384402628,
                        -84.09130519389106
                    ],
                    [
                        171.79311781910118,
                        -84.07405615991756
                    ],
                    [
                        171.82545885393753,
                        -84.05600874470095
                    ],
                    [
                        171.84708391971913,
                        -84.03778751516852
                    ],
                    [
                        171.8620161091462,
                        -84.01949583484473
                    ],
                    [
                        171.86016595097357,
                        -84.00115415222594
                    ],
                    [
                        171.8411206197498,
                        -83.982911432261
                    ],
                    [
                        171.8197546719829,
                        -83.96468902687485
                    ],
                    [
                        171.77120535309916,
                        -83.94706205445934
                    ],
                    [
                        171.71786301450345,
                        -83.92958853067299
                    ],
                    [
                        171.66113279619864,
                        -83.91224558849507
                    ],
                    [
                        171.59355970736345,
                        -83.89535530778649
                    ],
                    [
                        171.52230971101756,
                        -83.87864674962138
                    ],
                    [
                        171.46132980617128,
                        -83.86148728691181
                    ],
                    [
                        171.41481797845074,
                        -83.84382237150366
                    ],
                    [
                        171.37790404765047,
                        -83.82591422968305
                    ],
                    [
                        171.3661786241932,
                        -83.80763740852008
                    ],
                    [
                        171.4012488504072,
                        -83.78969738761134
                    ],
                    [
                        171.45732699783957,
                        -83.77240029136398
                    ],
                    [
                        171.53553109004764,
                        -83.7561599421729
                    ],
                    [
                        171.64025505071388,
                        -83.74184316468953
                    ],
                    [
                        171.77226169268198,
                        -83.73065278457267
                    ],
                    [
                        171.91991146765446,
                        -83.72192311326336
                    ],
                    [
                        172.0538563565832,
                        -83.7109289826403
                    ],
                    [
                        172.1728953658016,
                        -83.69804358404183
                    ],
                    [
                        172.28974673733978,
                        -83.68493280633555
                    ],
                    [
                        172.42187102756702,
                        -83.67376970716843
                    ],
                    [
                        172.56464290206657,
                        -83.66436878149676
                    ],
                    [
                        172.7096786386604,
                        -83.65541180752551
                    ],
                    [
                        172.85450206027502,
                        -83.64646066754626
                    ],
                    [
                        172.99408594857672,
                        -83.63657411969885
                    ],
                    [
                        173.1282519301636,
                        -83.62584124937229
                    ],
                    [
                        173.25377026152248,
                        -83.61392829657669
                    ],
                    [
                        173.3715808589584,
                        -83.60109684976067
                    ],
                    [
                        173.48269634883655,
                        -83.58757100186877
                    ],
                    [
                        173.58538382925263,
                        -83.57326382731316
                    ],
                    [
                        173.67896637513797,
                        -83.5582104032015
                    ],
                    [
                        173.76599163928304,
                        -83.54268099984532
                    ],
                    [
                        173.83770735036572,
                        -83.52620660470082
                    ],
                    [
                        173.89985071462536,
                        -83.50925598049697
                    ],
                    [
                        173.95184180181036,
                        -83.4918830222389
                    ],
                    [
                        173.99297946640473,
                        -83.47413602159683
                    ],
                    [
                        174.0269638741226,
                        -83.45620192396161
                    ],
                    [
                        174.05472788830912,
                        -83.43812950005633
                    ],
                    [
                        174.073060424585,
                        -83.41990312743633
                    ],
                    [
                        174.0845104742506,
                        -83.40160401188515
                    ],
                    [
                        174.08911410518292,
                        -83.38326466150667
                    ],
                    [
                        174.08709691896132,
                        -83.36491956967053
                    ],
                    [
                        174.0829078361097,
                        -83.34657717586457
                    ],
                    [
                        174.07626445795094,
                        -83.32824487245237
                    ],
                    [
                        174.06668758505228,
                        -83.30993219292469
                    ],
                    [
                        174.05541483788093,
                        -83.29163251723212
                    ],
                    [
                        174.04205921988955,
                        -83.27335373968292
                    ],
                    [
                        174.02449249264137,
                        -83.25512373566322
                    ],
                    [
                        174.00408636692148,
                        -83.2369346177225
                    ],
                    [
                        173.98180501176216,
                        -83.21878114377539
                    ],
                    [
                        173.95883391772074,
                        -83.2006343678946
                    ],
                    [
                        173.9351031964433,
                        -83.182508914718
                    ],
                    [
                        173.9095944938282,
                        -83.16441471716865
                    ],
                    [
                        173.88289442309105,
                        -83.14635050762311
                    ],
                    [
                        173.85555923771955,
                        -83.12829913997578
                    ],
                    [
                        173.82813138500907,
                        -83.11025270826919
                    ],
                    [
                        173.80040192065115,
                        -83.09221398138233
                    ],
                    [
                        173.7718492522318,
                        -83.07419537487556
                    ],
                    [
                        173.7438420652155,
                        -83.05616681280621
                    ],
                    [
                        173.7148358903301,
                        -83.03816502174767
                    ],
                    [
                        173.68407654270382,
                        -83.02020908651367
                    ],
                    [
                        173.65198091450486,
                        -83.00228751525204
                    ],
                    [
                        173.61767814639254,
                        -82.98442951103708
                    ],
                    [
                        173.58309504466467,
                        -82.96658060644853
                    ],
                    [
                        173.54886152291422,
                        -82.9487282115701
                    ],
                    [
                        173.51928375537472,
                        -82.93075360290693
                    ],
                    [
                        173.49191669804307,
                        -82.91272524670899
                    ],
                    [
                        173.46470842472723,
                        -82.89469866912812
                    ],
                    [
                        173.43478652593728,
                        -82.87673629191355
                    ],
                    [
                        173.4020968552929,
                        -82.85885312577591
                    ],
                    [
                        173.36776766094272,
                        -82.84101939791495
                    ],
                    [
                        173.33518862697863,
                        -82.82313819753863
                    ],
                    [
                        173.30451152111235,
                        -82.80520768077452
                    ],
                    [
                        173.2739852105144,
                        -82.78726988485542
                    ],
                    [
                        173.24479299325407,
                        -82.76930555562606
                    ],
                    [
                        173.21743265183733,
                        -82.75129670021806
                    ],
                    [
                        173.1884005808029,
                        -82.73333033391712
                    ],
                    [
                        173.1581353378638,
                        -82.71540153299729
                    ],
                    [
                        173.1289314463196,
                        -82.69744348049899
                    ],
                    [
                        173.09976690511334,
                        -82.67948689852778
                    ],
                    [
                        173.07089227731913,
                        -82.66152644138192
                    ],
                    [
                        173.0420409838235,
                        -82.64356725411487
                    ],
                    [
                        173.01272589387236,
                        -82.62562198637202
                    ],
                    [
                        172.9840243100364,
                        -82.60766321030401
                    ],
                    [
                        172.95590195858102,
                        -82.58969240196866
                    ],
                    [
                        172.92800658155417,
                        -82.57171515871737
                    ],
                    [
                        172.90097428933504,
                        -82.55372055988396
                    ],
                    [
                        172.87438159551942,
                        -82.5357139824327
                    ],
                    [
                        172.84839216739758,
                        -82.51769914366592
                    ],
                    [
                        172.82281715378102,
                        -82.49966941069479
                    ],
                    [
                        172.79788910261047,
                        -82.4816296629448
                    ],
                    [
                        172.77401527177088,
                        -82.46356929700231
                    ],
                    [
                        172.75122900544704,
                        -82.44548269139935
                    ],
                    [
                        172.72892628668083,
                        -82.42739231845492
                    ],
                    [
                        172.7074078252446,
                        -82.40928028798697
                    ],
                    [
                        172.6868989360896,
                        -82.39115340426581
                    ],
                    [
                        172.66718180112204,
                        -82.37301374972579
                    ],
                    [
                        172.64835355476353,
                        -82.3548557980691
                    ],
                    [
                        172.63043678086754,
                        -82.33668570231437
                    ],
                    [
                        172.6132323378524,
                        -82.31849561158684
                    ],
                    [
                        172.59694086038317,
                        -82.30030120058804
                    ],
                    [
                        172.5817773662119,
                        -82.28208703678055
                    ],
                    [
                        172.5674490412517,
                        -82.26386394376487
                    ],
                    [
                        172.55371436877587,
                        -82.24562784724807
                    ],
                    [
                        172.5408352759026,
                        -82.2273862870662
                    ],
                    [
                        172.52884717859015,
                        -82.20913175849725
                    ],
                    [
                        172.51765574517844,
                        -82.19087108073958
                    ],
                    [
                        172.50741845835518,
                        -82.17259707144153
                    ],
                    [
                        172.4980418297969,
                        -82.15431563157749
                    ],
                    [
                        172.48940351844598,
                        -82.13602841601814
                    ],
                    [
                        172.48148252291193,
                        -82.11773795546131
                    ],
                    [
                        172.47439802082914,
                        -82.09944100074624
                    ],
                    [
                        172.46818725059845,
                        -82.08113468234129
                    ],
                    [
                        172.4632089633751,
                        -82.06282940223318
                    ],
                    [
                        172.45885756757497,
                        -82.0445142646046
                    ],
                    [
                        172.45511266412112,
                        -82.0261991598799
                    ],
                    [
                        172.4520771596407,
                        -82.00788330606319
                    ],
                    [
                        172.44966798498194,
                        -81.9895652751734
                    ],
                    [
                        172.44774651619682,
                        -81.97124721170283
                    ],
                    [
                        172.44643694614462,
                        -81.95292687085961
                    ],
                    [
                        172.4454417799565,
                        -81.93460804133395
                    ],
                    [
                        172.4448922836041,
                        -81.91628859475715
                    ],
                    [
                        172.44497650871736,
                        -81.89796748631535
                    ],
                    [
                        172.44560876357494,
                        -81.87964781159525
                    ],
                    [
                        172.44675327214247,
                        -81.86132896688699
                    ],
                    [
                        172.44852814021422,
                        -81.8430132356418
                    ],
                    [
                        172.45098442103915,
                        -81.82469703313487
                    ],
                    [
                        172.45395836934745,
                        -81.806391200436
                    ],
                    [
                        172.45738073166748,
                        -81.78807600514043
                    ],
                    [
                        172.46123804928519,
                        -81.76976971531734
                    ],
                    [
                        172.46560539800797,
                        -81.75146456051833
                    ],
                    [
                        172.47023530068054,
                        -81.73316050390576
                    ],
                    [
                        172.4751260125624,
                        -81.71485753684796
                    ],
                    [
                        172.4805397977712,
                        -81.6965606833924
                    ],
                    [
                        172.48670939769357,
                        -81.6782698132468
                    ],
                    [
                        172.49336486072167,
                        -81.65997520798805
                    ],
                    [
                        172.50048029057808,
                        -81.6416948808972
                    ],
                    [
                        172.50821453370105,
                        -81.62341805403257
                    ],
                    [
                        172.5162921117355,
                        -81.60514410197524
                    ],
                    [
                        172.52485754832517,
                        -81.58687120381691
                    ],
                    [
                        172.5340026559932,
                        -81.5686057699713
                    ],
                    [
                        172.54371346606354,
                        -81.55035217925129
                    ],
                    [
                        172.55391024183618,
                        -81.5321043065209
                    ],
                    [
                        172.5647783993475,
                        -81.51386112763332
                    ],
                    [
                        172.57607852017077,
                        -81.49562728665357
                    ],
                    [
                        172.5879242307184,
                        -81.47740498803972
                    ],
                    [
                        172.6003994662986,
                        -81.45918663392953
                    ],
                    [
                        172.6131873483753,
                        -81.4409753553381
                    ],
                    [
                        172.62623721882,
                        -81.42277017903808
                    ],
                    [
                        172.63997865287783,
                        -81.40457940225811
                    ],
                    [
                        172.65434455836478,
                        -81.3863971209594
                    ],
                    [
                        172.66938155979503,
                        -81.36822885252626
                    ],
                    [
                        172.68507944940862,
                        -81.3500743976119
                    ],
                    [
                        172.70127752882627,
                        -81.33193064733557
                    ],
                    [
                        172.7180410009909,
                        -81.31380346560495
                    ],
                    [
                        172.73554202125763,
                        -81.29568693420413
                    ],
                    [
                        172.75346312780607,
                        -81.27758413800727
                    ],
                    [
                        172.7718555514273,
                        -81.25949604849453
                    ],
                    [
                        172.79082157743653,
                        -81.24142000384029
                    ],
                    [
                        172.81016137900573,
                        -81.22335213188181
                    ],
                    [
                        172.8298927138503,
                        -81.20529736621646
                    ],
                    [
                        172.85022658881164,
                        -81.1872597393407
                    ],
                    [
                        172.87126217135338,
                        -81.16924573071049
                    ],
                    [
                        172.89284554764015,
                        -81.15124772994507
                    ],
                    [
                        172.9150206107145,
                        -81.13326653721843
                    ],
                    [
                        172.9377332075832,
                        -81.11530567923087
                    ],
                    [
                        172.96097573862383,
                        -81.09735574285914
                    ],
                    [
                        172.9846757119199,
                        -81.0794291249448
                    ],
                    [
                        173.00876400291966,
                        -81.06151985036811
                    ],
                    [
                        173.0333971962529,
                        -81.04362163668979
                    ],
                    [
                        173.05852655054252,
                        -81.02574732537248
                    ],
                    [
                        173.08402851987063,
                        -81.007885297277
                    ],
                    [
                        173.10996356574657,
                        -80.99004586446128
                    ],
                    [
                        173.13655621142877,
                        -80.97222399479409
                    ],
                    [
                        173.16359591485212,
                        -80.95442945613307
                    ],
                    [
                        173.19109060604274,
                        -80.93664851036948
                    ],
                    [
                        173.21903663965495,
                        -80.91889023460445
                    ],
                    [
                        173.24742583058983,
                        -80.9011544039634
                    ],
                    [
                        173.27619611250498,
                        -80.88343518019255
                    ],
                    [
                        173.30536494904618,
                        -80.865737428103
                    ],
                    [
                        173.33489692249543,
                        -80.84805120815474
                    ],
                    [
                        173.36487700182911,
                        -80.83039184295407
                    ],
                    [
                        173.39558166974845,
                        -80.8127643602507
                    ],
                    [
                        173.42676044734975,
                        -80.79515940776712
                    ],
                    [
                        173.45825453091703,
                        -80.77757857571764
                    ],
                    [
                        173.49024100624314,
                        -80.76002043508679
                    ],
                    [
                        173.52260998788174,
                        -80.74248287631482
                    ],
                    [
                        173.5553450591535,
                        -80.72497011674817
                    ],
                    [
                        173.58841134208157,
                        -80.70747223408135
                    ],
                    [
                        173.62166669709254,
                        -80.68998657831757
                    ],
                    [
                        173.65511268368067,
                        -80.67251772430443
                    ],
                    [
                        173.68883546321882,
                        -80.65506256298872
                    ],
                    [
                        173.72264927465622,
                        -80.63761769730478
                    ],
                    [
                        173.75654815006402,
                        -80.6201829834871
                    ],
                    [
                        173.79085713392394,
                        -80.60276875958637
                    ],
                    [
                        173.82541558028785,
                        -80.58537667799601
                    ],
                    [
                        173.86006490292536,
                        -80.56799007410434
                    ],
                    [
                        173.89492055493224,
                        -80.55062013356718
                    ],
                    [
                        173.92994842611319,
                        -80.53326619492734
                    ],
                    [
                        173.9649828674204,
                        -80.5159069252712
                    ],
                    [
                        174.00006728926348,
                        -80.49856144595816
                    ],
                    [
                        174.03516334095616,
                        -80.48121986871811
                    ],
                    [
                        174.07025169618976,
                        -80.46388643448984
                    ],
                    [
                        174.10545867646852,
                        -80.44655409783849
                    ],
                    [
                        174.14073148646946,
                        -80.42923569864473
                    ],
                    [
                        174.17600185438593,
                        -80.41191625595872
                    ],
                    [
                        174.211438580183,
                        -80.39461698458967
                    ],
                    [
                        174.24694041260295,
                        -80.37732233674767
                    ],
                    [
                        174.28238215330848,
                        -80.36003017817741
                    ],
                    [
                        174.3177641358419,
                        -80.34273132158215
                    ],
                    [
                        174.35315168113354,
                        -80.32544521909851
                    ],
                    [
                        174.38863665654156,
                        -80.30816418227417
                    ],
                    [
                        174.42412165470552,
                        -80.29089574859104
                    ],
                    [
                        174.45963341933754,
                        -80.27362196781701
                    ],
                    [
                        174.49516936248526,
                        -80.25635654718326
                    ],
                    [
                        174.5307884751653,
                        -80.23910041754323
                    ],
                    [
                        174.56638611047038,
                        -80.22185643763311
                    ],
                    [
                        174.6019270324948,
                        -80.20460107351009
                    ],
                    [
                        174.6374014052214,
                        -80.18735252283338
                    ],
                    [
                        174.67278514414846,
                        -80.17009662893814
                    ],
                    [
                        174.70799925373984,
                        -80.1528413215968
                    ],
                    [
                        174.7431185685914,
                        -80.13557862383712
                    ],
                    [
                        174.7781203444275,
                        -80.11832194807694
                    ],
                    [
                        174.81301777112336,
                        -80.10105774406206
                    ],
                    [
                        174.84767104752697,
                        -80.0837792606439
                    ],
                    [
                        174.88217153288844,
                        -80.06649712495057
                    ],
                    [
                        174.9165703129316,
                        -80.04921672693672
                    ],
                    [
                        174.9508439828994,
                        -80.03193312727585
                    ],
                    [
                        174.98491675238773,
                        -80.0146405982281
                    ],
                    [
                        175.0188786506251,
                        -79.99734053347714
                    ],
                    [
                        175.0526785844319,
                        -79.98004134339708
                    ],
                    [
                        175.08624879875637,
                        -79.96273286230924
                    ],
                    [
                        175.1196134762133,
                        -79.94541090358622
                    ],
                    [
                        175.1528472023003,
                        -79.9280857747318
                    ],
                    [
                        175.18590606036759,
                        -79.910752257456
                    ],
                    [
                        175.21889847655225,
                        -79.89342571881554
                    ],
                    [
                        175.25168848879778,
                        -79.87608583759084
                    ],
                    [
                        175.28404136350588,
                        -79.85872465302702
                    ],
                    [
                        175.31614891564712,
                        -79.84135877122759
                    ],
                    [
                        175.34820508850459,
                        -79.82398643840044
                    ],
                    [
                        175.3800979231787,
                        -79.80661521402361
                    ],
                    [
                        175.41181391551237,
                        -79.78923118188573
                    ],
                    [
                        175.44331593102999,
                        -79.77183842406623
                    ],
                    [
                        175.47450775252742,
                        -79.75443561955339
                    ],
                    [
                        175.50546441670372,
                        -79.73701929382531
                    ],
                    [
                        175.5362544356332,
                        -79.7195996013267
                    ],
                    [
                        175.5668144082474,
                        -79.70217110556116
                    ],
                    [
                        175.5971626414412,
                        -79.68472951641775
                    ],
                    [
                        175.62721695472328,
                        -79.66727831980468
                    ],
                    [
                        175.65713077286773,
                        -79.64981966012212
                    ],
                    [
                        175.6869818713579,
                        -79.63236376835776
                    ],
                    [
                        175.7166916830916,
                        -79.61490500437999
                    ],
                    [
                        175.7461940655155,
                        -79.59743334054411
                    ],
                    [
                        175.77542769886557,
                        -79.57995256831705
                    ],
                    [
                        175.80433356358347,
                        -79.56246194813951
                    ],
                    [
                        175.83303045499784,
                        -79.54495853069166
                    ],
                    [
                        175.86153435062855,
                        -79.52744255911567
                    ],
                    [
                        175.88983573226142,
                        -79.50992766848955
                    ],
                    [
                        175.91792599724516,
                        -79.49240004659961
                    ],
                    [
                        175.94577443526092,
                        -79.47486390507811
                    ],
                    [
                        175.97336404206942,
                        -79.45731448752962
                    ],
                    [
                        176.00079512827955,
                        -79.43976684876183
                    ],
                    [
                        176.02829341335885,
                        -79.42221931098544
                    ],
                    [
                        176.0556671581948,
                        -79.40466484302071
                    ],
                    [
                        176.082704360045,
                        -79.3871007855537
                    ],
                    [
                        176.10937543338702,
                        -79.36951767560357
                    ],
                    [
                        176.1356261944533,
                        -79.3519194749182
                    ],
                    [
                        176.16152257775812,
                        -79.33430707523952
                    ],
                    [
                        176.18719885144074,
                        -79.31668219515299
                    ],
                    [
                        176.21255304927703,
                        -79.29904361457429
                    ],
                    [
                        176.23759156953966,
                        -79.28139146414962
                    ],
                    [
                        176.26227189703258,
                        -79.26372527702452
                    ],
                    [
                        176.28588634293877,
                        -79.24601367474372
                    ],
                    [
                        176.30851626870592,
                        -79.22826239164529
                    ],
                    [
                        176.33057329132936,
                        -79.21048110055246
                    ],
                    [
                        176.35217196211994,
                        -79.19268497405984
                    ],
                    [
                        176.37367012425813,
                        -79.17488748146953
                    ],
                    [
                        176.39515054456044,
                        -79.15708961274706
                    ],
                    [
                        176.41665679624745,
                        -79.13929187827034
                    ],
                    [
                        176.43842877827316,
                        -79.12151536997845
                    ],
                    [
                        176.4606883522292,
                        -79.10375805996088
                    ],
                    [
                        176.48289911297704,
                        -79.08599990417896
                    ],
                    [
                        176.5048803289685,
                        -79.06823423949959
                    ],
                    [
                        176.52667476223883,
                        -79.05046616019754
                    ],
                    [
                        176.5480402435539,
                        -79.03267463086107
                    ],
                    [
                        176.56896153437765,
                        -79.01486868051457
                    ],
                    [
                        176.5895871706103,
                        -78.99705463203688
                    ],
                    [
                        176.60998186987916,
                        -78.97922868895581
                    ],
                    [
                        176.63012962722448,
                        -78.9613998386589
                    ],
                    [
                        176.65017207287607,
                        -78.94356056503614
                    ],
                    [
                        176.66987604699375,
                        -78.92571284124438
                    ],
                    [
                        176.6892573433713,
                        -78.90785688744664
                    ],
                    [
                        176.70837890011853,
                        -78.8899934427187
                    ],
                    [
                        176.72734233799926,
                        -78.87211909314188
                    ],
                    [
                        176.7462244078109,
                        -78.85424840331844
                    ],
                    [
                        176.76484143538315,
                        -78.83636566652106
                    ],
                    [
                        176.78329996976407,
                        -78.81848121130355
                    ],
                    [
                        176.8016630042461,
                        -78.80059117151976
                    ],
                    [
                        176.81988755564825,
                        -78.78269965809949
                    ],
                    [
                        176.8378387939163,
                        -78.76480523350332
                    ],
                    [
                        176.85552990799226,
                        -78.74689893854848
                    ],
                    [
                        176.87297605997247,
                        -78.72898096614057
                    ],
                    [
                        176.89034788628126,
                        -78.7110622917454
                    ],
                    [
                        176.9076955519328,
                        -78.69314801790934
                    ],
                    [
                        176.92502168180454,
                        -78.675229039971
                    ],
                    [
                        176.9422371899075,
                        -78.65730898627534
                    ],
                    [
                        176.9593275081214,
                        -78.63939227952616
                    ],
                    [
                        176.97638795027856,
                        -78.62147079518614
                    ],
                    [
                        176.99339439533327,
                        -78.60354884794525
                    ],
                    [
                        177.0102103290572,
                        -78.58562046509766
                    ],
                    [
                        177.02685839028453,
                        -78.56769046483423
                    ],
                    [
                        177.04330505595087,
                        -78.54974939281426
                    ],
                    [
                        177.05956601130848,
                        -78.531811123004
                    ],
                    [
                        177.07565935596807,
                        -78.51386216760226
                    ],
                    [
                        177.0916382732269,
                        -78.4959122103734
                    ],
                    [
                        177.10755341309962,
                        -78.47796177306437
                    ],
                    [
                        177.12336413094047,
                        -78.46001045135706
                    ],
                    [
                        177.13905387882454,
                        -78.44205352604018
                    ],
                    [
                        177.15454951346806,
                        -78.42409484171317
                    ],
                    [
                        177.16992097271927,
                        -78.40613055075713
                    ],
                    [
                        177.18516318086583,
                        -78.38816517707117
                    ],
                    [
                        177.20025526944283,
                        -78.37019396492654
                    ],
                    [
                        177.21517878980984,
                        -78.35222130969935
                    ],
                    [
                        177.22987819607158,
                        -78.33423756102027
                    ],
                    [
                        177.24435340542712,
                        -78.31624730280627
                    ],
                    [
                        177.25854603817157,
                        -78.29825455155726
                    ],
                    [
                        177.27255807410256,
                        -78.28025120020179
                    ],
                    [
                        177.28639607569548,
                        -78.26225101204327
                    ],
                    [
                        177.30014781104987,
                        -78.24424572466162
                    ],
                    [
                        177.3137958241794,
                        -78.22623517813153
                    ],
                    [
                        177.32721042658204,
                        -78.20822270409354
                    ],
                    [
                        177.3403947506624,
                        -78.19019923375242
                    ],
                    [
                        177.35329894354797,
                        -78.172173435994
                    ],
                    [
                        177.365943030149,
                        -78.15414096536387
                    ],
                    [
                        177.3783237570526,
                        -78.13610181432696
                    ],
                    [
                        177.39047323735997,
                        -78.11805630718368
                    ],
                    [
                        177.40229645701083,
                        -78.09999901531427
                    ],
                    [
                        177.4138016928171,
                        -78.08193916127442
                    ],
                    [
                        177.42511452660622,
                        -78.06387337974452
                    ],
                    [
                        177.43627534204023,
                        -78.04580206023338
                    ],
                    [
                        177.44726093638764,
                        -78.0277341161322
                    ],
                    [
                        177.45791303643844,
                        -78.0096544249268
                    ],
                    [
                        177.46818163350028,
                        -77.99155799351627
                    ],
                    [
                        177.4780122011786,
                        -77.97346258027035
                    ],
                    [
                        177.4873137119384,
                        -77.95535370652682
                    ],
                    [
                        177.49635644712714,
                        -77.9372429904249
                    ],
                    [
                        177.50531198884522,
                        -77.9191274544445
                    ],
                    [
                        177.51401056370923,
                        -77.90101011536098
                    ],
                    [
                        177.52250285762446,
                        -77.8828823337233
                    ],
                    [
                        177.53092973265575,
                        -77.8647590685622
                    ],
                    [
                        177.53941747253853,
                        -77.846637357288
                    ],
                    [
                        177.54787975578034,
                        -77.82851596815314
                    ],
                    [
                        177.55631669636745,
                        -77.8103949032135
                    ],
                    [
                        177.56472840760878,
                        -77.79227416451782
                    ],
                    [
                        177.573115002141,
                        -77.77415375410743
                    ],
                    [
                        177.58147659193347,
                        -77.75603367401655
                    ],
                    [
                        177.58981328829304,
                        -77.7379139262722
                    ],
                    [
                        177.59812520186907,
                        -77.71979451289428
                    ],
                    [
                        177.6064124426582,
                        -77.70167543589568
                    ],
                    [
                        177.61467512000914,
                        -77.68355669728227
                    ],
                    [
                        177.62291334262738,
                        -77.66543829905295
                    ],
                    [
                        177.63112721858005,
                        -77.64732024319977
                    ],
                    [
                        177.6393168553004,
                        -77.62920253170788
                    ],
                    [
                        177.64748235959254,
                        -77.61108516655563
                    ],
                    [
                        177.65562383763591,
                        -77.5929681497146
                    ],
                    [
                        177.66374139498998,
                        -77.57485148314971
                    ],
                    [
                        177.6718351365987,
                        -77.55673516881922
                    ],
                    [
                        177.67990516679484,
                        -77.5386192086747
                    ],
                    [
                        177.68795158930462,
                        -77.52050360466123
                    ],
                    [
                        177.69597450725195,
                        -77.50238835871734
                    ]
                ]
            }
        }
    ]
}
