{
    "type": "FeatureCollection",
    "features": [
        {
            "type": "Feature",
            "properties": {
                "name": "Baudouin",
                "object": "transect",
                "component": "landice",
                "author": "Matthew Hoffman, converted from https://github.com/yuwang115/sl-ice",
                "tags": "Antarctic_Ice_Sheet;flowline;sl-ice;baudouin"
            },
            "geometry": {
                "type": "LineString",
                "coordinates": [
                    [
                        26.17193576634694,
                        -73.03266843397815
                    ],
                    [
                        26.226296209601262,
                        -73.0411921628298
                    ],
                    [
                        26.28401214109723,
                        -73.0474275278864
                    ],
                    [
                        26.34500839826763,
                        -73.04727764355434
                    ],
                    [
                        26.40644296659848,
                        -73.04577642718189
                    ],
                    [
                        26.468079323958673,
                        -73.0451733422777
                    ],
                    [
                        26.5293238907978,
                        -73.04287394960708
                    ],
                    [
                        26.590130548283014,
                        -73.03973018394338
                    ],
                    [
                        26.65062369671013,
                        -73.03616353728084
                    ],
                    [
                        26.709875049517287,
                        -73.03113889398303
                    ],
                    [
                        26.767327079296358,
                        -73.02456691053978
                    ],
                    [
                        26.825161108101124,
                        -73.01831293325904
                    ],
                    [
                        26.885211085049075,
                        -73.01441670496571
                    ],
                    [
                        26.946464046427,
                        -73.0161374336286
                    ],
                    [
                        27.006432359220817,
                        -73.02031388868559
                    ],
                    [
                        27.067134353953627,
                        -73.02337730733075
                    ],
                    [
                        27.1286001735254,
                        -73.02456036676868
                    ],
                    [
                        27.19008780946547,
                        -73.02530176972587
                    ],
                    [
                        27.250729665127963,
                        -73.02855216366588
                    ],
                    [
                        27.3120156387209,
                        -73.0304752688472
                    ],
                    [
                        27.373708745751305,
                        -73.03046080418686
                    ],
                    [
                        27.435262314704612,
                        -73.02928656715736
                    ],
                    [
                        27.495469746432992,
                        -73.02548244377738
                    ],
                    [
                        27.55252310199772,
                        -73.01874596832688
                    ],
                    [
                        27.60500547840864,
                        -73.00934657115737
                    ],
                    [
                        27.654783973059093,
                        -72.99872852182457
                    ],
                    [
                        27.703726340253798,
                        -72.98778342250277
                    ],
                    [
                        27.753013060776432,
                        -72.97699560934808
                    ],
                    [
                        27.80060641510368,
                        -72.96558897711742
                    ],
                    [
                        27.85039971366218,
                        -72.95507145391683
                    ],
                    [
                        27.903542307668765,
                        -72.94604720041096
                    ],
                    [
                        27.954284919119367,
                        -72.93598159755815
                    ],
                    [
                        27.99590998827595,
                        -72.92288472069501
                    ],
                    [
                        28.031042689572878,
                        -72.90812722934952
                    ],
                    [
                        28.06340519438798,
                        -72.89283556339912
                    ],
                    [
                        28.095113731166567,
                        -72.87743056609372
                    ],
                    [
                        28.127287826496502,
                        -72.86210908015173
                    ],
                    [
                        28.160163972509796,
                        -72.84692531555015
                    ],
                    [
                        28.193769903187107,
                        -72.83189476181929
                    ],
                    [
                        28.226425094626986,
                        -72.8166824671283
                    ],
                    [
                        28.25340293947114,
                        -72.80054086724076
                    ],
                    [
                        28.277492505425457,
                        -72.78400348917356
                    ],
                    [
                        28.300660708818068,
                        -72.76735281141494
                    ],
                    [
                        28.333633395587313,
                        -72.75224987014506
                    ],
                    [
                        28.37190530705204,
                        -72.73828755982666
                    ],
                    [
                        28.41204939169091,
                        -72.72479438212483
                    ],
                    [
                        28.45195368658858,
                        -72.71124388464366
                    ],
                    [
                        28.48976715038138,
                        -72.69718738789369
                    ],
                    [
                        28.52569773621306,
                        -72.68270140879012
                    ],
                    [
                        28.555018863988888,
                        -72.66697676252441
                    ],
                    [
                        28.580850248037795,
                        -72.65070267893203
                    ],
                    [
                        28.60801933085868,
                        -72.63463058453837
                    ],
                    [
                        28.638640889770844,
                        -72.61913013561858
                    ],
                    [
                        28.671953137706993,
                        -72.60413339230556
                    ],
                    [
                        28.70589195834161,
                        -72.5892716139892
                    ],
                    [
                        28.737156798122793,
                        -72.5739112854353
                    ],
                    [
                        28.762969130004336,
                        -72.557674153826
                    ],
                    [
                        28.783581642726137,
                        -72.54077843673551
                    ],
                    [
                        28.797919521195464,
                        -72.523313157934
                    ],
                    [
                        28.807597574543237,
                        -72.50555581836551
                    ],
                    [
                        28.814496723380262,
                        -72.4876796188547
                    ],
                    [
                        28.820097506276653,
                        -72.46976326123048
                    ],
                    [
                        28.825631668316785,
                        -72.4518454058695
                    ],
                    [
                        28.830350158720083,
                        -72.43390682288768
                    ],
                    [
                        28.834064726242254,
                        -72.41594543206044
                    ],
                    [
                        28.837146477840747,
                        -72.39797701120222
                    ],
                    [
                        28.840113710041717,
                        -72.38000584898171
                    ],
                    [
                        28.845605798188778,
                        -72.36209552716899
                    ],
                    [
                        28.853165838030858,
                        -72.34425005735825
                    ],
                    [
                        28.85973723560159,
                        -72.32637187439458
                    ],
                    [
                        28.86361684640689,
                        -72.30842354586026
                    ],
                    [
                        28.866854353481855,
                        -72.29046119565588
                    ],
                    [
                        28.869322678138673,
                        -72.2724880519197
                    ],
                    [
                        28.87198205519107,
                        -72.2545217646799
                    ],
                    [
                        28.873262757737322,
                        -72.23654098854041
                    ],
                    [
                        28.872207060735544,
                        -72.21856202766136
                    ],
                    [
                        28.8700413118013,
                        -72.20059076480324
                    ],
                    [
                        28.869731260617364,
                        -72.18261482791769
                    ],
                    [
                        28.87274986470686,
                        -72.16465540850854
                    ],
                    [
                        28.875073448272683,
                        -72.1466952558725
                    ],
                    [
                        28.87317234415262,
                        -72.12873186922661
                    ],
                    [
                        28.86658392881751,
                        -72.11087239155988
                    ],
                    [
                        28.85479699506578,
                        -72.09327003210782
                    ],
                    [
                        28.839177188533423,
                        -72.07595231601937
                    ],
                    [
                        28.821418701697876,
                        -72.05882659141145
                    ],
                    [
                        28.804798178910723,
                        -72.04160095436025
                    ],
                    [
                        28.79124844865208,
                        -72.02412256433456
                    ],
                    [
                        28.779194230077284,
                        -72.00653715626663
                    ],
                    [
                        28.766911158931894,
                        -71.98896806760477
                    ],
                    [
                        28.754224911156346,
                        -71.97142858161146
                    ],
                    [
                        28.740555780839912,
                        -71.95396405753424
                    ],
                    [
                        28.725020372773308,
                        -71.93665219581415
                    ],
                    [
                        28.707821857059756,
                        -71.91949261289065
                    ],
                    [
                        28.688705291628807,
                        -71.90253404922571
                    ],
                    [
                        28.66764125227128,
                        -71.88580320664538
                    ],
                    [
                        28.645575517267478,
                        -71.86919868028461
                    ],
                    [
                        28.622778399345204,
                        -71.85269497507404
                    ],
                    [
                        28.599755377389346,
                        -71.83622350447916
                    ],
                    [
                        28.577481473730668,
                        -71.81965731359735
                    ],
                    [
                        28.555475764691426,
                        -71.80305976606907
                    ],
                    [
                        28.532316472593234,
                        -71.78661945900546
                    ],
                    [
                        28.508280204816362,
                        -71.77030568764853
                    ],
                    [
                        28.48437854695093,
                        -71.75397606970026
                    ],
                    [
                        28.461005253000003,
                        -71.73757592824792
                    ],
                    [
                        28.436763967268103,
                        -71.72130583100727
                    ],
                    [
                        28.409959532724987,
                        -71.70544456510163
                    ],
                    [
                        28.379477130436115,
                        -71.69025562163125
                    ],
                    [
                        28.34729377876537,
                        -71.67542087432861
                    ],
                    [
                        28.314468731294088,
                        -71.66073355794906
                    ],
                    [
                        28.279784812628538,
                        -71.64648438162799
                    ],
                    [
                        28.244004797557,
                        -71.63251173837119
                    ],
                    [
                        28.208923379165896,
                        -71.61836971256692
                    ],
                    [
                        28.174437410729833,
                        -71.6040933607038
                    ],
                    [
                        28.14057577517049,
                        -71.58967192191966
                    ],
                    [
                        28.107359664083475,
                        -71.57510917627026
                    ],
                    [
                        28.074874536510535,
                        -71.56038990301735
                    ],
                    [
                        28.042687398482304,
                        -71.54561079167216
                    ],
                    [
                        28.010492813452586,
                        -71.53083868119292
                    ],
                    [
                        27.977999682595787,
                        -71.51613886933842
                    ],
                    [
                        27.944575907202005,
                        -71.5016593430525
                    ],
                    [
                        27.910963056334353,
                        -71.48723021717014
                    ],
                    [
                        27.879873132181896,
                        -71.47225510917428
                    ],
                    [
                        27.851908474453154,
                        -71.45666802389727
                    ],
                    [
                        27.82467875591322,
                        -71.44095364043847
                    ],
                    [
                        27.79517089843595,
                        -71.42567721970451
                    ],
                    [
                        27.761422818764423,
                        -71.41133191886615
                    ],
                    [
                        27.724600809544842,
                        -71.39777207002514
                    ],
                    [
                        27.68720346111707,
                        -71.38438169722086
                    ],
                    [
                        27.651710197259824,
                        -71.3704788197496
                    ],
                    [
                        27.61715094667435,
                        -71.35634317950105
                    ],
                    [
                        27.58128553158182,
                        -71.34255023351724
                    ],
                    [
                        27.545721239368525,
                        -71.32868909369141
                    ],
                    [
                        27.510918185439404,
                        -71.31463552230056
                    ],
                    [
                        27.475146452090375,
                        -71.30084934863474
                    ],
                    [
                        27.437415339731466,
                        -71.28761241623388
                    ],
                    [
                        27.399802592031893,
                        -71.27434924959266
                    ],
                    [
                        27.363051376293075,
                        -71.26084838517697
                    ],
                    [
                        27.32537808015297,
                        -71.2476218110588
                    ],
                    [
                        27.28751113883584,
                        -71.2344581633623
                    ],
                    [
                        27.24974262527538,
                        -71.22127555005447
                    ],
                    [
                        27.211238923739707,
                        -71.20832612191893
                    ],
                    [
                        27.171975705898888,
                        -71.19562347960773
                    ],
                    [
                        27.132608881447847,
                        -71.1829608475498
                    ],
                    [
                        27.0942165425717,
                        -71.17000487530649
                    ],
                    [
                        27.05613503486056,
                        -71.15695735178956
                    ],
                    [
                        27.01788814288429,
                        -71.14397046202659
                    ],
                    [
                        26.98024247890957,
                        -71.13081011248511
                    ],
                    [
                        26.943660660796002,
                        -71.11734618837684
                    ],
                    [
                        26.907154069852698,
                        -71.10386956133989
                    ],
                    [
                        26.87019717719642,
                        -71.09052991603741
                    ],
                    [
                        26.833388036097876,
                        -71.07715444030082
                    ],
                    [
                        26.796442427658512,
                        -71.06382897797941
                    ],
                    [
                        26.75917830181173,
                        -71.05060533559018
                    ],
                    [
                        26.72128465197983,
                        -71.03758137062377
                    ],
                    [
                        26.682692740835684,
                        -71.02478193802466
                    ],
                    [
                        26.644429210533435,
                        -71.01189342626783
                    ],
                    [
                        26.607610143637256,
                        -70.99857147151829
                    ],
                    [
                        26.573535416741194,
                        -70.98450272505848
                    ],
                    [
                        26.54035243526328,
                        -70.97021483921309
                    ],
                    [
                        26.507747074318893,
                        -70.95579439538939
                    ],
                    [
                        26.475449790752805,
                        -70.94130650302567
                    ],
                    [
                        26.443111642792854,
                        -70.92683403790684
                    ],
                    [
                        26.410743681790773,
                        -70.9123741668515
                    ],
                    [
                        26.378451342197184,
                        -70.8979057334017
                    ],
                    [
                        26.346116843734166,
                        -70.88345185998521
                    ],
                    [
                        26.313841916700834,
                        -70.86898901447414
                    ],
                    [
                        26.281720736763123,
                        -70.85449894026995
                    ],
                    [
                        26.249423701765764,
                        -70.84005603749209
                    ],
                    [
                        26.2170207079815,
                        -70.82564590600991
                    ],
                    [
                        26.18444210960332,
                        -70.81128273928893
                    ],
                    [
                        26.151550867114935,
                        -70.79700655459531
                    ],
                    [
                        26.118312997720295,
                        -70.782824673865
                    ],
                    [
                        26.08469694828368,
                        -70.76874599851708
                    ],
                    [
                        26.050760413318024,
                        -70.75475803547806
                    ],
                    [
                        26.01637515896371,
                        -70.74089621504338
                    ],
                    [
                        25.98142999149082,
                        -70.72719711568475
                    ],
                    [
                        25.946097596259715,
                        -70.71361371962641
                    ],
                    [
                        25.91044529235656,
                        -70.70012999516966
                    ],
                    [
                        25.87441314811772,
                        -70.68676630429381
                    ],
                    [
                        25.838134695167128,
                        -70.67348008982063
                    ],
                    [
                        25.801764976436203,
                        -70.66023341163073
                    ],
                    [
                        25.76549737726073,
                        -70.64696341440305
                    ],
                    [
                        25.729559335999358,
                        -70.6335999711748
                    ],
                    [
                        25.694074946055434,
                        -70.62011547945504
                    ],
                    [
                        25.659339560512446,
                        -70.60642527982914
                    ],
                    [
                        25.625389089205818,
                        -70.59252402661825
                    ],
                    [
                        25.592147962083562,
                        -70.57844300195518
                    ],
                    [
                        25.559928374056692,
                        -70.5641099804971
                    ],
                    [
                        25.528837207080418,
                        -70.54950738656768
                    ],
                    [
                        25.49907160866573,
                        -70.53460825877987
                    ],
                    [
                        25.470809722331605,
                        -70.51939364063762
                    ],
                    [
                        25.443779117414266,
                        -70.50393499857817
                    ],
                    [
                        25.41804344613262,
                        -70.48823737906125
                    ],
                    [
                        25.39373509265717,
                        -70.47229190102432
                    ],
                    [
                        25.37059315792644,
                        -70.45615703770994
                    ],
                    [
                        25.348650954178783,
                        -70.43983753666316
                    ],
                    [
                        25.327997820463022,
                        -70.4233361442088
                    ],
                    [
                        25.308430711939828,
                        -70.40668909516879
                    ],
                    [
                        25.29009565393987,
                        -70.38988708174121
                    ],
                    [
                        25.27304187328087,
                        -70.3729361157983
                    ],
                    [
                        25.256896572597068,
                        -70.35588738400074
                    ],
                    [
                        25.241689550890023,
                        -70.33874300486056
                    ],
                    [
                        25.22768920280948,
                        -70.32148696366794
                    ],
                    [
                        25.21476805518099,
                        -70.30413538858379
                    ],
                    [
                        25.202816642288596,
                        -70.2867064866537
                    ],
                    [
                        25.191867711324768,
                        -70.26920475897671
                    ],
                    [
                        25.181712564373523,
                        -70.25165033083445
                    ],
                    [
                        25.172366706571445,
                        -70.23404549694295
                    ],
                    [
                        25.164039772950698,
                        -70.21638535212249
                    ],
                    [
                        25.156526454249768,
                        -70.19868156684656
                    ],
                    [
                        25.14967361727916,
                        -70.18095139069167
                    ],
                    [
                        25.143517472531705,
                        -70.16319082852128
                    ],
                    [
                        25.137786731224693,
                        -70.14541527842701
                    ],
                    [
                        25.132746447515427,
                        -70.12761785232294
                    ],
                    [
                        25.128730173496884,
                        -70.10978948230198
                    ],
                    [
                        25.12549575845367,
                        -70.09194579298732
                    ],
                    [
                        25.12292835157566,
                        -70.07408906381004
                    ],
                    [
                        25.120803125641316,
                        -70.05622540618293
                    ],
                    [
                        25.118170329228334,
                        -70.03837192843714
                    ],
                    [
                        25.115542330678842,
                        -70.02051935157085
                    ],
                    [
                        25.11291911690077,
                        -70.00266767646839
                    ],
                    [
                        25.110300674849576,
                        -69.98481690401341
                    ],
                    [
                        25.107686991528077,
                        -69.96696703508897
                    ],
                    [
                        25.105078053986194,
                        -69.94911807057738
                    ],
                    [
                        25.10247384932077,
                        -69.93127001136033
                    ],
                    [
                        25.09987436467532,
                        -69.91342285831885
                    ],
                    [
                        25.09727958723986,
                        -69.89557661233331
                    ],
                    [
                        25.09468950425067,
                        -69.87773127428342
                    ],
                    [
                        25.092104102990113,
                        -69.85988684504824
                    ],
                    [
                        25.089523370786388,
                        -69.84204332550615
                    ],
                    [
                        25.08694729501336,
                        -69.82420071653492
                    ],
                    [
                        25.08437586309033,
                        -69.80635901901164
                    ],
                    [
                        25.081809062481852,
                        -69.78851823381277
                    ],
                    [
                        25.079246880697514,
                        -69.7706783618141
                    ],
                    [
                        25.076689305291744,
                        -69.75283940389082
                    ],
                    [
                        25.074136323863602,
                        -69.73500136091742
                    ],
                    [
                        25.07158792405659,
                        -69.71716423376779
                    ],
                    [
                        25.069044093558436,
                        -69.69932802331515
                    ]
                ]
            }
        }
    ]
}
