{
    "type": "FeatureCollection",
    "features": [
        {
            "type": "Feature",
            "properties": {
                "name": "Greenland Glacier 0226",
                "object": "transect",
                "component": "landice",
                "author": "Matthew Hoffman, converted from Felikson et al. (2020) Zenodo dataset",
                "tags": "Greenland_Ice_Sheet;flowline;zenodo_4284759;glacier_0226",
                "citation": "Felikson, Denis, Catania, Ginny, Bartholomaus, Timothy, Morlighem, Mathieu, & No\u00ebl, Brice. (2020). Inland limits to diffusion of thinning along Greenland Ice Sheet outlet glaciers (v1.0) [Data set]. Zenodo. https://doi.org/10.5281/zenodo.4284759",
                "license": "CC-BY-4.0"
            },
            "geometry": {
                "type": "LineString",
                "coordinates": [
                    [
                        -44.95374879647208,
                        62.418690586132435
                    ],
                    [
                        -44.94904038179352,
                        62.420579229570464
                    ],
                    [
                        -44.94433493012734,
                        62.42073427962925
                    ],
                    [
                        -44.939630211856894,
                        62.42054227604659
                    ],
                    [
                        -44.934924584672295,
                        62.420748907348084
                    ],
                    [
                        -44.93021712792835,
                        62.42162397403621
                    ],
                    [
                        -44.92550854368571,
                        62.422790336733925
                    ],
                    [
                        -44.92080175515521,
                        62.42321559235752
                    ],
                    [
                        -44.916093294648505,
                        62.424122265547794
                    ],
                    [
                        -44.91138281539203,
                        62.42553749935899
                    ],
                    [
                        -44.90667181238906,
                        62.42695875743419
                    ],
                    [
                        -44.901961230795834,
                        62.428129105141416
                    ],
                    [
                        -44.89725185011915,
                        62.42888157608261
                    ],
                    [
                        -44.8925429636741,
                        62.42944577824919
                    ],
                    [
                        -44.88783344228209,
                        62.43011276809778
                    ],
                    [
                        -44.88312284258507,
                        62.430970838935075
                    ],
                    [
                        -44.8784110454971,
                        62.432023762572356
                    ],
                    [
                        -44.873700420293304,
                        62.43275157344187
                    ],
                    [
                        -44.86899113917661,
                        62.43315444885768
                    ],
                    [
                        -44.86428291754925,
                        62.4333219011939
                    ],
                    [
                        -44.8595748106719,
                        62.4334562531254
                    ],
                    [
                        -44.85486689831998,
                        62.433546124835814
                    ],
                    [
                        -44.85015835546618,
                        62.433741906237216
                    ],
                    [
                        -44.84544944070434,
                        62.43398948138321
                    ],
                    [
                        -44.84074113948161,
                        62.43411994875436
                    ],
                    [
                        -44.836032697847244,
                        62.43426548750064
                    ],
                    [
                        -44.831323778319,
                        62.434477955772564
                    ],
                    [
                        -44.82661555611097,
                        62.43457192038519
                    ],
                    [
                        -44.82190845861366,
                        62.43449305474026
                    ],
                    [
                        -44.817201881813574,
                        62.43434244157693
                    ],
                    [
                        -44.81249491549725,
                        62.43425437467791
                    ],
                    [
                        -44.80778579575324,
                        62.434467924471605
                    ],
                    [
                        -44.803075497279856,
                        62.43483002013655
                    ],
                    [
                        -44.79836497489628,
                        62.435204508750196
                    ],
                    [
                        -44.79365468454883,
                        62.43553186740291
                    ],
                    [
                        -44.78894396436835,
                        62.435898513131505
                    ],
                    [
                        -44.784232121831714,
                        62.43638708380719
                    ],
                    [
                        -44.77952132324479,
                        62.4367288834851
                    ],
                    [
                        -44.77481109024267,
                        62.43698952409115
                    ],
                    [
                        -44.770101353018994,
                        62.43718205377984
                    ],
                    [
                        -44.76539203971942,
                        62.43731870358916
                    ],
                    [
                        -44.76068297360406,
                        62.43742237704566
                    ],
                    [
                        -44.75597473080617,
                        62.43743229719475
                    ],
                    [
                        -44.75126751530967,
                        62.43733201134815
                    ],
                    [
                        -44.746561479304624,
                        62.43711171251069
                    ],
                    [
                        -44.741856054483975,
                        62.43683640943937
                    ],
                    [
                        -44.73715057617353,
                        62.43657619049845
                    ],
                    [
                        -44.732445453502635,
                        62.43628965686466
                    ],
                    [
                        -44.72774020955388,
                        62.43602467826709
                    ],
                    [
                        -44.7230339879262,
                        62.435862251981206
                    ],
                    [
                        -44.71832793380227,
                        62.435689287859496
                    ],
                    [
                        -44.71362246456866,
                        62.435467604228535
                    ],
                    [
                        -44.708919258667414,
                        62.43504645600962
                    ],
                    [
                        -44.704219212490806,
                        62.434354877245404
                    ],
                    [
                        -44.69952092882932,
                        62.433529007398576
                    ],
                    [
                        -44.69482247259203,
                        62.43274340922993
                    ],
                    [
                        -44.690124507870536,
                        62.431939340364266
                    ],
                    [
                        -44.685426528619594,
                        62.431160341050436
                    ],
                    [
                        -44.680728955531116,
                        62.43037031013518
                    ],
                    [
                        -44.67603144209934,
                        62.429598126326056
                    ],
                    [
                        -44.671334257407516,
                        62.42882127847719
                    ],
                    [
                        -44.66663863367064,
                        62.42794179170078
                    ],
                    [
                        -44.66194316466288,
                        62.42707440797955
                    ],
                    [
                        -44.65724873441121,
                        62.426150123424506
                    ],
                    [
                        -44.652555034787106,
                        62.42519478960462
                    ],
                    [
                        -44.64786149867231,
                        62.424252417443604
                    ],
                    [
                        -44.64316868670715,
                        62.423280758281145
                    ],
                    [
                        -44.63847982159558,
                        62.422044153138884
                    ],
                    [
                        -44.633795886828615,
                        62.420481398261074
                    ],
                    [
                        -44.62911159683147,
                        62.41898339374039
                    ],
                    [
                        -44.624424214700895,
                        62.41774131987329
                    ],
                    [
                        -44.61973673965213,
                        62.41653618938636
                    ],
                    [
                        -44.61504858391696,
                        62.41540721869016
                    ],
                    [
                        -44.610359233269804,
                        62.4143867273273
                    ],
                    [
                        -44.60567002151667,
                        62.413380976091574
                    ],
                    [
                        -44.60098180404291,
                        62.41233247940753
                    ],
                    [
                        -44.59629540966915,
                        62.41118816235898
                    ],
                    [
                        -44.59161048914016,
                        62.40997403403482
                    ],
                    [
                        -44.58692610564527,
                        62.40875272579296
                    ],
                    [
                        -44.58224085946746,
                        62.40761351712917
                    ],
                    [
                        -44.57755557377873,
                        62.406501892672736
                    ],
                    [
                        -44.572871042810306,
                        62.40536752200533
                    ],
                    [
                        -44.56818623948187,
                        62.40427435705811
                    ],
                    [
                        -44.56349945004659,
                        62.40332542640908
                    ],
                    [
                        -44.5588120758184,
                        62.402431716789245
                    ],
                    [
                        -44.55412569844122,
                        62.40149719607387
                    ],
                    [
                        -44.54944192016139,
                        62.400428600041714
                    ],
                    [
                        -44.54475818053725,
                        62.39937956367788
                    ],
                    [
                        -44.54007472804509,
                        62.398335125014825
                    ],
                    [
                        -44.53539293925077,
                        62.39721637335786
                    ],
                    [
                        -44.53071132047596,
                        62.39611014065751
                    ],
                    [
                        -44.52602911223347,
                        62.39505865601142
                    ],
                    [
                        -44.521346230261265,
                        62.39406499485389
                    ],
                    [
                        -44.516663639459026,
                        62.393074398250604
                    ],
                    [
                        -44.51198127975495,
                        62.39209004761975
                    ],
                    [
                        -44.507299829768186,
                        62.391075137433624
                    ],
                    [
                        -44.50261891987728,
                        62.390050284999944
                    ],
                    [
                        -44.4979386402327,
                        62.389010988771595
                    ],
                    [
                        -44.49325925552109,
                        62.387943753253715
                    ],
                    [
                        -44.488580049353736,
                        62.38688659155802
                    ],
                    [
                        -44.48389955691388,
                        62.385914710517774
                    ],
                    [
                        -44.479218761310285,
                        62.38497560876808
                    ],
                    [
                        -44.47453971269484,
                        62.383964639429415
                    ],
                    [
                        -44.46986301858762,
                        62.3828532147812
                    ],
                    [
                        -44.46518870223238,
                        62.381642799532855
                    ],
                    [
                        -44.46051627335919,
                        62.38036012448065
                    ],
                    [
                        -44.455845232696674,
                        62.37903144463526
                    ],
                    [
                        -44.45117262912172,
                        62.37780096889084
                    ],
                    [
                        -44.44649740229966,
                        62.37671718101054
                    ],
                    [
                        -44.44182145758364,
                        62.37568559355865
                    ],
                    [
                        -44.43714675928373,
                        62.374612058390106
                    ],
                    [
                        -44.43247372421039,
                        62.373478063927585
                    ],
                    [
                        -44.4278016564025,
                        62.37231744322577
                    ],
                    [
                        -44.423128831362725,
                        62.37121037873031
                    ],
                    [
                        -44.41845514558321,
                        62.37016031774772
                    ],
                    [
                        -44.413781169294516,
                        62.3691400153334
                    ],
                    [
                        -44.409106934791225,
                        62.368147310747716
                    ],
                    [
                        -44.40443120971357,
                        62.367236618863956
                    ],
                    [
                        -44.39975316480172,
                        62.36644279321565
                    ],
                    [
                        -44.39507458867677,
                        62.365684441366895
                    ],
                    [
                        -44.390397532822,
                        62.36487118503793
                    ],
                    [
                        -44.385720944397725,
                        62.36404988711576
                    ],
                    [
                        -44.38104235844982,
                        62.36332671919721
                    ],
                    [
                        -44.376361412153,
                        62.362714961935325
                    ],
                    [
                        -44.371680175449534,
                        62.362124446397154
                    ],
                    [
                        -44.36699969953139,
                        62.361510500085664
                    ],
                    [
                        -44.36231932896391,
                        62.360900993783915
                    ],
                    [
                        -44.35763879330235,
                        62.36030703526952
                    ],
                    [
                        -44.3529568373706,
                        62.359779921555365
                    ],
                    [
                        -44.348273273188305,
                        62.359325891320516
                    ],
                    [
                        -44.343588777435535,
                        62.358915941134384
                    ],
                    [
                        -44.338904523592134,
                        62.35850188397811
                    ],
                    [
                        -44.33421948243216,
                        62.35812495566859
                    ],
                    [
                        -44.32953231157273,
                        62.35783767452508
                    ],
                    [
                        -44.32484412728885,
                        62.35759416244127
                    ],
                    [
                        -44.32015465092555,
                        62.35740442457899
                    ],
                    [
                        -44.3154642396822,
                        62.35725346472957
                    ],
                    [
                        -44.310773964088725,
                        62.35709914310007
                    ],
                    [
                        -44.30608372669661,
                        62.356945264942404
                    ],
                    [
                        -44.30139331037495,
                        62.3568000938879
                    ],
                    [
                        -44.29670535475663,
                        62.35656354141459
                    ],
                    [
                        -44.29202080981849,
                        62.35620169929424
                    ],
                    [
                        -44.28733522424826,
                        62.355883309936814
                    ],
                    [
                        -44.28264994090097,
                        62.355557687460234
                    ],
                    [
                        -44.27796398763636,
                        62.35526081434823
                    ],
                    [
                        -44.273277954713414,
                        62.354970511097896
                    ],
                    [
                        -44.2685916464719,
                        62.35469377210552
                    ],
                    [
                        -44.26390425851602,
                        62.35445943002161
                    ],
                    [
                        -44.25921445369803,
                        62.35431473445731
                    ],
                    [
                        -44.25452323061868,
                        62.35422233137276
                    ],
                    [
                        -44.24983197242644,
                        62.35413215270284
                    ],
                    [
                        -44.24514149642089,
                        62.35401533101584
                    ],
                    [
                        -44.24045141558194,
                        62.353885923905345
                    ],
                    [
                        -44.235762069775625,
                        62.3537323223062
                    ],
                    [
                        -44.23107384551483,
                        62.35354158495577
                    ],
                    [
                        -44.226385741366656,
                        62.35334884866967
                    ],
                    [
                        -44.22169706132425,
                        62.35317795668297
                    ],
                    [
                        -44.21700870433098,
                        62.35299794972076
                    ],
                    [
                        -44.212320899758595,
                        62.35280123652073
                    ],
                    [
                        -44.20763332767549,
                        62.35259886202811
                    ],
                    [
                        -44.20294504961975,
                        62.35242227229581
                    ],
                    [
                        -44.19825576743564,
                        62.35228091535491
                    ],
                    [
                        -44.19356650218066,
                        62.35214046610373
                    ],
                    [
                        -44.1888784069128,
                        62.35196305980741
                    ],
                    [
                        -44.184191558894575,
                        62.35174681046333
                    ],
                    [
                        -44.179505906715335,
                        62.35149405015831
                    ],
                    [
                        -44.17482086801957,
                        62.35122418899488
                    ],
                    [
                        -44.170136132310674,
                        62.35094747698741
                    ],
                    [
                        -44.16545046658301,
                        62.350703365860014
                    ],
                    [
                        -44.160762134112986,
                        62.35054640808935
                    ],
                    [
                        -44.156070995271506,
                        62.35047955651176
                    ],
                    [
                        -44.15137788988184,
                        62.35047496687016
                    ],
                    [
                        -44.14668306104518,
                        62.350524025480034
                    ],
                    [
                        -44.14198726925349,
                        62.35060225126677
                    ],
                    [
                        -44.13729128817035,
                        62.35068528965366
                    ],
                    [
                        -44.13259348632502,
                        62.35082313951078
                    ],
                    [
                        -44.12789270362936,
                        62.3510503299046
                    ],
                    [
                        -44.12318956297153,
                        62.35134650654951
                    ],
                    [
                        -44.11848484410791,
                        62.35168701122581
                    ],
                    [
                        -44.11377905637258,
                        62.35205583385309
                    ],
                    [
                        -44.109071670242436,
                        62.35246834715206
                    ],
                    [
                        -44.10436114759917,
                        62.35296958003517
                    ],
                    [
                        -44.099648545110476,
                        62.35352688959477
                    ],
                    [
                        -44.094936988021274,
                        62.35404746809476
                    ],
                    [
                        -44.090226766949755,
                        62.35452338294618
                    ],
                    [
                        -44.08551915310429,
                        62.354918319616274
                    ],
                    [
                        -44.08081375016046,
                        62.35524500263779
                    ],
                    [
                        -44.07610965627817,
                        62.355530461448765
                    ],
                    [
                        -44.07140586845426,
                        62.35580407625536
                    ],
                    [
                        -44.06670304499939,
                        62.356047248766316
                    ],
                    [
                        -44.06199912210465,
                        62.356319006258325
                    ],
                    [
                        -44.05729233340812,
                        62.35666879627901
                    ],
                    [
                        -44.052582879635914,
                        62.357089812194936
                    ],
                    [
                        -44.0478727120327,
                        62.35752644195627
                    ],
                    [
                        -44.043163614104124,
                        62.35792883783097
                    ],
                    [
                        -44.03845381081237,
                        62.3583466405141
                    ],
                    [
                        -44.0337383730885,
                        62.35891540332625
                    ],
                    [
                        -44.02901801345424,
                        62.35961338505375
                    ],
                    [
                        -44.024297895495586,
                        62.36029784342699
                    ],
                    [
                        -44.01957987234507,
                        62.36091866639854
                    ],
                    [
                        -44.014863277123084,
                        62.36149478782218
                    ],
                    [
                        -44.01014835702495,
                        62.362020201732136
                    ],
                    [
                        -44.005435956715345,
                        62.3624730281339
                    ],
                    [
                        -44.00072567205831,
                        62.36286505968674
                    ],
                    [
                        -43.99602050294845,
                        62.36311763284877
                    ],
                    [
                        -43.991312752880866,
                        62.363435767395195
                    ],
                    [
                        -43.98659982309677,
                        62.36388679200235
                    ],
                    [
                        -43.981883567004544,
                        62.36442040836869
                    ],
                    [
                        -43.977166869467055,
                        62.36496041127855
                    ],
                    [
                        -43.97245332299483,
                        62.36541367335843
                    ],
                    [
                        -43.96773839622409,
                        62.36589820091401
                    ],
                    [
                        -43.96302531882564,
                        62.36633068674312
                    ],
                    [
                        -43.95831550822949,
                        62.36667563011981
                    ],
                    [
                        -43.9535953080349,
                        62.36728149407871
                    ],
                    [
                        -43.94886780860537,
                        62.36806651560641
                    ],
                    [
                        -43.944134602167836,
                        62.368988148170054
                    ],
                    [
                        -43.93939520473403,
                        62.3700566898636
                    ],
                    [
                        -43.93465117478471,
                        62.37123124093583
                    ],
                    [
                        -43.929908138696135,
                        62.37237049346944
                    ],
                    [
                        -43.92516872253684,
                        62.37340991739405
                    ],
                    [
                        -43.92043154245661,
                        62.374384937381606
                    ],
                    [
                        -43.91569435660371,
                        62.37535140334768
                    ],
                    [
                        -43.91095612676976,
                        62.37633478553754
                    ],
                    [
                        -43.906216450791995,
                        62.37734464107807
                    ],
                    [
                        -43.90147644310265,
                        62.378353638316284
                    ],
                    [
                        -43.89674031116044,
                        62.37926034943327
                    ],
                    [
                        -43.892005930877104,
                        62.38011708342958
                    ],
                    [
                        -43.8872743140861,
                        62.380900295791825
                    ],
                    [
                        -43.8825440210741,
                        62.38164519130929
                    ],
                    [
                        -43.87781050129201,
                        62.382460103088896
                    ],
                    [
                        -43.873071328590584,
                        62.383401396949495
                    ],
                    [
                        -43.868334986032885,
                        62.384268122848525
                    ],
                    [
                        -43.86360640990439,
                        62.38494570274733
                    ],
                    [
                        -43.858877626570106,
                        62.3856223180507
                    ],
                    [
                        -43.854156913186294,
                        62.38610588898893
                    ],
                    [
                        -43.84945814186787,
                        62.38607818235218
                    ],
                    [
                        -43.84476458270212,
                        62.38593054553075
                    ],
                    [
                        -43.84006871134317,
                        62.38583693451781
                    ],
                    [
                        -43.83537245970392,
                        62.38575258347134
                    ],
                    [
                        -43.83067628753847,
                        62.38566692457595
                    ],
                    [
                        -43.82598133337498,
                        62.385554184271605
                    ],
                    [
                        -43.821285722596244,
                        62.38545697777951
                    ],
                    [
                        -43.816586342331014,
                        62.38544506905372
                    ],
                    [
                        -43.81188964553112,
                        62.3853730146049
                    ],
                    [
                        -43.80719475891882,
                        62.38526099297491
                    ],
                    [
                        -43.80250291273701,
                        62.38508215336333
                    ],
                    [
                        -43.797811452114516,
                        62.38489600325256
                    ],
                    [
                        -43.79312352275286,
                        62.384633312943386
                    ],
                    [
                        -43.788438750969576,
                        62.38430317063407
                    ],
                    [
                        -43.78375477050695,
                        62.38395809209888
                    ],
                    [
                        -43.77907124793124,
                        62.38360551076283
                    ],
                    [
                        -43.77438769459497,
                        62.383256114637256
                    ],
                    [
                        -43.76970631419097,
                        62.38286223094507
                    ],
                    [
                        -43.765029636384924,
                        62.38236988741388
                    ],
                    [
                        -43.76035545027195,
                        62.38182762590444
                    ],
                    [
                        -43.75568048220867,
                        62.381305975741846
                    ],
                    [
                        -43.75100355595048,
                        62.38082975261469
                    ],
                    [
                        -43.74632555216285,
                        62.380379766101385
                    ],
                    [
                        -43.741647514070095,
                        62.3799336740081
                    ],
                    [
                        -43.73696942858203,
                        62.37949170808039
                    ],
                    [
                        -43.73229125897401,
                        62.379054592528384
                    ],
                    [
                        -43.727611963441625,
                        62.37864405110764
                    ],
                    [
                        -43.72293076125161,
                        62.37827605270657
                    ],
                    [
                        -43.71824715670745,
                        62.37796041838402
                    ],
                    [
                        -43.71356226953947,
                        62.37767342514081
                    ],
                    [
                        -43.708876331370035,
                        62.37740998947995
                    ],
                    [
                        -43.70418882897876,
                        62.377180390539785
                    ],
                    [
                        -43.69949879807629,
                        62.37700398507541
                    ],
                    [
                        -43.694805799884655,
                        62.376889141836216
                    ],
                    [
                        -43.69011036018945,
                        62.376824522095916
                    ],
                    [
                        -43.68541239400932,
                        62.37681130669363
                    ],
                    [
                        -43.68071024612629,
                        62.37688231783443
                    ],
                    [
                        -43.676001509044525,
                        62.377085022953786
                    ],
                    [
                        -43.671286089438446,
                        62.37741988634891
                    ],
                    [
                        -43.66656588936009,
                        62.37784755986182
                    ],
                    [
                        -43.661842925404684,
                        62.3783269736613
                    ],
                    [
                        -43.6571162761663,
                        62.378875827775275
                    ],
                    [
                        -43.65238421505703,
                        62.37952746267906
                    ],
                    [
                        -43.64764713730582,
                        62.38027301868708
                    ],
                    [
                        -43.64290249989727,
                        62.38116133955066
                    ],
                    [
                        -43.6381467635436,
                        62.382260033603416
                    ],
                    [
                        -43.633389547325336,
                        62.3833797015184
                    ],
                    [
                        -43.62863543769247,
                        62.384431185584155
                    ],
                    [
                        -43.62388585252153,
                        62.38538780020769
                    ],
                    [
                        -43.619140100131965,
                        62.38626385165329
                    ],
                    [
                        -43.61439648021578,
                        62.38709280262519
                    ],
                    [
                        -43.60965414901092,
                        62.387891274177115
                    ],
                    [
                        -43.604915283912185,
                        62.388618080806324
                    ],
                    [
                        -43.600181086384026,
                        62.3892511346754
                    ],
                    [
                        -43.59544996904056,
                        62.38982143715591
                    ],
                    [
                        -43.590719519859775,
                        62.39037512679404
                    ],
                    [
                        -43.58598685284976,
                        62.39096663230968
                    ],
                    [
                        -43.5812501457874,
                        62.39162971787758
                    ],
                    [
                        -43.57651203425084,
                        62.392314441733134
                    ],
                    [
                        -43.57177358253898,
                        62.393000775881156
                    ],
                    [
                        -43.567035591138726,
                        62.393673853180374
                    ],
                    [
                        -43.56229778814249,
                        62.394338832197896
                    ],
                    [
                        -43.55755939104741,
                        62.39501021278871
                    ],
                    [
                        -43.55282153766872,
                        62.395667031513966
                    ],
                    [
                        -43.54808747514512,
                        62.39624998400553
                    ],
                    [
                        -43.54335883925904,
                        62.39672994480242
                    ],
                    [
                        -43.53863448273452,
                        62.39712878553826
                    ],
                    [
                        -43.533912646843724,
                        62.39747917854336
                    ],
                    [
                        -43.52919248331173,
                        62.397796921087654
                    ],
                    [
                        -43.52447473649799,
                        62.39806891862502
                    ],
                    [
                        -43.51976219957654,
                        62.39824545556311
                    ],
                    [
                        -43.515058519030056,
                        62.39826217414582
                    ],
                    [
                        -43.5103630654961,
                        62.39813181813197
                    ],
                    [
                        -43.50567256567558,
                        62.39791399334535
                    ],
                    [
                        -43.50098269500434,
                        62.397686198466396
                    ],
                    [
                        -43.496290205706345,
                        62.397505933494614
                    ],
                    [
                        -43.491592504733674,
                        62.39741844678021
                    ],
                    [
                        -43.486888140077504,
                        62.397448380122256
                    ],
                    [
                        -43.48217713426544,
                        62.39759424581706
                    ],
                    [
                        -43.47746291014221,
                        62.39779521230408
                    ],
                    [
                        -43.472750926059696,
                        62.39795577562273
                    ],
                    [
                        -43.46804720280149,
                        62.397971850999596
                    ],
                    [
                        -43.46335396941742,
                        62.397806210463855
                    ],
                    [
                        -43.45867354535214,
                        62.397420513905594
                    ],
                    [
                        -43.45400682457031,
                        62.39680138224063
                    ],
                    [
                        -43.449353051351146,
                        62.39596386312765
                    ],
                    [
                        -43.44471364257411,
                        62.39488568296407
                    ],
                    [
                        -43.44008188412985,
                        62.393683377757924
                    ],
                    [
                        -43.435454313651114,
                        62.39241686397538
                    ],
                    [
                        -43.43082606156885,
                        62.39116919955066
                    ],
                    [
                        -43.42619799025534,
                        62.389925651315906
                    ],
                    [
                        -43.421568499686195,
                        62.38871313248126
                    ],
                    [
                        -43.416940060888436,
                        62.387489871928835
                    ],
                    [
                        -43.412308494685746,
                        62.38632594873778
                    ],
                    [
                        -43.40767874694094,
                        62.38513826122651
                    ],
                    [
                        -43.403053911719425,
                        62.38387549282026
                    ],
                    [
                        -43.39843409630792,
                        62.38253650205984
                    ],
                    [
                        -43.393818085621966,
                        62.38114205313305
                    ],
                    [
                        -43.38920314420269,
                        62.3797377763628
                    ],
                    [
                        -43.384581473713446,
                        62.378452141468806
                    ],
                    [
                        -43.37995806502388,
                        62.37720221053507
                    ],
                    [
                        -43.37533029317688,
                        62.376030654935455
                    ],
                    [
                        -43.37070185044818,
                        62.37487653760461
                    ],
                    [
                        -43.36607387941061,
                        62.37372111053152
                    ],
                    [
                        -43.36144967309024,
                        62.372510923952056
                    ],
                    [
                        -43.35682928449682,
                        62.37124557433062
                    ],
                    [
                        -43.35221482494939,
                        62.36989143133893
                    ],
                    [
                        -43.35221482494939,
                        62.36989143133893
                    ],
                    [
                        -43.34760083505074,
                        62.36853712335788
                    ],
                    [
                        -43.34299768987425,
                        62.36701606645946
                    ],
                    [
                        -43.33840252882768,
                        62.36537542611114
                    ],
                    [
                        -43.333814452080944,
                        62.36363054060411
                    ],
                    [
                        -43.32923111093039,
                        62.36181965595302
                    ],
                    [
                        -43.32464706902728,
                        62.36002965111167
                    ],
                    [
                        -43.32005944794342,
                        62.358305955214746
                    ],
                    [
                        -43.3154685928423,
                        62.35664258214399
                    ],
                    [
                        -43.31087683516881,
                        62.35500231104281
                    ],
                    [
                        -43.30628355624865,
                        62.35339467829229
                    ],
                    [
                        -43.30168806728183,
                        62.35183021810543
                    ],
                    [
                        -43.29708709408819,
                        62.35035976717513
                    ],
                    [
                        -43.29248462125321,
                        62.34892045600888
                    ],
                    [
                        -43.287884462901324,
                        62.347452729485866
                    ],
                    [
                        -43.283284950239505,
                        62.34598269062508
                    ],
                    [
                        -43.27868295086764,
                        62.34455880676879
                    ],
                    [
                        -43.27407386737647,
                        62.343251637573964
                    ],
                    [
                        -43.26945279914539,
                        62.34213566626108
                    ],
                    [
                        -43.26483191458678,
                        62.341022650929496
                    ],
                    [
                        -43.26020838600092,
                        62.33995584691687
                    ],
                    [
                        -43.25558063054301,
                        62.338959053291056
                    ],
                    [
                        -43.250948650293566,
                        62.33803168827434
                    ],
                    [
                        -43.246309781187996,
                        62.337213662380194
                    ],
                    [
                        -43.24166721742608,
                        62.336455738913685
                    ],
                    [
                        -43.23702271275026,
                        62.3357309539817
                    ],
                    [
                        -43.23237163029914,
                        62.335108910937336
                    ],
                    [
                        -43.227714096265224,
                        62.33458690972256
                    ],
                    [
                        -43.22304789073479,
                        62.33419744033256
                    ],
                    [
                        -43.218365858124834,
                        62.334046433604264
                    ],
                    [
                        -43.21367347636259,
                        62.33405034309726
                    ],
                    [
                        -43.20897435910771,
                        62.334154213523995
                    ],
                    [
                        -43.20426988159133,
                        62.33433686167412
                    ],
                    [
                        -43.199564266215326,
                        62.33453520831952
                    ],
                    [
                        -43.19485837796362,
                        62.33473636807423
                    ],
                    [
                        -43.19015467886265,
                        62.33490408908103
                    ],
                    [
                        -43.185452407444494,
                        62.335049807722996
                    ],
                    [
                        -43.18075062216587,
                        62.33518747783574
                    ],
                    [
                        -43.1760499265259,
                        62.33530834952188
                    ],
                    [
                        -43.171350180972205,
                        62.33541458452603
                    ],
                    [
                        -43.166650936432866,
                        62.3355128184799
                    ],
                    [
                        -43.16194999761686,
                        62.33563491992936
                    ],
                    [
                        -43.157245330060796,
                        62.335810107143075
                    ],
                    [
                        -43.15253294545757,
                        62.3360954637913
                    ],
                    [
                        -43.147808678666195,
                        62.33655003056532
                    ],
                    [
                        -43.14306906034817,
                        62.33722225996345
                    ],
                    [
                        -43.13831232299784,
                        62.338135754972
                    ],
                    [
                        -43.13353841986761,
                        62.33928931373707
                    ],
                    [
                        -43.12874909230883,
                        62.34065629061941
                    ],
                    [
                        -43.123939677330696,
                        62.34230119694854
                    ],
                    [
                        -43.11910545002804,
                        62.34428873105698
                    ],
                    [
                        -43.114812215971575,
                        62.346405136710565
                    ],
                    [
                        -43.11076587858925,
                        62.34852520712464
                    ],
                    [
                        -43.10637350655689,
                        62.350639856886424
                    ],
                    [
                        -43.101528529334985,
                        62.35273787329744
                    ],
                    [
                        -43.09669818729472,
                        62.35462039815755
                    ],
                    [
                        -43.09188450814327,
                        62.35626082678365
                    ],
                    [
                        -43.08708193753783,
                        62.357738293583566
                    ],
                    [
                        -43.082282376928916,
                        62.359166419665286
                    ],
                    [
                        -43.07747946007444,
                        62.3606336915077
                    ],
                    [
                        -43.072670285101,
                        62.36217986947578
                    ],
                    [
                        -43.06785504582281,
                        62.36380168118561
                    ],
                    [
                        -43.0630269936147,
                        62.36559123880979
                    ],
                    [
                        -43.05833960537855,
                        62.3676997952979
                    ],
                    [
                        -43.05490048557593,
                        62.36982789889199
                    ],
                    [
                        -43.05250284846747,
                        62.3719723847101
                    ],
                    [
                        -43.0507273629363,
                        62.37412668342547
                    ],
                    [
                        -43.049252089511555,
                        62.37628572866053
                    ],
                    [
                        -43.04784603815237,
                        62.37844587483963
                    ],
                    [
                        -43.04639756256976,
                        62.380605356097654
                    ],
                    [
                        -43.04496095146412,
                        62.3827650313947
                    ],
                    [
                        -43.04356914617155,
                        62.38492542345668
                    ],
                    [
                        -43.04225997483737,
                        62.3870871338477
                    ],
                    [
                        -43.04111593679506,
                        62.389251474574635
                    ],
                    [
                        -43.04003952236335,
                        62.39141690105533
                    ],
                    [
                        -43.03883903516584,
                        62.39358036880916
                    ],
                    [
                        -43.037475310191155,
                        62.395741251905235
                    ],
                    [
                        -43.03592889256188,
                        62.39789923593122
                    ],
                    [
                        -43.03414246471037,
                        62.40005340186628
                    ],
                    [
                        -43.03204882932066,
                        62.40220266893565
                    ],
                    [
                        -43.02968898598817,
                        62.40434767688061
                    ],
                    [
                        -43.02699128144883,
                        62.40648726636633
                    ],
                    [
                        -43.02405775579988,
                        62.40862304932744
                    ],
                    [
                        -43.020935277444416,
                        62.410755760913304
                    ],
                    [
                        -43.017476226587206,
                        62.412883017725356
                    ],
                    [
                        -43.01349461794587,
                        62.415001801279665
                    ],
                    [
                        -43.009080998136284,
                        62.41711352237983
                    ],
                    [
                        -43.00472593498265,
                        62.4192260614657
                    ],
                    [
                        -43.00060512766655,
                        62.42134226848433
                    ],
                    [
                        -42.99706344767206,
                        62.42346775804463
                    ],
                    [
                        -42.99425762608141,
                        62.425605122592394
                    ],
                    [
                        -42.99180477295898,
                        62.42774818708945
                    ],
                    [
                        -42.98978418139707,
                        62.42989826136077
                    ],
                    [
                        -42.97227582647256,
                        62.44535134286542
                    ],
                    [
                        -42.95474707421479,
                        62.460802928837154
                    ],
                    [
                        -42.93719789224543,
                        62.476253014007504
                    ],
                    [
                        -42.919628248126,
                        62.491701593097815
                    ],
                    [
                        -42.9020381093577,
                        62.50714866081916
                    ],
                    [
                        -42.88442744338133,
                        62.52259421187243
                    ],
                    [
                        -42.86679621757716,
                        62.53803824094819
                    ],
                    [
                        -42.849144399264844,
                        62.55348074272674
                    ],
                    [
                        -42.83147195570328,
                        62.56892171187804
                    ],
                    [
                        -42.813778854090494,
                        62.5843611430617
                    ],
                    [
                        -42.79606506156355,
                        62.59979903092697
                    ],
                    [
                        -42.778330545198436,
                        62.615235370112686
                    ],
                    [
                        -42.76057527200992,
                        62.63067015524729
                    ],
                    [
                        -42.74279920895149,
                        62.646103380948745
                    ],
                    [
                        -42.72500232291517,
                        62.66153504182454
                    ],
                    [
                        -42.707184580731465,
                        62.67696513247169
                    ],
                    [
                        -42.689345949169244,
                        62.69239364747668
                    ],
                    [
                        -42.67148639493557,
                        62.70782058141542
                    ],
                    [
                        -42.65360588467566,
                        62.72324592885328
                    ],
                    [
                        -42.63570438497272,
                        62.73866968434501
                    ]
                ]
            }
        }
    ]
}
