{
    "type": "FeatureCollection",
    "features": [
        {
            "type": "Feature",
            "properties": {
                "name": "Islands",
                "object": "transect",
                "component": "landice",
                "author": "Matthew Hoffman, converted from https://github.com/yuwang115/sl-ice",
                "tags": "Antarctic_Ice_Sheet;flowline;sl-ice;islands"
            },
            "geometry": {
                "type": "LineString",
                "coordinates": [
                    [
                        -48.206365199208165,
                        -79.23058032729271
                    ],
                    [
                        -48.29827587469386,
                        -79.23676976635107
                    ],
                    [
                        -48.38996905387284,
                        -79.2430794278518
                    ],
                    [
                        -48.48142942275055,
                        -79.24954920166468
                    ],
                    [
                        -48.57277232840004,
                        -79.25609787572206
                    ],
                    [
                        -48.66389221796412,
                        -79.26277603544291
                    ],
                    [
                        -48.754763998171995,
                        -79.2696023856597
                    ],
                    [
                        -48.84544369035784,
                        -79.27653967704204
                    ],
                    [
                        -48.93602496608895,
                        -79.28355203838302
                    ],
                    [
                        -49.02645571911905,
                        -79.29066231427413
                    ],
                    [
                        -49.11656946810795,
                        -79.29792924230524
                    ],
                    [
                        -49.20646864149917,
                        -79.3053123343991
                    ],
                    [
                        -49.29629366661341,
                        -79.31275555206318
                    ],
                    [
                        -49.386004997272494,
                        -79.32026931030215
                    ],
                    [
                        -49.475739233599036,
                        -79.32780066814574
                    ],
                    [
                        -49.56551308020499,
                        -79.33534618769232
                    ],
                    [
                        -49.6553037059908,
                        -79.34290818669916
                    ],
                    [
                        -49.74552208052896,
                        -79.35032368305923
                    ],
                    [
                        -49.83605236678046,
                        -79.35762845319515
                    ],
                    [
                        -49.927091268980554,
                        -79.36475174030573
                    ],
                    [
                        -50.01886506037956,
                        -79.37155595279917
                    ],
                    [
                        -50.11212556391493,
                        -79.37766961892018
                    ],
                    [
                        -50.208397400232656,
                        -79.38186070566738
                    ],
                    [
                        -50.30693255693638,
                        -79.38308827558994
                    ],
                    [
                        -50.405615753026794,
                        -79.38164436397695
                    ],
                    [
                        -50.50339146068158,
                        -79.37875432712228
                    ],
                    [
                        -50.60047252478915,
                        -79.37520374596758
                    ],
                    [
                        -50.69454386681152,
                        -79.36961048741995
                    ],
                    [
                        -50.77846837327306,
                        -79.36009036103239
                    ],
                    [
                        -50.84933309596688,
                        -79.34742130339438
                    ],
                    [
                        -50.91137251237922,
                        -79.33324195107079
                    ],
                    [
                        -50.968802060122115,
                        -79.31840731537265
                    ],
                    [
                        -51.024011427049714,
                        -79.3033022813979
                    ],
                    [
                        -51.07597916921986,
                        -79.28781139826923
                    ],
                    [
                        -51.1270008406992,
                        -79.27222095444685
                    ],
                    [
                        -51.176731918087164,
                        -79.25649685647858
                    ],
                    [
                        -51.22477219527821,
                        -79.24059665303761
                    ],
                    [
                        -51.268894467320024,
                        -79.22431380841049
                    ],
                    [
                        -51.31060130102765,
                        -79.2078184721368
                    ],
                    [
                        -51.34979651943196,
                        -79.19110991386832
                    ],
                    [
                        -51.384559247327765,
                        -79.17406995655145
                    ],
                    [
                        -51.41606756042455,
                        -79.15681127263525
                    ],
                    [
                        -51.44283901112487,
                        -79.13927581596484
                    ],
                    [
                        -51.4634752783854,
                        -79.12144975192285
                    ],
                    [
                        -51.47774675255888,
                        -79.10341326301754
                    ],
                    [
                        -51.48339322688165,
                        -79.08520554449484
                    ],
                    [
                        -51.483098804174155,
                        -79.06696235608442
                    ],
                    [
                        -51.47787937329057,
                        -79.04874421789972
                    ],
                    [
                        -51.46937822617248,
                        -79.03057112726961
                    ],
                    [
                        -51.458796078748065,
                        -79.01243606906638
                    ],
                    [
                        -51.44742554257492,
                        -78.99432283536333
                    ],
                    [
                        -51.434624755419755,
                        -78.97624136792527
                    ],
                    [
                        -51.41976434299825,
                        -78.95822142346833
                    ],
                    [
                        -51.40349777190981,
                        -78.94024688202434
                    ],
                    [
                        -51.38572428110438,
                        -78.92232436119562
                    ],
                    [
                        -51.366712196630544,
                        -78.90445640927776
                    ],
                    [
                        -51.34729174020145,
                        -78.88660173776417
                    ],
                    [
                        -51.32761529586108,
                        -78.8687589848612
                    ],
                    [
                        -51.30670591974778,
                        -78.85097171179936
                    ],
                    [
                        -51.28540024303027,
                        -78.83320504928298
                    ],
                    [
                        -51.26342103151577,
                        -78.81546808893185
                    ],
                    [
                        -51.240249192240185,
                        -78.79779382157561
                    ],
                    [
                        -51.21646552366262,
                        -78.7801502943087
                    ],
                    [
                        -51.19232195335519,
                        -78.76253078033093
                    ],
                    [
                        -51.167319312376925,
                        -78.74495482352239
                    ],
                    [
                        -51.14182573994252,
                        -78.72740933746933
                    ],
                    [
                        -51.115849059389056,
                        -78.70989860103742
                    ],
                    [
                        -51.08916316977473,
                        -78.69242854253253
                    ],
                    [
                        -51.06212817425717,
                        -78.67498178011769
                    ],
                    [
                        -51.03470917258188,
                        -78.65756414643323
                    ],
                    [
                        -51.00661982085157,
                        -78.64018472949172
                    ],
                    [
                        -50.978257299494736,
                        -78.62283128262273
                    ],
                    [
                        -50.94944746243118,
                        -78.60550731996696
                    ],
                    [
                        -50.92031457050555,
                        -78.58820888470702
                    ],
                    [
                        -50.890572525306276,
                        -78.57095535010104
                    ],
                    [
                        -50.86044323147277,
                        -78.55372908029865
                    ],
                    [
                        -50.82957947623667,
                        -78.53656163790669
                    ],
                    [
                        -50.798248387406296,
                        -78.51942863744023
                    ],
                    [
                        -50.76636627101267,
                        -78.50234070001909
                    ],
                    [
                        -50.73382346414772,
                        -78.48530763721953
                    ],
                    [
                        -50.70076548492465,
                        -78.46831728130387
                    ],
                    [
                        -50.66712119936939,
                        -78.45137865776522
                    ],
                    [
                        -50.63325235485821,
                        -78.43446111290528
                    ],
                    [
                        -50.59910126342813,
                        -78.41757023241018
                    ],
                    [
                        -50.56425876167778,
                        -78.4007430683288
                    ],
                    [
                        -50.528750300487474,
                        -78.38397371632412
                    ],
                    [
                        -50.492834731637636,
                        -78.36724786650203
                    ],
                    [
                        -50.456330585165404,
                        -78.3505785787123
                    ],
                    [
                        -50.41945236775499,
                        -78.33394793219058
                    ],
                    [
                        -50.38210067421063,
                        -78.3173660916028
                    ],
                    [
                        -50.344099526031556,
                        -78.30084915588851
                    ],
                    [
                        -50.30523933130685,
                        -78.28442153592562
                    ],
                    [
                        -50.26564492006662,
                        -78.26807150120479
                    ],
                    [
                        -50.22575377018571,
                        -78.25175631944533
                    ],
                    [
                        -50.18546607415656,
                        -78.2354919335021
                    ],
                    [
                        -50.144673268473326,
                        -78.21928080888584
                    ],
                    [
                        -50.103215798101395,
                        -78.20315215628968
                    ],
                    [
                        -50.06126155690945,
                        -78.18708065055596
                    ],
                    [
                        -50.0186756946253,
                        -78.171086598274
                    ],
                    [
                        -49.975174711481635,
                        -78.15520257984484
                    ],
                    [
                        -49.930643753687214,
                        -78.13944831552267
                    ],
                    [
                        -49.88533044102679,
                        -78.12379310532624
                    ],
                    [
                        -49.83940169761375,
                        -78.10822589527332
                    ],
                    [
                        -49.792682468206316,
                        -78.0927668484326
                    ],
                    [
                        -49.74519654486693,
                        -78.07741579629749
                    ],
                    [
                        -49.69691090553835,
                        -78.0621793574547
                    ],
                    [
                        -49.647255317973176,
                        -78.04714165748378
                    ],
                    [
                        -49.59597418876713,
                        -78.03235079692318
                    ],
                    [
                        -49.542459005563074,
                        -78.01791539152453
                    ],
                    [
                        -49.48481333101474,
                        -78.00420095910785
                    ],
                    [
                        -49.423061994112466,
                        -77.99129490146971
                    ],
                    [
                        -49.35710706749059,
                        -77.97933993985677
                    ],
                    [
                        -49.28602284597379,
                        -77.96875611350126
                    ],
                    [
                        -49.21179167745366,
                        -77.95918133927832
                    ],
                    [
                        -49.13574220902654,
                        -77.95025056860835
                    ],
                    [
                        -49.059520901941895,
                        -77.94141350942583
                    ],
                    [
                        -48.98411789964983,
                        -77.93229278077266
                    ],
                    [
                        -48.91013994955946,
                        -77.92269710610171
                    ],
                    [
                        -48.83814487398221,
                        -77.91247723900575
                    ],
                    [
                        -48.767737645677556,
                        -77.90180803556072
                    ],
                    [
                        -48.69861558584322,
                        -77.89078453639912
                    ],
                    [
                        -48.63109107574654,
                        -77.87935582108172
                    ],
                    [
                        -48.56488998276146,
                        -77.8676053704972
                    ],
                    [
                        -48.49993710871724,
                        -77.85556606787223
                    ],
                    [
                        -48.4366194371432,
                        -77.84316488483445
                    ],
                    [
                        -48.37449049822427,
                        -77.830510393714
                    ],
                    [
                        -48.313375019001214,
                        -77.81765453328087
                    ],
                    [
                        -48.252628884110266,
                        -77.80473400276975
                    ],
                    [
                        -48.19172407020119,
                        -77.79186290707759
                    ],
                    [
                        -48.13077725860469,
                        -77.77901072703557
                    ],
                    [
                        -48.06959086569634,
                        -77.76622669078938
                    ],
                    [
                        -48.008834761792926,
                        -77.75336380651311
                    ],
                    [
                        -47.94820715322497,
                        -77.7404875789724
                    ],
                    [
                        -47.88770776812139,
                        -77.72759805266882
                    ],
                    [
                        -47.82733633461614,
                        -77.71469527196554
                    ],
                    [
                        -47.767092580855476,
                        -77.7017792810876
                    ],
                    [
                        -47.70697623500502,
                        -77.6888501241221
                    ],
                    [
                        -47.646987025256934,
                        -77.6759078450185
                    ],
                    [
                        -47.5871246798368,
                        -77.66295248758884
                    ],
                    [
                        -47.52738892701063,
                        -77.64998409550802
                    ],
                    [
                        -47.46777949509166,
                        -77.63700271231404
                    ],
                    [
                        -47.40829611244713,
                        -77.62400838140827
                    ],
                    [
                        -47.34893850750496,
                        -77.6110011460557
                    ],
                    [
                        -47.289706408760416,
                        -77.59798104938515
                    ],
                    [
                        -47.230599544782585,
                        -77.58494813438969
                    ],
                    [
                        -47.17161764422092,
                        -77.5719024439267
                    ],
                    [
                        -47.11276043581164,
                        -77.55884402071833
                    ],
                    [
                        -47.054027648384,
                        -77.54577290735162
                    ],
                    [
                        -46.99541901086663,
                        -77.53268914627886
                    ],
                    [
                        -46.936934252293675,
                        -77.51959277981781
                    ],
                    [
                        -46.878573101810936,
                        -77.50648385015208
                    ]
                ]
            }
        }
    ]
}
