{
    "type": "FeatureCollection",
    "features": [
        {
            "type": "Feature",
            "properties": {
                "name": "Greenland Glacier 0174",
                "object": "transect",
                "component": "landice",
                "author": "Matthew Hoffman, converted from Felikson et al. (2020) Zenodo dataset",
                "tags": "Greenland_Ice_Sheet;flowline;zenodo_4284759;glacier_0174",
                "citation": "Felikson, Denis, Catania, Ginny, Bartholomaus, Timothy, Morlighem, Mathieu, & No\u00ebl, Brice. (2020). Inland limits to diffusion of thinning along Greenland Ice Sheet outlet glaciers (v1.0) [Data set]. Zenodo. https://doi.org/10.5281/zenodo.4284759",
                "license": "CC-BY-4.0"
            },
            "geometry": {
                "type": "LineString",
                "coordinates": [
                    [
                        -33.094131249056,
                        68.50578116143053
                    ],
                    [
                        -33.08733598193785,
                        68.5067879260115
                    ],
                    [
                        -33.08067935341292,
                        68.50755241852103
                    ],
                    [
                        -33.07423283785986,
                        68.50795098329762
                    ],
                    [
                        -33.06785510355892,
                        68.50822950385391
                    ],
                    [
                        -33.06134662327348,
                        68.50873422286327
                    ],
                    [
                        -33.05482066465443,
                        68.5092684241762
                    ],
                    [
                        -33.048064499964894,
                        68.51020054400836
                    ],
                    [
                        -33.04118243953336,
                        68.51134927224217
                    ],
                    [
                        -33.034327448282994,
                        68.51244957123475
                    ],
                    [
                        -33.02755235199341,
                        68.51341020453012
                    ],
                    [
                        -33.02076206186806,
                        68.51439572823384
                    ],
                    [
                        -33.01385227671954,
                        68.5155861905896
                    ],
                    [
                        -33.00676245954596,
                        68.51708565134584
                    ],
                    [
                        -32.99962295068334,
                        68.51881008662185
                    ],
                    [
                        -32.992655095535085,
                        68.5205476772812
                    ],
                    [
                        -32.985441153035175,
                        68.52225445033737
                    ],
                    [
                        -32.978274976226956,
                        68.52387668798401
                    ],
                    [
                        -32.97107656193597,
                        68.5255521366004
                    ],
                    [
                        -32.96454213939445,
                        68.52732270951618
                    ],
                    [
                        -32.958574972013615,
                        68.52913743690162
                    ],
                    [
                        -32.952385092089244,
                        68.53093461535963
                    ],
                    [
                        -32.946199175568864,
                        68.53273195202145
                    ],
                    [
                        -32.94028027553023,
                        68.53455003210011
                    ],
                    [
                        -32.93453515293584,
                        68.53638158315076
                    ],
                    [
                        -32.92911605433287,
                        68.5382385450435
                    ],
                    [
                        -32.92414774367401,
                        68.54013072107075
                    ],
                    [
                        -32.91966865680397,
                        68.5420611592508
                    ],
                    [
                        -32.91543318753671,
                        68.5440106419509
                    ],
                    [
                        -32.91543318753671,
                        68.5440106419509
                    ],
                    [
                        -32.91119693097322,
                        68.54596002209821
                    ],
                    [
                        -32.90703022784792,
                        68.54791481636586
                    ],
                    [
                        -32.90274397322955,
                        68.54986019405503
                    ],
                    [
                        -32.89829866664622,
                        68.55179304765481
                    ],
                    [
                        -32.89333833087458,
                        68.55368542273985
                    ],
                    [
                        -32.887770528580646,
                        68.5555300192817
                    ],
                    [
                        -32.85384900168442,
                        68.56835845506657
                    ],
                    [
                        -32.81988592599982,
                        68.58118006015366
                    ],
                    [
                        -32.785881249054846,
                        68.59399481984784
                    ],
                    [
                        -32.75183491836609,
                        68.6068027194278
                    ],
                    [
                        -32.71774688143916,
                        68.61960374414612
                    ],
                    [
                        -32.68361708576907,
                        68.63239787922916
                    ],
                    [
                        -32.64944547884063,
                        68.64518510987705
                    ],
                    [
                        -32.61523200812894,
                        68.65796542126363
                    ],
                    [
                        -32.58097662109969,
                        68.67073879853652
                    ],
                    [
                        -32.54667926520963,
                        68.68350522681698
                    ],
                    [
                        -32.512339887907046,
                        68.69626469119993
                    ],
                    [
                        -32.47795843663207,
                        68.70901717675392
                    ],
                    [
                        -32.44353485881717,
                        68.72176266852107
                    ],
                    [
                        -32.409069101887596,
                        68.73450115151714
                    ],
                    [
                        -32.374561113261734,
                        68.74723261073133
                    ],
                    [
                        -32.34001084035163,
                        68.75995703112642
                    ],
                    [
                        -32.30541823056335,
                        68.77267439763867
                    ],
                    [
                        -32.27078323129745,
                        68.78538469517775
                    ],
                    [
                        -32.23610578994945,
                        68.7980879086268
                    ],
                    [
                        -32.20138585391018,
                        68.81078402284236
                    ]
                ]
            }
        }
    ]
}
