{
    "type": "FeatureCollection",
    "features": [
        {
            "type": "Feature",
            "properties": {
                "name": "Greenland Glacier 0076",
                "object": "transect",
                "component": "landice",
                "author": "Matthew Hoffman, converted from Felikson et al. (2020) Zenodo dataset",
                "tags": "Greenland_Ice_Sheet;flowline;zenodo_4284759;glacier_0076;harald_moltke_br\u00e6",
                "citation": "Felikson, Denis, Catania, Ginny, Bartholomaus, Timothy, Morlighem, Mathieu, & No\u00ebl, Brice. (2020). Inland limits to diffusion of thinning along Greenland Ice Sheet outlet glaciers (v1.0) [Data set]. Zenodo. https://doi.org/10.5281/zenodo.4284759",
                "license": "CC-BY-4.0",
                "officialName": "Ullip Sermia",
                "foreignName": "Harald Moltke Br\u00e6"
            },
            "geometry": {
                "type": "LineString",
                "coordinates": [
                    [
                        -66.79895403994101,
                        76.42238590113877
                    ],
                    [
                        -66.80950413929584,
                        76.4224493768843
                    ],
                    [
                        -66.80317341756829,
                        76.42059195120241
                    ],
                    [
                        -66.80497139897327,
                        76.42287529878021
                    ],
                    [
                        -66.81404680872662,
                        76.4220730405109
                    ],
                    [
                        -66.80244441959276,
                        76.42139179441291
                    ],
                    [
                        -66.79692581073787,
                        76.42428257217696
                    ],
                    [
                        -66.80382036247354,
                        76.42608729824555
                    ],
                    [
                        -66.79228764699599,
                        76.42544820610419
                    ],
                    [
                        -66.79485944276634,
                        76.4276589049216
                    ],
                    [
                        -66.78227277223361,
                        76.42640073675986
                    ],
                    [
                        -66.778249556598,
                        76.42432630041077
                    ],
                    [
                        -66.76584286410848,
                        76.42303819988739
                    ],
                    [
                        -66.75491743022383,
                        76.42275210648808
                    ],
                    [
                        -66.74383212964409,
                        76.42237111505014
                    ],
                    [
                        -66.73477540742236,
                        76.4231843496728
                    ],
                    [
                        -66.7261016523283,
                        76.42422357751363
                    ],
                    [
                        -66.71832187319671,
                        76.42579027119379
                    ],
                    [
                        -66.71050294130494,
                        76.42733470476855
                    ],
                    [
                        -66.70260652225566,
                        76.42883425000036
                    ],
                    [
                        -66.69407263981462,
                        76.42995848747994
                    ],
                    [
                        -66.68473722067894,
                        76.43061017587617
                    ],
                    [
                        -66.67435381164758,
                        76.43064316357501
                    ],
                    [
                        -66.67285467427624,
                        76.43323309012175
                    ],
                    [
                        -66.67393420941264,
                        76.43558253609703
                    ],
                    [
                        -66.67672273401499,
                        76.43777267900396
                    ],
                    [
                        -66.6812697973374,
                        76.43979890634492
                    ],
                    [
                        -66.68515932477811,
                        76.44188650530153
                    ],
                    [
                        -66.68816276543345,
                        76.44405679821324
                    ],
                    [
                        -66.69056084840398,
                        76.44628360571696
                    ],
                    [
                        -66.6928293264513,
                        76.44852255907547
                    ],
                    [
                        -66.69593535265129,
                        76.45068347454904
                    ],
                    [
                        -66.69984631372436,
                        76.452769393126
                    ],
                    [
                        -66.70297221989766,
                        76.45492858080362
                    ],
                    [
                        -66.70472070306806,
                        76.45721627435532
                    ],
                    [
                        -66.70679811838849,
                        76.45947335223282
                    ],
                    [
                        -66.70983581185688,
                        76.4616409546645
                    ],
                    [
                        -66.71314168461141,
                        76.46378361530302
                    ],
                    [
                        -66.71583293407099,
                        76.46598364628093
                    ],
                    [
                        -66.71768386551011,
                        76.46826208567781
                    ],
                    [
                        -66.71965019982845,
                        76.47052982158287
                    ],
                    [
                        -66.72186124538852,
                        76.47277480191042
                    ],
                    [
                        -66.72488409834321,
                        76.47494416605919
                    ],
                    [
                        -66.72926800709324,
                        76.47698671081407
                    ],
                    [
                        -66.73529710576742,
                        76.4788759146606
                    ],
                    [
                        -66.74257278299328,
                        76.48064887713478
                    ],
                    [
                        -66.75042219558787,
                        76.48236828592267
                    ],
                    [
                        -66.75849543935566,
                        76.48406674982688
                    ],
                    [
                        -66.76687864303388,
                        76.48573621128392
                    ],
                    [
                        -66.7760750161824,
                        76.48732965568891
                    ],
                    [
                        -66.7855949080264,
                        76.48889274384197
                    ],
                    [
                        -66.79511725901261,
                        76.49045544495135
                    ],
                    [
                        -66.80426334558955,
                        76.49205316232538
                    ],
                    [
                        -66.81334433925522,
                        76.4936568346554
                    ],
                    [
                        -66.8220974544136,
                        76.49529105007245
                    ],
                    [
                        -66.83042343266386,
                        76.49696512615307
                    ],
                    [
                        -66.83827200434739,
                        76.49868380391374
                    ],
                    [
                        -66.84590268003743,
                        76.50042282468021
                    ],
                    [
                        -66.85352189109715,
                        76.5021628734229
                    ],
                    [
                        -66.86134162215924,
                        76.5038840947071
                    ],
                    [
                        -66.86967133972047,
                        76.505557477473
                    ],
                    [
                        -66.87932696189199,
                        76.50710650269484
                    ],
                    [
                        -66.89182804548186,
                        76.50838852851919
                    ],
                    [
                        -66.90392197740447,
                        76.50930449136771
                    ],
                    [
                        -66.91536461044676,
                        76.5098411172818
                    ],
                    [
                        -66.92624183491347,
                        76.51004889979691
                    ],
                    [
                        -66.93684784142634,
                        76.5100988568931
                    ],
                    [
                        -66.9472878129705,
                        76.51005215664699
                    ],
                    [
                        -66.95746680934677,
                        76.5098539959087
                    ],
                    [
                        -66.9675383394178,
                        76.50959341368494
                    ],
                    [
                        -66.97761591063795,
                        76.50933613904172
                    ],
                    [
                        -66.987715377941,
                        76.50909133081356
                    ],
                    [
                        -66.9977679229713,
                        76.50881921396058
                    ],
                    [
                        -67.00791734054938,
                        76.50860285830197
                    ],
                    [
                        -67.01824228295997,
                        76.50848757325036
                    ],
                    [
                        -67.02855794630631,
                        76.50836660443817
                    ],
                    [
                        -67.03883437895699,
                        76.5082226920252
                    ],
                    [
                        -67.04913606219905,
                        76.50809302770733
                    ],
                    [
                        -67.05946611033833,
                        76.50797938324064
                    ],
                    [
                        -67.06990957787592,
                        76.50793069594671
                    ],
                    [
                        -67.08049355795703,
                        76.50796245224386
                    ],
                    [
                        -67.09120182506942,
                        76.50806519314995
                    ],
                    [
                        -67.10201146438119,
                        76.50822563308814
                    ],
                    [
                        -67.11284436084232,
                        76.50839880716772
                    ],
                    [
                        -67.12384512454517,
                        76.5086677106404
                    ],
                    [
                        -67.13497120388463,
                        76.50900776618295
                    ],
                    [
                        -67.14640683391212,
                        76.5095244881567
                    ],
                    [
                        -67.1581963165327,
                        76.51024293920442
                    ],
                    [
                        -67.16990700743503,
                        76.51091497945534
                    ],
                    [
                        -67.18165184601997,
                        76.5116053309555
                    ],
                    [
                        -67.19357830574685,
                        76.51239830128588
                    ],
                    [
                        -67.20579969263521,
                        76.51335844682482
                    ],
                    [
                        -67.21775566508077,
                        76.51416539254649
                    ],
                    [
                        -67.22969591321748,
                        76.51496195859862
                    ],
                    [
                        -67.24188048988579,
                        76.51589649950257
                    ],
                    [
                        -67.25407360974808,
                        76.51683433628469
                    ],
                    [
                        -67.26584997770166,
                        76.51753319745859
                    ],
                    [
                        -67.27729696663171,
                        76.51804328051288
                    ],
                    [
                        -67.28919659798038,
                        76.518809862653
                    ],
                    [
                        -67.30079245708068,
                        76.51940237659
                    ],
                    [
                        -67.31224520674533,
                        76.51991244022416
                    ],
                    [
                        -67.3237998292554,
                        76.52047932670638
                    ],
                    [
                        -67.3359523018645,
                        76.52138440763729
                    ],
                    [
                        -67.34824397956798,
                        76.52236690206828
                    ],
                    [
                        -67.36054557627715,
                        76.52335338051141
                    ],
                    [
                        -67.37289522707438,
                        76.52436543148374
                    ],
                    [
                        -67.38496064795197,
                        76.52567019639521
                    ],
                    [
                        -67.39540817592312,
                        76.52712999269804
                    ],
                    [
                        -67.4052500856071,
                        76.52864775673002
                    ],
                    [
                        -67.41664574939743,
                        76.53001600045549
                    ],
                    [
                        -67.4267600929815,
                        76.53150716205963
                    ],
                    [
                        -67.43622240318207,
                        76.53306085308992
                    ],
                    [
                        -67.44523179155756,
                        76.53465798062379
                    ],
                    [
                        -67.45398830329295,
                        76.5362793320961
                    ],
                    [
                        -67.4631568920626,
                        76.53786090348699
                    ],
                    [
                        -67.47261119844826,
                        76.53941482618303
                    ],
                    [
                        -67.48230328300343,
                        76.54094569051188
                    ],
                    [
                        -67.49260784329101,
                        76.54241735164008
                    ],
                    [
                        -67.50257008937645,
                        76.54392181610561
                    ],
                    [
                        -67.51162972966614,
                        76.54551317223725
                    ],
                    [
                        -67.51967911078235,
                        76.54720189443435
                    ],
                    [
                        -67.52644065135357,
                        76.54901485318733
                    ],
                    [
                        -67.53435063661537,
                        76.55071694496374
                    ],
                    [
                        -67.54280966147925,
                        76.55236596515063
                    ],
                    [
                        -67.55149955712547,
                        76.55399260105153
                    ],
                    [
                        -67.56082272443462,
                        76.55555794847304
                    ],
                    [
                        -67.5684542090034,
                        76.55728667561569
                    ],
                    [
                        -67.57869678906489,
                        76.55876290870927
                    ],
                    [
                        -67.5857859556728,
                        76.56054394520838
                    ],
                    [
                        -67.59191407957559,
                        76.56241793119938
                    ],
                    [
                        -67.59874392020875,
                        76.56422404924206
                    ],
                    [
                        -67.60649058059995,
                        76.56594144159956
                    ],
                    [
                        -67.61351915890411,
                        76.56772829781937
                    ],
                    [
                        -67.62082325532691,
                        76.56948846790314
                    ],
                    [
                        -67.6302802648454,
                        76.57104011510243
                    ],
                    [
                        -67.6387682233953,
                        76.57268550211522
                    ],
                    [
                        -67.64851551566682,
                        76.57420876097541
                    ],
                    [
                        -67.65582860571095,
                        76.57596783806504
                    ],
                    [
                        -67.66315810541026,
                        76.57772530083159
                    ],
                    [
                        -67.67093922389802,
                        76.57943893994533
                    ],
                    [
                        -67.67854445523828,
                        76.5811695966569
                    ],
                    [
                        -67.68639236715194,
                        76.58287666872583
                    ],
                    [
                        -67.69507121908696,
                        76.58450303998207
                    ],
                    [
                        -67.70484295111542,
                        76.58602320224956
                    ],
                    [
                        -67.71358987877012,
                        76.58764274123493
                    ],
                    [
                        -67.72218532138078,
                        76.58927690073999
                    ],
                    [
                        -67.73138408193832,
                        76.59085233513684
                    ],
                    [
                        -67.73900242257338,
                        76.59258129212182
                    ],
                    [
                        -67.74601298812942,
                        76.59436931152987
                    ],
                    [
                        -67.74601298812942,
                        76.59436931152987
                    ],
                    [
                        -67.75302544044024,
                        76.59615713823837
                    ],
                    [
                        -67.76188972670931,
                        76.59776480453394
                    ],
                    [
                        -67.77057787291439,
                        76.59938950822601
                    ],
                    [
                        -67.78163424796058,
                        76.60078356283526
                    ],
                    [
                        -67.7941208589675,
                        76.60179289430744
                    ],
                    [
                        -67.79876912709268,
                        76.60381072774892
                    ],
                    [
                        -67.80439064368757,
                        76.60573379545848
                    ],
                    [
                        -67.81205019189436,
                        76.60745829184094
                    ],
                    [
                        -67.82088579102987,
                        76.60906810401353
                    ],
                    [
                        -67.8758508371333,
                        76.62210757832021
                    ],
                    [
                        -67.93092403022379,
                        76.63513515823134
                    ],
                    [
                        -67.98610558772653,
                        76.6481508063848
                    ],
                    [
                        -68.04139572711911,
                        76.66115448530935
                    ],
                    [
                        -68.0967946659269,
                        76.67414615742425
                    ],
                    [
                        -68.15230262171845,
                        76.68712578503917
                    ],
                    [
                        -68.20791981210095,
                        76.70009333035404
                    ],
                    [
                        -68.26364645471544,
                        76.71304875545873
                    ],
                    [
                        -68.31948276723206,
                        76.72599202233296
                    ],
                    [
                        -68.37542896734537,
                        76.7389230928461
                    ],
                    [
                        -68.4314852727694,
                        76.75184192875695
                    ],
                    [
                        -68.48765190123285,
                        76.76474849171353
                    ],
                    [
                        -68.54392907047414,
                        76.777642743253
                    ],
                    [
                        -68.60031699823641,
                        76.79052464480138
                    ],
                    [
                        -68.6568159022625,
                        76.80339415767338
                    ],
                    [
                        -68.71342600028989,
                        76.81625124307227
                    ],
                    [
                        -68.77014751004556,
                        76.82909586208969
                    ],
                    [
                        -68.82698064924078,
                        76.8419279757054
                    ],
                    [
                        -68.88392563556599,
                        76.85474754478722
                    ],
                    [
                        -68.94098268668532,
                        76.86755453009076
                    ]
                ]
            }
        }
    ]
}
