{
    "type": "FeatureCollection",
    "features": [
        {
            "type": "Feature",
            "properties": {
                "name": "Institute",
                "object": "transect",
                "component": "landice",
                "author": "Matthew Hoffman, converted from https://github.com/yuwang115/sl-ice",
                "tags": "Antarctic_Ice_Sheet;flowline;sl-ice;institute"
            },
            "geometry": {
                "type": "LineString",
                "coordinates": [
                    [
                        -98.96044257639618,
                        -82.42615359845101
                    ],
                    [
                        -98.82198774467498,
                        -82.42451456526406
                    ],
                    [
                        -98.6832036672552,
                        -82.42342339445379
                    ],
                    [
                        -98.54432003281877,
                        -82.42271979770565
                    ],
                    [
                        -98.40533088875276,
                        -82.42252470611308
                    ],
                    [
                        -98.26642854307059,
                        -82.42305788694297
                    ],
                    [
                        -98.12802805039479,
                        -82.42468855808934
                    ],
                    [
                        -97.99101282224814,
                        -82.42778289237152
                    ],
                    [
                        -97.8559421665875,
                        -82.43214004234889
                    ],
                    [
                        -97.72367394469357,
                        -82.43784621826566
                    ],
                    [
                        -97.59528083857967,
                        -82.44495160675628
                    ],
                    [
                        -97.46955265863015,
                        -82.45288700318721
                    ],
                    [
                        -97.34593792061656,
                        -82.46140760568832
                    ],
                    [
                        -97.22456068558375,
                        -82.47049904578513
                    ],
                    [
                        -97.10415524108306,
                        -82.47984096147238
                    ],
                    [
                        -96.98374854937606,
                        -82.4892271753624
                    ],
                    [
                        -96.86331025134083,
                        -82.49862778035936
                    ],
                    [
                        -96.74300020593863,
                        -82.508095768161
                    ],
                    [
                        -96.62308428157202,
                        -82.51767897444175
                    ],
                    [
                        -96.50268612359076,
                        -82.52719242651585
                    ],
                    [
                        -96.38034008035656,
                        -82.53630943961068
                    ],
                    [
                        -96.2561843408056,
                        -82.5450350117649
                    ],
                    [
                        -96.13017054580878,
                        -82.55334553480074
                    ],
                    [
                        -96.00287395667257,
                        -82.56135171845757
                    ],
                    [
                        -95.87445310914471,
                        -82.56909483764349
                    ],
                    [
                        -95.74432300251,
                        -82.57637815157685
                    ],
                    [
                        -95.6124899679803,
                        -82.58316541869756
                    ],
                    [
                        -95.47902975697217,
                        -82.58945178925661
                    ],
                    [
                        -95.34445019709521,
                        -82.5953635432874
                    ],
                    [
                        -95.20945132644786,
                        -82.60116789006955
                    ],
                    [
                        -95.07422411623173,
                        -82.6069176277141
                    ],
                    [
                        -94.93897467528862,
                        -82.61269318318772
                    ],
                    [
                        -94.80352865413955,
                        -82.61843945467476
                    ],
                    [
                        -94.66725425491296,
                        -82.62389441587958
                    ],
                    [
                        -94.52946917277785,
                        -82.62871962988305
                    ],
                    [
                        -94.3901745127528,
                        -82.63281479037
                    ],
                    [
                        -94.24963942195453,
                        -82.63620578237966
                    ],
                    [
                        -94.10809285903093,
                        -82.63886125702562
                    ],
                    [
                        -93.96597462903904,
                        -82.64100098840026
                    ],
                    [
                        -93.82351207678764,
                        -82.64277162145781
                    ],
                    [
                        -93.68062752091085,
                        -82.64393483280571
                    ],
                    [
                        -93.5375630051322,
                        -82.64466771442966
                    ],
                    [
                        -93.39452463402675,
                        -82.64557943506824
                    ],
                    [
                        -93.25183996332734,
                        -82.64715881072068
                    ],
                    [
                        -93.10905109966698,
                        -82.64864066179452
                    ],
                    [
                        -92.96589015603541,
                        -82.6493162198665
                    ],
                    [
                        -92.82263047858353,
                        -82.64893682700668
                    ],
                    [
                        -92.67947762221415,
                        -82.64817241203667
                    ],
                    [
                        -92.53657448301199,
                        -82.6469177766353
                    ],
                    [
                        -92.3944590365722,
                        -82.64467311718894
                    ],
                    [
                        -92.2537670029501,
                        -82.64132157408726
                    ],
                    [
                        -92.11606442729374,
                        -82.6363757359904
                    ],
                    [
                        -91.98830070808359,
                        -82.62823744935471
                    ],
                    [
                        -91.8676865900888,
                        -82.61842345455102
                    ],
                    [
                        -91.7512162925002,
                        -82.60786315956547
                    ],
                    [
                        -91.65640097121687,
                        -82.59422421109454
                    ],
                    [
                        -91.57092925074767,
                        -82.57958352520518
                    ],
                    [
                        -91.47989401042047,
                        -82.56553420879695
                    ],
                    [
                        -91.37566476040581,
                        -82.55317116673679
                    ],
                    [
                        -91.25055429825515,
                        -82.54548372720983
                    ],
                    [
                        -91.11208000210526,
                        -82.54692230308282
                    ],
                    [
                        -90.97845367906064,
                        -82.55289964412555
                    ],
                    [
                        -90.8457364782511,
                        -82.55925611786857
                    ],
                    [
                        -90.71202850897824,
                        -82.5652897965989
                    ],
                    [
                        -90.57990244817553,
                        -82.57189491135986
                    ],
                    [
                        -90.45184359985973,
                        -82.57977353615804
                    ],
                    [
                        -90.32228951221201,
                        -82.58726864555703
                    ],
                    [
                        -90.19258092705267,
                        -82.59476897835778
                    ],
                    [
                        -90.06458603172271,
                        -82.60278575962603
                    ],
                    [
                        -89.93571611596373,
                        -82.61059603814329
                    ],
                    [
                        -89.80556059790511,
                        -82.61808898317678
                    ],
                    [
                        -89.67096167958572,
                        -82.62397325535403
                    ],
                    [
                        -89.52998296644972,
                        -82.62677327638913
                    ],
                    [
                        -89.38726116814607,
                        -82.62747386529054
                    ],
                    [
                        -89.24447825353013,
                        -82.62700752338264
                    ],
                    [
                        -89.10315298063243,
                        -82.62453915964747
                    ],
                    [
                        -88.97348224212104,
                        -82.61690377859291
                    ],
                    [
                        -88.84494979386672,
                        -82.60900660829691
                    ],
                    [
                        -88.7124749816593,
                        -82.60227521869396
                    ],
                    [
                        -88.57728824576687,
                        -82.59654682141905
                    ],
                    [
                        -88.44145664513017,
                        -82.59112380205134
                    ],
                    [
                        -88.30405098845858,
                        -82.58645409528356
                    ],
                    [
                        -88.16373300659977,
                        -82.58361756885589
                    ],
                    [
                        -88.0225578707262,
                        -82.58169182576171
                    ],
                    [
                        -87.88088490607059,
                        -82.58050366332344
                    ],
                    [
                        -87.7390394653605,
                        -82.57980032316749
                    ],
                    [
                        -87.59713294008164,
                        -82.5794346581178
                    ],
                    [
                        -87.45522019839898,
                        -82.57949786368853
                    ],
                    [
                        -87.31330200165827,
                        -82.5798588547053
                    ],
                    [
                        -87.17142723030078,
                        -82.58041709465122
                    ],
                    [
                        -87.02955686005694,
                        -82.5811155403749
                    ],
                    [
                        -86.88768046476403,
                        -82.58170449225439
                    ],
                    [
                        -86.74571137958527,
                        -82.58202168727726
                    ],
                    [
                        -86.60374259482236,
                        -82.58189684812896
                    ],
                    [
                        -86.4617867529776,
                        -82.58159255739862
                    ],
                    [
                        -86.31979591803798,
                        -82.58153823723818
                    ],
                    [
                        -86.1782649269451,
                        -82.58026647080567
                    ],
                    [
                        -86.03812232096502,
                        -82.57738110853518
                    ],
                    [
                        -85.8984825256216,
                        -82.57414083948738
                    ],
                    [
                        -85.75981113354527,
                        -82.57032426312432
                    ],
                    [
                        -85.62231625260347,
                        -82.5658953949922
                    ],
                    [
                        -85.48633319268372,
                        -82.56077563222918
                    ],
                    [
                        -85.3492855929331,
                        -82.55620794358536
                    ],
                    [
                        -85.21158856300224,
                        -82.55203049319712
                    ],
                    [
                        -85.07264360704558,
                        -82.54865198956072
                    ],
                    [
                        -84.93428570188487,
                        -82.5449406548728
                    ],
                    [
                        -84.80049335325793,
                        -82.53908825520509
                    ],
                    [
                        -84.66948598937091,
                        -82.53228390960545
                    ],
                    [
                        -84.54198578503967,
                        -82.52448048293574
                    ],
                    [
                        -84.41703560871836,
                        -82.51602927804747
                    ],
                    [
                        -84.29187426353002,
                        -82.50767170287068
                    ],
                    [
                        -84.16106966247806,
                        -82.50103863459866
                    ],
                    [
                        -84.02527983170998,
                        -82.49638003197259
                    ],
                    [
                        -83.88898223388951,
                        -82.49201567767429
                    ],
                    [
                        -83.75351215708355,
                        -82.48729125673758
                    ],
                    [
                        -83.61920245473256,
                        -82.4820525352423
                    ],
                    [
                        -83.48517998478344,
                        -82.47674005033859
                    ],
                    [
                        -83.35001087087619,
                        -82.47200288928813
                    ],
                    [
                        -83.21386268861993,
                        -82.46780881168507
                    ],
                    [
                        -83.07947182164072,
                        -82.46278914787842
                    ],
                    [
                        -82.94910711844693,
                        -82.45624469325722
                    ],
                    [
                        -82.82502331960507,
                        -82.4478697161712
                    ],
                    [
                        -82.70621162905724,
                        -82.43830835383427
                    ],
                    [
                        -82.59401579464613,
                        -82.42747543394566
                    ],
                    [
                        -82.49115637740154,
                        -82.41515478754663
                    ],
                    [
                        -82.39612655433226,
                        -82.40181433550691
                    ],
                    [
                        -82.30858682960007,
                        -82.38761775817257
                    ],
                    [
                        -82.22888828461777,
                        -82.37264272384772
                    ],
                    [
                        -82.15435738025168,
                        -82.35722421806854
                    ],
                    [
                        -82.08324847798326,
                        -82.34152992882866
                    ],
                    [
                        -82.01177832899602,
                        -82.32587859108523
                    ],
                    [
                        -81.93903047428061,
                        -82.31034604333941
                    ],
                    [
                        -81.86483811547944,
                        -82.29494308727263
                    ],
                    [
                        -81.78515055747707,
                        -82.28006336179118
                    ],
                    [
                        -81.70481843825644,
                        -82.26526056677878
                    ],
                    [
                        -81.61745705684096,
                        -82.25122432683217
                    ],
                    [
                        -81.517865802368,
                        -82.23878277515962
                    ],
                    [
                        -81.40909553645623,
                        -82.22788017696648
                    ],
                    [
                        -81.293443569556,
                        -82.21835539041277
                    ],
                    [
                        -81.17522250021926,
                        -82.20945126638182
                    ],
                    [
                        -81.05590267760336,
                        -82.2008587838502
                    ],
                    [
                        -80.93491727324084,
                        -82.19274763045593
                    ],
                    [
                        -80.81150745220273,
                        -82.18536632781166
                    ],
                    [
                        -80.68706580390392,
                        -82.17835435983278
                    ],
                    [
                        -80.56211821707909,
                        -82.171552051953
                    ],
                    [
                        -80.43595718002757,
                        -82.16520947721507
                    ],
                    [
                        -80.30881792194289,
                        -82.15928490116916
                    ],
                    [
                        -80.18118078614086,
                        -82.15359850541208
                    ],
                    [
                        -80.05218859875804,
                        -82.14856480795939
                    ],
                    [
                        -79.92200643621997,
                        -82.14417882750915
                    ],
                    [
                        -79.79098440443298,
                        -82.14033610267106
                    ],
                    [
                        -79.65955029981141,
                        -82.13680216913387
                    ],
                    [
                        -79.52821193412446,
                        -82.13322923723791
                    ],
                    [
                        -79.39753602735126,
                        -82.12928322885956
                    ],
                    [
                        -79.2680646794701,
                        -82.12468834482199
                    ],
                    [
                        -79.13980951292586,
                        -82.11952635538572
                    ],
                    [
                        -79.01276513186552,
                        -82.11386285318866
                    ],
                    [
                        -78.88648074856117,
                        -82.10792891097056
                    ],
                    [
                        -78.76132152714773,
                        -82.10160218307004
                    ],
                    [
                        -78.6366900112158,
                        -82.09510776440602
                    ],
                    [
                        -78.5132942087115,
                        -82.0882235446835
                    ],
                    [
                        -78.3911359996311,
                        -82.08097263352929
                    ],
                    [
                        -78.27010640526723,
                        -82.0733965207429
                    ],
                    [
                        -78.14850447093906,
                        -82.06603811635033
                    ],
                    [
                        -78.0254283839292,
                        -82.05920029539945
                    ],
                    [
                        -77.90123711219942,
                        -82.05279826112907
                    ],
                    [
                        -77.77677029637164,
                        -82.04652948299042
                    ],
                    [
                        -77.6529574649352,
                        -82.04005436801287
                    ],
                    [
                        -77.52988624793288,
                        -82.03335711320689
                    ],
                    [
                        -77.4075832255633,
                        -82.0264266740208
                    ],
                    [
                        -77.28580903729471,
                        -82.01935356006075
                    ],
                    [
                        -77.16404167556972,
                        -82.01231502295396
                    ],
                    [
                        -77.04269053828612,
                        -82.00517656191454
                    ],
                    [
                        -76.92259072463902,
                        -81.997678528952
                    ],
                    [
                        -76.80417373636773,
                        -81.9897010900011
                    ],
                    [
                        -76.68853486776776,
                        -81.9810148551941
                    ],
                    [
                        -76.576129642824,
                        -81.97156123455014
                    ],
                    [
                        -76.46725142159846,
                        -81.96136424780299
                    ],
                    [
                        -76.36252185857289,
                        -81.95038027149323
                    ],
                    [
                        -76.26282122733963,
                        -81.93853935555448
                    ],
                    [
                        -76.16956350863711,
                        -81.92573332458045
                    ],
                    [
                        -76.08403084706315,
                        -81.91191773179774
                    ],
                    [
                        -76.00472460969971,
                        -81.8974027865341
                    ],
                    [
                        -75.93131034642835,
                        -81.88229779655077
                    ],
                    [
                        -75.86539995287671,
                        -81.86653078077273
                    ],
                    [
                        -75.80584225064132,
                        -81.85027198084853
                    ],
                    [
                        -75.74976695031513,
                        -81.8337750222373
                    ],
                    [
                        -75.69976998020537,
                        -81.81689510122227
                    ],
                    [
                        -75.6563069757589,
                        -81.79966259925973
                    ],
                    [
                        -75.61911458420832,
                        -81.78213651318028
                    ],
                    [
                        -75.5880349655643,
                        -81.76436799805899
                    ],
                    [
                        -75.55941261520522,
                        -81.7465178581447
                    ],
                    [
                        -75.53033113408326,
                        -81.72868697027731
                    ],
                    [
                        -75.4970038003027,
                        -81.71101293706835
                    ],
                    [
                        -75.45929092625036,
                        -81.69352821780609
                    ],
                    [
                        -75.42013245382265,
                        -81.6761113918589
                    ],
                    [
                        -75.38169246327791,
                        -81.65866568696292
                    ],
                    [
                        -75.34297516645867,
                        -81.64123592628944
                    ],
                    [
                        -75.30343713433923,
                        -81.6238504059956
                    ],
                    [
                        -75.2640069688447,
                        -81.60646386246113
                    ],
                    [
                        -75.22351591271877,
                        -81.58913539429876
                    ],
                    [
                        -75.1828300429685,
                        -81.5718175061317
                    ],
                    [
                        -75.14268810253809,
                        -81.55448012919638
                    ],
                    [
                        -75.10293435101435,
                        -81.53712595674568
                    ],
                    [
                        -75.06301679638953,
                        -81.51978556657272
                    ],
                    [
                        -75.02340762593033,
                        -81.50243582055181
                    ],
                    [
                        -74.984346954266,
                        -81.48505985803368
                    ],
                    [
                        -74.94590325817309,
                        -81.46766067611031
                    ],
                    [
                        -74.90827476958974,
                        -81.45022566566915
                    ],
                    [
                        -74.87143755770217,
                        -81.43275521215584
                    ],
                    [
                        -74.83467560637887,
                        -81.41528806811591
                    ],
                    [
                        -74.79728230368292,
                        -81.39785339473511
                    ],
                    [
                        -74.75897561567497,
                        -81.3804687375219
                    ],
                    [
                        -74.72025811658104,
                        -81.36310677446029
                    ],
                    [
                        -74.68094996672966,
                        -81.34578073272729
                    ],
                    [
                        -74.6404011133028,
                        -81.32852410255957
                    ],
                    [
                        -74.59860571256317,
                        -81.31133974509355
                    ],
                    [
                        -74.5553508126993,
                        -81.2942408355865
                    ],
                    [
                        -74.51075905844468,
                        -81.27722883940918
                    ],
                    [
                        -74.46483950920937,
                        -81.26030525765152
                    ],
                    [
                        -74.41815020069912,
                        -81.2434340871618
                    ],
                    [
                        -74.37149490111621,
                        -81.22656932622483
                    ],
                    [
                        -74.3251333020048,
                        -81.20968788730009
                    ],
                    [
                        -74.27924607101383,
                        -81.19278533856067
                    ],
                    [
                        -74.23357787090526,
                        -81.17587464093225
                    ],
                    [
                        -74.18752052612405,
                        -81.15899314235894
                    ],
                    [
                        -74.14042166704925,
                        -81.14218719930987
                    ],
                    [
                        -74.09244481845869,
                        -81.12544718728427
                    ],
                    [
                        -74.04384676236405,
                        -81.10875249913016
                    ],
                    [
                        -73.99473409075154,
                        -81.09210651481423
                    ],
                    [
                        -73.94523867903334,
                        -81.0754919357798
                    ],
                    [
                        -73.89538800336793,
                        -81.05890782710976
                    ],
                    [
                        -73.84511710479612,
                        -81.04236339452977
                    ],
                    [
                        -73.79459950276087,
                        -81.02584811642717
                    ],
                    [
                        -73.74393788546038,
                        -81.00934647942213
                    ],
                    [
                        -73.69330880766212,
                        -80.99285214941062
                    ],
                    [
                        -73.64278857987844,
                        -80.97635337442422
                    ],
                    [
                        -73.5925304066931,
                        -80.95984583266093
                    ],
                    [
                        -73.54281779993676,
                        -80.94330373081469
                    ],
                    [
                        -73.49362832157537,
                        -80.92672823183452
                    ],
                    [
                        -73.44555790170602,
                        -80.91008080844564
                    ],
                    [
                        -73.40016123777889,
                        -80.89325411283684
                    ],
                    [
                        -73.35737702582031,
                        -80.87625921293804
                    ],
                    [
                        -73.31685226044584,
                        -80.85913427053173
                    ],
                    [
                        -73.2785384921828,
                        -80.84188396920747
                    ],
                    [
                        -73.24162677179139,
                        -80.82456047296856
                    ],
                    [
                        -73.20567656963784,
                        -80.80719106653548
                    ],
                    [
                        -73.1707273455722,
                        -80.78977148199868
                    ],
                    [
                        -73.13652621334913,
                        -80.77231957940916
                    ],
                    [
                        -73.10277738342458,
                        -80.75484520720381
                    ],
                    [
                        -73.06971317745695,
                        -80.73734372414525
                    ],
                    [
                        -73.03727078929852,
                        -80.71981526170006
                    ],
                    [
                        -73.0054985352863,
                        -80.70225774083889
                    ],
                    [
                        -72.97428123157458,
                        -80.68467726905553
                    ],
                    [
                        -72.94344065021848,
                        -80.66708247426449
                    ],
                    [
                        -72.9132226106596,
                        -80.64946381559328
                    ],
                    [
                        -72.88338510723122,
                        -80.63182956628059
                    ],
                    [
                        -72.85366020925133,
                        -80.61419322382434
                    ],
                    [
                        -72.82406663992063,
                        -80.59655386625178
                    ],
                    [
                        -72.79466694860051,
                        -80.57890897748194
                    ],
                    [
                        -72.765596680023,
                        -80.56125118279267
                    ],
                    [
                        -72.73708207414708,
                        -80.54357400175127
                    ],
                    [
                        -72.70905854647664,
                        -80.52587631595166
                    ],
                    [
                        -72.68178937352963,
                        -80.50815275156617
                    ],
                    [
                        -72.65533951589964,
                        -80.49039458406173
                    ],
                    [
                        -72.62986180882172,
                        -80.47260150880203
                    ],
                    [
                        -72.60583026007507,
                        -80.45475551786444
                    ],
                    [
                        -72.58355262678536,
                        -80.43684556613945
                    ],
                    [
                        -72.56318383905831,
                        -80.41888250056219
                    ],
                    [
                        -72.5443858363739,
                        -80.40086672376233
                    ],
                    [
                        -72.52744992556019,
                        -80.38280372172179
                    ],
                    [
                        -72.51259877634186,
                        -80.36469167864975
                    ],
                    [
                        -72.49940345073449,
                        -80.34654617404858
                    ],
                    [
                        -72.48813456321324,
                        -80.3283611493148
                    ],
                    [
                        -72.47915278523602,
                        -80.31014215908513
                    ],
                    [
                        -72.47177481541188,
                        -80.29190447405345
                    ],
                    [
                        -72.46606520470884,
                        -80.27364829336577
                    ],
                    [
                        -72.46230205398695,
                        -80.25538045641198
                    ],
                    [
                        -72.46014254151287,
                        -80.23710624488061
                    ],
                    [
                        -72.45924263241466,
                        -80.21882686844836
                    ],
                    [
                        -72.45975717210014,
                        -80.20054913409157
                    ],
                    [
                        -72.46173765802278,
                        -80.18227432267427
                    ],
                    [
                        -72.46518983679898,
                        -80.16400699597891
                    ],
                    [
                        -72.47012585564948,
                        -80.14574820987941
                    ],
                    [
                        -72.47644010732611,
                        -80.12750221059069
                    ],
                    [
                        -72.48398908054344,
                        -80.10927305103712
                    ],
                    [
                        -72.4929762042009,
                        -80.09106439528067
                    ],
                    [
                        -72.50297892549787,
                        -80.07286891524956
                    ],
                    [
                        -72.51378276255717,
                        -80.05468856039839
                    ],
                    [
                        -72.52543054779342,
                        -80.0365277372579
                    ],
                    [
                        -72.53768171902439,
                        -80.01837635691481
                    ],
                    [
                        -72.55037011962098,
                        -80.00023599263025
                    ],
                    [
                        -72.56344516911497,
                        -79.98210587086594
                    ],
                    [
                        -72.57665033518141,
                        -79.9639777687335
                    ],
                    [
                        -72.59004512083733,
                        -79.94585783718478
                    ],
                    [
                        -72.60345908523672,
                        -79.92773676369613
                    ],
                    [
                        -72.61672699121125,
                        -79.90961218583267
                    ],
                    [
                        -72.6299852595315,
                        -79.89149061118424
                    ],
                    [
                        -72.6431778671392,
                        -79.87336991292304
                    ],
                    [
                        -72.65625381914806,
                        -79.85524535772633
                    ],
                    [
                        -72.6691615509411,
                        -79.83711886889893
                    ],
                    [
                        -72.68180363037808,
                        -79.81898791460516
                    ],
                    [
                        -72.69426638029493,
                        -79.80085338357357
                    ],
                    [
                        -72.7065965142058,
                        -79.78271686658684
                    ],
                    [
                        -72.71846728007314,
                        -79.76457174945956
                    ],
                    [
                        -72.7301755383323,
                        -79.74642481555966
                    ],
                    [
                        -72.74175604516641,
                        -79.72827509055028
                    ],
                    [
                        -72.75285814796221,
                        -79.71011840041746
                    ],
                    [
                        -72.76346302133132,
                        -79.69195169662099
                    ],
                    [
                        -72.77347363445274,
                        -79.67377713817864
                    ],
                    [
                        -72.7826797630212,
                        -79.65558577460085
                    ],
                    [
                        -72.79095008450406,
                        -79.6373854188405
                    ],
                    [
                        -72.79821658122799,
                        -79.61916920643776
                    ],
                    [
                        -72.80461462674936,
                        -79.60094160900695
                    ],
                    [
                        -72.80990786650186,
                        -79.5827044934012
                    ],
                    [
                        -72.81401464770548,
                        -79.56445970553239
                    ],
                    [
                        -72.81681693441747,
                        -79.54620605280184
                    ],
                    [
                        -72.81858111126348,
                        -79.52794860356772
                    ],
                    [
                        -72.81905275776397,
                        -79.50968898998634
                    ],
                    [
                        -72.81822647421288,
                        -79.49143131032712
                    ],
                    [
                        -72.81614393597596,
                        -79.47317657096364
                    ],
                    [
                        -72.81288758909632,
                        -79.45492617750547
                    ],
                    [
                        -72.80818895548454,
                        -79.43668840518937
                    ],
                    [
                        -72.80210152444471,
                        -79.41846675976988
                    ],
                    [
                        -72.79437710051235,
                        -79.40026476607524
                    ],
                    [
                        -72.78425590776438,
                        -79.38210437048471
                    ],
                    [
                        -72.77223801609905,
                        -79.36398459283194
                    ],
                    [
                        -72.75852060691405,
                        -79.34590737299841
                    ],
                    [
                        -72.74257242968734,
                        -79.32789589880404
                    ],
                    [
                        -72.72449168622009,
                        -79.3099500676228
                    ],
                    [
                        -72.70417792066988,
                        -79.29209271085367
                    ],
                    [
                        -72.68042300924918,
                        -79.27438264021063
                    ],
                    [
                        -72.65404664064792,
                        -79.25680464814548
                    ],
                    [
                        -72.6250391544195,
                        -79.23937399019462
                    ],
                    [
                        -72.59286184507334,
                        -79.22214369778963
                    ],
                    [
                        -72.55821738049113,
                        -79.20508539603016
                    ],
                    [
                        -72.52120715544635,
                        -79.18820456904344
                    ],
                    [
                        -72.48150514526806,
                        -79.17154837342515
                    ],
                    [
                        -72.43972396926604,
                        -79.15507791558662
                    ],
                    [
                        -72.39561362767184,
                        -79.13883051924883
                    ],
                    [
                        -72.34917684786993,
                        -79.12282014568493
                    ],
                    [
                        -72.30088914208241,
                        -79.10701742039383
                    ],
                    [
                        -72.2509892070545,
                        -79.09140010814507
                    ],
                    [
                        -72.19950172365893,
                        -79.07597626625945
                    ],
                    [
                        -72.14676806995124,
                        -79.06071582030903
                    ],
                    [
                        -72.09283365819566,
                        -79.04561972467242
                    ],
                    [
                        -72.0373935710977,
                        -79.03072873424817
                    ],
                    [
                        -71.98100844808314,
                        -79.01597772300089
                    ],
                    [
                        -71.92393139415599,
                        -79.00133667025551
                    ],
                    [
                        -71.86585665297923,
                        -78.98684928729432
                    ],
                    [
                        -71.8069556825442,
                        -78.97249778340183
                    ],
                    [
                        -71.74731954115492,
                        -78.95826425469443
                    ],
                    [
                        -71.68689372751159,
                        -78.94417159524103
                    ],
                    [
                        -71.62606451945759,
                        -78.930152560523
                    ],
                    [
                        -71.56480517644465,
                        -78.91621665891735
                    ],
                    [
                        -71.50291192950016,
                        -78.90240044917616
                    ],
                    [
                        -71.44035214491453,
                        -78.88870519684046
                    ],
                    [
                        -71.37692966097555,
                        -78.87517442871031
                    ],
                    [
                        -71.31246938013578,
                        -78.86183939692916
                    ],
                    [
                        -71.24744783338448,
                        -78.84862373259769
                    ],
                    [
                        -71.18184692441464,
                        -78.83552871500761
                    ],
                    [
                        -71.11557327095106,
                        -78.82257856093669
                    ],
                    [
                        -71.04932828220576,
                        -78.80963439821063
                    ],
                    [
                        -70.98314883913764,
                        -78.79669482544028
                    ],
                    [
                        -70.91685025641816,
                        -78.78379374822946
                    ],
                    [
                        -70.85039913052108,
                        -78.77093845000985
                    ],
                    [
                        -70.78373821410047,
                        -78.75813842692912
                    ],
                    [
                        -70.71682175420207,
                        -78.74540776926943
                    ],
                    [
                        -70.64986007042569,
                        -78.73269499414468
                    ],
                    [
                        -70.58300642751453,
                        -78.71998063370114
                    ],
                    [
                        -70.51610073125454,
                        -78.7072874970897
                    ],
                    [
                        -70.44918806741768,
                        -78.69461768758724
                    ],
                    [
                        -70.38212773925197,
                        -78.68199134293612
                    ],
                    [
                        -70.31507362838121,
                        -78.66938041776935
                    ],
                    [
                        -70.24755814833473,
                        -78.65688166865444
                    ],
                    [
                        -70.1798231809986,
                        -78.644440210624
                    ],
                    [
                        -70.111730746599,
                        -78.63209061948665
                    ],
                    [
                        -70.0430850373882,
                        -78.619882609217
                    ],
                    [
                        -69.973997651028,
                        -78.60778404236306
                    ],
                    [
                        -69.90457475421098,
                        -78.59578188991443
                    ],
                    [
                        -69.83476985804649,
                        -78.58387932820439
                    ],
                    [
                        -69.76455200323319,
                        -78.57209227346182
                    ],
                    [
                        -69.69383568155565,
                        -78.56043942964118
                    ],
                    [
                        -69.62272801689517,
                        -78.54889917752085
                    ],
                    [
                        -69.5512660026833,
                        -78.53746133832111
                    ],
                    [
                        -69.47946102000198,
                        -78.52612942841529
                    ],
                    [
                        -69.40757359761297,
                        -78.51483702016226
                    ],
                    [
                        -69.33556455069458,
                        -78.50358888908049
                    ],
                    [
                        -69.26341538044302,
                        -78.4924020524414
                    ],
                    [
                        -69.19132256750598,
                        -78.48121624749422
                    ],
                    [
                        -69.11938953948801,
                        -78.47000523147406
                    ],
                    [
                        -69.04745431732627,
                        -78.45881034665797
                    ],
                    [
                        -68.97557855288012,
                        -78.44762459857616
                    ],
                    [
                        -68.90386346368055,
                        -78.43641286128545
                    ],
                    [
                        -68.83216604618723,
                        -78.42521394146908
                    ],
                    [
                        -68.76047604085673,
                        -78.41403289590062
                    ],
                    [
                        -68.68870814514953,
                        -78.40289334679781
                    ],
                    [
                        -68.6165890274511,
                        -78.39185785907472
                    ],
                    [
                        -68.54420305269828,
                        -78.38091720370124
                    ],
                    [
                        -68.47150396234254,
                        -78.37007928523319
                    ],
                    [
                        -68.39841553371012,
                        -78.35936721048657
                    ],
                    [
                        -68.32491963762399,
                        -78.34878418033523
                    ],
                    [
                        -68.25098478338144,
                        -78.3383499605566
                    ],
                    [
                        -68.17633644034125,
                        -78.32814805441372
                    ],
                    [
                        -68.10089981687213,
                        -78.31820437360665
                    ],
                    [
                        -68.02472524821357,
                        -78.30851571659701
                    ],
                    [
                        -67.94745972172683,
                        -78.29920801409921
                    ],
                    [
                        -67.86921524553594,
                        -78.29026537780032
                    ],
                    [
                        -67.78993520300214,
                        -78.28172695125919
                    ],
                    [
                        -67.70938804892299,
                        -78.27372760793672
                    ],
                    [
                        -67.62783397566653,
                        -78.26617638004721
                    ],
                    [
                        -67.54530069337217,
                        -78.25910980216662
                    ],
                    [
                        -67.46159840842529,
                        -78.25265862082718
                    ],
                    [
                        -67.37703763929868,
                        -78.2467187753442
                    ],
                    [
                        -67.29164256502567,
                        -78.2413199998765
                    ],
                    [
                        -67.20530377434402,
                        -78.23661511057992
                    ],
                    [
                        -67.11827147999591,
                        -78.23252213178702
                    ],
                    [
                        -67.03060466891333,
                        -78.22904067155169
                    ],
                    [
                        -66.94245215883637,
                        -78.22615745133169
                    ],
                    [
                        -66.85454976083352,
                        -78.22302977089475
                    ],
                    [
                        -66.76760876814394,
                        -78.21893849405113
                    ],
                    [
                        -66.68125699394216,
                        -78.21435591762025
                    ],
                    [
                        -66.59489600406214,
                        -78.20983132862506
                    ],
                    [
                        -66.50858788359997,
                        -78.20527993696918
                    ],
                    [
                        -66.42244254028627,
                        -78.20062307570589
                    ],
                    [
                        -66.33650937813641,
                        -78.1958432409102
                    ],
                    [
                        -66.25076262136182,
                        -78.19094006610254
                    ],
                    [
                        -66.16533170254144,
                        -78.18585249407236
                    ],
                    [
                        -66.08017130395811,
                        -78.18058532645425
                    ],
                    [
                        -65.99531091439476,
                        -78.17514914549872
                    ],
                    [
                        -65.91074442941616,
                        -78.16955732510654
                    ],
                    [
                        -65.82640650105155,
                        -78.16383678112398
                    ],
                    [
                        -65.74238120216287,
                        -78.15795928625514
                    ],
                    [
                        -65.65868827595942,
                        -78.15189967788132
                    ],
                    [
                        -65.57526241948959,
                        -78.1457288687077
                    ],
                    [
                        -65.49210041911385,
                        -78.1394185652588
                    ],
                    [
                        -65.40927117328583,
                        -78.13295219289293
                    ],
                    [
                        -65.32670161142522,
                        -78.12637699418016
                    ],
                    [
                        -65.24434092316604,
                        -78.11971225337646
                    ],
                    [
                        -65.16230744948525,
                        -78.11290604048837
                    ],
                    [
                        -65.08060526485203,
                        -78.1059577831522
                    ],
                    [
                        -64.99909473353426,
                        -78.09893047680855
                    ],
                    [
                        -64.91764807346843,
                        -78.09189828670739
                    ],
                    [
                        -64.83612167220363,
                        -78.08493284992882
                    ],
                    [
                        -64.75442998591998,
                        -78.07807519591988
                    ],
                    [
                        -64.67255814314426,
                        -78.07133496733552
                    ],
                    [
                        -64.5918168015032,
                        -78.06405950844955
                    ],
                    [
                        -64.51305174147326,
                        -78.05593283567835
                    ],
                    [
                        -64.43520050731362,
                        -78.04745181973246
                    ],
                    [
                        -64.35721897070671,
                        -78.03905128752253
                    ],
                    [
                        -64.27906465891924,
                        -78.03073405485435
                    ],
                    [
                        -64.20087085989604,
                        -78.02245881731355
                    ],
                    [
                        -64.12285122949577,
                        -78.01413779127417
                    ],
                    [
                        -64.04501735118755,
                        -78.00576005835313
                    ],
                    [
                        -63.967439428400425,
                        -77.99730645475196
                    ],
                    [
                        -63.890096766283236,
                        -77.98877800409952
                    ],
                    [
                        -63.813046252920834,
                        -77.98015523550252
                    ],
                    [
                        -63.73629285982045,
                        -77.9714387554278
                    ],
                    [
                        -63.65987653443507,
                        -77.96262262988124
                    ],
                    [
                        -63.58373214712916,
                        -77.9537205733543
                    ],
                    [
                        -63.50793069306059,
                        -77.94471971908258
                    ],
                    [
                        -63.432465353616585,
                        -77.93560931386271
                    ],
                    [
                        -63.357428880849604,
                        -77.92637373775955
                    ],
                    [
                        -63.28274453176403,
                        -77.91702751188238
                    ],
                    [
                        -63.208413192212035,
                        -77.90758309923423
                    ],
                    [
                        -63.134304726822975,
                        -77.89807684322133
                    ],
                    [
                        -63.06053293028861,
                        -77.88848419651079
                    ],
                    [
                        -62.987079306631735,
                        -77.87879924948635
                    ],
                    [
                        -62.91406013629633,
                        -77.86899474741237
                    ],
                    [
                        -62.84140402387173,
                        -77.8590867214432
                    ],
                    [
                        -62.769032795133356,
                        -77.84910576680154
                    ],
                    [
                        -62.69700181098964,
                        -77.83903959291679
                    ],
                    [
                        -62.625290616185396,
                        -77.82888510709994
                    ],
                    [
                        -62.55388505897939,
                        -77.81866038864977
                    ],
                    [
                        -62.48275842342802,
                        -77.80836676170645
                    ],
                    [
                        -62.411899311600585,
                        -77.79800720802456
                    ],
                    [
                        -62.34142589545503,
                        -77.78755590154213
                    ],
                    [
                        -62.27126062176517,
                        -77.77702498173525
                    ],
                    [
                        -62.20138773522004,
                        -77.76642312300474
                    ],
                    [
                        -62.13179110947174,
                        -77.75576101696562
                    ],
                    [
                        -62.06251468174589,
                        -77.74502521082377
                    ],
                    [
                        -61.99364630019264,
                        -77.73418868584977
                    ],
                    [
                        -61.92506111161648,
                        -77.72329010434783
                    ],
                    [
                        -61.85677973874055,
                        -77.71231957876246
                    ],
                    [
                        -61.78884901994125,
                        -77.70127228905412
                    ],
                    [
                        -61.721262244440034,
                        -77.6901435279679
                    ],
                    [
                        -61.653969118001726,
                        -77.67895354005563
                    ],
                    [
                        -61.58694665837608,
                        -77.6677039735312
                    ],
                    [
                        -61.52023432811436,
                        -77.65638712487508
                    ],
                    [
                        -61.45381536502186,
                        -77.64501364772349
                    ],
                    [
                        -61.38771521738543,
                        -77.63356802926687
                    ],
                    [
                        -61.32188553964209,
                        -77.6220675940667
                    ],
                    [
                        -61.25636403153942,
                        -77.61050343985588
                    ],
                    [
                        -61.191087286999334,
                        -77.59889110283382
                    ],
                    [
                        -61.1260729289841,
                        -77.58722761506466
                    ],
                    [
                        -61.061350064317786,
                        -77.57550931355588
                    ],
                    [
                        -60.996900574380255,
                        -77.56373213062672
                    ],
                    [
                        -60.932687614023294,
                        -77.55191054084146
                    ],
                    [
                        -60.868712749475144,
                        -77.54004591198397
                    ],
                    [
                        -60.80501730474878,
                        -77.52812982369916
                    ],
                    [
                        -60.74153068805605,
                        -77.51617475551444
                    ],
                    [
                        -60.678253973993236,
                        -77.50418408736817
                    ],
                    [
                        -60.6152133530258,
                        -77.49214965386952
                    ],
                    [
                        -60.552386985154456,
                        -77.4800762347281
                    ],
                    [
                        -60.489793004719736,
                        -77.46796618280895
                    ],
                    [
                        -60.42742855510006,
                        -77.45581511039822
                    ],
                    [
                        -60.36527846384378,
                        -77.44362337203219
                    ],
                    [
                        -60.3033260762171,
                        -77.4313974015681
                    ],
                    [
                        -60.24160905963403,
                        -77.41913572036789
                    ],
                    [
                        -60.18006972048084,
                        -77.40684385386577
                    ],
                    [
                        -60.11869338047549,
                        -77.39452740803831
                    ],
                    [
                        -60.05750467230528,
                        -77.38218433154022
                    ],
                    [
                        -59.99649935742115,
                        -77.36980895707505
                    ],
                    [
                        -59.93569168203995,
                        -77.35740319592118
                    ],
                    [
                        -59.87514012009095,
                        -77.34495042008076
                    ],
                    [
                        -59.81479832966378,
                        -77.33246276374197
                    ],
                    [
                        -59.75469355269983,
                        -77.3199354216469
                    ],
                    [
                        -59.69483245560237,
                        -77.30736413380367
                    ],
                    [
                        -59.63517368937618,
                        -77.29476269637438
                    ],
                    [
                        -59.57560967051969,
                        -77.28215529855406
                    ],
                    [
                        -59.51607129606141,
                        -77.26955519487775
                    ],
                    [
                        -59.456619247909266,
                        -77.25694494958613
                    ],
                    [
                        -59.3972752643729,
                        -77.24432533154837
                    ],
                    [
                        -59.338134532042744,
                        -77.2316750521738
                    ],
                    [
                        -59.27921923897891,
                        -77.21898764094138
                    ],
                    [
                        -59.22054244707417,
                        -77.20625649855045
                    ],
                    [
                        -59.16218198316375,
                        -77.19347407070703
                    ],
                    [
                        -59.10401325032887,
                        -77.18065476007965
                    ],
                    [
                        -59.04596103185946,
                        -77.16782470574977
                    ],
                    [
                        -58.98791136918036,
                        -77.15501012526933
                    ],
                    [
                        -58.93008650430284,
                        -77.14215696029697
                    ],
                    [
                        -58.87257112617918,
                        -77.12924807102038
                    ],
                    [
                        -58.815319383408685,
                        -77.11629341495716
                    ],
                    [
                        -58.75822988557406,
                        -77.10331984371543
                    ],
                    [
                        -58.70131093204669,
                        -77.09031901960871
                    ],
                    [
                        -58.64452923826842,
                        -77.07730141637296
                    ],
                    [
                        -58.58788379038061,
                        -77.06426911404668
                    ],
                    [
                        -58.53139125472984,
                        -77.05121596285211
                    ],
                    [
                        -58.47506755401631,
                        -77.0381378536162
                    ],
                    [
                        -58.41889628428073,
                        -77.02503903280179
                    ],
                    [
                        -58.36286023404593,
                        -77.01192575678206
                    ],
                    [
                        -58.30693184189234,
                        -76.99880283348753
                    ],
                    [
                        -58.25109876070321,
                        -76.98566433541959
                    ],
                    [
                        -58.19540833596346,
                        -76.97251372056216
                    ],
                    [
                        -58.13985801847347,
                        -76.95934324341592
                    ],
                    [
                        -58.08445570549519,
                        -76.9461551736855
                    ],
                    [
                        -58.02923091335242,
                        -76.93293877816409
                    ],
                    [
                        -57.97423278719222,
                        -76.9196882655409
                    ],
                    [
                        -57.91943632093109,
                        -76.90641096795137
                    ],
                    [
                        -57.864842144150536,
                        -76.89309638558959
                    ],
                    [
                        -57.810494969301594,
                        -76.87974888802384
                    ],
                    [
                        -57.75632661390122,
                        -76.86636747777342
                    ],
                    [
                        -57.70235697023541,
                        -76.85296372389843
                    ],
                    [
                        -57.64854431142234,
                        -76.83953390665354
                    ],
                    [
                        -57.594884219719695,
                        -76.82609147641152
                    ],
                    [
                        -57.541372965665715,
                        -76.81262416088609
                    ],
                    [
                        -57.487999957680664,
                        -76.79913912922026
                    ],
                    [
                        -57.43478261624307,
                        -76.78563686098501
                    ],
                    [
                        -57.38173894990411,
                        -76.77211255449271
                    ],
                    [
                        -57.328876955608024,
                        -76.75855995237418
                    ],
                    [
                        -57.27616829207384,
                        -76.74498579921317
                    ],
                    [
                        -57.223614115513456,
                        -76.73139469081043
                    ],
                    [
                        -57.171190857892746,
                        -76.71778324420248
                    ],
                    [
                        -57.11892055980933,
                        -76.70415698149849
                    ],
                    [
                        -57.06678535047532,
                        -76.69051551575447
                    ],
                    [
                        -57.014754565680214,
                        -76.67686301739191
                    ],
                    [
                        -56.96284415140459,
                        -76.66319544525662
                    ],
                    [
                        -56.91106146261708,
                        -76.64951181642512
                    ],
                    [
                        -56.85942471352515,
                        -76.63581062625519
                    ],
                    [
                        -56.80790025559914,
                        -76.6221020792571
                    ],
                    [
                        -56.756532923029646,
                        -76.6083702595437
                    ],
                    [
                        -56.70533770572712,
                        -76.5946164693154
                    ],
                    [
                        -56.65430559927947,
                        -76.5808405448599
                    ],
                    [
                        -56.60343416411548,
                        -76.56704331493476
                    ],
                    [
                        -56.55275870559744,
                        -76.55321725611516
                    ],
                    [
                        -56.50225518168482,
                        -76.53936751601987
                    ],
                    [
                        -56.45189957093451,
                        -76.52549922194169
                    ],
                    [
                        -56.4017099288127,
                        -76.51161091630014
                    ],
                    [
                        -56.35165681947832,
                        -76.49770469075708
                    ],
                    [
                        -56.30177553435214,
                        -76.48377959253395
                    ],
                    [
                        -56.252021604463344,
                        -76.46983316766024
                    ],
                    [
                        -56.20241198022826,
                        -76.45587252379613
                    ],
                    [
                        -56.1529097886673,
                        -76.44190071750862
                    ],
                    [
                        -56.10348889982613,
                        -76.4279268284691
                    ],
                    [
                        -56.05414054473502,
                        -76.41394734073722
                    ],
                    [
                        -56.00485589416292,
                        -76.39996527919307
                    ],
                    [
                        -55.95566704033328,
                        -76.38597264067494
                    ],
                    [
                        -55.90662200820174,
                        -76.37196399358989
                    ],
                    [
                        -55.857691611456865,
                        -76.35794135654419
                    ],
                    [
                        -55.808906511489795,
                        -76.34390533707801
                    ],
                    [
                        -55.7602602866235,
                        -76.32984842585535
                    ],
                    [
                        -55.71179418881285,
                        -76.3157707806976
                    ],
                    [
                        -55.6634931865137,
                        -76.30166791012532
                    ],
                    [
                        -55.61536099335255,
                        -76.28754493265254
                    ],
                    [
                        -55.56741573525579,
                        -76.27339392100762
                    ],
                    [
                        -55.51970292699928,
                        -76.25921032595762
                    ],
                    [
                        -55.472191094579,
                        -76.24500019358467
                    ],
                    [
                        -55.4248555112987,
                        -76.23076403003218
                    ],
                    [
                        -55.37774690147212,
                        -76.21649707529333
                    ],
                    [
                        -55.33080735655721,
                        -76.20220650350178
                    ],
                    [
                        -55.284052425896014,
                        -76.18789169994294
                    ],
                    [
                        -55.23744788860411,
                        -76.17355486060225
                    ],
                    [
                        -55.19088698386882,
                        -76.15922475246644
                    ],
                    [
                        -55.144441768820435,
                        -76.14488026809511
                    ],
                    [
                        -55.09809355891976,
                        -76.13052720278756
                    ],
                    [
                        -55.05184211104516,
                        -76.11616558592507
                    ],
                    [
                        -55.00568718258466,
                        -76.10179544678756
                    ],
                    [
                        -54.95962853143673,
                        -76.08741681455398
                    ],
                    [
                        -54.91366591601108,
                        -76.07302971830268
                    ],
                    [
                        -54.867799095229444,
                        -76.05863418701172
                    ],
                    [
                        -54.82202782852628,
                        -76.04423024955929
                    ],
                    [
                        -54.7763518758495,
                        -76.02981793472392
                    ],
                    [
                        -54.730770997661146,
                        -76.0153972711849
                    ],
                    [
                        -54.685284954938055,
                        -76.00096828752258
                    ],
                    [
                        -54.6398935091725,
                        -75.98653101221878
                    ],
                    [
                        -54.59459642237277,
                        -75.97208547365705
                    ],
                    [
                        -54.54939345706377,
                        -75.95763170012302
                    ],
                    [
                        -54.504284376287636,
                        -75.94316971980473
                    ],
                    [
                        -54.4592689436042,
                        -75.92869956079306
                    ],
                    [
                        -54.414346923091536,
                        -75.91422125108191
                    ],
                    [
                        -54.36951807934646,
                        -75.89973481856866
                    ],
                    [
                        -54.32478217748502,
                        -75.88524029105442
                    ],
                    [
                        -54.28013898314286,
                        -75.87073769624439
                    ]
                ]
            }
        }
    ]
}
