{
    "type": "FeatureCollection",
    "features": [
        {
            "type": "Feature",
            "properties": {
                "name": "Lambert",
                "object": "transect",
                "component": "landice",
                "author": "Matthew Hoffman, converted from https://github.com/yuwang115/sl-ice",
                "tags": "Antarctic_Ice_Sheet;flowline;sl-ice;lambert"
            },
            "geometry": {
                "type": "LineString",
                "coordinates": [
                    [
                        84.48127641148372,
                        -77.52119528965889
                    ],
                    [
                        84.40037120029237,
                        -77.51616968381227
                    ],
                    [
                        84.31928943196813,
                        -77.51129710713512
                    ],
                    [
                        84.23835541186043,
                        -77.50635587823544
                    ],
                    [
                        84.15762119442435,
                        -77.50126491826242
                    ],
                    [
                        84.07701870191637,
                        -77.49611884947547
                    ],
                    [
                        83.99642386031562,
                        -77.49098353638855
                    ],
                    [
                        83.91580819783357,
                        -77.48589033169988
                    ],
                    [
                        83.8351990492112,
                        -77.48080781676718
                    ],
                    [
                        83.75465103017807,
                        -77.47571896669972
                    ],
                    [
                        83.67410895291668,
                        -77.47064079067377
                    ],
                    [
                        83.59362395653575,
                        -77.46554705271231
                    ],
                    [
                        83.51319431886157,
                        -77.46043315258204
                    ],
                    [
                        83.43278617352907,
                        -77.45533947222518
                    ],
                    [
                        83.35244880672998,
                        -77.45021230558226
                    ],
                    [
                        83.272169409426,
                        -77.44506051042713
                    ],
                    [
                        83.1918330732632,
                        -77.43998648837557
                    ],
                    [
                        83.1113084265179,
                        -77.43506463619204
                    ],
                    [
                        83.03066748908799,
                        -77.4302738260988
                    ],
                    [
                        82.94978594138364,
                        -77.42570230853718
                    ],
                    [
                        82.86871869895171,
                        -77.4213055943505
                    ],
                    [
                        82.7876122623431,
                        -77.41697757192209
                    ],
                    [
                        82.70646368257208,
                        -77.41271354924778
                    ],
                    [
                        82.6251671800308,
                        -77.40861141824139
                    ],
                    [
                        82.54367311995462,
                        -77.40470638486978
                    ],
                    [
                        82.46204374073633,
                        -77.40098637837028
                    ],
                    [
                        82.38040514432045,
                        -77.39729441446926
                    ],
                    [
                        82.29869398182656,
                        -77.3937112310307
                    ],
                    [
                        82.21680881823278,
                        -77.39033477226936
                    ],
                    [
                        82.13493666002057,
                        -77.38698235525051
                    ],
                    [
                        82.05301508844761,
                        -77.38369801263359
                    ],
                    [
                        81.97089607613249,
                        -77.38070223822683
                    ],
                    [
                        81.8886890410886,
                        -77.37783760336994
                    ],
                    [
                        81.80661563499287,
                        -77.37483994354122
                    ],
                    [
                        81.72484134638336,
                        -77.3714893431139
                    ],
                    [
                        81.64328999603747,
                        -77.36790294036962
                    ],
                    [
                        81.56191808909998,
                        -77.36415754617663
                    ],
                    [
                        81.48074173898874,
                        -77.36023995024448
                    ],
                    [
                        81.39973808996784,
                        -77.35618165973018
                    ],
                    [
                        81.31888371203794,
                        -77.3519957540794
                    ],
                    [
                        81.23818640703433,
                        -77.34771015260154
                    ],
                    [
                        81.15764549867535,
                        -77.343292680817
                    ],
                    [
                        81.07741594711482,
                        -77.338647435775
                    ],
                    [
                        80.99783468615901,
                        -77.33350536773605
                    ],
                    [
                        80.91916879667326,
                        -77.32776559025643
                    ],
                    [
                        80.84147057135932,
                        -77.321439638947
                    ],
                    [
                        80.76475690107301,
                        -77.31457471704734
                    ],
                    [
                        80.68877945945873,
                        -77.30734678185166
                    ],
                    [
                        80.6133503362765,
                        -77.2998738927575
                    ],
                    [
                        80.53844224288889,
                        -77.29216920867748
                    ],
                    [
                        80.46402547335316,
                        -77.28425960776072
                    ],
                    [
                        80.38998109877396,
                        -77.27620552109764
                    ],
                    [
                        80.31634790800756,
                        -77.26798094940077
                    ],
                    [
                        80.24324992107888,
                        -77.25955853763901
                    ],
                    [
                        80.1701952844537,
                        -77.25113671851322
                    ],
                    [
                        80.09662506560895,
                        -77.2429570563986
                    ],
                    [
                        80.02284548315583,
                        -77.23489258492394
                    ],
                    [
                        79.94899724629073,
                        -77.2268747747576
                    ],
                    [
                        79.87534337037073,
                        -77.21879385645727
                    ],
                    [
                        79.8020776156955,
                        -77.2105560135248
                    ],
                    [
                        79.72881469137218,
                        -77.2023493221931
                    ],
                    [
                        79.65517156273897,
                        -77.19432928144431
                    ],
                    [
                        79.5814109437744,
                        -77.18638152000787
                    ],
                    [
                        79.5075592775817,
                        -77.1784977806487
                    ],
                    [
                        79.43339260598691,
                        -77.17077970951642
                    ],
                    [
                        79.35903021894048,
                        -77.16317655731434
                    ],
                    [
                        79.28465907384684,
                        -77.15560813579438
                    ],
                    [
                        79.21037215091364,
                        -77.14801357432927
                    ],
                    [
                        79.13618567697925,
                        -77.14039359426756
                    ],
                    [
                        79.06217859173346,
                        -77.13270533316472
                    ],
                    [
                        78.98829254872575,
                        -77.12498803175534
                    ],
                    [
                        78.91462258658025,
                        -77.1171810461991
                    ],
                    [
                        78.84147187747354,
                        -77.10915881653095
                    ],
                    [
                        78.76895854348182,
                        -77.10088053277354
                    ],
                    [
                        78.69666275027566,
                        -77.09251789611065
                    ],
                    [
                        78.62456130211295,
                        -77.08410243067677
                    ],
                    [
                        78.5538233049451,
                        -77.07514455399833
                    ],
                    [
                        78.4863555815322,
                        -77.06504086216992
                    ],
                    [
                        78.42389400575307,
                        -77.0534463091163
                    ],
                    [
                        78.36525320387794,
                        -77.04088960945326
                    ],
                    [
                        78.30657078863612,
                        -77.02836357605523
                    ],
                    [
                        78.24420130155711,
                        -77.01678870877676
                    ],
                    [
                        78.1784642806505,
                        -77.00620064411075
                    ],
                    [
                        78.11285149721498,
                        -76.99558733680065
                    ],
                    [
                        78.04863572396276,
                        -76.9845774835194
                    ],
                    [
                        77.98569890655837,
                        -76.97320352725069
                    ],
                    [
                        77.9227882479447,
                        -76.96184270529425
                    ],
                    [
                        77.85907177350501,
                        -76.95072421293867
                    ],
                    [
                        77.79562941587916,
                        -76.93954688432868
                    ],
                    [
                        77.73351541394982,
                        -76.9280139402556
                    ],
                    [
                        77.67279900406541,
                        -76.91611573903575
                    ],
                    [
                        77.61286097083703,
                        -76.90403175670266
                    ],
                    [
                        77.55311902356351,
                        -76.89191018374093
                    ],
                    [
                        77.4939258658024,
                        -76.87967114566541
                    ],
                    [
                        77.43570377763614,
                        -76.86720603495628
                    ],
                    [
                        77.37817994674955,
                        -76.85458075448808
                    ],
                    [
                        77.32092712313434,
                        -76.84191358767347
                    ],
                    [
                        77.26332792604062,
                        -76.82934059240374
                    ],
                    [
                        77.20506520727443,
                        -76.81693359589167
                    ],
                    [
                        77.14606328292082,
                        -76.80473476530052
                    ],
                    [
                        77.0862903488534,
                        -76.79274190124359
                    ],
                    [
                        77.02620784048001,
                        -76.78084355158796
                    ],
                    [
                        76.96613672234244,
                        -76.76896322097078
                    ],
                    [
                        76.90641355095464,
                        -76.75699756169502
                    ],
                    [
                        76.84715744576135,
                        -76.74492984013554
                    ],
                    [
                        76.78840579356996,
                        -76.73274370509408
                    ],
                    [
                        76.73033878906352,
                        -76.72040256755217
                    ],
                    [
                        76.67304915959775,
                        -76.70788391748879
                    ],
                    [
                        76.61700194696026,
                        -76.6950876649181
                    ],
                    [
                        76.56326250236056,
                        -76.68178841044453
                    ],
                    [
                        76.51154814378867,
                        -76.66807949746496
                    ],
                    [
                        76.46133437645777,
                        -76.65408728741426
                    ],
                    [
                        76.41220404436763,
                        -76.63989693807656
                    ],
                    [
                        76.3634726016058,
                        -76.62564832293265
                    ],
                    [
                        76.31457513544616,
                        -76.61144071173338
                    ],
                    [
                        76.26471514553154,
                        -76.59742519154108
                    ],
                    [
                        76.21375270789186,
                        -76.5836352014758
                    ],
                    [
                        76.16169154312266,
                        -76.5700748527047
                    ],
                    [
                        76.10866476562573,
                        -76.55673230615545
                    ],
                    [
                        76.05525186320455,
                        -76.54348596014461
                    ],
                    [
                        76.00154536658951,
                        -76.53031281935179
                    ],
                    [
                        75.9474677515406,
                        -76.51723621483431
                    ],
                    [
                        75.89311901863643,
                        -76.50423364189824
                    ],
                    [
                        75.83826567110874,
                        -76.49136136652959
                    ],
                    [
                        75.78268269575115,
                        -76.47867125883768
                    ],
                    [
                        75.72651712637014,
                        -76.46613406352975
                    ],
                    [
                        75.66989127493117,
                        -76.45372855673362
                    ],
                    [
                        75.613213167092,
                        -76.44134770339618
                    ],
                    [
                        75.5567331648376,
                        -76.42892687817832
                    ],
                    [
                        75.50042059449996,
                        -76.41648308518346
                    ],
                    [
                        75.44420087892149,
                        -76.40402593763807
                    ],
                    [
                        75.3880962739937,
                        -76.39155683935793
                    ],
                    [
                        75.33159506893716,
                        -76.3791991505749
                    ],
                    [
                        75.27467105205544,
                        -76.36696502991167
                    ],
                    [
                        75.2176128111804,
                        -76.35477354439807
                    ],
                    [
                        75.16066485378879,
                        -76.34256943684228
                    ],
                    [
                        75.10372070269246,
                        -76.33038364245873
                    ],
                    [
                        75.0467640172858,
                        -76.31820571610851
                    ],
                    [
                        74.98991576209254,
                        -76.30601980472836
                    ],
                    [
                        74.93339714223428,
                        -76.29376017174727
                    ],
                    [
                        74.87715622184831,
                        -76.2814377947872
                    ],
                    [
                        74.82114449802924,
                        -76.26907793070237
                    ],
                    [
                        74.76531753764095,
                        -76.25667784435107
                    ],
                    [
                        74.70962435870698,
                        -76.2442578453781
                    ],
                    [
                        74.65404734848175,
                        -76.23182626567711
                    ],
                    [
                        74.59846274691648,
                        -76.21940799310305
                    ],
                    [
                        74.54282580854792,
                        -76.20701417324746
                    ],
                    [
                        74.48706694554997,
                        -76.19466368351723
                    ],
                    [
                        74.43114866211948,
                        -76.18236805341112
                    ],
                    [
                        74.37517954271492,
                        -76.17010143068266
                    ],
                    [
                        74.31924847540724,
                        -76.15784145459915
                    ],
                    [
                        74.26335091666456,
                        -76.14557839703808
                    ],
                    [
                        74.20760143770931,
                        -76.13329173048083
                    ],
                    [
                        74.15195375986531,
                        -76.12099725026526
                    ],
                    [
                        74.09628575562836,
                        -76.10871495826467
                    ],
                    [
                        74.0406693621475,
                        -76.09644032186556
                    ],
                    [
                        73.98518737493659,
                        -76.08413659751375
                    ],
                    [
                        73.93005758753108,
                        -76.0717528598879
                    ],
                    [
                        73.87537320621546,
                        -76.0592769325527
                    ],
                    [
                        73.82117634962333,
                        -76.0466837126989
                    ],
                    [
                        73.76751917526816,
                        -76.03397245093528
                    ],
                    [
                        73.71409803572251,
                        -76.02121658291716
                    ],
                    [
                        73.66071625950346,
                        -76.00845903169856
                    ],
                    [
                        73.60726860025152,
                        -75.99573486017589
                    ],
                    [
                        73.55396529139387,
                        -75.98298337065167
                    ],
                    [
                        73.5012168883738,
                        -75.97011113303444
                    ],
                    [
                        73.44924099084696,
                        -75.9570679628495
                    ],
                    [
                        73.39769812784783,
                        -75.94393390686646
                    ],
                    [
                        73.346311388903,
                        -75.93077904700068
                    ],
                    [
                        73.29495558975707,
                        -75.91762274047966
                    ],
                    [
                        73.2436912638573,
                        -75.90445995193308
                    ],
                    [
                        73.19257886348441,
                        -75.89127622965897
                    ],
                    [
                        73.14167709915189,
                        -75.87805230992029
                    ],
                    [
                        73.0910356446843,
                        -75.86478252603118
                    ],
                    [
                        73.04079700451223,
                        -75.85143025753761
                    ],
                    [
                        72.99113554412004,
                        -75.83796139678736
                    ],
                    [
                        72.94215415833975,
                        -75.82435560093204
                    ],
                    [
                        72.89386287337805,
                        -75.81061407934688
                    ],
                    [
                        72.84626456237582,
                        -75.79673750976822
                    ],
                    [
                        72.7992783432825,
                        -75.78274393333423
                    ],
                    [
                        72.75329492507709,
                        -75.76855914117273
                    ],
                    [
                        72.70942385611659,
                        -75.75398867961596
                    ],
                    [
                        72.66775348508921,
                        -75.73904077531566
                    ],
                    [
                        72.62792243573543,
                        -75.7237982707065
                    ],
                    [
                        72.5889484558592,
                        -75.70842387346165
                    ],
                    [
                        72.55022903716089,
                        -75.69301863097473
                    ],
                    [
                        72.51172261643036,
                        -75.67759371672481
                    ],
                    [
                        72.4736363705212,
                        -75.66210367288527
                    ],
                    [
                        72.4353802483422,
                        -75.64664983026259
                    ],
                    [
                        72.39627805401581,
                        -75.63133572449873
                    ],
                    [
                        72.35595866650027,
                        -75.61622180233509
                    ],
                    [
                        72.31491606457989,
                        -75.60123698123164
                    ],
                    [
                        72.27320408694618,
                        -75.58637551806015
                    ],
                    [
                        72.23154568272714,
                        -75.57150908025157
                    ],
                    [
                        72.19112130171844,
                        -75.55644670629567
                    ],
                    [
                        72.15230028893794,
                        -75.5411284731435
                    ],
                    [
                        72.11482494186183,
                        -75.52561084050821
                    ],
                    [
                        72.07867653599006,
                        -75.50989794302166
                    ],
                    [
                        72.04413285920612,
                        -75.4939703331015
                    ],
                    [
                        72.0115478137368,
                        -75.47779594512106
                    ],
                    [
                        71.98094734471604,
                        -75.46137814928225
                    ],
                    [
                        71.95109386508541,
                        -75.44487888955226
                    ],
                    [
                        71.9203995120179,
                        -75.42848748258497
                    ],
                    [
                        71.8879306944251,
                        -75.41231234846481
                    ],
                    [
                        71.85478457622602,
                        -75.39623324855569
                    ],
                    [
                        71.8217245550838,
                        -75.38014613961121
                    ],
                    [
                        71.78930697768153,
                        -75.3639828779532
                    ],
                    [
                        71.75817672273857,
                        -75.347664107102
                    ],
                    [
                        71.72892680022449,
                        -75.33112575463035
                    ],
                    [
                        71.69974463557939,
                        -75.31458908790256
                    ],
                    [
                        71.66983965342793,
                        -75.29813555977721
                    ],
                    [
                        71.63902235714339,
                        -75.28179643513006
                    ],
                    [
                        71.6074639058764,
                        -75.26555696070893
                    ],
                    [
                        71.57566647929534,
                        -75.24934946484646
                    ],
                    [
                        71.54483836786603,
                        -75.23302356596253
                    ],
                    [
                        71.5147480535889,
                        -75.21661741729983
                    ],
                    [
                        71.48458387163512,
                        -75.2002243904537
                    ],
                    [
                        71.45469221907874,
                        -75.18380251173392
                    ],
                    [
                        71.42555370259987,
                        -75.16729776743747
                    ],
                    [
                        71.39769192264635,
                        -75.15065070310922
                    ],
                    [
                        71.37011778930726,
                        -75.13397720651271
                    ],
                    [
                        71.34204908399857,
                        -75.11736250323219
                    ],
                    [
                        71.31316810157294,
                        -75.10084554463941
                    ],
                    [
                        71.28330197850055,
                        -75.08444896471363
                    ],
                    [
                        71.25236849769773,
                        -75.06818882966203
                    ],
                    [
                        71.22052711063968,
                        -75.05204973489592
                    ],
                    [
                        71.18822808673644,
                        -75.03597504927114
                    ],
                    [
                        71.15568903925958,
                        -75.01994061627323
                    ],
                    [
                        71.12299170722088,
                        -75.00392958217759
                    ],
                    [
                        71.09029032957439,
                        -74.98793159746386
                    ],
                    [
                        71.0579178232467,
                        -74.9718901537904
                    ],
                    [
                        71.0259021433274,
                        -74.95580316551623
                    ],
                    [
                        70.99379503924442,
                        -74.9397360307789
                    ],
                    [
                        70.960909663285,
                        -74.92378499245933
                    ],
                    [
                        70.92705125961835,
                        -74.90797028695309
                    ],
                    [
                        70.89220909958125,
                        -74.89230942857063
                    ],
                    [
                        70.85740234513851,
                        -74.87664977855594
                    ],
                    [
                        70.8231076473388,
                        -74.86091967898714
                    ],
                    [
                        70.78961921473947,
                        -74.84507919238975
                    ],
                    [
                        70.75661565868066,
                        -74.82917615783617
                    ],
                    [
                        70.72341155227832,
                        -74.81330145132965
                    ],
                    [
                        70.68938621126016,
                        -74.79755607283846
                    ],
                    [
                        70.65444777371253,
                        -74.78195495875805
                    ],
                    [
                        70.61808747085593,
                        -74.76658470680982
                    ],
                    [
                        70.57964876173084,
                        -74.75158008617537
                    ],
                    [
                        70.54024852204792,
                        -74.736750887431
                    ],
                    [
                        70.50065608782022,
                        -74.72196667946858
                    ],
                    [
                        70.46251487675168,
                        -74.70692521315998
                    ],
                    [
                        70.42489951576297,
                        -74.69179981653139
                    ],
                    [
                        70.38710806135191,
                        -74.67671198382016
                    ],
                    [
                        70.34883700902463,
                        -74.66171454449135
                    ],
                    [
                        70.31040419704736,
                        -74.64676041464031
                    ],
                    [
                        70.27200919081558,
                        -74.63180117913902
                    ],
                    [
                        70.23451867437032,
                        -74.61668882695174
                    ],
                    [
                        70.19873644290057,
                        -74.60129417338311
                    ],
                    [
                        70.16322821494091,
                        -74.58586540477087
                    ],
                    [
                        70.12569031945503,
                        -74.57078692828732
                    ],
                    [
                        70.08507996437716,
                        -74.55629332217093
                    ],
                    [
                        70.04248927409355,
                        -74.54220910292861
                    ],
                    [
                        69.99844088881552,
                        -74.52846330843052
                    ],
                    [
                        69.9531696910563,
                        -74.51501039912506
                    ],
                    [
                        69.90636374149157,
                        -74.50194897522923
                    ],
                    [
                        69.85665867234023,
                        -74.4896930593057
                    ],
                    [
                        69.80444900118256,
                        -74.47821203782699
                    ],
                    [
                        69.75091449623449,
                        -74.4671967570428
                    ],
                    [
                        69.69931364312019,
                        -74.45555235315955
                    ],
                    [
                        69.65138537968444,
                        -74.44285039876061
                    ],
                    [
                        69.6070072013828,
                        -74.42924993111102
                    ],
                    [
                        69.56496435535048,
                        -74.41512861866431
                    ],
                    [
                        69.52378082928814,
                        -74.40084163713402
                    ],
                    [
                        69.4837123693713,
                        -74.38632848408086
                    ],
                    [
                        69.4448262729721,
                        -74.37159190645298
                    ],
                    [
                        69.4054869828873,
                        -74.35694978302656
                    ],
                    [
                        69.36515649531954,
                        -74.34251610927785
                    ],
                    [
                        69.32334066788134,
                        -74.32839918032111
                    ],
                    [
                        69.28016498573282,
                        -74.3145962566859
                    ],
                    [
                        69.23606809153374,
                        -74.30102087669556
                    ],
                    [
                        69.19102300042812,
                        -74.28767926319452
                    ],
                    [
                        69.14592432997512,
                        -74.27436331368281
                    ],
                    [
                        69.10120754121562,
                        -74.26095847769867
                    ],
                    [
                        69.05877963441743,
                        -74.24703424843904
                    ],
                    [
                        69.01858228119887,
                        -74.2326345477389
                    ],
                    [
                        68.98089930531545,
                        -74.21775189363707
                    ],
                    [
                        68.94608645646935,
                        -74.20236725712408
                    ],
                    [
                        68.9132268826519,
                        -74.18666711082389
                    ],
                    [
                        68.88092814456112,
                        -74.17088864707962
                    ],
                    [
                        68.84753500912548,
                        -74.15528843753025
                    ],
                    [
                        68.81293385334283,
                        -74.13988757441172
                    ],
                    [
                        68.77674998017703,
                        -74.12477136272376
                    ],
                    [
                        68.7379886904427,
                        -74.11014770834669
                    ],
                    [
                        68.69718708815165,
                        -74.09595578881972
                    ],
                    [
                        68.65432420337612,
                        -74.08224036410398
                    ],
                    [
                        68.60878058263079,
                        -74.06920011281237
                    ],
                    [
                        68.56152596508508,
                        -74.05663205164947
                    ],
                    [
                        68.51389202889887,
                        -74.04418888989619
                    ],
                    [
                        68.4671763274358,
                        -74.03149661029786
                    ],
                    [
                        68.42223424307834,
                        -74.01833333153924
                    ],
                    [
                        68.37932676223659,
                        -74.00468506740577
                    ],
                    [
                        68.33800072367902,
                        -73.99066879910872
                    ],
                    [
                        68.29687222466373,
                        -73.97661470391186
                    ],
                    [
                        68.2555499934056,
                        -73.96261590199644
                    ],
                    [
                        68.21405530888421,
                        -73.94866973349232
                    ],
                    [
                        68.1725639262854,
                        -73.93472745694308
                    ],
                    [
                        68.13038821441972,
                        -73.92095585162862
                    ],
                    [
                        68.08675935672143,
                        -73.9075411880796
                    ],
                    [
                        68.0415929616826,
                        -73.89453625170505
                    ],
                    [
                        67.99562199395082,
                        -73.88176412610873
                    ],
                    [
                        67.94970671783254,
                        -73.86898012566579
                    ],
                    [
                        67.90481604935508,
                        -73.85593313484851
                    ],
                    [
                        67.86228130733735,
                        -73.84230190396318
                    ],
                    [
                        67.82398052319263,
                        -73.82773591686993
                    ],
                    [
                        67.78927094366249,
                        -73.81250141049583
                    ],
                    [
                        67.76144138518555,
                        -73.79623025797126
                    ],
                    [
                        67.74334406417411,
                        -73.77890224731816
                    ],
                    [
                        67.72956686613128,
                        -73.76126889004192
                    ],
                    [
                        67.71847576162818,
                        -73.74348654456693
                    ],
                    [
                        67.70933699752013,
                        -73.72561377149205
                    ],
                    [
                        67.6988608575753,
                        -73.70780944238554
                    ],
                    [
                        67.68384226250137,
                        -73.69026421854736
                    ],
                    [
                        67.66296508837341,
                        -73.67319899643554
                    ],
                    [
                        67.63826645155525,
                        -73.65654340838238
                    ],
                    [
                        67.6104284701938,
                        -73.640291082311
                    ],
                    [
                        67.57893040412007,
                        -73.62457933202644
                    ],
                    [
                        67.54627171777295,
                        -73.60906248738938
                    ],
                    [
                        67.51427288016474,
                        -73.59343993654959
                    ],
                    [
                        67.48439049291974,
                        -73.57749711510738
                    ],
                    [
                        67.4578663779901,
                        -73.561093264937
                    ],
                    [
                        67.43346569373355,
                        -73.54442232629077
                    ],
                    [
                        67.4105817707662,
                        -73.52758512012494
                    ],
                    [
                        67.38838590885236,
                        -73.5106752034227
                    ],
                    [
                        67.36610551741008,
                        -73.49378227302292
                    ],
                    [
                        67.34275217973668,
                        -73.47700881203748
                    ],
                    [
                        67.31829310222273,
                        -73.46035996583369
                    ],
                    [
                        67.29246942232805,
                        -73.44389209175631
                    ],
                    [
                        67.2647874604532,
                        -73.42767234542539
                    ],
                    [
                        67.23568172105377,
                        -73.41166345724069
                    ],
                    [
                        67.20627830532642,
                        -73.39570132051794
                    ],
                    [
                        67.18075121011375,
                        -73.37921693604761
                    ],
                    [
                        67.16214988849832,
                        -73.36201331794747
                    ],
                    [
                        67.15313498522616,
                        -73.34419613211921
                    ],
                    [
                        67.15877274266039,
                        -73.326265675626
                    ],
                    [
                        67.17478548624857,
                        -73.30885873046846
                    ],
                    [
                        67.19752972218062,
                        -73.29206413226068
                    ],
                    [
                        67.22559059195153,
                        -73.27594534786081
                    ],
                    [
                        67.25693147399765,
                        -73.26033858396626
                    ],
                    [
                        67.29031187366803,
                        -73.2450932488857
                    ],
                    [
                        67.32501788132903,
                        -73.2300981431501
                    ],
                    [
                        67.36004277446521,
                        -73.21516796316784
                    ],
                    [
                        67.39479205156749,
                        -73.20019680965135
                    ],
                    [
                        67.42826590599712,
                        -73.1849912481861
                    ],
                    [
                        67.4596688032335,
                        -73.16942675286852
                    ],
                    [
                        67.48853870479707,
                        -73.15346299053161
                    ],
                    [
                        67.51438610281156,
                        -73.13707093550802
                    ],
                    [
                        67.53795262363182,
                        -73.12039370694343
                    ],
                    [
                        67.55938315187242,
                        -73.10347812614782
                    ],
                    [
                        67.57825253212481,
                        -73.08631217470102
                    ],
                    [
                        67.5949332808324,
                        -73.06895514114959
                    ],
                    [
                        67.60927030551935,
                        -73.05142720064657
                    ],
                    [
                        67.62055758351995,
                        -73.03371139106122
                    ],
                    [
                        67.62920019924971,
                        -73.01587048841381
                    ],
                    [
                        67.63537394645488,
                        -72.99793964211997
                    ],
                    [
                        67.63860291252416,
                        -72.9799485002054
                    ],
                    [
                        67.63952890255541,
                        -72.9619296452092
                    ],
                    [
                        67.63843185319077,
                        -72.94391601900423
                    ],
                    [
                        67.63526939941458,
                        -72.9259211649487
                    ],
                    [
                        67.63097521470073,
                        -72.90795002624368
                    ],
                    [
                        67.62595668099209,
                        -72.88999300804434
                    ],
                    [
                        67.62093734965212,
                        -72.8720401535044
                    ],
                    [
                        67.61653307521712,
                        -72.85407373885111
                    ],
                    [
                        67.61320961586473,
                        -72.83608250819613
                    ],
                    [
                        67.61153183881572,
                        -72.81807727466558
                    ],
                    [
                        67.61131039898491,
                        -72.80006973421061
                    ],
                    [
                        67.61244176092644,
                        -72.78206243642502
                    ],
                    [
                        67.61485652915975,
                        -72.76406201824447
                    ],
                    [
                        67.61810504216628,
                        -72.74608214206094
                    ],
                    [
                        67.62231721427437,
                        -72.72811463205723
                    ],
                    [
                        67.62790798765091,
                        -72.71018624507576
                    ],
                    [
                        67.63487584986864,
                        -72.69229719898891
                    ],
                    [
                        67.6433868114059,
                        -72.67447307666122
                    ],
                    [
                        67.65410750667814,
                        -72.65675218141465
                    ],
                    [
                        67.66664472813643,
                        -72.63914024641052
                    ],
                    [
                        67.68099530912477,
                        -72.62165663143738
                    ],
                    [
                        67.69742948556647,
                        -72.60433957622833
                    ],
                    [
                        67.71557053322758,
                        -72.58717705349183
                    ],
                    [
                        67.73535215956731,
                        -72.57018043870968
                    ],
                    [
                        67.7570612632613,
                        -72.55339950883177
                    ],
                    [
                        67.78026248225619,
                        -72.5368002073274
                    ],
                    [
                        67.80493238535642,
                        -72.52039896527685
                    ],
                    [
                        67.83123354329567,
                        -72.50423009209841
                    ],
                    [
                        67.85865563239794,
                        -72.48824050168793
                    ],
                    [
                        67.8870001571862,
                        -72.4723959367428
                    ],
                    [
                        67.9161490325336,
                        -72.45669143933812
                    ],
                    [
                        67.94578053967754,
                        -72.44107288544457
                    ],
                    [
                        67.97569235545167,
                        -72.42551055207059
                    ],
                    [
                        68.00537392838861,
                        -72.40991772810584
                    ],
                    [
                        68.03426371310404,
                        -72.39418710708252
                    ],
                    [
                        68.06178199904974,
                        -72.37823845101242
                    ],
                    [
                        68.08703694115695,
                        -72.36195842350948
                    ],
                    [
                        68.1100085542656,
                        -72.34537401039647
                    ],
                    [
                        68.13067729659912,
                        -72.32851696791276
                    ],
                    [
                        68.1500923080338,
                        -72.31152013576016
                    ],
                    [
                        68.16952158794649,
                        -72.2945332601564
                    ],
                    [
                        68.18946954054421,
                        -72.27759844188235
                    ],
                    [
                        68.21017861918172,
                        -72.26075490162192
                    ],
                    [
                        68.2315320091037,
                        -72.24399320574936
                    ],
                    [
                        68.25345977653168,
                        -72.227299945764
                    ],
                    [
                        68.2757255631476,
                        -72.21065112362201
                    ],
                    [
                        68.29811287970539,
                        -72.1940203393716
                    ],
                    [
                        68.32081791218867,
                        -72.17743629715306
                    ],
                    [
                        68.34417252012719,
                        -72.16093934756942
                    ],
                    [
                        68.36827877978415,
                        -72.14454666457937
                    ],
                    [
                        68.39329571974334,
                        -72.12828715078749
                    ],
                    [
                        68.4195099404628,
                        -72.1122148287786
                    ],
                    [
                        68.44685648939299,
                        -72.0963215654497
                    ],
                    [
                        68.47542315185504,
                        -72.0806419173536
                    ],
                    [
                        68.50530831325374,
                        -72.06519715312943
                    ],
                    [
                        68.53607018975707,
                        -72.04992847581322
                    ],
                    [
                        68.56761225327064,
                        -72.03480940137278
                    ],
                    [
                        68.59984965688004,
                        -72.01984385491576
                    ],
                    [
                        68.63253710231515,
                        -72.00497293399492
                    ],
                    [
                        68.66562541067923,
                        -71.99019532984363
                    ],
                    [
                        68.69915210414091,
                        -71.97552021210998
                    ],
                    [
                        68.73301384099794,
                        -71.96093009132555
                    ],
                    [
                        68.76719647526232,
                        -71.94641345411168
                    ],
                    [
                        68.80178922606245,
                        -71.93199533692963
                    ],
                    [
                        68.83669455614212,
                        -71.91766380477678
                    ],
                    [
                        68.87187662769708,
                        -71.90339993023898
                    ],
                    [
                        68.9073463506638,
                        -71.8892145007999
                    ],
                    [
                        68.94304365661922,
                        -71.87508571093927
                    ],
                    [
                        68.97887973428773,
                        -71.86100760882347
                    ],
                    [
                        69.01485928877595,
                        -71.84696622319085
                    ],
                    [
                        69.05086098051684,
                        -71.83294215927934
                    ],
                    [
                        69.08693569521606,
                        -71.8189366413302
                    ],
                    [
                        69.12307070363639,
                        -71.8049625172503
                    ],
                    [
                        69.15913564884848,
                        -71.7909753745977
                    ],
                    [
                        69.19506596330363,
                        -71.7769627473227
                    ],
                    [
                        69.23075908227617,
                        -71.76289809124086
                    ],
                    [
                        69.26616108509128,
                        -71.74876550460749
                    ],
                    [
                        69.30121601549087,
                        -71.73455848237694
                    ],
                    [
                        69.33571927766096,
                        -71.72022895620492
                    ],
                    [
                        69.3696658290615,
                        -71.70577176996875
                    ],
                    [
                        69.40306764084742,
                        -71.6911981673115
                    ],
                    [
                        69.4357316543663,
                        -71.67646639990494
                    ],
                    [
                        69.46775065307341,
                        -71.66160207928964
                    ],
                    [
                        69.49905044955985,
                        -71.64659190957885
                    ],
                    [
                        69.52945532567546,
                        -71.63140587585303
                    ],
                    [
                        69.55915506839492,
                        -71.61609055141975
                    ],
                    [
                        69.58807587768796,
                        -71.60063268616248
                    ],
                    [
                        69.61599432314704,
                        -71.5849918950575
                    ],
                    [
                        69.64311664414991,
                        -71.56922138179387
                    ],
                    [
                        69.66943331368606,
                        -71.55331543047221
                    ],
                    [
                        69.6947652280309,
                        -71.53725321936336
                    ],
                    [
                        69.71928094556067,
                        -71.52107862151753
                    ],
                    [
                        69.74303442043562,
                        -71.50478852732877
                    ],
                    [
                        69.76593448169307,
                        -71.48837238107737
                    ],
                    [
                        69.78811442278182,
                        -71.47186503401792
                    ],
                    [
                        69.80956792832399,
                        -71.45526582812471
                    ],
                    [
                        69.83030987887474,
                        -71.43857657600398
                    ],
                    [
                        69.85050661219788,
                        -71.42182635447587
                    ],
                    [
                        69.87012202096214,
                        -71.4050061969217
                    ],
                    [
                        69.88906296002637,
                        -71.38811002162996
                    ],
                    [
                        69.90753711178446,
                        -71.37116691807934
                    ],
                    [
                        69.92560838384588,
                        -71.35417959380699
                    ],
                    [
                        69.94320453795115,
                        -71.33714438674065
                    ],
                    [
                        69.96046828592844,
                        -71.32007321036079
                    ],
                    [
                        69.97741189611529,
                        -71.30297704709787
                    ],
                    [
                        69.9940252194254,
                        -71.28584993225662
                    ],
                    [
                        70.01034533930518,
                        -71.26869142371817
                    ],
                    [
                        70.02640277709418,
                        -71.25151462790295
                    ],
                    [
                        70.04213702493716,
                        -71.23430291995538
                    ],
                    [
                        70.05751634197046,
                        -71.21706689164891
                    ],
                    [
                        70.07255375151597,
                        -71.19979851043263
                    ],
                    [
                        70.08722450440776,
                        -71.18249963710782
                    ],
                    [
                        70.10166476857916,
                        -71.16518140787956
                    ],
                    [
                        70.11584435254183,
                        -71.14784504554108
                    ],
                    [
                        70.12967225365661,
                        -71.13047512125519
                    ],
                    [
                        70.1431899479543,
                        -71.11309076373959
                    ],
                    [
                        70.1564144454628,
                        -71.09567487426865
                    ],
                    [
                        70.16928409190903,
                        -71.07824404192972
                    ],
                    [
                        70.18188556082525,
                        -71.0607845554757
                    ],
                    [
                        70.19421642692939,
                        -71.04331516407902
                    ],
                    [
                        70.20619603851833,
                        -71.02581686710225
                    ],
                    [
                        70.21784863483643,
                        -71.00829246900105
                    ],
                    [
                        70.22921236094801,
                        -70.99075592815126
                    ],
                    [
                        70.24026885569617,
                        -70.97319553398752
                    ],
                    [
                        70.25109696030799,
                        -70.95562525395431
                    ],
                    [
                        70.26167096029407,
                        -70.93803728177532
                    ],
                    [
                        70.27193845891127,
                        -70.92043495771982
                    ],
                    [
                        70.28195643571142,
                        -70.9028201656916
                    ],
                    [
                        70.29170905252094,
                        -70.88518149319292
                    ],
                    [
                        70.30120432046093,
                        -70.86753887734017
                    ],
                    [
                        70.31051733213175,
                        -70.84987730933018
                    ],
                    [
                        70.31956913856862,
                        -70.83221127105503
                    ],
                    [
                        70.32831577321899,
                        -70.8145260356544
                    ],
                    [
                        70.33686880705264,
                        -70.79683943259487
                    ],
                    [
                        70.34524963105787,
                        -70.77913492120577
                    ],
                    [
                        70.35349305982938,
                        -70.76142608325979
                    ],
                    [
                        70.36161535928112,
                        -70.74371956430474
                    ],
                    [
                        70.36964074782694,
                        -70.72600393148737
                    ],
                    [
                        70.37761285703829,
                        -70.70828431194568
                    ],
                    [
                        70.38553039342291,
                        -70.690570050443
                    ],
                    [
                        70.39340457680092,
                        -70.67284820033174
                    ],
                    [
                        70.40128951257682,
                        -70.65512989394747
                    ],
                    [
                        70.40920607305681,
                        -70.63742234880273
                    ],
                    [
                        70.41720781558382,
                        -70.6197128896453
                    ],
                    [
                        70.42545635648106,
                        -70.60201588349341
                    ],
                    [
                        70.43390594779547,
                        -70.5843307136606
                    ],
                    [
                        70.44263204699227,
                        -70.56666633820933
                    ],
                    [
                        70.45172643116166,
                        -70.54902416016586
                    ],
                    [
                        70.46109706657606,
                        -70.53139334068432
                    ],
                    [
                        70.47077467178977,
                        -70.5137870548336
                    ],
                    [
                        70.48093343969612,
                        -70.49621173129692
                    ],
                    [
                        70.4915928512084,
                        -70.47867448558961
                    ],
                    [
                        70.50271767226094,
                        -70.46116170443273
                    ],
                    [
                        70.51444691979255,
                        -70.4437041543288
                    ],
                    [
                        70.52685026414088,
                        -70.42629590803365
                    ],
                    [
                        70.54000256570922,
                        -70.40895538128473
                    ],
                    [
                        70.55413689511471,
                        -70.39170076027827
                    ],
                    [
                        70.56914715563228,
                        -70.37453372720688
                    ],
                    [
                        70.5851215024154,
                        -70.35746474083302
                    ],
                    [
                        70.60219725845799,
                        -70.34052429327748
                    ],
                    [
                        70.62021409553721,
                        -70.32369333056229
                    ],
                    [
                        70.63919359788947,
                        -70.30698382771942
                    ],
                    [
                        70.65941363984201,
                        -70.29044757042223
                    ],
                    [
                        70.68050176571846,
                        -70.27404029283413
                    ],
                    [
                        70.70245119658274,
                        -70.25776105606595
                    ],
                    [
                        70.72538310835431,
                        -70.24164772817338
                    ],
                    [
                        70.74906370001239,
                        -70.22565351010581
                    ],
                    [
                        70.77349475020362,
                        -70.20980211738522
                    ],
                    [
                        70.79869922056223,
                        -70.194091327746
                    ],
                    [
                        70.82468703942286,
                        -70.17853156256719
                    ],
                    [
                        70.85139226956092,
                        -70.16311480549773
                    ],
                    [
                        70.87883318403671,
                        -70.14785716582568
                    ],
                    [
                        70.90686513100196,
                        -70.13272715692563
                    ],
                    [
                        70.93547374365181,
                        -70.11773232230685
                    ],
                    [
                        70.96476814267069,
                        -70.10288997694583
                    ],
                    [
                        70.99453530113757,
                        -70.08816537132984
                    ],
                    [
                        71.024830607415,
                        -70.07357423776185
                    ],
                    [
                        71.05572249054285,
                        -70.05913851915827
                    ],
                    [
                        71.08716191490468,
                        -70.04484273579716
                    ],
                    [
                        71.11906351826819,
                        -70.03067190954845
                    ],
                    [
                        71.15147752568481,
                        -70.01665526659009
                    ],
                    [
                        71.18431938752866,
                        -70.00274961111884
                    ],
                    [
                        71.2175316878383,
                        -69.98896217628223
                    ],
                    [
                        71.2511710462294,
                        -69.97529931984377
                    ],
                    [
                        71.28504587171516,
                        -69.9617149397586
                    ],
                    [
                        71.31913729591513,
                        -69.94819725668681
                    ],
                    [
                        71.35350409934772,
                        -69.93478122735638
                    ],
                    [
                        71.38796439782547,
                        -69.9213890459319
                    ],
                    [
                        71.4225582327664,
                        -69.90804412179408
                    ],
                    [
                        71.45743229298341,
                        -69.89480097294663
                    ],
                    [
                        71.49255542534407,
                        -69.88164638815087
                    ],
                    [
                        71.52785468246539,
                        -69.86854824655815
                    ],
                    [
                        71.56344886440007,
                        -69.8555530261679
                    ],
                    [
                        71.59922159332936,
                        -69.84262833285165
                    ],
                    [
                        71.63515326007885,
                        -69.82977177696344
                    ],
                    [
                        71.67128890427344,
                        -69.81697896707362
                    ],
                    [
                        71.70753191540648,
                        -69.8042340139524
                    ],
                    [
                        71.74391842847868,
                        -69.79155034460751
                    ],
                    [
                        71.780436970648,
                        -69.77891712549867
                    ],
                    [
                        71.81709178531263,
                        -69.76634412655535
                    ],
                    [
                        71.8539188279724,
                        -69.75383060789959
                    ],
                    [
                        71.89084463869597,
                        -69.74136810566833
                    ],
                    [
                        71.92791429882757,
                        -69.72896631741838
                    ],
                    [
                        71.96507621535466,
                        -69.71660520088784
                    ],
                    [
                        72.00230018340335,
                        -69.70427656557821
                    ],
                    [
                        72.03955660345093,
                        -69.69196292985662
                    ],
                    [
                        72.0768819661304,
                        -69.67969181162908
                    ],
                    [
                        72.1142876682567,
                        -69.667459718363
                    ],
                    [
                        72.1517801690596,
                        -69.65526260033512
                    ],
                    [
                        72.18934095041094,
                        -69.64310299037106
                    ],
                    [
                        72.22702817939863,
                        -69.63099668036843
                    ],
                    [
                        72.26478973634683,
                        -69.6189330567674
                    ],
                    [
                        72.30257349356334,
                        -69.60687812476954
                    ],
                    [
                        72.34037126635806,
                        -69.59484967568284
                    ],
                    [
                        72.37822017089633,
                        -69.58284241715586
                    ],
                    [
                        72.41598752885582,
                        -69.57081351444482
                    ],
                    [
                        72.4537143728975,
                        -69.55877690192128
                    ],
                    [
                        72.49141497192987,
                        -69.54674352069243
                    ],
                    [
                        72.52911129949261,
                        -69.53471578449413
                    ],
                    [
                        72.56687811107629,
                        -69.52272060076199
                    ],
                    [
                        72.60470437768919,
                        -69.51076135921008
                    ],
                    [
                        72.64260235932375,
                        -69.4988393303485
                    ],
                    [
                        72.6806037287758,
                        -69.4869578981558
                    ],
                    [
                        72.71868129964268,
                        -69.47513268525614
                    ],
                    [
                        72.75684682245885,
                        -69.46334151987061
                    ],
                    [
                        72.79502427772088,
                        -69.45156203626595
                    ],
                    [
                        72.83325805171528,
                        -69.4398223666984
                    ],
                    [
                        72.87173285630288,
                        -69.42818446515534
                    ],
                    [
                        72.91051618714407,
                        -69.41668341627236
                    ],
                    [
                        72.94951190290526,
                        -69.40528056642574
                    ],
                    [
                        72.98877791818028,
                        -69.39400994004151
                    ],
                    [
                        73.02838452298658,
                        -69.38289748880256
                    ],
                    [
                        73.06827907279288,
                        -69.37191859163914
                    ],
                    [
                        73.10845939766509,
                        -69.36108206035924
                    ],
                    [
                        73.14906458848388,
                        -69.35045373605475
                    ],
                    [
                        73.19002883130797,
                        -69.34001220275215
                    ],
                    [
                        73.23139977765054,
                        -69.32978545089966
                    ],
                    [
                        73.27325543672599,
                        -69.31980928044825
                    ],
                    [
                        73.31550243123391,
                        -69.31005466941768
                    ],
                    [
                        73.35812713618867,
                        -69.30052905405438
                    ],
                    [
                        73.40088235432297,
                        -69.29108029801372
                    ],
                    [
                        73.44324173749905,
                        -69.28142490933436
                    ],
                    [
                        73.48501806845115,
                        -69.27146920541288
                    ],
                    [
                        73.52661159461897,
                        -69.26142772313041
                    ],
                    [
                        73.56826095618892,
                        -69.25142318630047
                    ],
                    [
                        73.60998943862388,
                        -69.24147188598211
                    ],
                    [
                        73.65183022054148,
                        -69.23160039946588
                    ],
                    [
                        73.69384408389458,
                        -69.22182418282725
                    ],
                    [
                        73.7359440506787,
                        -69.21210616410983
                    ],
                    [
                        73.77816081736616,
                        -69.20246332944308
                    ],
                    [
                        73.82050939327539,
                        -69.1929063623748
                    ],
                    [
                        73.86298400172096,
                        -69.18342986291431
                    ],
                    [
                        73.90559008129341,
                        -69.17404350946681
                    ],
                    [
                        73.948358561029,
                        -69.16476421452533
                    ],
                    [
                        73.99089849466623,
                        -69.1553610772813
                    ],
                    [
                        74.0333992170684,
                        -69.14594697557648
                    ],
                    [
                        74.07586073571906,
                        -69.13652192604238
                    ],
                    [
                        74.11828305826012,
                        -69.12708594530052
                    ],
                    [
                        74.16066619249135,
                        -69.11763904996226
                    ],
                    [
                        74.20301014636962,
                        -69.10818125662888
                    ],
                    [
                        74.24531492800834,
                        -69.09871258189135
                    ],
                    [
                        74.28758054567675,
                        -69.0892330423304
                    ],
                    [
                        74.32980700779923,
                        -69.07974265451642
                    ],
                    [
                        74.37199432295478,
                        -69.07024143500935
                    ],
                    [
                        74.4141424998762,
                        -69.06072940035867
                    ],
                    [
                        74.45625154744961,
                        -69.05120656710329
                    ],
                    [
                        74.49832147471368,
                        -69.04167295177157
                    ],
                    [
                        74.54035229085899,
                        -69.03212857088118
                    ],
                    [
                        74.5823440052275,
                        -69.02257344093904
                    ],
                    [
                        74.62429662731175,
                        -69.0130075784413
                    ],
                    [
                        74.6662101667543,
                        -69.00343099987326
                    ],
                    [
                        74.70808463334708,
                        -68.99384372170933
                    ],
                    [
                        74.74992003703073,
                        -68.98424576041288
                    ],
                    [
                        74.79171638789397,
                        -68.97463713243636
                    ]
                ]
            }
        }
    ]
}
