{
    "type": "FeatureCollection",
    "features": [
        {
            "type": "Feature",
            "properties": {
                "name": "Denman Scott",
                "object": "transect",
                "component": "landice",
                "author": "Matthew Hoffman, converted from https://github.com/yuwang115/sl-ice",
                "tags": "Antarctic_Ice_Sheet;flowline;sl-ice;denman_scott"
            },
            "geometry": {
                "type": "LineString",
                "coordinates": [
                    [
                        95.37726856070493,
                        -71.78781151739166
                    ],
                    [
                        95.3983560920518,
                        -71.77110350842969
                    ],
                    [
                        95.41876235981258,
                        -71.7543181808604
                    ],
                    [
                        95.43921304413183,
                        -71.73753789701604
                    ],
                    [
                        95.46042282591523,
                        -71.72085395921196
                    ],
                    [
                        95.48208454542511,
                        -71.70423469546347
                    ],
                    [
                        95.50404545220917,
                        -71.68765295257582
                    ],
                    [
                        95.52633170162638,
                        -71.67112132540854
                    ],
                    [
                        95.54859843897256,
                        -71.65458255279249
                    ],
                    [
                        95.57038549723121,
                        -71.63799214817135
                    ],
                    [
                        95.59153565391463,
                        -71.62131909194353
                    ],
                    [
                        95.61265248865085,
                        -71.60464415649032
                    ],
                    [
                        95.63345357812804,
                        -71.58794007230841
                    ],
                    [
                        95.6540836866686,
                        -71.57121145711969
                    ],
                    [
                        95.67491123781122,
                        -71.55451444248148
                    ],
                    [
                        95.69624439137668,
                        -71.53787978837092
                    ],
                    [
                        95.71767506563519,
                        -71.52126159093534
                    ],
                    [
                        95.73803812683835,
                        -71.5045165619726
                    ],
                    [
                        95.75789138110139,
                        -71.48771297753598
                    ],
                    [
                        95.77764056345242,
                        -71.47089211415364
                    ],
                    [
                        95.79760317973071,
                        -71.45410689074316
                    ],
                    [
                        95.81792178643266,
                        -71.4373706236359
                    ],
                    [
                        95.8382675571173,
                        -71.42063073467564
                    ],
                    [
                        95.85912926253266,
                        -71.40396590963657
                    ],
                    [
                        95.88116759980814,
                        -71.38745790683637
                    ],
                    [
                        95.90416469609391,
                        -71.37108632201434
                    ],
                    [
                        95.9273443834266,
                        -71.35475019937788
                    ],
                    [
                        95.95052458870929,
                        -71.33841042257501
                    ],
                    [
                        95.97460288896383,
                        -71.32221276597669
                    ],
                    [
                        95.99908505004461,
                        -71.30607873149712
                    ],
                    [
                        96.02369438400933,
                        -71.28997238330432
                    ],
                    [
                        96.04860885325668,
                        -71.27391465032942
                    ],
                    [
                        96.07384745316405,
                        -71.25791373926877
                    ],
                    [
                        96.0992900292879,
                        -71.24195556763382
                    ],
                    [
                        96.12445757694483,
                        -71.22594833807287
                    ],
                    [
                        96.148864599041,
                        -71.20982786452961
                    ],
                    [
                        96.17288200869746,
                        -71.19365373791675
                    ],
                    [
                        96.19750534253203,
                        -71.17757614890141
                    ],
                    [
                        96.2224520379187,
                        -71.16155512858893
                    ],
                    [
                        96.2471891816207,
                        -71.14550113151479
                    ],
                    [
                        96.27189602067119,
                        -71.12944846952891
                    ],
                    [
                        96.2967788758693,
                        -71.11343036495761
                    ],
                    [
                        96.32158828258018,
                        -71.09740155928625
                    ],
                    [
                        96.34624993796557,
                        -71.08135574315874
                    ],
                    [
                        96.37097394811123,
                        -71.06532144615961
                    ],
                    [
                        96.39615395271578,
                        -71.04936997808684
                    ],
                    [
                        96.42160271543972,
                        -71.0334673574793
                    ],
                    [
                        96.44690184709962,
                        -71.01754313329596
                    ],
                    [
                        96.47226397413425,
                        -71.00163461794553
                    ],
                    [
                        96.49756340406456,
                        -70.98571486653374
                    ],
                    [
                        96.52276361127949,
                        -70.96978977614243
                    ],
                    [
                        96.54799649666784,
                        -70.9538724867494
                    ],
                    [
                        96.5734021698412,
                        -70.93798475715724
                    ],
                    [
                        96.59856984091326,
                        -70.92206535768248
                    ],
                    [
                        96.62299173404661,
                        -70.90602546012776
                    ],
                    [
                        96.64713172870096,
                        -70.8899424443038
                    ],
                    [
                        96.67152242236479,
                        -70.87390426679046
                    ],
                    [
                        96.69615250318805,
                        -70.8579112264606
                    ],
                    [
                        96.72083920866187,
                        -70.84192967145192
                    ],
                    [
                        96.74590037426097,
                        -70.82601937317143
                    ],
                    [
                        96.77162122655385,
                        -70.81022762101173
                    ],
                    [
                        96.79775161199753,
                        -70.79450974380136
                    ],
                    [
                        96.82371379541878,
                        -70.77876199440415
                    ],
                    [
                        96.8493694414007,
                        -70.76297189163344
                    ],
                    [
                        96.87469002285347,
                        -70.7471271950054
                    ],
                    [
                        96.89992023254551,
                        -70.73126791239594
                    ],
                    [
                        96.92480556570708,
                        -70.71535468287217
                    ],
                    [
                        96.94922293139581,
                        -70.6993700896234
                    ],
                    [
                        96.97355393706901,
                        -70.68337108828679
                    ],
                    [
                        96.9977869805338,
                        -70.66736269839409
                    ],
                    [
                        97.02180351119414,
                        -70.65131822959518
                    ],
                    [
                        97.04588851419922,
                        -70.63529375943025
                    ],
                    [
                        97.07015287269458,
                        -70.6193027207877
                    ],
                    [
                        97.09463535033477,
                        -70.60334791955187
                    ],
                    [
                        97.11904578798259,
                        -70.58738715685215
                    ],
                    [
                        97.14312146594504,
                        -70.57137729230021
                    ],
                    [
                        97.1671214121843,
                        -70.55535726160952
                    ],
                    [
                        97.1911853926552,
                        -70.53935279352116
                    ],
                    [
                        97.21508188331472,
                        -70.52332400656839
                    ],
                    [
                        97.23906279432725,
                        -70.50731442695638
                    ],
                    [
                        97.26342626440402,
                        -70.49136994731992
                    ],
                    [
                        97.28809653322261,
                        -70.4754845761581
                    ],
                    [
                        97.31263957303756,
                        -70.45958205241104
                    ],
                    [
                        97.33671041724661,
                        -70.44360513665187
                    ],
                    [
                        97.36006445225627,
                        -70.42751052835628
                    ],
                    [
                        97.38327824944716,
                        -70.41139532546687
                    ],
                    [
                        97.40697699792446,
                        -70.39536763987304
                    ],
                    [
                        97.43103951883913,
                        -70.37940094357528
                    ],
                    [
                        97.4557538822225,
                        -70.3635545396207
                    ],
                    [
                        97.48113121677439,
                        -70.34783208888042
                    ],
                    [
                        97.50697572824149,
                        -70.33220130709883
                    ],
                    [
                        97.5326864127346,
                        -70.31654434793072
                    ],
                    [
                        97.55807780513196,
                        -70.30083799732887
                    ],
                    [
                        97.58334743328987,
                        -70.28511414936219
                    ],
                    [
                        97.60889880046473,
                        -70.26944037335437
                    ],
                    [
                        97.63449801156693,
                        -70.25378649958205
                    ],
                    [
                        97.65993005973621,
                        -70.23810813659429
                    ],
                    [
                        97.6852144272546,
                        -70.22239996643901
                    ],
                    [
                        97.71043173463936,
                        -70.20668994634777
                    ],
                    [
                        97.73543376740813,
                        -70.19093981358495
                    ],
                    [
                        97.76026455436725,
                        -70.17516568957139
                    ],
                    [
                        97.78515267399995,
                        -70.15940667816281
                    ],
                    [
                        97.80997088454275,
                        -70.14363708750359
                    ],
                    [
                        97.83450874754323,
                        -70.12782167620533
                    ],
                    [
                        97.85918425199479,
                        -70.11203570402733
                    ],
                    [
                        97.88409114120861,
                        -70.09630173895435
                    ],
                    [
                        97.90898387622912,
                        -70.08056359064993
                    ],
                    [
                        97.9335994973914,
                        -70.06477961393334
                    ],
                    [
                        97.95785089832498,
                        -70.04893606082038
                    ],
                    [
                        97.98197886380179,
                        -70.03307122130684
                    ],
                    [
                        98.00636599847255,
                        -70.01726151477811
                    ],
                    [
                        98.03116761347992,
                        -70.00152636809172
                    ],
                    [
                        98.05637814770755,
                        -69.985879351943
                    ],
                    [
                        98.08155883358548,
                        -69.97022876560771
                    ],
                    [
                        98.10671930388737,
                        -69.95457865973225
                    ],
                    [
                        98.13195200236208,
                        -69.93894255472942
                    ],
                    [
                        98.15727007122997,
                        -69.9233332936747
                    ],
                    [
                        98.182667142237,
                        -69.90774210922592
                    ],
                    [
                        98.20810855264844,
                        -69.89216164238209
                    ],
                    [
                        98.23348737505331,
                        -69.87657462068708
                    ],
                    [
                        98.25873471178639,
                        -69.86096646380105
                    ],
                    [
                        98.28391978243766,
                        -69.84535181618496
                    ],
                    [
                        98.3101766740101,
                        -69.8299624105964
                    ],
                    [
                        98.3393880220134,
                        -69.81522139927924
                    ],
                    [
                        98.36509684259946,
                        -69.79972638362963
                    ],
                    [
                        98.3896445987869,
                        -69.78400542108461
                    ],
                    [
                        98.4140565376111,
                        -69.76826847203805
                    ],
                    [
                        98.43845715322351,
                        -69.7525317775206
                    ],
                    [
                        98.46295977959029,
                        -69.7368165754827
                    ],
                    [
                        98.48752416502454,
                        -69.72112037068052
                    ],
                    [
                        98.51205740840423,
                        -69.70542086236556
                    ],
                    [
                        98.53641659159064,
                        -69.68969391246867
                    ],
                    [
                        98.56038862450386,
                        -69.67389658952912
                    ],
                    [
                        98.58360161203444,
                        -69.65797188499127
                    ],
                    [
                        98.60600554049675,
                        -69.64190929500454
                    ],
                    [
                        98.6273002136969,
                        -69.62567093824322
                    ],
                    [
                        98.64684109084371,
                        -69.60916966745184
                    ],
                    [
                        98.664425609858,
                        -69.59240807509946
                    ],
                    [
                        98.67974328003713,
                        -69.57537651846889
                    ],
                    [
                        98.69185901957592,
                        -69.55804014468454
                    ],
                    [
                        98.70106897700921,
                        -69.54049261000722
                    ],
                    [
                        98.7074861887495,
                        -69.52278745144152
                    ],
                    [
                        98.7118476707848,
                        -69.5050031985273
                    ],
                    [
                        98.71546909014015,
                        -69.48720500043306
                    ],
                    [
                        98.71878860672298,
                        -69.46939651050792
                    ],
                    [
                        98.72245271291641,
                        -69.45159710937732
                    ],
                    [
                        98.7264354178857,
                        -69.43380812663695
                    ],
                    [
                        98.72972392898083,
                        -69.4160029867457
                    ],
                    [
                        98.73018430180475,
                        -69.39816187083838
                    ],
                    [
                        98.72988862573102,
                        -69.38032199070706
                    ],
                    [
                        98.73014425731478,
                        -69.3624848332282
                    ],
                    [
                        98.7298940860467,
                        -69.34464446212154
                    ],
                    [
                        98.73001819068017,
                        -69.3268073402765
                    ],
                    [
                        98.73059227823607,
                        -69.3089738136293
                    ],
                    [
                        98.73470937688847,
                        -69.29120121393659
                    ],
                    [
                        98.74157334347514,
                        -69.27353663147743
                    ],
                    [
                        98.75002260570153,
                        -69.25595247879119
                    ],
                    [
                        98.75947705495742,
                        -69.23843939139263
                    ],
                    [
                        98.7665999380452,
                        -69.22079638255333
                    ],
                    [
                        98.77125166917902,
                        -69.20304529130657
                    ],
                    [
                        98.77731573730308,
                        -69.18534783933792
                    ],
                    [
                        98.78614576351272,
                        -69.16780058054421
                    ],
                    [
                        98.79802172639971,
                        -69.15048643720316
                    ],
                    [
                        98.81317250159296,
                        -69.13349987948969
                    ],
                    [
                        98.83020256062395,
                        -69.11674098029528
                    ],
                    [
                        98.84910348016723,
                        -69.10024542596744
                    ],
                    [
                        98.87263177371177,
                        -69.08453506883835
                    ],
                    [
                        98.89886139529719,
                        -69.06938139648004
                    ],
                    [
                        98.92574849766365,
                        -69.05437445523674
                    ],
                    [
                        98.95640875084243,
                        -69.04036642628422
                    ],
                    [
                        98.99202291167124,
                        -69.02793742326597
                    ],
                    [
                        99.02932699841551,
                        -69.0161511010252
                    ],
                    [
                        99.06701054466139,
                        -69.00453084737548
                    ],
                    [
                        99.10574738815502,
                        -68.99338502283597
                    ],
                    [
                        99.14593315628613,
                        -68.98292010019564
                    ],
                    [
                        99.18673706831788,
                        -68.97278166082488
                    ],
                    [
                        99.22656195090187,
                        -68.96217346281689
                    ],
                    [
                        99.2638216952972,
                        -68.95043102032626
                    ],
                    [
                        99.29934475959384,
                        -68.93801283604813
                    ],
                    [
                        99.33193720498923,
                        -68.92462965024899
                    ],
                    [
                        99.36151809238918,
                        -68.9103559495302
                    ],
                    [
                        99.38863942405833,
                        -68.8954632016154
                    ],
                    [
                        99.41378437117537,
                        -68.88013166694728
                    ],
                    [
                        99.43560340305409,
                        -68.86416358078849
                    ],
                    [
                        99.45352780000215,
                        -68.84757237637457
                    ],
                    [
                        99.47032292075649,
                        -68.8308251849205
                    ],
                    [
                        99.48506870236162,
                        -68.81383820082704
                    ],
                    [
                        99.49719095978762,
                        -68.79657937050723
                    ],
                    [
                        99.50719372980876,
                        -68.77914551169476
                    ],
                    [
                        99.5156062535702,
                        -68.76160449882791
                    ],
                    [
                        99.52265152098845,
                        -68.74398388817987
                    ],
                    [
                        99.52996779781449,
                        -68.7263737733516
                    ],
                    [
                        99.53785208992952,
                        -68.70880558228086
                    ],
                    [
                        99.54555848849742,
                        -68.69122547482114
                    ],
                    [
                        99.55238501360604,
                        -68.67359978877678
                    ],
                    [
                        99.5584531658945,
                        -68.65593486492473
                    ],
                    [
                        99.56397881965587,
                        -68.6382492406664
                    ],
                    [
                        99.56947828968345,
                        -68.62056544928258
                    ],
                    [
                        99.57483022040887,
                        -68.6028774364717
                    ],
                    [
                        99.57985678828746,
                        -68.58517364943886
                    ],
                    [
                        99.5837988063975,
                        -68.56743789205419
                    ],
                    [
                        99.58651115216442,
                        -68.54967036949265
                    ],
                    [
                        99.5877075432176,
                        -68.53188454732329
                    ],
                    [
                        99.58749083346964,
                        -68.51409237759017
                    ],
                    [
                        99.58619394401927,
                        -68.49630953597757
                    ],
                    [
                        99.58445718036815,
                        -68.478528039266
                    ],
                    [
                        99.58264697576638,
                        -68.46075227116486
                    ],
                    [
                        99.5807833366213,
                        -68.44297197871433
                    ],
                    [
                        99.57833580188336,
                        -68.42521109762936
                    ],
                    [
                        99.5745303239492,
                        -68.40748170914831
                    ],
                    [
                        99.56926451893288,
                        -68.38980381029981
                    ],
                    [
                        99.56247909070764,
                        -68.37219468114559
                    ],
                    [
                        99.5541565118237,
                        -68.35468248207847
                    ],
                    [
                        99.5447794598046,
                        -68.33724170100925
                    ],
                    [
                        99.53450381097348,
                        -68.3198716245845
                    ],
                    [
                        99.5239982095725,
                        -68.3025216676785
                    ],
                    [
                        99.51356698977399,
                        -68.28516391177035
                    ],
                    [
                        99.50288276200526,
                        -68.26782768550169
                    ],
                    [
                        99.49206627610837,
                        -68.2505099863106
                    ],
                    [
                        99.4810449996561,
                        -68.23321079120169
                    ],
                    [
                        99.46966521869952,
                        -68.2159486156467
                    ],
                    [
                        99.45807277900252,
                        -68.1987008773439
                    ],
                    [
                        99.44578038262712,
                        -68.18152474197733
                    ],
                    [
                        99.43229784933065,
                        -68.16447296282988
                    ],
                    [
                        99.41880781859356,
                        -68.147431748578
                    ],
                    [
                        99.40541534973512,
                        -68.1303765926561
                    ],
                    [
                        99.39265554272431,
                        -68.11325196900691
                    ],
                    [
                        99.38022877769033,
                        -68.09610345448336
                    ],
                    [
                        99.36753768582057,
                        -68.07897691506248
                    ],
                    [
                        99.35399552325045,
                        -68.06194897358665
                    ],
                    [
                        99.33979935878651,
                        -68.04499836834837
                    ],
                    [
                        99.3247555020078,
                        -68.02814590042227
                    ],
                    [
                        99.30830791359983,
                        -68.011488569596
                    ],
                    [
                        99.2911609358712,
                        -67.99492885175061
                    ],
                    [
                        99.27395586779726,
                        -67.97837778608888
                    ],
                    [
                        99.25651287715631,
                        -67.96187335474586
                    ],
                    [
                        99.23811126317366,
                        -67.94551352833241
                    ],
                    [
                        99.21788107883813,
                        -67.9294725827271
                    ],
                    [
                        99.19628361751525,
                        -67.91368134712738
                    ],
                    [
                        99.17511133972323,
                        -67.89781446548537
                    ],
                    [
                        99.15602903537655,
                        -67.88158211935625
                    ],
                    [
                        99.14202390217906,
                        -67.86464179854373
                    ],
                    [
                        99.13305937608419,
                        -67.84723036155196
                    ],
                    [
                        99.12810377534149,
                        -67.82958600547187
                    ],
                    [
                        99.12620034453538,
                        -67.811847587599
                    ],
                    [
                        99.12595872574666,
                        -67.79409928451035
                    ],
                    [
                        99.12906193112758,
                        -67.7764002745351
                    ],
                    [
                        99.13754125875667,
                        -67.75894965350143
                    ],
                    [
                        99.14958435616792,
                        -67.74180695174094
                    ],
                    [
                        99.16290391041396,
                        -67.72479170903748
                    ],
                    [
                        99.17768473204481,
                        -67.70795497294321
                    ],
                    [
                        99.19268449099043,
                        -67.69115229418819
                    ],
                    [
                        99.20667714320697,
                        -67.6742254622138
                    ],
                    [
                        99.21827998194323,
                        -67.65704011100206
                    ],
                    [
                        99.22818530248058,
                        -67.63970261605014
                    ],
                    [
                        99.23597405693796,
                        -67.62221707645674
                    ],
                    [
                        99.24276604166648,
                        -67.60466742994537
                    ],
                    [
                        99.24933407479145,
                        -67.5871047850328
                    ],
                    [
                        99.25592967825827,
                        -67.56954949389883
                    ],
                    [
                        99.26370797768173,
                        -67.55206431990804
                    ],
                    [
                        99.27280513352612,
                        -67.53467183933297
                    ],
                    [
                        99.2825443623557,
                        -67.51733308623291
                    ],
                    [
                        99.29256786209812,
                        -67.50002084604967
                    ],
                    [
                        99.30268844440323,
                        -67.48271532555961
                    ],
                    [
                        99.31234956706913,
                        -67.46537513543531
                    ],
                    [
                        99.32080700424169,
                        -67.44794850991752
                    ],
                    [
                        99.32799106144871,
                        -67.43043574868271
                    ],
                    [
                        99.33415998707186,
                        -67.41286583249914
                    ],
                    [
                        99.34001957768423,
                        -67.39528421180378
                    ],
                    [
                        99.34674718991981,
                        -67.37774211302859
                    ],
                    [
                        99.35411651491741,
                        -67.36024915629436
                    ],
                    [
                        99.36194105216082,
                        -67.34278107393271
                    ],
                    [
                        99.37082278589459,
                        -67.32539818330882
                    ],
                    [
                        99.38141438676784,
                        -67.30815278926725
                    ],
                    [
                        99.39387624042907,
                        -67.29109687080675
                    ],
                    [
                        99.40683740690312,
                        -67.27410196793178
                    ],
                    [
                        99.41949198411825,
                        -67.25707143361791
                    ],
                    [
                        99.43153114757698,
                        -67.23997586759701
                    ],
                    [
                        99.44239257674359,
                        -67.22277093738732
                    ],
                    [
                        99.45161588493899,
                        -67.20541946249246
                    ],
                    [
                        99.45963656442447,
                        -67.18797915489957
                    ],
                    [
                        99.46789136226282,
                        -67.170559382581
                    ],
                    [
                        99.47727772879463,
                        -67.15322305738073
                    ],
                    [
                        99.48825249214967,
                        -67.13603436359001
                    ],
                    [
                        99.49921670369287,
                        -67.11884993246348
                    ],
                    [
                        99.50913527042128,
                        -67.10156222946887
                    ],
                    [
                        99.51772740729865,
                        -67.08417202698338
                    ],
                    [
                        99.52554664014987,
                        -67.06672882750445
                    ],
                    [
                        99.53227773577284,
                        -67.04921763280393
                    ],
                    [
                        99.53685380106639,
                        -67.0316100447085
                    ],
                    [
                        99.53917570512827,
                        -67.01393107691433
                    ],
                    [
                        99.53929839131304,
                        -66.99622695354856
                    ],
                    [
                        99.53819394134509,
                        -66.97852832674724
                    ],
                    [
                        99.53754991558087,
                        -66.96083198382436
                    ],
                    [
                        99.53735445111332,
                        -66.94313415408239
                    ],
                    [
                        99.53432530867622,
                        -66.92548508661451
                    ],
                    [
                        99.52536978743079,
                        -66.90818302870892
                    ],
                    [
                        99.5082142810963,
                        -66.89186180041152
                    ],
                    [
                        99.48125477559357,
                        -66.87775496644582
                    ],
                    [
                        99.44843948605163,
                        -66.86566635437525
                    ],
                    [
                        99.41274706333742,
                        -66.85491325507466
                    ],
                    [
                        99.37665113943098,
                        -66.84436855781072
                    ],
                    [
                        99.3410922612488,
                        -66.83355407845796
                    ],
                    [
                        99.30649422413217,
                        -66.82226809572249
                    ],
                    [
                        99.2737013774186,
                        -66.81021503830951
                    ],
                    [
                        99.24573360822802,
                        -66.79643166577935
                    ],
                    [
                        99.2255959634157,
                        -66.78069240409538
                    ],
                    [
                        99.21133542797335,
                        -66.76391817104907
                    ],
                    [
                        99.19804832685206,
                        -66.74703329551782
                    ],
                    [
                        99.1850370000481,
                        -66.73010942594972
                    ],
                    [
                        99.17316238827688,
                        -66.71305575854375
                    ],
                    [
                        99.16391086773281,
                        -66.69576853481787
                    ],
                    [
                        99.15857554361337,
                        -66.678219053924
                    ],
                    [
                        99.15807952245805,
                        -66.66054523138392
                    ],
                    [
                        99.1613721144541,
                        -66.64292113408158
                    ],
                    [
                        99.16798153802604,
                        -66.62543885576298
                    ],
                    [
                        99.17791827322688,
                        -66.60820868936004
                    ],
                    [
                        99.19000918513608,
                        -66.59119747686722
                    ],
                    [
                        99.20367247906637,
                        -66.5743791885174
                    ],
                    [
                        99.2185656432308,
                        -66.55772603153041
                    ],
                    [
                        99.23382549106623,
                        -66.54113219917049
                    ],
                    [
                        99.24914110188212,
                        -66.52454160384436
                    ],
                    [
                        99.26396431920283,
                        -66.50788693283599
                    ],
                    [
                        99.27795307829344,
                        -66.49111909756024
                    ],
                    [
                        99.29071701663003,
                        -66.47420578913089
                    ],
                    [
                        99.30180781283295,
                        -66.45709630778238
                    ],
                    [
                        99.3112721478848,
                        -66.4398419548931
                    ],
                    [
                        99.31900069509932,
                        -66.42244601511338
                    ],
                    [
                        99.32471842134348,
                        -66.4049316172319
                    ],
                    [
                        99.32858462978976,
                        -66.38733358457486
                    ],
                    [
                        99.33064782383344,
                        -66.36968944144458
                    ],
                    [
                        99.33080385665241,
                        -66.35202879514485
                    ],
                    [
                        99.32954909185989,
                        -66.33437287637152
                    ],
                    [
                        99.3269754617907,
                        -66.31674263758431
                    ],
                    [
                        99.32299387338098,
                        -66.29915751091153
                    ],
                    [
                        99.31808377368714,
                        -66.28160827385106
                    ],
                    [
                        99.31234338678014,
                        -66.26410189286986
                    ],
                    [
                        99.3057979446031,
                        -66.24664118854389
                    ],
                    [
                        99.29870105185748,
                        -66.22921834972364
                    ],
                    [
                        99.29110314816681,
                        -66.21183450732163
                    ],
                    [
                        99.28293026387838,
                        -66.19449005925016
                    ],
                    [
                        99.27427764763767,
                        -66.17718763545051
                    ],
                    [
                        99.2652022987557,
                        -66.15992344555441
                    ],
                    [
                        99.25567109624045,
                        -66.14269517495114
                    ],
                    [
                        99.2457375534521,
                        -66.12551267031292
                    ],
                    [
                        99.23546775330925,
                        -66.10836259624426
                    ],
                    [
                        99.22492679695611,
                        -66.09124062924575
                    ],
                    [
                        99.21424221303981,
                        -66.07413387120886
                    ],
                    [
                        99.20342246574594,
                        -66.05704621699883
                    ],
                    [
                        99.192455792018,
                        -66.03996948607484
                    ],
                    [
                        99.18133484661563,
                        -66.02291754838018
                    ],
                    [
                        99.17008042306449,
                        -66.00587561257025
                    ],
                    [
                        99.15864625271173,
                        -65.98886456946826
                    ],
                    [
                        99.14711552236983,
                        -65.97186106424324
                    ],
                    [
                        99.13549441834117,
                        -65.95486914423374
                    ],
                    [
                        99.12375710318588,
                        -65.93789495515469
                    ],
                    [
                        99.11196433588636,
                        -65.92092556687521
                    ],
                    [
                        99.10015372635338,
                        -65.9039674385751
                    ],
                    [
                        99.08824099978443,
                        -65.88701714821973
                    ],
                    [
                        99.07624933868368,
                        -65.87007762930058
                    ],
                    [
                        99.06420015670882,
                        -65.85314746928488
                    ],
                    [
                        99.05218703655564,
                        -65.83622054746044
                    ],
                    [
                        99.04032626894148,
                        -65.8192714264543
                    ],
                    [
                        99.02844229372035,
                        -65.80232496309074
                    ],
                    [
                        99.01660636123856,
                        -65.78538543440506
                    ],
                    [
                        99.00495658278304,
                        -65.76841707930826
                    ],
                    [
                        98.99348492352887,
                        -65.75143383180637
                    ],
                    [
                        98.98197645896923,
                        -65.73445861270501
                    ],
                    [
                        98.97044483372085,
                        -65.71748160697022
                    ],
                    [
                        98.95896782353005,
                        -65.70050222009762
                    ],
                    [
                        98.94753430976412,
                        -65.68352563875737
                    ],
                    [
                        98.936200403221,
                        -65.66653484837151
                    ],
                    [
                        98.92492073003429,
                        -65.64954172119845
                    ],
                    [
                        98.91360355252232,
                        -65.63255404010997
                    ],
                    [
                        98.90230261003418,
                        -65.61556648498593
                    ],
                    [
                        98.89101786853743,
                        -65.59857905860918
                    ],
                    [
                        98.87974929409215,
                        -65.58159176375646
                    ],
                    [
                        98.86849685285056,
                        -65.56460460319852
                    ],
                    [
                        98.85726051105674,
                        -65.54761757969997
                    ],
                    [
                        98.84604023504639,
                        -65.5306306960194
                    ],
                    [
                        98.83483599124645,
                        -65.51364395490943
                    ],
                    [
                        98.82364774617481,
                        -65.49665735911663
                    ],
                    [
                        98.81247546644009,
                        -65.47967091138166
                    ],
                    [
                        98.8013191187412,
                        -65.46268461443917
                    ],
                    [
                        98.79017866986722,
                        -65.4456984710179
                    ],
                    [
                        98.77905408669692,
                        -65.42871248384071
                    ],
                    [
                        98.76794533619862,
                        -65.41172665562446
                    ],
                    [
                        98.75685238542982,
                        -65.39474098908023
                    ],
                    [
                        98.7457752015369,
                        -65.37775548691322
                    ],
                    [
                        98.7347137517549,
                        -65.36077015182275
                    ],
                    [
                        98.72366800340711,
                        -65.34378498650236
                    ],
                    [
                        98.71263792390492,
                        -65.32679999363978
                    ],
                    [
                        98.70162348074743,
                        -65.30981517591697
                    ]
                ]
            }
        }
    ]
}
