{
    "type": "FeatureCollection",
    "features": [
        {
            "type": "Feature",
            "properties": {
                "name": "Greenland Glacier 0167",
                "object": "transect",
                "component": "landice",
                "author": "Matthew Hoffman, converted from Felikson et al. (2020) Zenodo dataset",
                "tags": "Greenland_Ice_Sheet;flowline;zenodo_4284759;glacier_0167",
                "citation": "Felikson, Denis, Catania, Ginny, Bartholomaus, Timothy, Morlighem, Mathieu, & No\u00ebl, Brice. (2020). Inland limits to diffusion of thinning along Greenland Ice Sheet outlet glaciers (v1.0) [Data set]. Zenodo. https://doi.org/10.5281/zenodo.4284759",
                "license": "CC-BY-4.0"
            },
            "geometry": {
                "type": "LineString",
                "coordinates": [
                    [
                        -31.098995075787816,
                        69.0551799480649
                    ],
                    [
                        -31.093144898761413,
                        69.05433631466373
                    ],
                    [
                        -31.088541319109638,
                        69.05623042456762
                    ],
                    [
                        -31.094903750499967,
                        69.05633451641931
                    ],
                    [
                        -31.09556650321261,
                        69.05409127038487
                    ],
                    [
                        -31.08876867712266,
                        69.05461716678069
                    ],
                    [
                        -31.087975360421456,
                        69.05684888606403
                    ],
                    [
                        -31.095030754101447,
                        69.05595190944103
                    ],
                    [
                        -31.097271797538887,
                        69.05384845663767
                    ],
                    [
                        -31.09000930873748,
                        69.05504589519656
                    ],
                    [
                        -31.09167963115444,
                        69.0574958794811
                    ],
                    [
                        -31.098628647051516,
                        69.05675259092199
                    ],
                    [
                        -31.093947858644412,
                        69.05421854934089
                    ],
                    [
                        -31.088245187811836,
                        69.05601528068718
                    ],
                    [
                        -31.094575353495216,
                        69.05616591142686
                    ],
                    [
                        -31.096652101823892,
                        69.05404790627392
                    ],
                    [
                        -31.08973467972703,
                        69.05474668270003
                    ],
                    [
                        -31.08959833448213,
                        69.05703660938727
                    ],
                    [
                        -31.096394697862387,
                        69.05651391660253
                    ],
                    [
                        -31.09454575196929,
                        69.05404820918052
                    ],
                    [
                        -31.08749782002047,
                        69.05493529735503
                    ],
                    [
                        -31.087882848967602,
                        69.05727144699337
                    ],
                    [
                        -31.095316797203317,
                        69.05582763252467
                    ],
                    [
                        -31.09764922597536,
                        69.05373227364609
                    ],
                    [
                        -31.091477934865864,
                        69.05548757626055
                    ],
                    [
                        -31.09654033444322,
                        69.05747019460844
                    ],
                    [
                        -31.101970384815225,
                        69.05892259154217
                    ],
                    [
                        -31.10789180342142,
                        69.05966529936184
                    ],
                    [
                        -31.11426347170728,
                        69.05975694266145
                    ],
                    [
                        -31.118326639630048,
                        69.06241794305477
                    ],
                    [
                        -31.123878330122526,
                        69.06369765574942
                    ],
                    [
                        -31.12981016680307,
                        69.0644276237021
                    ],
                    [
                        -31.135802082870853,
                        69.0650709351143
                    ],
                    [
                        -31.141660642094514,
                        69.06590787403435
                    ],
                    [
                        -31.147502829287312,
                        69.06676903594422
                    ],
                    [
                        -31.15321050083462,
                        69.06782583631899
                    ],
                    [
                        -31.15754121774158,
                        69.07050889881597
                    ],
                    [
                        -31.158692925194874,
                        69.07291179320234
                    ],
                    [
                        -31.159384920858965,
                        69.07527418900264
                    ],
                    [
                        -31.16001683078621,
                        69.07763129437105
                    ],
                    [
                        -31.160466688000362,
                        69.07997237381116
                    ],
                    [
                        -31.160653960485615,
                        69.08229034490512
                    ],
                    [
                        -31.160265577896233,
                        69.08455765887143
                    ],
                    [
                        -31.15971048179967,
                        69.08681032175458
                    ],
                    [
                        -31.15948282993565,
                        69.08909182798037
                    ],
                    [
                        -31.15941471602267,
                        69.09138739412616
                    ],
                    [
                        -31.159736572679464,
                        69.09371729188649
                    ],
                    [
                        -31.160520280504464,
                        69.09608783151174
                    ],
                    [
                        -31.161734830432156,
                        69.09849626512359
                    ],
                    [
                        -31.163171177790705,
                        69.1009241869764
                    ],
                    [
                        -31.16481548035279,
                        69.1033703672791
                    ],
                    [
                        -31.167284674954942,
                        69.10588901757286
                    ],
                    [
                        -31.171017423583862,
                        69.10851861200902
                    ],
                    [
                        -31.17587828169314,
                        69.11082155584037
                    ],
                    [
                        -31.181007912038144,
                        69.11273605724571
                    ],
                    [
                        -31.1862479374323,
                        69.11449160123315
                    ],
                    [
                        -31.19151565277991,
                        69.1162080950732
                    ],
                    [
                        -31.196821574898223,
                        69.1178702304974
                    ],
                    [
                        -31.202095422420186,
                        69.11958004264645
                    ],
                    [
                        -31.20730385809487,
                        69.12138601656866
                    ],
                    [
                        -31.21234060426796,
                        69.12344270855891
                    ],
                    [
                        -31.217274046667818,
                        69.12565091463094
                    ],
                    [
                        -31.222016815591257,
                        69.12813780887207
                    ],
                    [
                        -31.226488357218155,
                        69.13082991158662
                    ],
                    [
                        -31.230454700594574,
                        69.13347767451057
                    ],
                    [
                        -31.233884012251274,
                        69.1360783734023
                    ],
                    [
                        -31.236640475234104,
                        69.13862020452953
                    ],
                    [
                        -31.238487529369767,
                        69.14108257845733
                    ],
                    [
                        -31.239484959506797,
                        69.14347077236988
                    ],
                    [
                        -31.239918251673473,
                        69.14580973671022
                    ],
                    [
                        -31.240069688414614,
                        69.14812411905548
                    ],
                    [
                        -31.23981553807011,
                        69.15040313458331
                    ],
                    [
                        -31.239061666748423,
                        69.1526385811293
                    ],
                    [
                        -31.237869811043847,
                        69.15483584987884
                    ],
                    [
                        -31.236267990914293,
                        69.15699738627649
                    ],
                    [
                        -31.2343410385714,
                        69.15913058833105
                    ],
                    [
                        -31.232166403464205,
                        69.16124220875535
                    ],
                    [
                        -31.229797398484223,
                        69.16333689464024
                    ],
                    [
                        -31.227253648461947,
                        69.16541635418065
                    ],
                    [
                        -31.22455191826876,
                        69.16748204597368
                    ],
                    [
                        -31.22178040256118,
                        69.16954166280019
                    ],
                    [
                        -31.21899603753382,
                        69.17160017231222
                    ],
                    [
                        -31.216207388162086,
                        69.17365832182256
                    ],
                    [
                        -31.213431114946694,
                        69.17571756577604
                    ],
                    [
                        -31.210751889231837,
                        69.17778529768063
                    ],
                    [
                        -31.208229013138336,
                        69.17986669874817
                    ],
                    [
                        -31.205862574237905,
                        69.18196178050908
                    ],
                    [
                        -31.20362879722587,
                        69.18406846987739
                    ],
                    [
                        -31.201505950531505,
                        69.18618487126182
                    ],
                    [
                        -31.199398907322735,
                        69.18830267741146
                    ],
                    [
                        -31.197247216042577,
                        69.19041660795328
                    ],
                    [
                        -31.195003511012704,
                        69.19252252429415
                    ],
                    [
                        -31.192695379866752,
                        69.19462283493954
                    ],
                    [
                        -31.19031017784457,
                        69.1967164337767
                    ],
                    [
                        -31.18782342813918,
                        69.19880118031148
                    ],
                    [
                        -31.18523975014053,
                        69.20087747581519
                    ],
                    [
                        -31.182521921502655,
                        69.2029420645619
                    ],
                    [
                        -31.17963764314001,
                        69.20499211943358
                    ],
                    [
                        -31.176606693837662,
                        69.2070293642006
                    ],
                    [
                        -31.173441471471502,
                        69.20905487772497
                    ],
                    [
                        -31.17017302717533,
                        69.21107137029908
                    ],
                    [
                        -31.166838092306406,
                        69.21308205041117
                    ],
                    [
                        -31.163426602623314,
                        69.21508603493714
                    ],
                    [
                        -31.15986176337711,
                        69.21707660169531
                    ],
                    [
                        -31.15605118725732,
                        69.2190456589148
                    ],
                    [
                        -31.151916601346027,
                        69.22098634291716
                    ],
                    [
                        -31.147407975127656,
                        69.22289425473461
                    ],
                    [
                        -31.14251357678577,
                        69.22476834236554
                    ],
                    [
                        -31.13716149097431,
                        69.22660227739972
                    ],
                    [
                        -31.131351039389035,
                        69.22839596230011
                    ],
                    [
                        -31.125199526613226,
                        69.2301596383537
                    ],
                    [
                        -31.118765587917647,
                        69.23189841399588
                    ],
                    [
                        -31.112147598856936,
                        69.23362089079897
                    ],
                    [
                        -31.10528487370519,
                        69.23532172185149
                    ],
                    [
                        -31.098096955164785,
                        69.23699381361618
                    ],
                    [
                        -31.090669588229332,
                        69.23864466022641
                    ],
                    [
                        -31.083211583321933,
                        69.24029258648787
                    ],
                    [
                        -31.075833725478137,
                        69.24194733147019
                    ],
                    [
                        -31.068572214146204,
                        69.24361209028679
                    ],
                    [
                        -31.061320521917388,
                        69.24527750020177
                    ],
                    [
                        -31.05403045390955,
                        69.24693931812635
                    ],
                    [
                        -31.046638988966695,
                        69.24859198669563
                    ],
                    [
                        -31.039253243755823,
                        69.2502449356637
                    ],
                    [
                        -31.031820340783074,
                        69.25189350242319
                    ],
                    [
                        -31.024420922480747,
                        69.25354479654405
                    ],
                    [
                        -31.016948252562113,
                        69.25518939999753
                    ],
                    [
                        -31.009407038250064,
                        69.25682771927372
                    ],
                    [
                        -31.00181466341038,
                        69.25846128171524
                    ],
                    [
                        -30.99416966799956,
                        69.2600866629163
                    ],
                    [
                        -30.9866389284533,
                        69.26172519367381
                    ],
                    [
                        -30.97916262871476,
                        69.26336830687093
                    ],
                    [
                        -30.971701294150716,
                        69.2650125146574
                    ],
                    [
                        -30.964229038876734,
                        69.26665552612266
                    ],
                    [
                        -30.956681485237578,
                        69.26829163485472
                    ],
                    [
                        -30.949069997003786,
                        69.26992183877479
                    ],
                    [
                        -30.941447809070688,
                        69.27150044112103
                    ],
                    [
                        -30.933880419732745,
                        69.27299954592533
                    ],
                    [
                        -30.926369191326906,
                        69.27441737771913
                    ],
                    [
                        -30.918945032122163,
                        69.27571044527538
                    ],
                    [
                        -30.91159289953441,
                        69.27690020296127
                    ],
                    [
                        -30.904317373549617,
                        69.27798037640441
                    ],
                    [
                        -30.89712784978558,
                        69.27893791502939
                    ],
                    [
                        -30.890029858158524,
                        69.27976523988431
                    ],
                    [
                        -30.883028447846293,
                        69.28045546118662
                    ],
                    [
                        -30.876121123660912,
                        69.28101231529156
                    ],
                    [
                        -30.869299031612687,
                        69.28144846860843
                    ],
                    [
                        -30.862543521480973,
                        69.28179032731086
                    ],
                    [
                        -30.855840338565603,
                        69.2820580644581
                    ],
                    [
                        -30.849169902477804,
                        69.28227928927927
                    ],
                    [
                        -30.842516122876297,
                        69.2824766560661
                    ],
                    [
                        -30.83586114420898,
                        69.28267525004966
                    ],
                    [
                        -30.829201189049797,
                        69.28288036595941
                    ],
                    [
                        -30.822533844683115,
                        69.28309537529783
                    ],
                    [
                        -30.815848853062676,
                        69.28333463256598
                    ],
                    [
                        -30.809142445281378,
                        69.28360337790444
                    ],
                    [
                        -30.80240768182244,
                        69.28391127753459
                    ],
                    [
                        -30.79563809363643,
                        69.28426731959475
                    ],
                    [
                        -30.788838493572435,
                        69.28466470172818
                    ],
                    [
                        -30.78201495115882,
                        69.285094879201
                    ],
                    [
                        -30.775165001943044,
                        69.28556124221791
                    ],
                    [
                        -30.76828969696853,
                        69.28606226676033
                    ],
                    [
                        -30.761395854925023,
                        69.28658838571317
                    ],
                    [
                        -30.754510564595744,
                        69.287101789914
                    ],
                    [
                        -30.74765086121601,
                        69.28757875991559
                    ],
                    [
                        -30.74082440769763,
                        69.28800867964877
                    ],
                    [
                        -30.73403712475842,
                        69.28838337984348
                    ],
                    [
                        -30.727281987605462,
                        69.28871271956575
                    ],
                    [
                        -30.720554935043047,
                        69.28900241568883
                    ],
                    [
                        -30.713852536129966,
                        69.28925729700617
                    ],
                    [
                        -30.707165759364475,
                        69.28948996315428
                    ],
                    [
                        -30.7004938165049,
                        69.28970154173186
                    ],
                    [
                        -30.693838299684213,
                        69.28988985417838
                    ],
                    [
                        -30.687195514659116,
                        69.29006005960791
                    ],
                    [
                        -30.680570946142865,
                        69.29020457962865
                    ],
                    [
                        -30.673955320923493,
                        69.29033630343896
                    ],
                    [
                        -30.667345811369835,
                        69.29045916648025
                    ],
                    [
                        -30.660732144296837,
                        69.2905874052105
                    ],
                    [
                        -30.654109076641586,
                        69.29072826733248
                    ],
                    [
                        -30.64747556976321,
                        69.29088317085171
                    ],
                    [
                        -30.640825711909784,
                        69.29106026807575
                    ],
                    [
                        -30.63414926265954,
                        69.29127367665518
                    ],
                    [
                        -30.627456022743498,
                        69.29150980637206
                    ],
                    [
                        -30.620745525409866,
                        69.29176926753614
                    ],
                    [
                        -30.61402289767192,
                        69.29204495101168
                    ],
                    [
                        -30.60728005320606,
                        69.292347983876
                    ],
                    [
                        -30.600515969055643,
                        69.29267973471973
                    ],
                    [
                        -30.59373467570276,
                        69.29303460714256
                    ],
                    [
                        -30.586938276404307,
                        69.29340966963265
                    ],
                    [
                        -30.580141295545808,
                        69.29378490170994
                    ],
                    [
                        -30.573348874658265,
                        69.2941532303796
                    ],
                    [
                        -30.566562888316206,
                        69.29451208865973
                    ],
                    [
                        -30.559785177655222,
                        69.29485896070648
                    ],
                    [
                        -30.55302213772944,
                        69.2951850810014
                    ],
                    [
                        -30.546276580057466,
                        69.29548662104727
                    ],
                    [
                        -30.539548209294864,
                        69.29576402282655
                    ],
                    [
                        -30.532837633123798,
                        69.29601648883809
                    ],
                    [
                        -30.526156288054015,
                        69.29622837931512
                    ],
                    [
                        -30.519511009262306,
                        69.29639038910011
                    ],
                    [
                        -30.51291117522581,
                        69.29648974762253
                    ],
                    [
                        -30.506364326891344,
                        69.29651622300867
                    ],
                    [
                        -30.49987077343625,
                        69.29646949543955
                    ],
                    [
                        -30.493434789727505,
                        69.29634382096036
                    ],
                    [
                        -30.48705607620701,
                        69.29613971719029
                    ],
                    [
                        -30.48073509217195,
                        69.2958566621726
                    ],
                    [
                        -30.4744622061167,
                        69.29550791415618
                    ],
                    [
                        -30.468233070980666,
                        69.29509949295773
                    ],
                    [
                        -30.46204724075237,
                        69.29463208378397
                    ],
                    [
                        -30.455905734186665,
                        69.29410437173476
                    ],
                    [
                        -30.4498083342538,
                        69.29351672792815
                    ],
                    [
                        -30.443747408232454,
                        69.29287962840013
                    ],
                    [
                        -30.43771713948855,
                        69.29220105727316
                    ],
                    [
                        -30.43170729362934,
                        69.2914950012825
                    ],
                    [
                        -30.425710130428694,
                        69.29077202941892
                    ],
                    [
                        -30.419721881739672,
                        69.29003728898515
                    ],
                    [
                        -30.413743635158458,
                        69.28928931449195
                    ],
                    [
                        -30.40777998652832,
                        69.28852187278366
                    ],
                    [
                        -30.401835045847914,
                        69.28772940067807
                    ],
                    [
                        -30.395913504304865,
                        69.286905553885
                    ],
                    [
                        -30.39002636738587,
                        69.28603542242715
                    ],
                    [
                        -30.384181662560803,
                        69.28510816131293
                    ],
                    [
                        -30.37837343518822,
                        69.28413191538927
                    ],
                    [
                        -30.372590508398225,
                        69.28312190088148
                    ],
                    [
                        -30.366841657559856,
                        69.28206625480217
                    ],
                    [
                        -30.361140890137055,
                        69.28094603825961
                    ],
                    [
                        -30.35549425353188,
                        69.27975312497169
                    ],
                    [
                        -30.34988637267487,
                        69.27850841837487
                    ],
                    [
                        -30.34431983047425,
                        69.27720847373746
                    ],
                    [
                        -30.338787210414196,
                        69.27586338670298
                    ],
                    [
                        -30.333291238560296,
                        69.2744695128727
                    ],
                    [
                        -30.32786113988865,
                        69.27298736252651
                    ],
                    [
                        -30.322529790808208,
                        69.27137255601436
                    ],
                    [
                        -30.317332821771814,
                        69.26957703987559
                    ],
                    [
                        -30.31228377707139,
                        69.26758266151369
                    ],
                    [
                        -30.307389582323548,
                        69.26538022086936
                    ],
                    [
                        -30.302674536019975,
                        69.26293704243591
                    ],
                    [
                        -30.298163307915107,
                        69.26021996241049
                    ],
                    [
                        -30.294327584049388,
                        69.25755159326404
                    ],
                    [
                        -30.290845152726437,
                        69.25491594068143
                    ],
                    [
                        -30.287314572995463,
                        69.25227566774213
                    ],
                    [
                        -30.283915451140533,
                        69.24964749680032
                    ],
                    [
                        -30.280925014992754,
                        69.24705726906737
                    ],
                    [
                        -30.27837870900996,
                        69.24450832556705
                    ],
                    [
                        -30.27602963110326,
                        69.24197768777766
                    ],
                    [
                        -30.273806116517815,
                        69.23945868905116
                    ],
                    [
                        -30.271698329188055,
                        69.23695042160747
                    ],
                    [
                        -30.269739081628465,
                        69.23445595518336
                    ],
                    [
                        -30.268003987470028,
                        69.23198235618936
                    ],
                    [
                        -30.266291956603602,
                        69.2295108706367
                    ],
                    [
                        -30.26463389984416,
                        69.22704438581313
                    ],
                    [
                        -30.262982379956473,
                        69.22457847555616
                    ],
                    [
                        -30.26138742728915,
                        69.22211781315806
                    ],
                    [
                        -30.25986147309207,
                        69.21966356354932
                    ],
                    [
                        -30.258440535703663,
                        69.21721909660815
                    ],
                    [
                        -30.257148998231028,
                        69.21478669746695
                    ],
                    [
                        -30.255935597550945,
                        69.21236158150933
                    ],
                    [
                        -30.254864664351466,
                        69.20994976775702
                    ],
                    [
                        -30.253964333796517,
                        69.2075538946741
                    ],
                    [
                        -30.253101334755186,
                        69.20516150600608
                    ],
                    [
                        -30.25225523270251,
                        69.20277069201347
                    ],
                    [
                        -30.251455746859914,
                        69.20038423403669
                    ],
                    [
                        -30.250625458124784,
                        69.19799488972154
                    ],
                    [
                        -30.249713145520705,
                        69.19559786373544
                    ],
                    [
                        -30.248748029122954,
                        69.1931958873121
                    ],
                    [
                        -30.247884528880398,
                        69.19080341544368
                    ],
                    [
                        -30.24709389789931,
                        69.18841776114854
                    ],
                    [
                        -30.24641309803704,
                        69.18604238949659
                    ],
                    [
                        -30.24592701345267,
                        69.18368525635525
                    ],
                    [
                        -30.245708259098418,
                        69.18135317213647
                    ],
                    [
                        -30.245817356566935,
                        69.17905181630078
                    ],
                    [
                        -30.24619615767046,
                        69.17677574961222
                    ],
                    [
                        -30.24675540047255,
                        69.1745166139213
                    ],
                    [
                        -30.247494877961973,
                        69.1722743930869
                    ],
                    [
                        -30.248384167811775,
                        69.17004623877041
                    ],
                    [
                        -30.249396145616554,
                        69.16782961069903
                    ],
                    [
                        -30.250517373896745,
                        69.16562325060559
                    ],
                    [
                        -30.251753130103005,
                        69.16342765374843
                    ],
                    [
                        -30.253105438000674,
                        69.16124301021449
                    ],
                    [
                        -30.25460128837554,
                        69.15907184964476
                    ],
                    [
                        -30.256207801529687,
                        69.15691109044262
                    ],
                    [
                        -30.25790685776775,
                        69.15475903408633
                    ],
                    [
                        -30.259703035459836,
                        69.15261610904976
                    ],
                    [
                        -30.26157109195611,
                        69.15047994910861
                    ],
                    [
                        -30.26349022988084,
                        69.14834860476415
                    ],
                    [
                        -30.26548305830517,
                        69.14622419392931
                    ],
                    [
                        -30.267517413515368,
                        69.14410370209575
                    ],
                    [
                        -30.269569381347974,
                        69.1419848881674
                    ],
                    [
                        -30.27175867077209,
                        69.13987896693833
                    ],
                    [
                        -30.27423605983045,
                        69.13780006078629
                    ],
                    [
                        -30.27685861114807,
                        69.13573477440208
                    ],
                    [
                        -30.279479469910072,
                        69.13366934957821
                    ],
                    [
                        -30.282127045747572,
                        69.1316064469686
                    ],
                    [
                        -30.284743244342412,
                        69.1295406257144
                    ],
                    [
                        -30.28733730951796,
                        69.1274727521531
                    ],
                    [
                        -30.29002779343471,
                        69.1254139264522
                    ],
                    [
                        -30.292776831738237,
                        69.12336060124997
                    ],
                    [
                        -30.29557186530666,
                        69.12131159924894
                    ],
                    [
                        -30.29839893109078,
                        69.1192656121862
                    ],
                    [
                        -30.301201558172096,
                        69.1172173541562
                    ],
                    [
                        -30.30391013913886,
                        69.11516031218429
                    ],
                    [
                        -30.306488221774384,
                        69.1130910780469
                    ],
                    [
                        -30.308908732509227,
                        69.11100712191573
                    ],
                    [
                        -30.31117202020403,
                        69.10890847981146
                    ],
                    [
                        -30.313294968927575,
                        69.10679673411224
                    ],
                    [
                        -30.315303277668352,
                        69.10467429101041
                    ],
                    [
                        -30.317217800210926,
                        69.10254310270037
                    ],
                    [
                        -30.319117163469326,
                        69.10041052494965
                    ],
                    [
                        -30.321043850982097,
                        69.0982805316558
                    ],
                    [
                        -30.323062682640344,
                        69.0961591852298
                    ],
                    [
                        -30.325294279385623,
                        69.09405776566949
                    ],
                    [
                        -30.327697679050853,
                        69.09197243850062
                    ],
                    [
                        -30.330240498994645,
                        69.08990017194635
                    ],
                    [
                        -30.332762294837472,
                        69.08782596073749
                    ],
                    [
                        -30.33524549524385,
                        69.08574816253153
                    ],
                    [
                        -30.337761056048375,
                        69.083673411676
                    ],
                    [
                        -30.340250633674483,
                        69.08159625348381
                    ],
                    [
                        -30.342723486602353,
                        69.07951755395126
                    ],
                    [
                        -30.345209388802505,
                        69.07744009624865
                    ],
                    [
                        -30.347703572356714,
                        69.07536343447146
                    ],
                    [
                        -30.35023910421017,
                        69.07329065846986
                    ],
                    [
                        -30.352789304105155,
                        69.07121927422908
                    ],
                    [
                        -30.355324688021817,
                        69.06914652662708
                    ],
                    [
                        -30.357820141958747,
                        69.06707006975275
                    ],
                    [
                        -30.360381031879285,
                        69.0649997474433
                    ],
                    [
                        -30.362909416922268,
                        69.06292640963366
                    ],
                    [
                        -30.365462102883388,
                        69.06085536276129
                    ],
                    [
                        -30.367994466792073,
                        69.05878243880144
                    ],
                    [
                        -30.370512868524635,
                        69.05670823214302
                    ],
                    [
                        -30.373003777014354,
                        69.05463147962853
                    ],
                    [
                        -30.37549954920733,
                        69.05255520300562
                    ],
                    [
                        -30.378019479005197,
                        69.05048120343723
                    ],
                    [
                        -30.380592450522663,
                        69.04841217672931
                    ],
                    [
                        -30.38321380477627,
                        69.04634768665663
                    ],
                    [
                        -30.385883132101284,
                        69.04428769370952
                    ],
                    [
                        -30.388625995594154,
                        69.04223458224823
                    ],
                    [
                        -30.39140727725316,
                        69.04018507312018
                    ],
                    [
                        -30.394221293471755,
                        69.03813863487007
                    ],
                    [
                        -30.397038419392466,
                        69.03609250265252
                    ],
                    [
                        -30.399867202024737,
                        69.03404747366388
                    ],
                    [
                        -30.402721061422447,
                        69.03200479928033
                    ],
                    [
                        -30.40559744227409,
                        69.02996424039002
                    ],
                    [
                        -30.408520214133787,
                        69.02792802217486
                    ],
                    [
                        -30.41146826295703,
                        69.0258941743976
                    ],
                    [
                        -30.41440305437443,
                        69.02385910361542
                    ],
                    [
                        -30.417376711812153,
                        69.02182766918908
                    ],
                    [
                        -30.420406861910084,
                        69.01980151274125
                    ],
                    [
                        -30.42349872192138,
                        69.01778111851314
                    ],
                    [
                        -30.426616423089985,
                        69.01576314187217
                    ],
                    [
                        -30.429755134644967,
                        69.01374713176179
                    ],
                    [
                        -30.43290743664158,
                        69.01173239614907
                    ],
                    [
                        -30.436073435089526,
                        69.00971894438096
                    ],
                    [
                        -30.439257179817762,
                        69.00770715309689
                    ],
                    [
                        -30.442443246069878,
                        69.00569558523588
                    ],
                    [
                        -30.445598376613717,
                        69.00368114417108
                    ],
                    [
                        -30.448706258979477,
                        69.00166231242171
                    ],
                    [
                        -30.451753501049176,
                        68.99963784510467
                    ],
                    [
                        -30.454744133725182,
                        68.99760811951359
                    ],
                    [
                        -30.4577277713056,
                        68.99557775475918
                    ],
                    [
                        -30.46073729113273,
                        68.99354981030618
                    ],
                    [
                        -30.46378454442533,
                        68.99152538786126
                    ],
                    [
                        -30.466868764744827,
                        68.98950441477417
                    ],
                    [
                        -30.46995783382858,
                        68.98748390224209
                    ],
                    [
                        -30.47304749306787,
                        68.98546345401273
                    ],
                    [
                        -30.476106849232522,
                        68.98344019728486
                    ],
                    [
                        -30.47911836634434,
                        68.98141250265304
                    ],
                    [
                        -30.48207965719346,
                        68.97938014982641
                    ],
                    [
                        -30.484962226298936,
                        68.97734049163275
                    ],
                    [
                        -30.487760590081894,
                        68.97529302089113
                    ],
                    [
                        -30.49046749681648,
                        68.9732370661718
                    ],
                    [
                        -30.493094816187448,
                        68.97117373307492
                    ],
                    [
                        -30.495647807984536,
                        68.96910351244117
                    ],
                    [
                        -30.49808419110945,
                        68.9670224776749
                    ],
                    [
                        -30.500419126162356,
                        68.96493203989893
                    ],
                    [
                        -30.502670211228164,
                        68.96283383602552
                    ],
                    [
                        -30.504872395648754,
                        68.96073111418434
                    ],
                    [
                        -30.50704744943426,
                        68.95862589740163
                    ],
                    [
                        -30.509239552708184,
                        68.95652228968828
                    ],
                    [
                        -30.51139870300074,
                        68.95441564668151
                    ],
                    [
                        -30.513525932244704,
                        68.95230606475918
                    ],
                    [
                        -30.515620466283494,
                        68.95019347253067
                    ],
                    [
                        -30.517661945795716,
                        68.94807597989143
                    ],
                    [
                        -30.51967360704857,
                        68.94595574524014
                    ],
                    [
                        -30.521640497150752,
                        68.94383138055629
                    ],
                    [
                        -30.523588744930166,
                        68.94170531242989
                    ],
                    [
                        -30.525539500812677,
                        68.93957950478797
                    ],
                    [
                        -30.5274787815394,
                        68.93745265937864
                    ],
                    [
                        -30.529400122352897,
                        68.93532417616652
                    ],
                    [
                        -30.531310171738443,
                        68.93319467255307
                    ],
                    [
                        -30.53316939809991,
                        68.9310604789693
                    ],
                    [
                        -30.534968176820676,
                        68.928920702518
                    ],
                    [
                        -30.536749800042173,
                        68.92677936227932
                    ],
                    [
                        -30.538541413564754,
                        68.92463897808796
                    ],
                    [
                        -30.540360931001313,
                        68.92250121254371
                    ],
                    [
                        -30.54218350920353,
                        68.9203637595806
                    ],
                    [
                        -30.544015281040906,
                        68.91822718836009
                    ],
                    [
                        -30.545879889076605,
                        68.91609369299101
                    ],
                    [
                        -30.54775728886928,
                        68.91396141292326
                    ],
                    [
                        -30.549618566477335,
                        68.91182766479442
                    ],
                    [
                        -30.551535234589714,
                        68.90969908490132
                    ],
                    [
                        -30.55353532959141,
                        68.90757827414146
                    ],
                    [
                        -30.555613591840963,
                        68.90546474335936
                    ],
                    [
                        -30.55777044355207,
                        68.90335853053786
                    ],
                    [
                        -30.560008635087115,
                        68.90125988951213
                    ],
                    [
                        -30.562290706490227,
                        68.89916534366414
                    ],
                    [
                        -30.564578388944362,
                        68.89707134224267
                    ],
                    [
                        -30.566836761297857,
                        68.8949746459982
                    ],
                    [
                        -30.569074058735314,
                        68.89287601928756
                    ],
                    [
                        -30.571334327923154,
                        68.89077954752439
                    ],
                    [
                        -30.573647141028015,
                        68.88868797268006
                    ],
                    [
                        -30.576032578177774,
                        68.88660315569804
                    ],
                    [
                        -30.57850162313142,
                        68.88452611341734
                    ],
                    [
                        -30.580953418406683,
                        68.88244749303904
                    ],
                    [
                        -30.583400215403508,
                        68.88036843072908
                    ],
                    [
                        -30.585954730053935,
                        68.87829937511137
                    ],
                    [
                        -30.588547839182283,
                        68.87623391652183
                    ],
                    [
                        -30.591127998007504,
                        68.87416727677451
                    ],
                    [
                        -30.59370802316848,
                        68.87210064392936
                    ],
                    [
                        -30.59627367583309,
                        68.87003269856802
                    ],
                    [
                        -30.59884063373265,
                        68.8679648936565
                    ],
                    [
                        -30.601400901289544,
                        68.86589648839329
                    ],
                    [
                        -30.60394853150171,
                        68.86382693202322
                    ],
                    [
                        -30.60651690439889,
                        68.86175931680745
                    ],
                    [
                        -30.609111089691808,
                        68.85969411175623
                    ],
                    [
                        -30.61174791859936,
                        68.85763287493306
                    ],
                    [
                        -30.614438239792452,
                        68.85557660976694
                    ],
                    [
                        -30.617126070519642,
                        68.85352013118457
                    ],
                    [
                        -30.619805840318406,
                        68.8514629235156
                    ],
                    [
                        -30.62251142612477,
                        68.84940812306792
                    ],
                    [
                        -30.62526061858945,
                        68.84735737584572
                    ],
                    [
                        -30.628056157750958,
                        68.84531093414009
                    ],
                    [
                        -30.630887162932748,
                        68.84326778959192
                    ],
                    [
                        -30.633742576865977,
                        68.8412269179238
                    ],
                    [
                        -30.636624123613924,
                        68.83918847785279
                    ],
                    [
                        -30.639502432904134,
                        68.83714975147002
                    ],
                    [
                        -30.642359952618396,
                        68.83510911530591
                    ],
                    [
                        -30.645141826169123,
                        68.83306149637605
                    ],
                    [
                        -30.647818532123,
                        68.83100416683281
                    ],
                    [
                        -30.650407176503542,
                        68.82893871144249
                    ],
                    [
                        -30.65294530915161,
                        68.82686860447554
                    ],
                    [
                        -30.65546114713338,
                        68.82479645599142
                    ],
                    [
                        -30.65794659470538,
                        68.82272151810945
                    ],
                    [
                        -30.660376170377074,
                        68.82064143607865
                    ],
                    [
                        -30.66277019477631,
                        68.81855808943526
                    ],
                    [
                        -30.665078101658597,
                        68.81646680540787
                    ],
                    [
                        -30.66732956385334,
                        68.81437032805285
                    ],
                    [
                        -30.669538285374486,
                        68.81226992486066
                    ],
                    [
                        -30.6716533693922,
                        68.81016089341213
                    ],
                    [
                        -30.673697587974036,
                        68.80804533940409
                    ],
                    [
                        -30.675631962568325,
                        68.80591966236342
                    ],
                    [
                        -30.677479307254718,
                        68.80378597153732
                    ],
                    [
                        -30.67921472986996,
                        68.80164196802916
                    ],
                    [
                        -30.680830713147074,
                        68.79948695824065
                    ],
                    [
                        -30.682344885694896,
                        68.79732257152249
                    ],
                    [
                        -30.68377760738732,
                        68.79515068922977
                    ],
                    [
                        -30.68516766635981,
                        68.79297489503888
                    ],
                    [
                        -30.686509201127393,
                        68.79079464745831
                    ],
                    [
                        -30.68782409862025,
                        68.78861196855901
                    ],
                    [
                        -30.689130115662604,
                        68.78642849883465
                    ],
                    [
                        -30.69044237899945,
                        68.784245635806
                    ],
                    [
                        -30.691706032083264,
                        68.78205831136385
                    ],
                    [
                        -30.692940199465646,
                        68.77986829232732
                    ],
                    [
                        -30.69411756533378,
                        68.7776730549004
                    ],
                    [
                        -30.69522001826212,
                        68.77547092551947
                    ],
                    [
                        -30.696223611554828,
                        68.77325969124453
                    ],
                    [
                        -30.697118330698963,
                        68.77103842603067
                    ],
                    [
                        -30.697911649895698,
                        68.76880781945951
                    ],
                    [
                        -30.69864124499188,
                        68.76657135182714
                    ],
                    [
                        -30.699332219105802,
                        68.76433134210205
                    ],
                    [
                        -30.699935036347313,
                        68.76208321183032
                    ],
                    [
                        -30.700459011696058,
                        68.75982782052527
                    ],
                    [
                        -30.700897561275426,
                        68.75756455826674
                    ],
                    [
                        -30.701215388279007,
                        68.75529016071413
                    ],
                    [
                        -30.701380488648944,
                        68.75300166663115
                    ],
                    [
                        -30.7013643404977,
                        68.7506964352109
                    ],
                    [
                        -30.701187376586,
                        68.74837635049843
                    ],
                    [
                        -30.700899422058516,
                        68.74604601492857
                    ],
                    [
                        -30.70051004588622,
                        68.7437063096539
                    ],
                    [
                        -30.700022214553442,
                        68.74135750532301
                    ],
                    [
                        -30.699457261977532,
                        68.73900157180044
                    ],
                    [
                        -30.698828066026213,
                        68.73663969752346
                    ],
                    [
                        -30.698120730830762,
                        68.73427059380194
                    ],
                    [
                        -30.697313505564413,
                        68.73189224396542
                    ],
                    [
                        -30.696424065781663,
                        68.72950627974187
                    ],
                    [
                        -30.695434256040762,
                        68.72711101615597
                    ],
                    [
                        -30.694403878438997,
                        68.72471198642138
                    ],
                    [
                        -30.693207746894423,
                        68.72229759290954
                    ],
                    [
                        -30.691871982655268,
                        68.71987024664848
                    ],
                    [
                        -30.690331226181307,
                        68.71742388298595
                    ],
                    [
                        -30.688618572254825,
                        68.71496155677605
                    ],
                    [
                        -30.68676806998718,
                        68.71248641351248
                    ],
                    [
                        -30.684676030888347,
                        68.70998882815324
                    ],
                    [
                        -30.682418084053086,
                        68.70747579841884
                    ],
                    [
                        -30.680022093752832,
                        68.70494989698399
                    ],
                    [
                        -30.677414754875937,
                        68.70240430887044
                    ],
                    [
                        -30.674628001688372,
                        68.69984198114761
                    ],
                    [
                        -30.671830161893766,
                        68.69727853156377
                    ],
                    [
                        -30.66903936327828,
                        68.69471564328437
                    ],
                    [
                        -30.666207907355282,
                        68.69214888406475
                    ],
                    [
                        -30.663313532180144,
                        68.68957618066113
                    ],
                    [
                        -30.66029081934263,
                        68.68699144366707
                    ],
                    [
                        -30.65713174631384,
                        68.68439391471807
                    ],
                    [
                        -30.653862669687385,
                        68.68178603341245
                    ],
                    [
                        -30.65049709397132,
                        68.67916904604672
                    ],
                    [
                        -30.64706987215898,
                        68.67654618868958
                    ],
                    [
                        -30.643677084313133,
                        68.67392640618195
                    ],
                    [
                        -30.640321466676127,
                        68.67130995700772
                    ],
                    [
                        -30.63694325784105,
                        68.66869127329588
                    ],
                    [
                        -30.63358031227514,
                        68.66607388321422
                    ],
                    [
                        -30.630216372316355,
                        68.66345627146829
                    ],
                    [
                        -30.62664699218256,
                        68.66081935644577
                    ],
                    [
                        -30.62307108818779,
                        68.65818168912965
                    ],
                    [
                        -30.619403894370752,
                        68.65553535129237
                    ],
                    [
                        -30.615492906366583,
                        68.65286608279483
                    ],
                    [
                        -30.61138462837785,
                        68.65017820333856
                    ],
                    [
                        -30.606958880249504,
                        68.64748453497326
                    ],
                    [
                        -30.602490593245868,
                        68.64485278237468
                    ],
                    [
                        -30.597946622806436,
                        68.6423299548199
                    ],
                    [
                        -30.59332570392062,
                        68.63991777635056
                    ],
                    [
                        -30.58860849586907,
                        68.63764361217265
                    ],
                    [
                        -30.583853893610385,
                        68.63542382224492
                    ],
                    [
                        -30.57906900205646,
                        68.63324829063295
                    ],
                    [
                        -30.574158137826167,
                        68.63125263872533
                    ],
                    [
                        -30.569146641117577,
                        68.62940080698023
                    ],
                    [
                        -30.564101468042885,
                        68.62759780218583
                    ],
                    [
                        -30.559037992506276,
                        68.62582180482127
                    ],
                    [
                        -30.553900182690665,
                        68.6241521390364
                    ],
                    [
                        -30.54876346244928,
                        68.62248193353427
                    ],
                    [
                        -30.543618191125486,
                        68.6208248326904
                    ],
                    [
                        -30.53846114987671,
                        68.61918537873154
                    ],
                    [
                        -30.533313236548835,
                        68.61753399714283
                    ],
                    [
                        -30.528166742426215,
                        68.61588159849795
                    ],
                    [
                        -30.523041192965767,
                        68.61420058249688
                    ],
                    [
                        -30.51795019205202,
                        68.61247174943442
                    ],
                    [
                        -30.51286875927017,
                        68.61073043230465
                    ],
                    [
                        -30.507809364625732,
                        68.60895902939261
                    ],
                    [
                        -30.502764114676946,
                        68.60716871147048
                    ],
                    [
                        -30.49770601083279,
                        68.60539760470776
                    ],
                    [
                        -30.492662118280613,
                        68.60360749896918
                    ],
                    [
                        -30.487658423455667,
                        68.60176174915028
                    ],
                    [
                        -30.482683277691066,
                        68.59987683045011
                    ],
                    [
                        -30.47778961193714,
                        68.59787814137036
                    ],
                    [
                        -30.472886701339444,
                        68.59589366194727
                    ],
                    [
                        -30.467993911670064,
                        68.59389608891149
                    ],
                    [
                        -30.463098916024823,
                        68.59190279969575
                    ],
                    [
                        -30.458158728557734,
                        68.58997433749813
                    ],
                    [
                        -30.45323792279778,
                        68.58801972076374
                    ],
                    [
                        -30.448345288691616,
                        68.58602659571056
                    ],
                    [
                        -30.443495099143608,
                        68.58397490431507
                    ],
                    [
                        -30.43868727619259,
                        68.58186480098274
                    ],
                    [
                        -30.433861841332273,
                        68.57978070215584
                    ],
                    [
                        -30.4290424744156,
                        68.57768928543537
                    ],
                    [
                        -30.424159312387545,
                        68.57568878329506
                    ],
                    [
                        -30.419210152904185,
                        68.57378221992836
                    ],
                    [
                        -30.414221940872476,
                        68.5719316554528
                    ],
                    [
                        -30.4091656347779,
                        68.5701778418001
                    ],
                    [
                        -30.404053920322824,
                        68.56850288031382
                    ],
                    [
                        -30.398888992706492,
                        68.56690361980672
                    ],
                    [
                        -30.393680720653617,
                        68.56536614085783
                    ],
                    [
                        -30.388442780938426,
                        68.56387119649814
                    ],
                    [
                        -30.38321540072837,
                        68.56236232034053
                    ],
                    [
                        -30.377992473738434,
                        68.56084808770038
                    ],
                    [
                        -30.372807954519597,
                        68.55928090387286
                    ],
                    [
                        -30.367644342022306,
                        68.55768534309375
                    ],
                    [
                        -30.362514760880984,
                        68.55604304245402
                    ],
                    [
                        -30.35741758874134,
                        68.55435631510265
                    ],
                    [
                        -30.352349106259044,
                        68.55263040717767
                    ],
                    [
                        -30.347314176605664,
                        68.55085854423832
                    ],
                    [
                        -30.342270889987883,
                        68.54909941511542
                    ],
                    [
                        -30.33721788297574,
                        68.54735491629553
                    ],
                    [
                        -30.33218334705503,
                        68.54558560503084
                    ],
                    [
                        -30.327180378130922,
                        68.54377319029915
                    ],
                    [
                        -30.322218099794814,
                        68.54190495367949
                    ],
                    [
                        -30.31733113781424,
                        68.5399325497652
                    ],
                    [
                        -30.312520338985312,
                        68.5378548763841
                    ],
                    [
                        -30.307817742454162,
                        68.53562725834286
                    ],
                    [
                        -30.303245163582524,
                        68.53321933508222
                    ],
                    [
                        -30.298810747221758,
                        68.53061985176686
                    ],
                    [
                        -30.294631689029313,
                        68.52791177816626
                    ],
                    [
                        -30.290996137018933,
                        68.52525579377162
                    ],
                    [
                        -30.28781912943532,
                        68.52264378230062
                    ],
                    [
                        -30.284941547590712,
                        68.52006047323621
                    ],
                    [
                        -30.282383096229243,
                        68.51750779138126
                    ],
                    [
                        -30.280178847476776,
                        68.514989141669
                    ],
                    [
                        -30.278290951330398,
                        68.51250090540007
                    ],
                    [
                        -30.276642439329283,
                        68.51003568874914
                    ],
                    [
                        -30.275248877884263,
                        68.50759500758055
                    ],
                    [
                        -30.27399467435014,
                        68.50516773493439
                    ],
                    [
                        -30.272870618997878,
                        68.50275299082385
                    ],
                    [
                        -30.271820855820124,
                        68.50034539620312
                    ],
                    [
                        -30.270851880222764,
                        68.49794558142034
                    ],
                    [
                        -30.269916340351287,
                        68.49554898293643
                    ],
                    [
                        -30.26902258685038,
                        68.49315640807802
                    ],
                    [
                        -30.268223130038532,
                        68.4907729258281
                    ],
                    [
                        -30.26755499312081,
                        68.48840211368336
                    ],
                    [
                        -30.26700039212952,
                        68.48604226089503
                    ],
                    [
                        -30.266561070294546,
                        68.48369354048309
                    ],
                    [
                        -30.266195497112253,
                        68.4813519472846
                    ],
                    [
                        -30.265924347894405,
                        68.4790194804807
                    ],
                    [
                        -30.265719846562426,
                        68.47669346106026
                    ],
                    [
                        -30.26556927732835,
                        68.47437266317789
                    ],
                    [
                        -30.265446704386246,
                        68.47205458339539
                    ],
                    [
                        -30.265369600183252,
                        68.46974091051784
                    ],
                    [
                        -30.265343138157654,
                        68.46743214579418
                    ],
                    [
                        -30.265286831653633,
                        68.4651205138549
                    ],
                    [
                        -30.265182548158855,
                        68.46280426155776
                    ],
                    [
                        -30.26502979867397,
                        68.46048334011465
                    ],
                    [
                        -30.2648812742267,
                        68.45816284086206
                    ],
                    [
                        -30.264802526124214,
                        68.45584910059011
                    ],
                    [
                        -30.26478463425362,
                        68.45354125911953
                    ],
                    [
                        -30.264835159128925,
                        68.4512400492764
                    ],
                    [
                        -30.264940482750458,
                        68.448944156216
                    ],
                    [
                        -30.26514841764069,
                        68.44665820509576
                    ],
                    [
                        -30.26541391460541,
                        68.44437784171366
                    ],
                    [
                        -30.2656427661447,
                        68.44209395573426
                    ],
                    [
                        -30.26585994399947,
                        68.43980896173036
                    ],
                    [
                        -30.265939441830223,
                        68.43751066993454
                    ],
                    [
                        -30.26588669733945,
                        68.4351996025959
                    ],
                    [
                        -30.265636696978365,
                        68.43286946498957
                    ],
                    [
                        -30.265077421016677,
                        68.43050940971824
                    ],
                    [
                        -30.264085591435226,
                        68.42810749176634
                    ],
                    [
                        -30.26261308864121,
                        68.42565903045369
                    ],
                    [
                        -30.260743236878515,
                        68.42317206477105
                    ],
                    [
                        -30.258654895981714,
                        68.420663891125
                    ],
                    [
                        -30.256383090584734,
                        68.41813788646827
                    ],
                    [
                        -30.253689007893673,
                        68.415570891778
                    ],
                    [
                        -30.25054389916646,
                        68.41296008251867
                    ],
                    [
                        -30.24665439332392,
                        68.41027696154171
                    ],
                    [
                        -30.24227520565338,
                        68.40764553227118
                    ],
                    [
                        -30.23779541302665,
                        68.40515617352021
                    ],
                    [
                        -30.233262687286842,
                        68.4027421664937
                    ],
                    [
                        -30.228721229705297,
                        68.40034169638251
                    ],
                    [
                        -30.22415811171092,
                        68.39797281623464
                    ],
                    [
                        -30.219533825824804,
                        68.39569068759928
                    ],
                    [
                        -30.21484943149708,
                        68.3934937717042
                    ],
                    [
                        -30.210096699683152,
                        68.39139349679961
                    ],
                    [
                        -30.205272388980564,
                        68.38939431614999
                    ],
                    [
                        -30.200389208838914,
                        68.38747841831143
                    ],
                    [
                        -30.195499239783505,
                        68.38557308515095
                    ],
                    [
                        -30.19061943525278,
                        68.3836546639987
                    ],
                    [
                        -30.18577486267262,
                        68.38168821345555
                    ],
                    [
                        -30.180940130450978,
                        68.37970916439728
                    ],
                    [
                        -30.17604896645551,
                        68.37780988172803
                    ],
                    [
                        -30.171060444683057,
                        68.37604732061173
                    ],
                    [
                        -30.165967217071987,
                        68.37443160268548
                    ],
                    [
                        -30.16077778336235,
                        68.37295076610327
                    ],
                    [
                        -30.15549788839602,
                        68.37159669261494
                    ],
                    [
                        -30.150138190498897,
                        68.37035443233584
                    ],
                    [
                        -30.14470961343871,
                        68.36920868159385
                    ],
                    [
                        -30.139194512143444,
                        68.36818388058845
                    ],
                    [
                        -30.139194512143444,
                        68.36818388058845
                    ],
                    [
                        -30.133679945559226,
                        68.36715888709661
                    ],
                    [
                        -30.128052528172468,
                        68.3662912601686
                    ],
                    [
                        -30.122269448904223,
                        68.36564029781731
                    ],
                    [
                        -30.116322247426197,
                        68.36521750144425
                    ],
                    [
                        -30.110275851038022,
                        68.36493248387795
                    ],
                    [
                        -30.104210948023326,
                        68.36467313251106
                    ],
                    [
                        -30.098178290478273,
                        68.36436903363516
                    ],
                    [
                        -30.092172251969654,
                        68.36402804164834
                    ],
                    [
                        -30.086158503202334,
                        68.36369776992791
                    ],
                    [
                        -30.080103125286744,
                        68.36342518568419
                    ],
                    [
                        -30.07399258934945,
                        68.36322894810007
                    ],
                    [
                        -30.067830075326185,
                        68.36310456021398
                    ],
                    [
                        -30.061616443732163,
                        68.3630507396637
                    ],
                    [
                        -30.05535900043283,
                        68.3630572928813
                    ],
                    [
                        -30.049055886892695,
                        68.36312670899233
                    ],
                    [
                        -30.04269371938828,
                        68.36327739319916
                    ],
                    [
                        -29.99438669713963,
                        68.36384552704878
                    ],
                    [
                        -29.946077113283785,
                        68.36439863031178
                    ],
                    [
                        -29.897765036310926,
                        68.36493670172845
                    ],
                    [
                        -29.849450534732508,
                        68.36545974007312
                    ],
                    [
                        -29.801133677080646,
                        68.36596774415428
                    ],
                    [
                        -29.752814531907543,
                        68.36646071281454
                    ],
                    [
                        -29.70449316778493,
                        68.36693864493071
                    ],
                    [
                        -29.65616965330343,
                        68.36740153941373
                    ],
                    [
                        -29.60784405707203,
                        68.36784939520874
                    ],
                    [
                        -29.559516447717453,
                        68.368282211295
                    ],
                    [
                        -29.51118689388364,
                        68.36869998668602
                    ],
                    [
                        -29.46285546423107,
                        68.36910272042957
                    ],
                    [
                        -29.41452222743627,
                        68.36949041160753
                    ],
                    [
                        -29.36618725219117,
                        68.36986305933608
                    ],
                    [
                        -29.317850607202562,
                        68.37022066276562
                    ],
                    [
                        -29.269512361191477,
                        68.37056322108077
                    ],
                    [
                        -29.22117258289259,
                        68.37089073350045
                    ],
                    [
                        -29.172831341053712,
                        68.37120319927779
                    ],
                    [
                        -29.12448870443511,
                        68.37150061770024
                    ],
                    [
                        -29.076144741808974,
                        68.3717829880895
                    ]
                ]
            }
        }
    ]
}
