{
    "type": "FeatureCollection",
    "features": [
        {
            "type": "Feature",
            "properties": {
                "name": "Thwaites",
                "object": "transect",
                "component": "landice",
                "author": "Matthew Hoffman, converted from https://github.com/yuwang115/sl-ice",
                "tags": "Antarctic_Ice_Sheet;flowline;sl-ice;thwaites"
            },
            "geometry": {
                "type": "LineString",
                "coordinates": [
                    [
                        -106.15191554022765,
                        -79.48452417851476
                    ],
                    [
                        -106.14092051809085,
                        -79.46648980242568
                    ],
                    [
                        -106.10770332250522,
                        -79.44928597177474
                    ],
                    [
                        -106.06884746500158,
                        -79.43247877842424
                    ],
                    [
                        -106.0242367398301,
                        -79.41621205937534
                    ],
                    [
                        -105.9666155785954,
                        -79.40135341773518
                    ],
                    [
                        -105.89818595516945,
                        -79.38819262618016
                    ],
                    [
                        -105.81900215697543,
                        -79.37723510548295
                    ],
                    [
                        -105.73671632696724,
                        -79.3670932510957
                    ],
                    [
                        -105.66249688646522,
                        -79.35511822681072
                    ],
                    [
                        -105.59470857834705,
                        -79.34185099904595
                    ],
                    [
                        -105.52504216858348,
                        -79.328929434109
                    ],
                    [
                        -105.45764877624845,
                        -79.31562231746574
                    ],
                    [
                        -105.39779617473339,
                        -79.30119026956153
                    ],
                    [
                        -105.32794020961713,
                        -79.28835822755512
                    ],
                    [
                        -105.2638857163523,
                        -79.2745689765891
                    ],
                    [
                        -105.19715436888048,
                        -79.26120476101538
                    ],
                    [
                        -105.12395370963438,
                        -79.2491698305057
                    ],
                    [
                        -105.04255092683688,
                        -79.23907342436188
                    ],
                    [
                        -104.96675831742702,
                        -79.22764391179233
                    ],
                    [
                        -104.89911700429624,
                        -79.21449031196467
                    ],
                    [
                        -104.83226986683924,
                        -79.20121065316208
                    ],
                    [
                        -104.75718509853827,
                        -79.18970513193783
                    ],
                    [
                        -104.68220327279919,
                        -79.17837762151137
                    ],
                    [
                        -104.62361096435036,
                        -79.16386161108274
                    ],
                    [
                        -104.5636865670998,
                        -79.1495141156538
                    ],
                    [
                        -104.50740464591044,
                        -79.13471005914178
                    ],
                    [
                        -104.46510368061112,
                        -79.11833426326291
                    ],
                    [
                        -104.430750146835,
                        -79.10128524978698
                    ],
                    [
                        -104.39997679596809,
                        -79.08399144309273
                    ],
                    [
                        -104.37024553434179,
                        -79.0666368617827
                    ],
                    [
                        -104.35303864525235,
                        -79.04869837114276
                    ],
                    [
                        -104.34551909294198,
                        -79.0305186760707
                    ],
                    [
                        -104.34825285508427,
                        -79.01229834706706
                    ],
                    [
                        -104.3703830332052,
                        -78.9945828028946
                    ],
                    [
                        -104.4137056941082,
                        -78.97851540142452
                    ],
                    [
                        -104.4689772163668,
                        -78.96364976581127
                    ],
                    [
                        -104.51561712370972,
                        -78.94777740122025
                    ],
                    [
                        -104.55366544641164,
                        -78.93105899698345
                    ],
                    [
                        -104.59845936176228,
                        -78.91500208162297
                    ],
                    [
                        -104.65423641428377,
                        -78.90026681847111
                    ],
                    [
                        -104.71558035807388,
                        -78.88637501511357
                    ],
                    [
                        -104.77639240660135,
                        -78.8724090099058
                    ],
                    [
                        -104.83893931505375,
                        -78.85874368570761
                    ],
                    [
                        -104.89843286951857,
                        -78.8445956781947
                    ],
                    [
                        -104.95412501432651,
                        -78.8298877406203
                    ],
                    [
                        -105.00809564306267,
                        -78.81495322102722
                    ],
                    [
                        -105.0556006651356,
                        -78.79923565755541
                    ],
                    [
                        -105.09670769512576,
                        -78.78284795907193
                    ],
                    [
                        -105.13342629784027,
                        -78.76606966607952
                    ],
                    [
                        -105.17048069069392,
                        -78.74932602330479
                    ],
                    [
                        -105.2087762133868,
                        -78.73269156168702
                    ],
                    [
                        -105.24536263814753,
                        -78.71591936752677
                    ],
                    [
                        -105.27792983052326,
                        -78.69883920572573
                    ],
                    [
                        -105.30497298397613,
                        -78.68139799227353
                    ],
                    [
                        -105.32056784802313,
                        -78.66343178778527
                    ],
                    [
                        -105.32869293193482,
                        -78.64527318937876
                    ],
                    [
                        -105.33392143427095,
                        -78.62706693127849
                    ],
                    [
                        -105.34401284434732,
                        -78.6089464325834
                    ],
                    [
                        -105.35698243564235,
                        -78.59089204659968
                    ],
                    [
                        -105.3668015380254,
                        -78.57276968556796
                    ],
                    [
                        -105.37315756625635,
                        -78.55458052868593
                    ],
                    [
                        -105.37968959692576,
                        -78.53639618043553
                    ],
                    [
                        -105.38516755780257,
                        -78.51819983851374
                    ],
                    [
                        -105.39413885207635,
                        -78.50006079209847
                    ],
                    [
                        -105.40704856525716,
                        -78.48201475864643
                    ],
                    [
                        -105.42171512262192,
                        -78.4640245732681
                    ],
                    [
                        -105.44257960584982,
                        -78.4462806038094
                    ],
                    [
                        -105.46232348337145,
                        -78.42848741955842
                    ],
                    [
                        -105.48445227276748,
                        -78.41081542981425
                    ],
                    [
                        -105.50803269813775,
                        -78.39322859635286
                    ],
                    [
                        -105.50623357510612,
                        -78.37543187604254
                    ],
                    [
                        -105.48887201868634,
                        -78.35754998576006
                    ],
                    [
                        -105.50531277647259,
                        -78.33983265204981
                    ],
                    [
                        -105.54977969614207,
                        -78.32404359429626
                    ],
                    [
                        -105.60128730643237,
                        -78.3091000425967
                    ],
                    [
                        -105.65214793608206,
                        -78.29408214573424
                    ],
                    [
                        -105.70119335841522,
                        -78.2788213766645
                    ],
                    [
                        -105.74922838772304,
                        -78.26343649498477
                    ],
                    [
                        -105.79512878317124,
                        -78.24779598743937
                    ],
                    [
                        -105.84091554722721,
                        -78.23214505502561
                    ],
                    [
                        -105.88787168443842,
                        -78.21664880380162
                    ],
                    [
                        -105.94101855959207,
                        -78.20203166174795
                    ],
                    [
                        -105.99843737710178,
                        -78.18811105443324
                    ],
                    [
                        -106.05541672360165,
                        -78.17412108669991
                    ],
                    [
                        -106.10842420221749,
                        -78.1595014874754
                    ],
                    [
                        -106.15905200383486,
                        -78.14454136101428
                    ],
                    [
                        -106.20909255035566,
                        -78.12950882506455
                    ],
                    [
                        -106.25739448007893,
                        -78.11424380482303
                    ],
                    [
                        -106.30276956724927,
                        -78.09861697665765
                    ],
                    [
                        -106.34460261553708,
                        -78.08257636926415
                    ],
                    [
                        -106.38460130867368,
                        -78.06634598473688
                    ],
                    [
                        -106.4257615915687,
                        -78.05024634552085
                    ],
                    [
                        -106.47026532584813,
                        -78.03454086309691
                    ],
                    [
                        -106.51647169718929,
                        -78.01905572357282
                    ],
                    [
                        -106.56139074178442,
                        -78.00341502533733
                    ],
                    [
                        -106.60379044559203,
                        -77.98748034977815
                    ],
                    [
                        -106.64197345889262,
                        -77.97109768262257
                    ],
                    [
                        -106.67640265826122,
                        -77.95436329554711
                    ],
                    [
                        -106.70777467294647,
                        -77.93737165544714
                    ],
                    [
                        -106.73504042219588,
                        -77.92007834396225
                    ],
                    [
                        -106.76235999148666,
                        -77.90278971417413
                    ],
                    [
                        -106.7955946911521,
                        -77.88598087230297
                    ],
                    [
                        -106.83367749083334,
                        -77.86962387169557
                    ],
                    [
                        -106.86855687276203,
                        -77.85296137649799
                    ],
                    [
                        -106.89977904683313,
                        -77.83598249730618
                    ],
                    [
                        -106.92733006354814,
                        -77.81872925190225
                    ],
                    [
                        -106.95162140025104,
                        -77.80125995160604
                    ],
                    [
                        -106.97422068530031,
                        -77.78369014141403
                    ],
                    [
                        -106.99469340326947,
                        -77.76600695201111
                    ],
                    [
                        -107.01375762278688,
                        -77.74825808746056
                    ],
                    [
                        -107.03052312245079,
                        -77.73040318562255
                    ],
                    [
                        -107.0436378708822,
                        -77.71241635245377
                    ],
                    [
                        -107.05474422781657,
                        -77.69436407512131
                    ],
                    [
                        -107.06578645318234,
                        -77.67631493618066
                    ],
                    [
                        -107.07707154435195,
                        -77.65827164826942
                    ],
                    [
                        -107.0878637532269,
                        -77.6402149350088
                    ],
                    [
                        -107.09857992825877,
                        -77.62215844592367
                    ],
                    [
                        -107.1105088667894,
                        -77.60413795107185
                    ],
                    [
                        -107.12281363934996,
                        -77.58613220466657
                    ],
                    [
                        -107.13470715276709,
                        -77.56811140775436
                    ],
                    [
                        -107.14621166578047,
                        -77.55008377413581
                    ],
                    [
                        -107.1561440921412,
                        -77.53201025731772
                    ],
                    [
                        -107.16390986130463,
                        -77.51388930359428
                    ],
                    [
                        -107.16862140803943,
                        -77.49572113185542
                    ],
                    [
                        -107.170971361791,
                        -77.47753276061101
                    ],
                    [
                        -107.16971640463449,
                        -77.4593398281891
                    ],
                    [
                        -107.16481068095777,
                        -77.44117594457353
                    ],
                    [
                        -107.15781132355252,
                        -77.42304580305637
                    ],
                    [
                        -107.14910056175121,
                        -77.40495077335626
                    ],
                    [
                        -107.14027231589806,
                        -77.3868599611352
                    ],
                    [
                        -107.13187188912369,
                        -77.36875851316515
                    ],
                    [
                        -107.12401163757636,
                        -77.35064733144333
                    ],
                    [
                        -107.11617800101597,
                        -77.33253625607627
                    ],
                    [
                        -107.10762137863058,
                        -77.31444075224006
                    ],
                    [
                        -107.09808737183461,
                        -77.2963715089131
                    ],
                    [
                        -107.0881917998926,
                        -77.27831173348201
                    ],
                    [
                        -107.08035609566134,
                        -77.2602058359868
                    ],
                    [
                        -107.0753179289932,
                        -77.24205188035921
                    ],
                    [
                        -107.07361085572636,
                        -77.22386814929789
                    ],
                    [
                        -107.0752793545855,
                        -77.20568781436974
                    ],
                    [
                        -107.08123442854793,
                        -77.18755046942904
                    ],
                    [
                        -107.0948804979349,
                        -77.16962348122162
                    ],
                    [
                        -107.11322512989938,
                        -77.15190193648739
                    ],
                    [
                        -107.13391084116083,
                        -77.1343123025457
                    ],
                    [
                        -107.15541677453287,
                        -77.11676968102324
                    ],
                    [
                        -107.17678319522743,
                        -77.09921998744257
                    ],
                    [
                        -107.19690695636845,
                        -77.08160069153081
                    ],
                    [
                        -107.21435476001459,
                        -77.06384340285973
                    ],
                    [
                        -107.22957089537366,
                        -77.04598609321486
                    ],
                    [
                        -107.24235923877241,
                        -77.02803108444964
                    ],
                    [
                        -107.25391480654173,
                        -77.01003686352006
                    ],
                    [
                        -107.26494670005735,
                        -76.99202667780665
                    ],
                    [
                        -107.2761500619893,
                        -76.97402244526651
                    ],
                    [
                        -107.28641166794247,
                        -76.95599093346206
                    ],
                    [
                        -107.29538621573916,
                        -76.93792637597764
                    ],
                    [
                        -107.30338050780861,
                        -76.91983715997017
                    ],
                    [
                        -107.31099548292198,
                        -76.90174213397651
                    ],
                    [
                        -107.31868408172087,
                        -76.88364936617982
                    ],
                    [
                        -107.32664919215392,
                        -76.86556347995798
                    ],
                    [
                        -107.33444479152625,
                        -76.84747416787413
                    ],
                    [
                        -107.34186632552941,
                        -76.82937796655017
                    ],
                    [
                        -107.34878589296976,
                        -76.81127176295347
                    ],
                    [
                        -107.35411666227671,
                        -76.79313912345773
                    ],
                    [
                        -107.35865509806214,
                        -76.77499504543724
                    ],
                    [
                        -107.36198440414032,
                        -76.75683920794891
                    ],
                    [
                        -107.36283245584521,
                        -76.73866905360005
                    ],
                    [
                        -107.36096517125041,
                        -76.72050597156569
                    ],
                    [
                        -107.35680126900591,
                        -76.70236057387352
                    ],
                    [
                        -107.35119536160057,
                        -76.68423757887892
                    ],
                    [
                        -107.34693649210665,
                        -76.6660962287617
                    ],
                    [
                        -107.34442331973216,
                        -76.64793693633834
                    ],
                    [
                        -107.34013314179273,
                        -76.62979768047556
                    ],
                    [
                        -107.33288243120309,
                        -76.61170926411909
                    ],
                    [
                        -107.32648902357835,
                        -76.59360349321574
                    ],
                    [
                        -107.32209965426726,
                        -76.57546752942478
                    ],
                    [
                        -107.31608964499773,
                        -76.55735632703694
                    ],
                    [
                        -107.3091470715116,
                        -76.53926311818138
                    ],
                    [
                        -107.30309933574554,
                        -76.52115429148047
                    ],
                    [
                        -107.29693616628,
                        -76.50304794008777
                    ],
                    [
                        -107.29121050719436,
                        -76.484934283669
                    ],
                    [
                        -107.28757135858699,
                        -76.46679295136933
                    ],
                    [
                        -107.28526514349247,
                        -76.4486403532223
                    ],
                    [
                        -107.28312695287981,
                        -76.43048513269949
                    ],
                    [
                        -107.2819613902521,
                        -76.41232737219516
                    ],
                    [
                        -107.28031422134727,
                        -76.39417342260393
                    ],
                    [
                        -107.27610915467532,
                        -76.37604152029921
                    ],
                    [
                        -107.27080149552137,
                        -76.35792726460447
                    ],
                    [
                        -107.2655811855081,
                        -76.33981103265775
                    ],
                    [
                        -107.26030911186668,
                        -76.3216973262653
                    ],
                    [
                        -107.2546189494345,
                        -76.30359124488528
                    ],
                    [
                        -107.2486505096781,
                        -76.28549114019637
                    ],
                    [
                        -107.24228631557015,
                        -76.26739812771987
                    ],
                    [
                        -107.23571512383253,
                        -76.24931167202938
                    ],
                    [
                        -107.22935947377171,
                        -76.23122152421341
                    ],
                    [
                        -107.22359128434304,
                        -76.2131201076875
                    ],
                    [
                        -107.21847534924379,
                        -76.1950101030047
                    ],
                    [
                        -107.213999589888,
                        -76.1768903565368
                    ],
                    [
                        -107.210743574686,
                        -76.15875670712049
                    ],
                    [
                        -107.2093793353728,
                        -76.14060837195781
                    ],
                    [
                        -107.20914205888081,
                        -76.12245986882567
                    ],
                    [
                        -107.20906313599369,
                        -76.10431170057174
                    ],
                    [
                        -107.20807893448493,
                        -76.08616327337235
                    ],
                    [
                        -107.20642128778232,
                        -76.06802034812165
                    ],
                    [
                        -107.2044465925287,
                        -76.04987929101526
                    ],
                    [
                        -107.20195971348997,
                        -76.03174337889828
                    ],
                    [
                        -107.19997452372701,
                        -76.01360524572632
                    ],
                    [
                        -107.199711490245,
                        -75.99546067215358
                    ],
                    [
                        -107.20184332034641,
                        -75.97732325487215
                    ],
                    [
                        -107.20550143329619,
                        -75.9592033760266
                    ],
                    [
                        -107.20978458685813,
                        -75.94109143451642
                    ],
                    [
                        -107.21172753822913,
                        -75.9229562410812
                    ],
                    [
                        -107.2114509386913,
                        -75.90481507774092
                    ],
                    [
                        -107.21016223455209,
                        -75.88667706247669
                    ],
                    [
                        -107.20877475613948,
                        -75.86853890249255
                    ],
                    [
                        -107.20738243604418,
                        -75.85040395588973
                    ],
                    [
                        -107.2053995487325,
                        -75.83227201409632
                    ],
                    [
                        -107.20232584619751,
                        -75.81414987825059
                    ],
                    [
                        -107.19768431979553,
                        -75.79604843572534
                    ],
                    [
                        -107.18919551370985,
                        -75.7780388545718
                    ],
                    [
                        -107.17160807448482,
                        -75.76043292926745
                    ],
                    [
                        -107.14952780109198,
                        -75.74313428094817
                    ],
                    [
                        -107.12820199673615,
                        -75.72577902949824
                    ],
                    [
                        -107.11143665917169,
                        -75.70812529160236
                    ],
                    [
                        -107.09639104817482,
                        -75.69037659772886
                    ],
                    [
                        -107.08183007170392,
                        -75.67260497048139
                    ],
                    [
                        -107.06759491660792,
                        -75.65481960878817
                    ],
                    [
                        -107.0544829947702,
                        -75.63698348226616
                    ],
                    [
                        -107.04253287281284,
                        -75.61909732995265
                    ],
                    [
                        -107.02961137992668,
                        -75.6012553072597
                    ],
                    [
                        -107.0163453721011,
                        -75.58342868926529
                    ],
                    [
                        -107.00207846948103,
                        -75.56565144564534
                    ],
                    [
                        -106.9857049999441,
                        -75.54799092379186
                    ],
                    [
                        -106.96922654978098,
                        -75.53033814478468
                    ],
                    [
                        -106.95443500085388,
                        -75.51259429896817
                    ],
                    [
                        -106.93887248673272,
                        -75.49489190449181
                    ],
                    [
                        -106.9219133389255,
                        -75.4772730754309
                    ],
                    [
                        -106.90131504491067,
                        -75.45990900935041
                    ],
                    [
                        -106.87723842604977,
                        -75.44282521879258
                    ],
                    [
                        -106.8522895471697,
                        -75.4258236371249
                    ],
                    [
                        -106.82784534530896,
                        -75.4087783834551
                    ],
                    [
                        -106.80523111702867,
                        -75.39157904271187
                    ],
                    [
                        -106.78533119398428,
                        -75.3741715947492
                    ],
                    [
                        -106.76956890972528,
                        -75.3564996630826
                    ],
                    [
                        -106.75931110912552,
                        -75.33857236493814
                    ],
                    [
                        -106.75335624478066,
                        -75.32052040093865
                    ],
                    [
                        -106.75113627455065,
                        -75.30241280097749
                    ],
                    [
                        -106.75265386880841,
                        -75.28430139115521
                    ],
                    [
                        -106.75738002132572,
                        -75.26622839789702
                    ],
                    [
                        -106.76450083844499,
                        -75.24820313317743
                    ],
                    [
                        -106.77341704497128,
                        -75.23023102599913
                    ],
                    [
                        -106.78405490421844,
                        -75.21232081744276
                    ],
                    [
                        -106.79482186104397,
                        -75.1944168104059
                    ],
                    [
                        -106.80587001696324,
                        -75.17652611188609
                    ],
                    [
                        -106.81732770543006,
                        -75.15865190562988
                    ],
                    [
                        -106.82908087193695,
                        -75.14079245634308
                    ],
                    [
                        -106.8408788172408,
                        -75.12293590349003
                    ],
                    [
                        -106.85173209572132,
                        -75.10504197977012
                    ],
                    [
                        -106.86225102431199,
                        -75.08713631451734
                    ],
                    [
                        -106.87339847198818,
                        -75.06925636344843
                    ],
                    [
                        -106.88556967234852,
                        -75.05142198790683
                    ],
                    [
                        -106.8986556544345,
                        -75.03363371485482
                    ],
                    [
                        -106.91228218163819,
                        -75.01587135438447
                    ],
                    [
                        -106.92680100935318,
                        -74.99815897799091
                    ],
                    [
                        -106.9421934080409,
                        -74.98049858698243
                    ],
                    [
                        -106.95907883007963,
                        -74.96293252470552
                    ],
                    [
                        -106.97730249122141,
                        -74.94546001667018
                    ],
                    [
                        -106.99679966951891,
                        -74.92807889064296
                    ],
                    [
                        -107.01729879676647,
                        -74.91078077069265
                    ],
                    [
                        -107.03661737907903,
                        -74.89339275340797
                    ],
                    [
                        -107.05589104129746,
                        -74.8760037143184
                    ],
                    [
                        -107.07511993556723,
                        -74.85861366025726
                    ],
                    [
                        -107.09430421336812,
                        -74.84122259803043
                    ],
                    [
                        -107.11344402551786,
                        -74.82383053441649
                    ],
                    [
                        -107.13253952217553,
                        -74.80643747616683
                    ],
                    [
                        -107.15159085284503,
                        -74.78904343000589
                    ],
                    [
                        -107.17059816637855,
                        -74.77164840263123
                    ],
                    [
                        -107.18956161098002,
                        -74.75425240071371
                    ],
                    [
                        -107.20848133420847,
                        -74.7368554308976
                    ],
                    [
                        -107.22735748298147,
                        -74.71945749980081
                    ],
                    [
                        -107.24619020357842,
                        -74.70205861401494
                    ],
                    [
                        -107.26497964164398,
                        -74.68465878010547
                    ],
                    [
                        -107.28372594219135,
                        -74.6672580046119
                    ],
                    [
                        -107.30242924960557,
                        -74.64985629404784
                    ],
                    [
                        -107.32108970764683,
                        -74.6324536549013
                    ],
                    [
                        -107.33970745945375,
                        -74.61505009363464
                    ],
                    [
                        -107.3582826475465,
                        -74.59764561668482
                    ],
                    [
                        -107.37681541383027,
                        -74.58024023046347
                    ],
                    [
                        -107.39530589959824,
                        -74.56283394135718
                    ]
                ]
            }
        }
    ]
}
