{
    "type": "FeatureCollection",
    "features": [
        {
            "type": "Feature",
            "properties": {
                "name": "Fisher",
                "object": "transect",
                "component": "landice",
                "author": "Matthew Hoffman, converted from https://github.com/yuwang115/sl-ice",
                "tags": "Antarctic_Ice_Sheet;flowline;sl-ice;fisher"
            },
            "geometry": {
                "type": "LineString",
                "coordinates": [
                    [
                        54.00060399778127,
                        -72.94673234021718
                    ],
                    [
                        54.05997735413361,
                        -72.95134838544419
                    ],
                    [
                        54.11922959715549,
                        -72.95609173608577
                    ],
                    [
                        54.17847005396513,
                        -72.96089093497218
                    ],
                    [
                        54.237611538384975,
                        -72.96579408744843
                    ],
                    [
                        54.29671737832309,
                        -72.97075893672408
                    ],
                    [
                        54.35581642318428,
                        -72.9757415584221
                    ],
                    [
                        54.41492643102506,
                        -72.98074564525224
                    ],
                    [
                        54.47397188994647,
                        -72.98581624675029
                    ],
                    [
                        54.533000668467324,
                        -72.99093561659748
                    ],
                    [
                        54.59203979109425,
                        -72.99605401722707
                    ],
                    [
                        54.651136852507165,
                        -73.00113160663327
                    ],
                    [
                        54.71028746993839,
                        -73.00618406426904
                    ],
                    [
                        54.76956087193467,
                        -73.01112640187469
                    ],
                    [
                        54.82886031918711,
                        -73.01605454583783
                    ],
                    [
                        54.88804321256886,
                        -73.0211154507246
                    ],
                    [
                        54.94708045341215,
                        -73.02634702966529
                    ],
                    [
                        55.00610525121864,
                        -73.03160031744214
                    ],
                    [
                        55.065048613399625,
                        -73.03695464887917
                    ],
                    [
                        55.12400448374678,
                        -73.04230818563231
                    ],
                    [
                        55.18306318238974,
                        -73.0475804570691
                    ],
                    [
                        55.24224923721626,
                        -73.05276552190132
                    ],
                    [
                        55.30160726834592,
                        -73.05777926842813
                    ],
                    [
                        55.361007350724414,
                        -73.0627819172738
                    ],
                    [
                        55.42022514473762,
                        -73.06797466211309
                    ],
                    [
                        55.47934898219525,
                        -73.07327656356635
                    ],
                    [
                        55.53840191116439,
                        -73.07865931580882
                    ],
                    [
                        55.59733347927599,
                        -73.0841783116141
                    ],
                    [
                        55.656125045948606,
                        -73.08984061535243
                    ],
                    [
                        55.71479712322085,
                        -73.09561743604607
                    ],
                    [
                        55.773519561680004,
                        -73.10136787475935
                    ],
                    [
                        55.83210862017713,
                        -73.10725719499867
                    ],
                    [
                        55.8903528010417,
                        -73.11343957532654
                    ],
                    [
                        55.948461525204735,
                        -73.11974924259074
                    ],
                    [
                        56.00658984738926,
                        -73.12605883499415
                    ],
                    [
                        56.06486316083908,
                        -73.13227876422326
                    ],
                    [
                        56.123460846134726,
                        -73.13824859272182
                    ],
                    [
                        56.18215268183709,
                        -73.14414613891776
                    ],
                    [
                        56.24068968148197,
                        -73.15021049558722
                    ],
                    [
                        56.299063174979295,
                        -73.15640732536139
                    ],
                    [
                        56.35744062886956,
                        -73.16263350577034
                    ],
                    [
                        56.415884936617154,
                        -73.16881451744189
                    ],
                    [
                        56.47447035818331,
                        -73.17489975352187
                    ],
                    [
                        56.5331549723066,
                        -73.18091365191292
                    ],
                    [
                        56.59199561423868,
                        -73.18682930598484
                    ],
                    [
                        56.65086962702976,
                        -73.19273131077664
                    ],
                    [
                        56.709545741391096,
                        -73.1988183981241
                    ],
                    [
                        56.768085398667864,
                        -73.20502662254673
                    ],
                    [
                        56.82680200544259,
                        -73.21110276939598
                    ],
                    [
                        56.885821135364424,
                        -73.2169575586934
                    ],
                    [
                        56.944980924909316,
                        -73.22271126992142
                    ],
                    [
                        57.0042334299163,
                        -73.22839796514474
                    ],
                    [
                        57.06359832000535,
                        -73.23400524662385
                    ],
                    [
                        57.12326073221256,
                        -73.23936371472611
                    ],
                    [
                        57.1832653870994,
                        -73.2444121321465
                    ],
                    [
                        57.24365521903071,
                        -73.24907295069634
                    ],
                    [
                        57.30431839575188,
                        -73.25345440626263
                    ],
                    [
                        57.36527747651958,
                        -73.25749134316727
                    ],
                    [
                        57.42648059309301,
                        -73.26123879074271
                    ],
                    [
                        57.48779715641874,
                        -73.26485486231869
                    ],
                    [
                        57.549016589065516,
                        -73.26860565350837
                    ],
                    [
                        57.610094293238866,
                        -73.27258962529847
                    ],
                    [
                        57.67127933173621,
                        -73.27642501810209
                    ],
                    [
                        57.73279766719826,
                        -73.27981718437812
                    ],
                    [
                        57.794525910812425,
                        -73.28291480030353
                    ],
                    [
                        57.856342777384064,
                        -73.28586669641642
                    ],
                    [
                        57.918209176237845,
                        -73.28875115830941
                    ],
                    [
                        57.98028154560104,
                        -73.29125609311802
                    ],
                    [
                        58.04272881257863,
                        -73.29278532950954
                    ],
                    [
                        58.10533560047335,
                        -73.29376921681744
                    ],
                    [
                        58.16794712604903,
                        -73.29473295210259
                    ],
                    [
                        58.23052809556231,
                        -73.2958452769178
                    ],
                    [
                        58.293059522014005,
                        -73.29720852839381
                    ],
                    [
                        58.355612055196474,
                        -73.29848522821861
                    ],
                    [
                        58.418237701378274,
                        -73.29948360225141
                    ],
                    [
                        58.480930905282925,
                        -73.29939924361551
                    ],
                    [
                        58.54314045389455,
                        -73.2971912208804
                    ],
                    [
                        58.604390975207565,
                        -73.29337231144373
                    ],
                    [
                        58.66430973644248,
                        -73.28809757250578
                    ],
                    [
                        58.72130568580528,
                        -73.28064948174108
                    ],
                    [
                        58.774066947048304,
                        -73.27099462603123
                    ],
                    [
                        58.82207696919275,
                        -73.25943873334789
                    ],
                    [
                        58.86653015270331,
                        -73.24675813822067
                    ],
                    [
                        58.91166878331696,
                        -73.23429391625109
                    ],
                    [
                        58.9605369537573,
                        -73.22309022700534
                    ],
                    [
                        59.01539966528365,
                        -73.2145566417217
                    ],
                    [
                        59.07411827548751,
                        -73.20853534834308
                    ],
                    [
                        59.134878133856596,
                        -73.20452679697091
                    ],
                    [
                        59.195516225420384,
                        -73.20035255574318
                    ],
                    [
                        59.25491508368231,
                        -73.19489246679866
                    ],
                    [
                        59.31299656974645,
                        -73.18837751513425
                    ],
                    [
                        59.370796401057234,
                        -73.18166376923361
                    ],
                    [
                        59.42941369436411,
                        -73.17558890641378
                    ],
                    [
                        59.48907361526698,
                        -73.17046161666092
                    ],
                    [
                        59.549687951106094,
                        -73.16640544946146
                    ],
                    [
                        59.611028685485486,
                        -73.1634467623918
                    ],
                    [
                        59.6729721042623,
                        -73.1618751499883
                    ],
                    [
                        59.73513177414516,
                        -73.16215431447523
                    ],
                    [
                        59.79693256738228,
                        -73.16408442762504
                    ],
                    [
                        59.857290140642995,
                        -73.16835070530102
                    ],
                    [
                        59.91378141006305,
                        -73.17586696848534
                    ],
                    [
                        59.96651342042429,
                        -73.18542645255592
                    ],
                    [
                        60.01764061265,
                        -73.1957296752535
                    ],
                    [
                        60.070187864213885,
                        -73.20542913915658
                    ],
                    [
                        60.12416675100679,
                        -73.21446377036901
                    ],
                    [
                        60.18041635188408,
                        -73.22224976855257
                    ],
                    [
                        60.23848941182648,
                        -73.22887905205127
                    ],
                    [
                        60.29694039573388,
                        -73.23523461441211
                    ],
                    [
                        60.355459453574966,
                        -73.24156130017451
                    ],
                    [
                        60.41376568093933,
                        -73.24806192785981
                    ],
                    [
                        60.47164586063648,
                        -73.25488814404346
                    ],
                    [
                        60.52911419245338,
                        -73.26201629710653
                    ],
                    [
                        60.58679155319553,
                        -73.26902445970562
                    ],
                    [
                        60.644916483190904,
                        -73.27572365823798
                    ],
                    [
                        60.70391697325905,
                        -73.28177466077341
                    ],
                    [
                        60.7642880762296,
                        -73.28659604561821
                    ],
                    [
                        60.82583860475773,
                        -73.28992544714579
                    ],
                    [
                        60.88826581788245,
                        -73.29141135005685
                    ],
                    [
                        60.95090876848326,
                        -73.29088873046896
                    ],
                    [
                        61.01324830013455,
                        -73.28906171314634
                    ],
                    [
                        61.07511839831086,
                        -73.286184680056
                    ],
                    [
                        61.13625783006118,
                        -73.2822390586348
                    ],
                    [
                        61.196616982302416,
                        -73.27742527153632
                    ],
                    [
                        61.25577404140876,
                        -73.27152968986213
                    ],
                    [
                        61.31413131875697,
                        -73.26499360140423
                    ],
                    [
                        61.372673335442364,
                        -73.25863092629228
                    ],
                    [
                        61.432242883755634,
                        -73.25313300911861
                    ],
                    [
                        61.49338588050149,
                        -73.24942437078016
                    ],
                    [
                        61.55561615428995,
                        -73.24804494567418
                    ],
                    [
                        61.61805381492781,
                        -73.24876028223834
                    ],
                    [
                        61.6801854775998,
                        -73.25078002384731
                    ],
                    [
                        61.74215649243511,
                        -73.25319836933618
                    ],
                    [
                        61.80417150173827,
                        -73.25557582944604
                    ],
                    [
                        61.86636869727019,
                        -73.25751453360503
                    ],
                    [
                        61.92875520464422,
                        -73.25882200269771
                    ],
                    [
                        61.991269982151536,
                        -73.25957148051988
                    ],
                    [
                        62.053806005296394,
                        -73.26018121466271
                    ],
                    [
                        62.116303694419464,
                        -73.26104525564882
                    ],
                    [
                        62.17871369182325,
                        -73.26235448522046
                    ],
                    [
                        62.241148235299654,
                        -73.26359541503285
                    ],
                    [
                        62.30368409819854,
                        -73.26416875663331
                    ],
                    [
                        62.36625880947768,
                        -73.26453427960166
                    ],
                    [
                        62.428775130636936,
                        -73.26535406790177
                    ],
                    [
                        62.490941967969846,
                        -73.26730549487753
                    ],
                    [
                        62.55214099214528,
                        -73.27106159572618
                    ],
                    [
                        62.61251988617473,
                        -73.27585036281083
                    ],
                    [
                        62.67323370254655,
                        -73.28028486567825
                    ],
                    [
                        62.73441040166958,
                        -73.28417129117408
                    ],
                    [
                        62.79615117519337,
                        -73.28724621948398
                    ],
                    [
                        62.858439560880214,
                        -73.28920906793441
                    ],
                    [
                        62.92103188453419,
                        -73.29006073877437
                    ],
                    [
                        62.983716013166934,
                        -73.28992348993793
                    ],
                    [
                        63.04634097244036,
                        -73.2891965956933
                    ],
                    [
                        63.10890192713824,
                        -73.28807247037214
                    ],
                    [
                        63.171364356615086,
                        -73.28659226731452
                    ],
                    [
                        63.23381002463252,
                        -73.28508158609162
                    ],
                    [
                        63.29628921380238,
                        -73.28369410862541
                    ],
                    [
                        63.35873977688332,
                        -73.28224911986689
                    ],
                    [
                        63.421129056395344,
                        -73.28058574766125
                    ],
                    [
                        63.483456261005195,
                        -73.27876977490004
                    ],
                    [
                        63.54571250895332,
                        -73.27676496901944
                    ],
                    [
                        63.607976733044914,
                        -73.27481447387598
                    ],
                    [
                        63.670325456073435,
                        -73.2731302860836
                    ],
                    [
                        63.732790468920236,
                        -73.27190743880207
                    ],
                    [
                        63.79527729353567,
                        -73.27074477048681
                    ],
                    [
                        63.857529993085286,
                        -73.26885769429768
                    ],
                    [
                        63.91883150816426,
                        -73.26521788763284
                    ],
                    [
                        63.97951039070039,
                        -73.26081325425761
                    ],
                    [
                        64.04018692327435,
                        -73.25640942396691
                    ],
                    [
                        64.10109438573262,
                        -73.25230964422622
                    ],
                    [
                        64.16219812438192,
                        -73.24847833176185
                    ],
                    [
                        64.22367680895398,
                        -73.24520008120649
                    ],
                    [
                        64.28562574728893,
                        -73.24279713464624
                    ],
                    [
                        64.34775012188886,
                        -73.24081676581022
                    ],
                    [
                        64.40999084568773,
                        -73.23919499042454
                    ],
                    [
                        64.4723902557663,
                        -73.23825167831744
                    ],
                    [
                        64.5348484939148,
                        -73.23788201038546
                    ],
                    [
                        64.59734312590842,
                        -73.23783243178981
                    ],
                    [
                        64.65984166044028,
                        -73.23787849732416
                    ],
                    [
                        64.72230193532766,
                        -73.23753571885342
                    ],
                    [
                        64.78461383335433,
                        -73.23626159831409
                    ],
                    [
                        64.84646858406612,
                        -73.23373696428094
                    ],
                    [
                        64.9080059764477,
                        -73.23063507759461
                    ],
                    [
                        64.96985264067729,
                        -73.22816093463231
                    ],
                    [
                        65.03220567614413,
                        -73.2271403510405
                    ],
                    [
                        65.09459755620433,
                        -73.22643941417373
                    ],
                    [
                        65.15701906426315,
                        -73.22590733412866
                    ],
                    [
                        65.21944407102907,
                        -73.22549068277858
                    ],
                    [
                        65.28187080431968,
                        -73.22522377216752
                    ],
                    [
                        65.34428753999353,
                        -73.22474769531408
                    ],
                    [
                        65.40669280484225,
                        -73.22405761257342
                    ],
                    [
                        65.46908289794145,
                        -73.22346056373381
                    ],
                    [
                        65.5314921788924,
                        -73.22302035759547
                    ],
                    [
                        65.593923419519,
                        -73.2229152960549
                    ],
                    [
                        65.6563119724689,
                        -73.2234777886978
                    ],
                    [
                        65.71859425153258,
                        -73.22471838113736
                    ],
                    [
                        65.78060509007913,
                        -73.22682726746632
                    ],
                    [
                        65.84236220634224,
                        -73.22950438428703
                    ],
                    [
                        65.90382530772177,
                        -73.23270940243863
                    ],
                    [
                        65.96496351543699,
                        -73.23641321796882
                    ],
                    [
                        66.0260112239269,
                        -73.24026565497591
                    ],
                    [
                        66.08731483551243,
                        -73.24377340439021
                    ],
                    [
                        66.14929707085973,
                        -73.24609846497852
                    ],
                    [
                        66.21169814710852,
                        -73.2470708729736
                    ],
                    [
                        66.27417787215745,
                        -73.24671305027275
                    ],
                    [
                        66.33632524942412,
                        -73.2448026184419
                    ],
                    [
                        66.39740340496371,
                        -73.24109670477301
                    ],
                    [
                        66.45614325499852,
                        -73.23501136629277
                    ],
                    [
                        66.51315903807685,
                        -73.22764117612194
                    ],
                    [
                        66.56861493002637,
                        -73.21938787871038
                    ],
                    [
                        66.62143552876819,
                        -73.20979515701264
                    ],
                    [
                        66.67064085108949,
                        -73.19872925355777
                    ],
                    [
                        66.71734544908888,
                        -73.18679865374374
                    ],
                    [
                        66.76257636686901,
                        -73.17440782316687
                    ],
                    [
                        66.80554007591304,
                        -73.16137103758312
                    ],
                    [
                        66.84636814808593,
                        -73.14777961823148
                    ],
                    [
                        66.88518032991439,
                        -73.13370351838189
                    ],
                    [
                        66.9209115291179,
                        -73.11896779561705
                    ],
                    [
                        66.95368786146369,
                        -73.10367254634978
                    ],
                    [
                        66.98296988045792,
                        -73.08779115759691
                    ],
                    [
                        67.00792178114837,
                        -73.07129938748514
                    ],
                    [
                        67.02962228795154,
                        -73.0544289259506
                    ],
                    [
                        67.04844094232911,
                        -73.03726468282652
                    ],
                    [
                        67.06412291111451,
                        -73.01983863388116
                    ],
                    [
                        67.07737519434507,
                        -73.00223789558294
                    ],
                    [
                        67.08824812744989,
                        -72.98450255174878
                    ],
                    [
                        67.09616656422891,
                        -72.96663424912263
                    ],
                    [
                        67.10199653006084,
                        -72.94870042367654
                    ],
                    [
                        67.10609063451712,
                        -72.93072462653825
                    ],
                    [
                        67.10849643111263,
                        -72.9127170796912
                    ],
                    [
                        67.11010128194357,
                        -72.89470921861017
                    ],
                    [
                        67.1110814508261,
                        -72.87669333598944
                    ],
                    [
                        67.11201388455122,
                        -72.85868236278007
                    ],
                    [
                        67.11324196276867,
                        -72.84067019021263
                    ],
                    [
                        67.11482370750262,
                        -72.82266416890984
                    ],
                    [
                        67.11712261924946,
                        -72.80466582489284
                    ],
                    [
                        67.11998698466863,
                        -72.78667112152506
                    ],
                    [
                        67.12303094550464,
                        -72.76868575798511
                    ],
                    [
                        67.12701473697545,
                        -72.75071210939355
                    ],
                    [
                        67.13184447978723,
                        -72.73276316007723
                    ],
                    [
                        67.13745333656149,
                        -72.71483079788513
                    ],
                    [
                        67.1444719068643,
                        -72.69694551008388
                    ],
                    [
                        67.15257594216202,
                        -72.67910606573773
                    ],
                    [
                        67.16174014209138,
                        -72.66130467880568
                    ],
                    [
                        67.17220308815077,
                        -72.64357157757902
                    ],
                    [
                        67.18387669507415,
                        -72.62591060853794
                    ],
                    [
                        67.19714137595565,
                        -72.60835029650725
                    ],
                    [
                        67.21247507668147,
                        -72.59094611088409
                    ],
                    [
                        67.22920504657645,
                        -72.57365269515593
                    ],
                    [
                        67.24697132421073,
                        -72.55645903230605
                    ],
                    [
                        67.2658982884352,
                        -72.53938081538783
                    ],
                    [
                        67.28551274053943,
                        -72.52236829587008
                    ],
                    [
                        67.30578702335109,
                        -72.5054375056163
                    ],
                    [
                        67.3268801707477,
                        -72.48859380069584
                    ],
                    [
                        67.34828212278204,
                        -72.47179250808497
                    ],
                    [
                        67.37017408961711,
                        -72.4550515173149
                    ],
                    [
                        67.39264016314743,
                        -72.43838136703731
                    ],
                    [
                        67.41511795481922,
                        -72.42171619361773
                    ],
                    [
                        67.43740144474873,
                        -72.40503009551593
                    ],
                    [
                        67.45925762191173,
                        -72.38829866784093
                    ],
                    [
                        67.48043800202969,
                        -72.37149070437206
                    ],
                    [
                        67.50066184905712,
                        -72.3545758235534
                    ],
                    [
                        67.51956415944716,
                        -72.33752278331012
                    ],
                    [
                        67.53741624778147,
                        -72.32037051718376
                    ],
                    [
                        67.55429196746435,
                        -72.30312826077382
                    ],
                    [
                        67.57008437934725,
                        -72.2857922440411
                    ],
                    [
                        67.58524148545351,
                        -72.26840896135374
                    ],
                    [
                        67.6002537943299,
                        -72.25101569981767
                    ],
                    [
                        67.61570531245124,
                        -72.23366156721933
                    ],
                    [
                        67.63194918954888,
                        -72.21637156508802
                    ],
                    [
                        67.64901542605213,
                        -72.19916410529666
                    ],
                    [
                        67.66708141353347,
                        -72.1820518148155
                    ],
                    [
                        67.68591082915768,
                        -72.16501471248846
                    ],
                    [
                        67.70544162602775,
                        -72.14805957387165
                    ],
                    [
                        67.725569083126,
                        -72.13117321394378
                    ],
                    [
                        67.74604792674042,
                        -72.11432962525308
                    ],
                    [
                        67.7669285793464,
                        -72.0975399843288
                    ],
                    [
                        67.78826166899798,
                        -72.08080091834516
                    ],
                    [
                        67.81006748679093,
                        -72.06412465581815
                    ],
                    [
                        67.8325311474689,
                        -72.04753441678552
                    ],
                    [
                        67.85581823437374,
                        -72.03105578977963
                    ],
                    [
                        67.87975164327861,
                        -72.01467128548569
                    ],
                    [
                        67.90423033227665,
                        -71.99836812583925
                    ],
                    [
                        67.92918855761215,
                        -71.98213797195884
                    ],
                    [
                        67.95436456885736,
                        -71.96594305515333
                    ],
                    [
                        67.97957796602189,
                        -71.94975586093125
                    ],
                    [
                        68.0047990958612,
                        -71.93357750124046
                    ],
                    [
                        68.03019699743679,
                        -71.91742914069235
                    ],
                    [
                        68.05616530125526,
                        -71.90137456614531
                    ],
                    [
                        68.08308320879196,
                        -71.88547565099424
                    ],
                    [
                        68.11064641055953,
                        -71.86968442573547
                    ],
                    [
                        68.13860219408126,
                        -71.85397397011323
                    ],
                    [
                        68.1669258783602,
                        -71.83832172704975
                    ],
                    [
                        68.19552860677916,
                        -71.82273100994037
                    ],
                    [
                        68.22450072832889,
                        -71.80721299941789
                    ],
                    [
                        68.25389500430764,
                        -71.79177415592659
                    ],
                    [
                        68.28350537158667,
                        -71.77637899142795
                    ],
                    [
                        68.31328622464774,
                        -71.7610265785073
                    ],
                    [
                        68.34350909151497,
                        -71.74576513296677
                    ],
                    [
                        68.3743570392667,
                        -71.7306269222287
                    ],
                    [
                        68.4058213165885,
                        -71.71562511880346
                    ],
                    [
                        68.4380314804894,
                        -71.70078521733103
                    ],
                    [
                        68.47049982655335,
                        -71.68600780107438
                    ],
                    [
                        68.50298397164053,
                        -71.67123375541667
                    ],
                    [
                        68.53542836174809,
                        -71.65646582839328
                    ],
                    [
                        68.56778500669641,
                        -71.64167878150982
                    ],
                    [
                        68.60002519622095,
                        -71.62688355103339
                    ],
                    [
                        68.63229991956864,
                        -71.61208916242397
                    ],
                    [
                        68.66443187576897,
                        -71.59727853411131
                    ],
                    [
                        68.69670744414935,
                        -71.58250145626221
                    ],
                    [
                        68.72914260587694,
                        -71.5677694563657
                    ],
                    [
                        68.76168128156763,
                        -71.55306110010991
                    ],
                    [
                        68.79390251891336,
                        -71.53829569020446
                    ],
                    [
                        68.82397748592615,
                        -71.5230850253283
                    ],
                    [
                        68.85239460444913,
                        -71.50756197090085
                    ],
                    [
                        68.87955361670342,
                        -71.4918193417037
                    ],
                    [
                        68.90599558498236,
                        -71.47596227473626
                    ],
                    [
                        68.93217252072122,
                        -71.4600607515436
                    ],
                    [
                        68.95818284362038,
                        -71.44414130160602
                    ],
                    [
                        68.983913070927,
                        -71.4281708251954
                    ],
                    [
                        69.00908817165994,
                        -71.41212052204017
                    ],
                    [
                        69.03353562465207,
                        -71.39595977489735
                    ],
                    [
                        69.05712054482666,
                        -71.37967221109808
                    ],
                    [
                        69.08004175290945,
                        -71.36329186765757
                    ],
                    [
                        69.10230353754122,
                        -71.34682415488568
                    ],
                    [
                        69.12387334049983,
                        -71.33026516776482
                    ],
                    [
                        69.14498566338537,
                        -71.31364841503763
                    ],
                    [
                        69.16555819819641,
                        -71.29696868116399
                    ],
                    [
                        69.18551623568966,
                        -71.28021208267586
                    ],
                    [
                        69.20495537467627,
                        -71.26339512365985
                    ],
                    [
                        69.22390812209034,
                        -71.24652179464482
                    ],
                    [
                        69.24237618498475,
                        -71.22960191142454
                    ],
                    [
                        69.2605085329268,
                        -71.21264407129337
                    ],
                    [
                        69.27826437402213,
                        -71.195643301077
                    ],
                    [
                        69.29555166190255,
                        -71.17859795851057
                    ],
                    [
                        69.31249328827538,
                        -71.16151824303509
                    ],
                    [
                        69.32906446937112,
                        -71.14440591721979
                    ],
                    [
                        69.34516765421068,
                        -71.127249068223
                    ],
                    [
                        69.36094356320109,
                        -71.11006006435585
                    ],
                    [
                        69.37636973422546,
                        -71.09283615264096
                    ],
                    [
                        69.39134973589938,
                        -71.07557991578061
                    ],
                    [
                        69.40596708028657,
                        -71.05829673270398
                    ],
                    [
                        69.42023724916862,
                        -71.04097410732136
                    ],
                    [
                        69.43411597788301,
                        -71.0236257625117
                    ],
                    [
                        69.44767322518638,
                        -71.0062506368437
                    ],
                    [
                        69.46092270161873,
                        -70.98885037854856
                    ],
                    [
                        69.47377873925166,
                        -70.97142884962851
                    ],
                    [
                        69.48634901110925,
                        -70.95398002854984
                    ],
                    [
                        69.49862208991331,
                        -70.93651205860057
                    ],
                    [
                        69.51049390824292,
                        -70.91901696779465
                    ],
                    [
                        69.52192451877922,
                        -70.90148982468627
                    ],
                    [
                        69.53285943297604,
                        -70.88393347392073
                    ],
                    [
                        69.54336618045564,
                        -70.86635132949868
                    ],
                    [
                        69.5535982901783,
                        -70.84874777973249
                    ],
                    [
                        69.56355208656542,
                        -70.83113189533918
                    ],
                    [
                        69.57319990053162,
                        -70.81349546338119
                    ],
                    [
                        69.58261176794416,
                        -70.79585179654951
                    ],
                    [
                        69.5918003665539,
                        -70.77819285112109
                    ],
                    [
                        69.60079975185982,
                        -70.76052754450862
                    ],
                    [
                        69.60965078062485,
                        -70.74285607774053
                    ],
                    [
                        69.6183106566316,
                        -70.72517317170129
                    ],
                    [
                        69.62681326980304,
                        -70.70748773029037
                    ],
                    [
                        69.6352366015949,
                        -70.68979497469326
                    ],
                    [
                        69.64357616090773,
                        -70.67209911484468
                    ],
                    [
                        69.65187992311074,
                        -70.65440125840797
                    ],
                    [
                        69.6601758162981,
                        -70.63670483390563
                    ],
                    [
                        69.6684465401088,
                        -70.6190124842424
                    ],
                    [
                        69.67674951246019,
                        -70.60132172477589
                    ],
                    [
                        69.68512212154171,
                        -70.5836323931318
                    ],
                    [
                        69.6935624086242,
                        -70.56595380591241
                    ],
                    [
                        69.70208203559004,
                        -70.54827786651748
                    ],
                    [
                        69.71067071708964,
                        -70.53060332098487
                    ],
                    [
                        69.71937642599018,
                        -70.51294087098458
                    ],
                    [
                        69.72825123295662,
                        -70.49529219047105
                    ],
                    [
                        69.73725625878058,
                        -70.47764296647581
                    ],
                    [
                        69.74651945173913,
                        -70.46001379461771
                    ],
                    [
                        69.75625448067072,
                        -70.44241680635253
                    ],
                    [
                        69.76649515262405,
                        -70.42485624815575
                    ],
                    [
                        69.7773369213038,
                        -70.40733445206095
                    ],
                    [
                        69.78902529034931,
                        -70.38987708165197
                    ],
                    [
                        69.80152560331099,
                        -70.37247993639696
                    ],
                    [
                        69.81498882378257,
                        -70.35517128869688
                    ],
                    [
                        69.82965652129658,
                        -70.33797630880368
                    ],
                    [
                        69.84540944452387,
                        -70.32088981057483
                    ],
                    [
                        69.86229311544206,
                        -70.30392695441091
                    ],
                    [
                        69.88055784192018,
                        -70.28713771464324
                    ],
                    [
                        69.8999394752804,
                        -70.27048934294318
                    ],
                    [
                        69.9203573428767,
                        -70.25398604792103
                    ],
                    [
                        69.94178281382689,
                        -70.23763368258521
                    ],
                    [
                        69.96400836613512,
                        -70.22141122094632
                    ],
                    [
                        69.98695514298417,
                        -70.2053040228336
                    ],
                    [
                        70.01073211703249,
                        -70.1893396597794
                    ],
                    [
                        70.03495511980437,
                        -70.17345630042784
                    ],
                    [
                        70.05964856575143,
                        -70.15766159537425
                    ],
                    [
                        70.08484967103838,
                        -70.14196950991666
                    ],
                    [
                        70.11047911762246,
                        -70.12635111837527
                    ],
                    [
                        70.13653314272257,
                        -70.11082484476853
                    ],
                    [
                        70.16308315962056,
                        -70.09540407879867
                    ],
                    [
                        70.19005345157436,
                        -70.0800698521871
                    ],
                    [
                        70.21739705341534,
                        -70.06482100402027
                    ],
                    [
                        70.24518735722951,
                        -70.04966639390773
                    ],
                    [
                        70.27336268990662,
                        -70.03460304539067
                    ],
                    [
                        70.30191220178706,
                        -70.01962472737803
                    ],
                    [
                        70.33086157169019,
                        -70.00474866299955
                    ],
                    [
                        70.36014731312981,
                        -69.98995268447192
                    ],
                    [
                        70.38973655895246,
                        -69.97522788609724
                    ],
                    [
                        70.41982970166822,
                        -69.96063651073098
                    ],
                    [
                        70.45026154213767,
                        -69.9461344828637
                    ],
                    [
                        70.48099630299862,
                        -69.93170779899626
                    ],
                    [
                        70.51212285238732,
                        -69.91739554760343
                    ],
                    [
                        70.54352664098676,
                        -69.90315044065176
                    ],
                    [
                        70.57522743253355,
                        -69.88899841484698
                    ],
                    [
                        70.60732596332298,
                        -69.87495624470971
                    ],
                    [
                        70.63971371228038,
                        -69.86100583732569
                    ],
                    [
                        70.6723838291597,
                        -69.8471319902936
                    ],
                    [
                        70.70538802459099,
                        -69.83336444569743
                    ],
                    [
                        70.73862047774028,
                        -69.81966657638033
                    ],
                    [
                        70.77201760524243,
                        -69.8060305756093
                    ],
                    [
                        70.80562755365813,
                        -69.79245739097438
                    ],
                    [
                        70.83949115558893,
                        -69.77896597487594
                    ],
                    [
                        70.87355713097355,
                        -69.76555000329853
                    ],
                    [
                        70.9077918237472,
                        -69.75219112008668
                    ],
                    [
                        70.9421170454891,
                        -69.7388609473605
                    ],
                    [
                        70.9765305917762,
                        -69.72557804132678
                    ],
                    [
                        71.01106699729716,
                        -69.71233227717411
                    ],
                    [
                        71.04567514779552,
                        -69.6991174689495
                    ],
                    [
                        71.08043737804866,
                        -69.68595751318665
                    ],
                    [
                        71.11528737140495,
                        -69.67283968792799
                    ],
                    [
                        71.15021161872758,
                        -69.65975287339884
                    ],
                    [
                        71.18519728913581,
                        -69.64669076389008
                    ],
                    [
                        71.22025556340348,
                        -69.63366405395554
                    ],
                    [
                        71.25539715240573,
                        -69.62066451238405
                    ],
                    [
                        71.29063229447664,
                        -69.60771212712874
                    ],
                    [
                        71.32604178934467,
                        -69.5948210489627
                    ],
                    [
                        71.36150224252516,
                        -69.58196248278881
                    ],
                    [
                        71.3969760040264,
                        -69.5691083965764
                    ],
                    [
                        71.43247586604572,
                        -69.55627909776241
                    ],
                    [
                        71.4680841722486,
                        -69.5434841962513
                    ],
                    [
                        71.5037662207023,
                        -69.53072895185954
                    ],
                    [
                        71.53950679109818,
                        -69.51800680430031
                    ],
                    [
                        71.57530353678567,
                        -69.50530330544953
                    ],
                    [
                        71.61117339976856,
                        -69.49263448101443
                    ],
                    [
                        71.64713015658299,
                        -69.48001126185704
                    ],
                    [
                        71.68311665332276,
                        -69.46740342150831
                    ],
                    [
                        71.71909265592971,
                        -69.45479685470254
                    ],
                    [
                        71.75504217354512,
                        -69.44219439366428
                    ],
                    [
                        71.79098215931408,
                        -69.42959799232894
                    ],
                    [
                        71.8269383097351,
                        -69.41700590782534
                    ],
                    [
                        71.86289244568042,
                        -69.40443479184937
                    ],
                    [
                        71.89881927823454,
                        -69.39184885487339
                    ],
                    [
                        71.9347280430219,
                        -69.37927262252957
                    ],
                    [
                        71.97064529151548,
                        -69.36670912792351
                    ],
                    [
                        72.00658701094487,
                        -69.3541554854899
                    ],
                    [
                        72.04252380523873,
                        -69.34161767308454
                    ],
                    [
                        72.07849180867481,
                        -69.32909979428445
                    ],
                    [
                        72.114552960756,
                        -69.31661824199605
                    ],
                    [
                        72.15068663084078,
                        -69.30417526631292
                    ],
                    [
                        72.18682726575697,
                        -69.29173523529872
                    ],
                    [
                        72.22300506523462,
                        -69.27932028556164
                    ],
                    [
                        72.25924455935498,
                        -69.26694718993888
                    ],
                    [
                        72.29556835707766,
                        -69.25459971229529
                    ],
                    [
                        72.33190699632891,
                        -69.2422699305095
                    ],
                    [
                        72.36829941982272,
                        -69.22997623510206
                    ],
                    [
                        72.40480795809474,
                        -69.2177255783444
                    ],
                    [
                        72.44144042858902,
                        -69.20553276360003
                    ],
                    [
                        72.47813651920978,
                        -69.193376880995
                    ],
                    [
                        72.51490588937043,
                        -69.18125893962858
                    ],
                    [
                        72.55175135739275,
                        -69.16916983157682
                    ],
                    [
                        72.58862725096587,
                        -69.15711372450751
                    ],
                    [
                        72.6256159243951,
                        -69.14510441493356
                    ],
                    [
                        72.66267955018786,
                        -69.13312824997834
                    ],
                    [
                        72.69980942933465,
                        -69.12119818912822
                    ],
                    [
                        72.73704305950817,
                        -69.10930430911465
                    ],
                    [
                        72.77434792835614,
                        -69.09745691257642
                    ],
                    [
                        72.81176815443492,
                        -69.08566545414732
                    ],
                    [
                        72.84940199989202,
                        -69.07397330150704
                    ],
                    [
                        72.88726632861577,
                        -69.06238211403424
                    ],
                    [
                        72.92541207648601,
                        -69.05092058599118
                    ],
                    [
                        72.96379698153822,
                        -69.03956518225222
                    ],
                    [
                        73.00235590719065,
                        -69.02830388982757
                    ],
                    [
                        73.0410631893898,
                        -69.01711509419788
                    ],
                    [
                        73.08001256022595,
                        -69.0060414649888
                    ],
                    [
                        73.11909408199654,
                        -68.99503821138461
                    ],
                    [
                        73.15833877858297,
                        -68.98411787109255
                    ],
                    [
                        73.19777291125048,
                        -68.97330173533601
                    ],
                    [
                        73.23736361533688,
                        -68.96256743901566
                    ],
                    [
                        73.27720010069223,
                        -68.9519570065885
                    ],
                    [
                        73.31732546153492,
                        -68.94151203043424
                    ],
                    [
                        73.35772236154266,
                        -68.93119779743569
                    ],
                    [
                        73.39838298923283,
                        -68.92103643148309
                    ],
                    [
                        73.43935189118172,
                        -68.91105564586888
                    ],
                    [
                        73.48060339933879,
                        -68.90122448710393
                    ],
                    [
                        73.52148764037068,
                        -68.89121215993237
                    ],
                    [
                        73.56233223918093,
                        -68.88118964136672
                    ],
                    [
                        73.60313721194545,
                        -68.87115694780927
                    ],
                    [
                        73.64390257496954,
                        -68.86111409564859
                    ],
                    [
                        73.68462834468724,
                        -68.8510611012594
                    ],
                    [
                        73.7253145376608,
                        -68.8409979810027
                    ],
                    [
                        73.76596117057981,
                        -68.83092475122548
                    ],
                    [
                        73.80656826026083,
                        -68.82084142826089
                    ],
                    [
                        73.84713582364657,
                        -68.81074802842811
                    ],
                    [
                        73.88766387780525,
                        -68.80064456803221
                    ],
                    [
                        73.92815243993005,
                        -68.79053106336431
                    ],
                    [
                        73.96860152733842,
                        -68.78040753070138
                    ],
                    [
                        74.00901115747146,
                        -68.7702739863062
                    ],
                    [
                        74.04938134789325,
                        -68.7601304464274
                    ],
                    [
                        74.08971211629026,
                        -68.74997692729934
                    ],
                    [
                        74.13000348047069,
                        -68.73981344514215
                    ],
                    [
                        74.17025545836383,
                        -68.72964001616157
                    ],
                    [
                        74.2104680680195,
                        -68.719456656549
                    ],
                    [
                        74.25064132760728,
                        -68.70926338248144
                    ],
                    [
                        74.29077525541608,
                        -68.69906021012142
                    ]
                ]
            }
        }
    ]
}
