{
    "type": "FeatureCollection",
    "features": [
        {
            "type": "Feature",
            "properties": {
                "name": "Holmes",
                "object": "transect",
                "component": "landice",
                "author": "Matthew Hoffman, converted from https://github.com/yuwang115/sl-ice",
                "tags": "Antarctic_Ice_Sheet;flowline;sl-ice;holmes"
            },
            "geometry": {
                "type": "LineString",
                "coordinates": [
                    [
                        124.6494526203175,
                        -69.79152702817805
                    ],
                    [
                        124.64383226166667,
                        -69.77377448759121
                    ],
                    [
                        124.63872517959929,
                        -69.75599999867902
                    ],
                    [
                        124.63398413165834,
                        -69.73821683110945
                    ],
                    [
                        124.6298076109712,
                        -69.72041521429492
                    ],
                    [
                        124.62580611206882,
                        -69.70261225569894
                    ],
                    [
                        124.62170126193185,
                        -69.68480953938139
                    ],
                    [
                        124.61690708084826,
                        -69.66703388412952
                    ],
                    [
                        124.61140026858607,
                        -69.64928041400574
                    ],
                    [
                        124.60526128108954,
                        -69.63155728401267
                    ],
                    [
                        124.59827881486612,
                        -69.61386683405287
                    ],
                    [
                        124.5911848907701,
                        -69.59618514054179
                    ],
                    [
                        124.58506232031405,
                        -69.57846295931455
                    ],
                    [
                        124.58058779968061,
                        -69.56068310098274
                    ],
                    [
                        124.57711056999642,
                        -69.54287149207721
                    ],
                    [
                        124.57437796576458,
                        -69.52505059394147
                    ],
                    [
                        124.57243391677717,
                        -69.50722019837745
                    ],
                    [
                        124.57082812579947,
                        -69.48938027760354
                    ],
                    [
                        124.56910538248374,
                        -69.47154319101797
                    ],
                    [
                        124.56693503350651,
                        -69.45371318981559
                    ],
                    [
                        124.56458949124386,
                        -69.4358949874114
                    ],
                    [
                        124.56206132859788,
                        -69.41806882077961
                    ],
                    [
                        124.55936934269506,
                        -69.40025190679935
                    ],
                    [
                        124.55660845812893,
                        -69.38243754721077
                    ],
                    [
                        124.5534949334064,
                        -69.36462972254498
                    ],
                    [
                        124.54963088273527,
                        -69.34684413213789
                    ],
                    [
                        124.54501827208152,
                        -69.32908071952538
                    ],
                    [
                        124.54028450469845,
                        -69.31132253153615
                    ],
                    [
                        124.53612812784891,
                        -69.29355106814596
                    ],
                    [
                        124.5326066242862,
                        -69.2757574121199
                    ],
                    [
                        124.52959332694489,
                        -69.25795586194786
                    ],
                    [
                        124.52696846274962,
                        -69.24014829848907
                    ],
                    [
                        124.52458487051021,
                        -69.22233797137213
                    ],
                    [
                        124.52269906007376,
                        -69.20451614603762
                    ],
                    [
                        124.52128585113148,
                        -69.18669409345449
                    ],
                    [
                        124.52021887964268,
                        -69.16886999964781
                    ],
                    [
                        124.51936191391177,
                        -69.15104457053386
                    ],
                    [
                        124.51856181306756,
                        -69.13321736113119
                    ],
                    [
                        124.51760743559385,
                        -69.11539687774997
                    ],
                    [
                        124.51615275336611,
                        -69.09757624910533
                    ],
                    [
                        124.51442768558255,
                        -69.07976417500775
                    ],
                    [
                        124.51324456467201,
                        -69.06195029770734
                    ],
                    [
                        124.51277762411844,
                        -69.04412384082647
                    ],
                    [
                        124.51279122392833,
                        -69.02630455317707
                    ],
                    [
                        124.51310108994839,
                        -69.00848349146095
                    ],
                    [
                        124.51391681012896,
                        -68.99066821938078
                    ],
                    [
                        124.51508886096599,
                        -68.97285208222114
                    ],
                    [
                        124.51654100393087,
                        -68.95504287673046
                    ],
                    [
                        124.51833437391122,
                        -68.93724150876346
                    ],
                    [
                        124.52041965849746,
                        -68.91943833609734
                    ],
                    [
                        124.52262167397625,
                        -68.90164414418163
                    ],
                    [
                        124.52461762126158,
                        -68.88384703414363
                    ],
                    [
                        124.5260928021633,
                        -68.86603879401855
                    ],
                    [
                        124.52685743776303,
                        -68.848229095001
                    ],
                    [
                        124.52675285052655,
                        -68.8304200308761
                    ],
                    [
                        124.52578825678575,
                        -68.81261526881335
                    ],
                    [
                        124.52402414365926,
                        -68.79482189557791
                    ],
                    [
                        124.52122399709359,
                        -68.77703990278128
                    ],
                    [
                        124.5173095517821,
                        -68.75928941406765
                    ],
                    [
                        124.51286167016693,
                        -68.74156115730703
                    ],
                    [
                        124.50793914013853,
                        -68.7238461443068
                    ],
                    [
                        124.50137707197689,
                        -68.70620342049864
                    ],
                    [
                        124.49389476359578,
                        -68.68861060408038
                    ],
                    [
                        124.48671596539367,
                        -68.67099965753145
                    ],
                    [
                        124.47956626194993,
                        -68.65339051449433
                    ],
                    [
                        124.4720030534886,
                        -68.63580759808647
                    ],
                    [
                        124.46383140725182,
                        -68.61825674682844
                    ],
                    [
                        124.45556926936418,
                        -68.60072176596118
                    ],
                    [
                        124.44764078731308,
                        -68.58316110084607
                    ],
                    [
                        124.44010275997513,
                        -68.56558193417808
                    ],
                    [
                        124.43294735483764,
                        -68.54798065622285
                    ],
                    [
                        124.42565258729695,
                        -68.53038568510799
                    ],
                    [
                        124.41808127946445,
                        -68.51280997863591
                    ],
                    [
                        124.41041207071362,
                        -68.49524650409693
                    ],
                    [
                        124.40292979191005,
                        -68.47766680544814
                    ],
                    [
                        124.39546684300981,
                        -68.46009140529969
                    ],
                    [
                        124.38747746016926,
                        -68.44254988602574
                    ],
                    [
                        124.37910986503239,
                        -68.42502670975313
                    ],
                    [
                        124.3709501824363,
                        -68.40749828510485
                    ],
                    [
                        124.36326145784616,
                        -68.38994130548267
                    ],
                    [
                        124.35595250126929,
                        -68.37236239746845
                    ],
                    [
                        124.34880896551215,
                        -68.3547723893587
                    ],
                    [
                        124.34116768224295,
                        -68.3372147806583
                    ],
                    [
                        124.33280684855056,
                        -68.31970274732353
                    ],
                    [
                        124.32389464855972,
                        -68.30223178509193
                    ],
                    [
                        124.31460185993622,
                        -68.28479124493548
                    ],
                    [
                        124.30539053012377,
                        -68.26733976966575
                    ],
                    [
                        124.29625417908946,
                        -68.24988972673968
                    ],
                    [
                        124.2876962118522,
                        -68.23239973608851
                    ],
                    [
                        124.27991742348793,
                        -68.21486173192874
                    ],
                    [
                        124.27281000059862,
                        -68.19728117054292
                    ],
                    [
                        124.265969072246,
                        -68.17969047053964
                    ],
                    [
                        124.25810186323652,
                        -68.16216468709952
                    ],
                    [
                        124.24963001412942,
                        -68.14467255289411
                    ],
                    [
                        124.2412843422363,
                        -68.12717931043164
                    ],
                    [
                        124.23306098850031,
                        -68.1096751358528
                    ],
                    [
                        124.22515755506187,
                        -68.092158128308
                    ],
                    [
                        124.21708583336884,
                        -68.0746447994051
                    ],
                    [
                        124.20896485040548,
                        -68.05713718383507
                    ],
                    [
                        124.20104786221451,
                        -68.03962457315632
                    ],
                    [
                        124.19377400200914,
                        -68.02206490464457
                    ],
                    [
                        124.18710291724757,
                        -68.00448426960048
                    ],
                    [
                        124.18098031958411,
                        -67.98686937274746
                    ],
                    [
                        124.17547724271792,
                        -67.96922867678316
                    ],
                    [
                        124.1705136152216,
                        -67.9515661954716
                    ],
                    [
                        124.16604241975747,
                        -67.93388828544306
                    ],
                    [
                        124.16207221684425,
                        -67.91619250033648
                    ],
                    [
                        124.15816739562337,
                        -67.8984986889665
                    ],
                    [
                        124.15416107514267,
                        -67.88080120986577
                    ],
                    [
                        124.14996899051499,
                        -67.86311631657168
                    ],
                    [
                        124.1454873396826,
                        -67.84544922911633
                    ],
                    [
                        124.14084669686535,
                        -67.82777737616132
                    ],
                    [
                        124.13561514677603,
                        -67.81013648087448
                    ],
                    [
                        124.1298492387072,
                        -67.79251770145238
                    ],
                    [
                        124.12340753104297,
                        -67.7749361511514
                    ],
                    [
                        124.11658374826936,
                        -67.75738106855557
                    ],
                    [
                        124.10977411886614,
                        -67.73982053508678
                    ],
                    [
                        124.10343545072679,
                        -67.72223361535347
                    ],
                    [
                        124.09842152441992,
                        -67.70459345297333
                    ],
                    [
                        124.09496546287855,
                        -67.68689832480091
                    ],
                    [
                        124.09372695936909,
                        -67.66916502651137
                    ],
                    [
                        124.09632117438437,
                        -67.65145814871352
                    ],
                    [
                        124.10303539511018,
                        -67.63392060498275
                    ],
                    [
                        124.11388160076002,
                        -67.61667476340733
                    ],
                    [
                        124.1321525324174,
                        -67.60036068317623
                    ],
                    [
                        124.14551154996805,
                        -67.58344518751699
                    ],
                    [
                        124.15415108094483,
                        -67.56601644480011
                    ],
                    [
                        124.16209711709348,
                        -67.54854485665288
                    ],
                    [
                        124.17009180120085,
                        -67.53108473753595
                    ],
                    [
                        124.17564547342988,
                        -67.51347939840548
                    ],
                    [
                        124.1873601813905,
                        -67.49636478841623
                    ],
                    [
                        124.20472654161668,
                        -67.47993289466102
                    ],
                    [
                        124.22558173691044,
                        -67.46412666084757
                    ],
                    [
                        124.25129567735455,
                        -67.44938932805559
                    ],
                    [
                        124.28011499605377,
                        -67.43560712249179
                    ],
                    [
                        124.31332246027418,
                        -67.42330504091673
                    ],
                    [
                        124.34661084051781,
                        -67.41109390314503
                    ],
                    [
                        124.38393647044238,
                        -67.40070326122719
                    ],
                    [
                        124.42195194480344,
                        -67.3906872830481
                    ],
                    [
                        124.46145571829189,
                        -67.38157104509183
                    ],
                    [
                        124.50100859639389,
                        -67.37249824828179
                    ],
                    [
                        124.54089242454566,
                        -67.36365774449463
                    ],
                    [
                        124.58053842573113,
                        -67.35468390734813
                    ],
                    [
                        124.62033636629877,
                        -67.34583382623406
                    ],
                    [
                        124.65753369831904,
                        -67.33543901045987
                    ],
                    [
                        124.69504605617382,
                        -67.32523813544454
                    ],
                    [
                        124.7348955075006,
                        -67.31644205052388
                    ],
                    [
                        124.77439106056255,
                        -67.30742527322606
                    ],
                    [
                        124.81134374639576,
                        -67.29694126186752
                    ],
                    [
                        124.85025908506617,
                        -67.28755729356446
                    ],
                    [
                        124.8894511904587,
                        -67.27836614124965
                    ],
                    [
                        124.92995149820881,
                        -67.27018599203278
                    ],
                    [
                        124.97316437476931,
                        -67.26432340230755
                    ],
                    [
                        125.01663605188568,
                        -67.25875057405
                    ],
                    [
                        125.06116297147976,
                        -67.25461507414404
                    ],
                    [
                        125.10616664717696,
                        -67.25143114913399
                    ],
                    [
                        125.15180908198656,
                        -67.25060761389561
                    ],
                    [
                        125.1974915953383,
                        -67.25153068962717
                    ],
                    [
                        125.2430079559433,
                        -67.25341360118149
                    ],
                    [
                        125.28833729267116,
                        -67.25579714429934
                    ],
                    [
                        125.33394092884365,
                        -67.25732319057617
                    ],
                    [
                        125.37926278147877,
                        -67.25984882222022
                    ],
                    [
                        125.42467468056262,
                        -67.26212120804446
                    ],
                    [
                        125.470376973433,
                        -67.26210474461287
                    ],
                    [
                        125.51568236818228,
                        -67.25957146478454
                    ],
                    [
                        125.560863934476,
                        -67.25669634739099
                    ],
                    [
                        125.60500530145747,
                        -67.25204943898991
                    ],
                    [
                        125.64791299270631,
                        -67.24588986349795
                    ],
                    [
                        125.69037775654563,
                        -67.23929464172934
                    ],
                    [
                        125.73022204184198,
                        -67.23062242861282
                    ],
                    [
                        125.76806778052558,
                        -67.22067672212532
                    ],
                    [
                        125.80351085521737,
                        -67.20951652997067
                    ],
                    [
                        125.83705551168143,
                        -67.1974989539801
                    ],
                    [
                        125.87040088955467,
                        -67.18539431172019
                    ],
                    [
                        125.9040344821074,
                        -67.17342649781381
                    ],
                    [
                        125.93738347375141,
                        -67.16134099070563
                    ],
                    [
                        125.97039338793226,
                        -67.1491314537156
                    ],
                    [
                        126.00317887162058,
                        -67.13683687696245
                    ],
                    [
                        126.03448324841513,
                        -67.12398089679542
                    ],
                    [
                        126.06437706508072,
                        -67.1106322097923
                    ],
                    [
                        126.09253567902239,
                        -67.09673068191667
                    ],
                    [
                        126.11823400633534,
                        -67.08212224667534
                    ],
                    [
                        126.14323448709867,
                        -67.06734296040307
                    ],
                    [
                        126.16917837035007,
                        -67.05281894169343
                    ],
                    [
                        126.19502096593872,
                        -67.03827747297433
                    ],
                    [
                        126.21943847047223,
                        -67.0233568459708
                    ],
                    [
                        126.24500999366693,
                        -67.00875136079571
                    ],
                    [
                        126.2708292125945,
                        -66.99420968835622
                    ],
                    [
                        126.29576365783002,
                        -66.97944222478047
                    ],
                    [
                        126.31824814365623,
                        -66.96409305032668
                    ],
                    [
                        126.33814954004922,
                        -66.94820270986665
                    ],
                    [
                        126.35798455799994,
                        -66.93230508553053
                    ],
                    [
                        126.37758948975998,
                        -66.91636513516525
                    ],
                    [
                        126.39674702967964,
                        -66.90034154236437
                    ],
                    [
                        126.41584582017717,
                        -66.88431445195023
                    ],
                    [
                        126.43702425649228,
                        -66.86870787387438
                    ],
                    [
                        126.46287676562174,
                        -66.85423413993708
                    ],
                    [
                        126.49140581878328,
                        -66.84057400200362
                    ],
                    [
                        126.52251169930018,
                        -66.82781487929728
                    ],
                    [
                        126.55588816674704,
                        -66.81597821467254
                    ],
                    [
                        126.59128150659096,
                        -66.80512021531082
                    ],
                    [
                        126.63023278756621,
                        -66.79641917414232
                    ],
                    [
                        126.67372462796378,
                        -66.7921660603654
                    ],
                    [
                        126.71782726859513,
                        -66.78897888691107
                    ],
                    [
                        126.7616021264887,
                        -66.78515365608588
                    ],
                    [
                        126.8046994338951,
                        -66.78030134953254
                    ],
                    [
                        126.84711585036126,
                        -66.77459332157821
                    ],
                    [
                        126.88884721392776,
                        -66.7681628814215
                    ],
                    [
                        126.92950208183217,
                        -66.76075521636292
                    ],
                    [
                        126.96898242847462,
                        -66.75241027544847
                    ],
                    [
                        127.00680491667156,
                        -66.74297300600558
                    ],
                    [
                        127.04233836983322,
                        -66.73223330470482
                    ],
                    [
                        127.07595448806771,
                        -66.72057978945148
                    ],
                    [
                        127.10777440435245,
                        -66.70816579049621
                    ],
                    [
                        127.13772478444594,
                        -66.69504223226097
                    ],
                    [
                        127.16638542771693,
                        -66.68149123713494
                    ],
                    [
                        127.1939319625303,
                        -66.6675830791873
                    ],
                    [
                        127.22040131533173,
                        -66.65335194662677
                    ],
                    [
                        127.24601855834803,
                        -66.63888629493549
                    ],
                    [
                        127.2706593761556,
                        -66.62415777898232
                    ],
                    [
                        127.29413526150013,
                        -66.60914096939942
                    ],
                    [
                        127.31668677529518,
                        -66.59390291196937
                    ],
                    [
                        127.33847842594226,
                        -66.57850010781625
                    ],
                    [
                        127.36102998977817,
                        -66.56327167268341
                    ],
                    [
                        127.38355146304185,
                        -66.54804051705831
                    ],
                    [
                        127.40604289897244,
                        -66.53280664902184
                    ],
                    [
                        127.42850435070419,
                        -66.51757007663676
                    ],
                    [
                        127.45093587126657,
                        -66.50233080794789
                    ],
                    [
                        127.4733375135846,
                        -66.48708885098196
                    ],
                    [
                        127.4957093304789,
                        -66.47184421374787
                    ],
                    [
                        127.51805137466592,
                        -66.45659690423658
                    ],
                    [
                        127.54036369875813,
                        -66.4413469304212
                    ],
                    [
                        127.56264635526415,
                        -66.42609430025712
                    ],
                    [
                        127.58489939658892,
                        -66.4108390216819
                    ],
                    [
                        127.60712287503402,
                        -66.39558110261548
                    ],
                    [
                        127.62931684279765,
                        -66.3803205509601
                    ],
                    [
                        127.65148135197487,
                        -66.36505737460044
                    ],
                    [
                        127.67361645455793,
                        -66.34979158140358
                    ],
                    [
                        127.69572220243617,
                        -66.33452317921913
                    ],
                    [
                        127.7177986473965,
                        -66.31925217587923
                    ],
                    [
                        127.73984584112333,
                        -66.30397857919857
                    ],
                    [
                        127.76186383519882,
                        -66.28870239697453
                    ],
                    [
                        127.78385268110323,
                        -66.27342363698712
                    ]
                ]
            }
        }
    ]
}
