{
    "type": "FeatureCollection",
    "features": [
        {
            "type": "Feature",
            "properties": {
                "name": "American Highland",
                "object": "transect",
                "component": "landice",
                "author": "Matthew Hoffman, converted from https://github.com/yuwang115/sl-ice",
                "tags": "Antarctic_Ice_Sheet;flowline;sl-ice;american_highland"
            },
            "geometry": {
                "type": "LineString",
                "coordinates": [
                    [
                        82.18817151350254,
                        -74.21093230330719
                    ],
                    [
                        82.12178036867444,
                        -74.21122888600736
                    ],
                    [
                        82.05541381932376,
                        -74.21093527658292
                    ],
                    [
                        81.98911120351082,
                        -74.21004816097998
                    ],
                    [
                        81.92280848435077,
                        -74.20921288133903
                    ],
                    [
                        81.85643514409125,
                        -74.20932134198904
                    ],
                    [
                        81.79010256611365,
                        -74.20999484688207
                    ],
                    [
                        81.72378226339374,
                        -74.21078969817685
                    ],
                    [
                        81.6573998371313,
                        -74.21091295894351
                    ],
                    [
                        81.59103415707123,
                        -74.21044505474461
                    ],
                    [
                        81.52469494419151,
                        -74.20979267484974
                    ],
                    [
                        81.4583770521835,
                        -74.20898752419376
                    ],
                    [
                        81.39219190549771,
                        -74.20760914058789
                    ],
                    [
                        81.32631304099213,
                        -74.20540860861543
                    ],
                    [
                        81.26040798517748,
                        -74.20329073017139
                    ],
                    [
                        81.19451878118828,
                        -74.2011795644557
                    ],
                    [
                        81.12891619004931,
                        -74.1984967225423
                    ],
                    [
                        81.06370618462985,
                        -74.19518725916663
                    ],
                    [
                        80.99853823302219,
                        -74.19184450105423
                    ],
                    [
                        80.9330285976584,
                        -74.1890557149123
                    ],
                    [
                        80.86750426887181,
                        -74.18632265818407
                    ],
                    [
                        80.80221481898985,
                        -74.1832123927957
                    ],
                    [
                        80.73704451249925,
                        -74.17994867641379
                    ],
                    [
                        80.67166445439375,
                        -74.17702501949529
                    ],
                    [
                        80.60623326076507,
                        -74.17420584623895
                    ],
                    [
                        80.54095090361035,
                        -74.17116130901198
                    ],
                    [
                        80.47584025613841,
                        -74.16786956140722
                    ],
                    [
                        80.4110298406092,
                        -74.16420367552584
                    ],
                    [
                        80.34688818254399,
                        -74.15974089725732
                    ],
                    [
                        80.28285439666928,
                        -74.15519314465993
                    ],
                    [
                        80.21899620313674,
                        -74.15048113209055
                    ],
                    [
                        80.15512674891433,
                        -74.14580698326347
                    ],
                    [
                        80.09093091002747,
                        -74.14149501512738
                    ],
                    [
                        80.02643489147664,
                        -74.13756012460026
                    ],
                    [
                        79.96151476452563,
                        -74.13420726563334
                    ],
                    [
                        79.89628030952949,
                        -74.13135452283241
                    ],
                    [
                        79.8310163077212,
                        -74.12859360937767
                    ],
                    [
                        79.76585266623523,
                        -74.12566471083812
                    ],
                    [
                        79.70085449129162,
                        -74.12249300019515
                    ],
                    [
                        79.63599548767311,
                        -74.1191322760821
                    ],
                    [
                        79.57118226978699,
                        -74.11572482964986
                    ],
                    [
                        79.50629514855764,
                        -74.11244836470286
                    ],
                    [
                        79.44141404871169,
                        -74.10918289296164
                    ],
                    [
                        79.37663944877289,
                        -74.10579110386527
                    ],
                    [
                        79.31183752405347,
                        -74.10244997294512
                    ],
                    [
                        79.24703865604548,
                        -74.09912429424361
                    ],
                    [
                        79.18227349218606,
                        -74.09576968807909
                    ],
                    [
                        79.11746142783753,
                        -74.09250150796547
                    ],
                    [
                        79.05261104242201,
                        -74.08932020991651
                    ],
                    [
                        78.9876300735376,
                        -74.08635893385444
                    ],
                    [
                        78.92252245110441,
                        -74.08363170725603
                    ],
                    [
                        78.8573204872432,
                        -74.0811126768055
                    ],
                    [
                        78.79212990022462,
                        -74.07858659915011
                    ],
                    [
                        78.72707281548344,
                        -74.07583907668531
                    ],
                    [
                        78.66199000708096,
                        -74.07314694663246
                    ],
                    [
                        78.59669782305089,
                        -74.07088710710062
                    ],
                    [
                        78.53136486956438,
                        -74.06876023773167
                    ],
                    [
                        78.46606991466888,
                        -74.06654952133734
                    ],
                    [
                        78.40083017756558,
                        -74.06424668239009
                    ],
                    [
                        78.3355961098598,
                        -74.06195036263507
                    ],
                    [
                        78.27034365993816,
                        -74.0597099403545
                    ],
                    [
                        78.20508871283407,
                        -74.05750788727978
                    ],
                    [
                        78.13984486200809,
                        -74.0553080861983
                    ],
                    [
                        78.0745676707981,
                        -74.05317259528881
                    ],
                    [
                        78.00928238033643,
                        -74.05109366321915
                    ],
                    [
                        77.94399937198976,
                        -74.04903959876827
                    ],
                    [
                        77.8786973202549,
                        -74.04704149712984
                    ],
                    [
                        77.81339278627141,
                        -74.04507725704886
                    ],
                    [
                        77.74801299850061,
                        -74.04333204985804
                    ],
                    [
                        77.68255661334045,
                        -74.04183361877293
                    ],
                    [
                        77.617138657975,
                        -74.04026532521664
                    ],
                    [
                        77.55170582754545,
                        -74.03870717204434
                    ],
                    [
                        77.48629738968822,
                        -74.03710603178705
                    ],
                    [
                        77.42094892316224,
                        -74.03538540950996
                    ],
                    [
                        77.35561558235251,
                        -74.03363507903737
                    ],
                    [
                        77.29027639402615,
                        -74.03187687882786
                    ],
                    [
                        77.22499667812139,
                        -74.030031511975
                    ],
                    [
                        77.15968857078578,
                        -74.02821852672966
                    ],
                    [
                        77.09437844944415,
                        -74.02649055149726
                    ],
                    [
                        77.02903175298182,
                        -74.024859360448
                    ],
                    [
                        76.96364822623181,
                        -74.02340378666763
                    ],
                    [
                        76.8981937807731,
                        -74.02217739215213
                    ],
                    [
                        76.83269688845017,
                        -74.02118676287066
                    ],
                    [
                        76.76718940156303,
                        -74.02030420136838
                    ],
                    [
                        76.70170470144348,
                        -74.01930455839633
                    ],
                    [
                        76.63628187173559,
                        -74.01804641699086
                    ],
                    [
                        76.57082012887882,
                        -74.01699197542605
                    ],
                    [
                        76.50538378593392,
                        -74.01579727111917
                    ],
                    [
                        76.44002070775252,
                        -74.01438641706486
                    ],
                    [
                        76.37471919025893,
                        -74.01279105587689
                    ],
                    [
                        76.30947476355254,
                        -74.01103403750707
                    ],
                    [
                        76.2442399477616,
                        -74.0092887663603
                    ],
                    [
                        76.17897734162608,
                        -74.00762713875181
                    ],
                    [
                        76.11380987751846,
                        -74.00572261529958
                    ],
                    [
                        76.0487326441748,
                        -74.00360266957973
                    ],
                    [
                        75.98369121437474,
                        -74.00144965252083
                    ],
                    [
                        75.918718790532,
                        -73.99914946339376
                    ],
                    [
                        75.85406136526657,
                        -73.99629066587097
                    ],
                    [
                        75.78886058322776,
                        -73.99476511422527
                    ],
                    [
                        75.72344425570802,
                        -73.99397198798064
                    ],
                    [
                        75.65818303958815,
                        -73.9925021555549
                    ],
                    [
                        75.59310978990588,
                        -73.99052537001214
                    ],
                    [
                        75.5283519613933,
                        -73.98790120466867
                    ],
                    [
                        75.46432025388495,
                        -73.98418293744065
                    ],
                    [
                        75.4008890393297,
                        -73.9797579775297
                    ],
                    [
                        75.33756568407743,
                        -73.97523021937442
                    ],
                    [
                        75.2737059498522,
                        -73.97134199588629
                    ],
                    [
                        75.20962581967619,
                        -73.96776140505176
                    ],
                    [
                        75.14563538217135,
                        -73.96407672832291
                    ],
                    [
                        75.08199644590633,
                        -73.95997543574326
                    ],
                    [
                        75.01856792818607,
                        -73.95564339814915
                    ],
                    [
                        74.95519101497442,
                        -73.9512885757458
                    ],
                    [
                        74.89208958224366,
                        -73.94664707438068
                    ],
                    [
                        74.82896111704746,
                        -73.94205178077415
                    ],
                    [
                        74.76566759056419,
                        -73.93765609037452
                    ],
                    [
                        74.70256872330349,
                        -73.93306592883864
                    ],
                    [
                        74.63949859178648,
                        -73.92847472079406
                    ],
                    [
                        74.57631764853481,
                        -73.92401233799563
                    ],
                    [
                        74.51318848551836,
                        -73.91951789783897
                    ],
                    [
                        74.4500271712893,
                        -73.91507867475082
                    ],
                    [
                        74.386993868105,
                        -73.91051486918528
                    ],
                    [
                        74.32415772058403,
                        -73.90576621299273
                    ],
                    [
                        74.2616038271858,
                        -73.90076432218713
                    ],
                    [
                        74.19937653447091,
                        -73.89547518160235
                    ],
                    [
                        74.1375896160159,
                        -73.8898139461207
                    ],
                    [
                        74.07639100873519,
                        -73.8837032230549
                    ],
                    [
                        74.01622866489362,
                        -73.87686417307525
                    ],
                    [
                        73.95696208703909,
                        -73.86945975760628
                    ],
                    [
                        73.89798623107332,
                        -73.8618928926472
                    ],
                    [
                        73.83974031644506,
                        -73.85392179747804
                    ],
                    [
                        73.78233802778396,
                        -73.84549961150645
                    ],
                    [
                        73.72501791902064,
                        -73.8370539477471
                    ],
                    [
                        73.66750700837216,
                        -73.82872249721896
                    ],
                    [
                        73.60970013206737,
                        -73.82057181290548
                    ],
                    [
                        73.551646429955,
                        -73.8125728369059
                    ],
                    [
                        73.49335237496594,
                        -73.8047306803093
                    ],
                    [
                        73.43573828421694,
                        -73.79652825712138
                    ],
                    [
                        73.3792021809024,
                        -73.7877635581834
                    ],
                    [
                        73.32340201595626,
                        -73.77866294923555
                    ],
                    [
                        73.26712054167031,
                        -73.76981264599539
                    ],
                    [
                        73.2108160810055,
                        -73.7609823278982
                    ],
                    [
                        73.15531196106996,
                        -73.75178431398652
                    ],
                    [
                        73.0992813861082,
                        -73.7428608813233
                    ],
                    [
                        73.04222449826325,
                        -73.73447099825867
                    ],
                    [
                        72.98570707890498,
                        -73.7258139165499
                    ],
                    [
                        72.93086493393116,
                        -73.71636456657407
                    ],
                    [
                        72.87707815778072,
                        -73.70646695443038
                    ],
                    [
                        72.82434869060052,
                        -73.6961407669527
                    ],
                    [
                        72.77336577316213,
                        -73.68516322564598
                    ],
                    [
                        72.72471817077104,
                        -73.67338845614987
                    ],
                    [
                        72.67740888405775,
                        -73.6611984349151
                    ],
                    [
                        72.62949483273924,
                        -73.64920770626678
                    ],
                    [
                        72.58064370414719,
                        -73.63753305693338
                    ],
                    [
                        72.53056537061623,
                        -73.62629472325276
                    ],
                    [
                        72.47878240090675,
                        -73.61569537362197
                    ],
                    [
                        72.42749532166735,
                        -73.60492260761065
                    ],
                    [
                        72.37551297151867,
                        -73.59443788038
                    ],
                    [
                        72.32178591076612,
                        -73.58468599331432
                    ],
                    [
                        72.26847639792702,
                        -73.57477677413716
                    ],
                    [
                        72.21947044820692,
                        -73.56327240608482
                    ],
                    [
                        72.17756782825222,
                        -73.54969145081695
                    ],
                    [
                        72.1401673674077,
                        -73.53509962754896
                    ],
                    [
                        72.10549946405871,
                        -73.5199730244858
                    ],
                    [
                        72.07067276785257,
                        -73.5048963725162
                    ],
                    [
                        72.0314682910019,
                        -73.4907087142976
                    ],
                    [
                        71.98994367363822,
                        -73.47707556503396
                    ],
                    [
                        71.94816967513088,
                        -73.4635090966055
                    ],
                    [
                        71.90783231184406,
                        -73.44960147872627
                    ],
                    [
                        71.86943973214238,
                        -73.43526353683758
                    ],
                    [
                        71.83518328790487,
                        -73.42010384062277
                    ],
                    [
                        71.80132273782809,
                        -73.40487515875157
                    ],
                    [
                        71.76477649293854,
                        -73.39018000914291
                    ],
                    [
                        71.72320269827472,
                        -73.37662619506284
                    ],
                    [
                        71.67891713615792,
                        -73.36380274986712
                    ],
                    [
                        71.63366537724036,
                        -73.35126572643505
                    ],
                    [
                        71.58939088045476,
                        -73.33845867231184
                    ],
                    [
                        71.54494688328658,
                        -73.32570493452477
                    ],
                    [
                        71.50085990974745,
                        -73.31286481575388
                    ],
                    [
                        71.4568874321295,
                        -73.29999600673493
                    ],
                    [
                        71.41233575629644,
                        -73.2873073248431
                    ],
                    [
                        71.3671530200262,
                        -73.2748171090638
                    ],
                    [
                        71.32150697064839,
                        -73.26247462727153
                    ],
                    [
                        71.27511884705737,
                        -73.25037605684452
                    ],
                    [
                        71.22860964195341,
                        -73.2383294383404
                    ],
                    [
                        71.18181408599798,
                        -73.22638508779241
                    ],
                    [
                        71.13552574884571,
                        -73.21429246730995
                    ],
                    [
                        71.09032385662856,
                        -73.20186629271775
                    ],
                    [
                        71.04600013597808,
                        -73.18919143762636
                    ],
                    [
                        71.00152050722185,
                        -73.17657057881756
                    ],
                    [
                        70.95736797403639,
                        -73.1638659563411
                    ],
                    [
                        70.9121072437275,
                        -73.15150604366904
                    ],
                    [
                        70.86459405968252,
                        -73.1398995846218
                    ],
                    [
                        70.81576016773857,
                        -73.12876222066815
                    ],
                    [
                        70.76647921833153,
                        -73.11780456703781
                    ],
                    [
                        70.71705690085423,
                        -73.10691896756923
                    ],
                    [
                        70.66743943393917,
                        -73.09611416371527
                    ],
                    [
                        70.6175853452667,
                        -73.08542398351553
                    ],
                    [
                        70.56933749037454,
                        -73.07414412347957
                    ],
                    [
                        70.52458747578763,
                        -73.06171546921382
                    ],
                    [
                        70.47943356449466,
                        -73.04940525220485
                    ],
                    [
                        70.43370021720327,
                        -73.0372953738881
                    ],
                    [
                        70.38774093011668,
                        -73.02526438755669
                    ],
                    [
                        70.34693685516554,
                        -73.01179290378815
                    ],
                    [
                        70.3152691575244,
                        -72.99641126730272
                    ],
                    [
                        70.29441298992951,
                        -72.97949275815247
                    ],
                    [
                        70.28491836939533,
                        -72.96170936834953
                    ],
                    [
                        70.28135701897912,
                        -72.94372534897775
                    ],
                    [
                        70.27994741438694,
                        -72.92570948897955
                    ],
                    [
                        70.27858696020658,
                        -72.90769930026693
                    ],
                    [
                        70.27537251266924,
                        -72.88970924947007
                    ],
                    [
                        70.2711560947018,
                        -72.87173775352922
                    ],
                    [
                        70.26749791132733,
                        -72.85375811767422
                    ],
                    [
                        70.26539485053404,
                        -72.8357565558973
                    ],
                    [
                        70.26480645351567,
                        -72.81774370960943
                    ],
                    [
                        70.26188311602445,
                        -72.79975158151203
                    ],
                    [
                        70.25599388890731,
                        -72.78182701783997
                    ],
                    [
                        70.24846432921181,
                        -72.76395678019112
                    ],
                    [
                        70.24040880949435,
                        -72.74610584619224
                    ],
                    [
                        70.23228635359861,
                        -72.72826078994039
                    ],
                    [
                        70.22392282112513,
                        -72.71042209712871
                    ],
                    [
                        70.21510212803668,
                        -72.69260957378002
                    ],
                    [
                        70.20589730150041,
                        -72.67481169892595
                    ],
                    [
                        70.19656169882582,
                        -72.65702679485862
                    ],
                    [
                        70.1880109358389,
                        -72.63920018851405
                    ],
                    [
                        70.18084059457098,
                        -72.6213246347846
                    ],
                    [
                        70.17613183862767,
                        -72.60338339959797
                    ],
                    [
                        70.17442278806995,
                        -72.58538776027461
                    ],
                    [
                        70.17433720627719,
                        -72.56738622790719
                    ],
                    [
                        70.17431840845545,
                        -72.54938316768288
                    ],
                    [
                        70.17267298833514,
                        -72.53139611788083
                    ],
                    [
                        70.16955812425375,
                        -72.5134176091923
                    ],
                    [
                        70.1649288355848,
                        -72.49547567001235
                    ],
                    [
                        70.15800283553776,
                        -72.47760421351312
                    ],
                    [
                        70.14744826927331,
                        -72.45990115191216
                    ],
                    [
                        70.13250255627298,
                        -72.44248240709568
                    ],
                    [
                        70.11367774587198,
                        -72.42541106435098
                    ],
                    [
                        70.09328340665981,
                        -72.40850714084773
                    ],
                    [
                        70.07307604249225,
                        -72.39158443100148
                    ],
                    [
                        70.052450040536,
                        -72.37471043413947
                    ],
                    [
                        70.03062570252222,
                        -72.35798082093257
                    ],
                    [
                        70.00727524910634,
                        -72.34144478103526
                    ],
                    [
                        69.9819566389648,
                        -72.32518163366902
                    ],
                    [
                        69.95437467707899,
                        -72.30927220807665
                    ],
                    [
                        69.92473038472214,
                        -72.29370379681453
                    ],
                    [
                        69.89263088577121,
                        -72.27862748410064
                    ],
                    [
                        69.85038928748808,
                        -72.26638157183268
                    ],
                    [
                        69.79672143127745,
                        -72.25917213878724
                    ],
                    [
                        69.73808429890792,
                        -72.25792100280134
                    ],
                    [
                        69.67925973015589,
                        -72.2592523594183
                    ],
                    [
                        69.62029922225955,
                        -72.25967787377638
                    ],
                    [
                        69.56325555598157,
                        -72.25555229253914
                    ],
                    [
                        69.51282839905848,
                        -72.24644358209673
                    ],
                    [
                        69.4701853500729,
                        -72.23408602443058
                    ],
                    [
                        69.43396408858369,
                        -72.21991294637444
                    ],
                    [
                        69.40100807126515,
                        -72.20502609122163
                    ],
                    [
                        69.37117536604431,
                        -72.18953148868252
                    ],
                    [
                        69.34437225036756,
                        -72.1735357752843
                    ],
                    [
                        69.31967574940477,
                        -72.1572224834595
                    ],
                    [
                        69.2969299649111,
                        -72.14065181342639
                    ],
                    [
                        69.27677938062828,
                        -72.12377016055284
                    ],
                    [
                        69.25912841642726,
                        -72.10663049978635
                    ],
                    [
                        69.24461277127396,
                        -72.08922194991214
                    ],
                    [
                        69.23485829934435,
                        -72.07150545986062
                    ],
                    [
                        69.22986370315263,
                        -72.05360344858819
                    ],
                    [
                        69.23008126750786,
                        -72.03563342317106
                    ],
                    [
                        69.23711487997431,
                        -72.01780431371168
                    ],
                    [
                        69.25015084622,
                        -72.00030110146939
                    ],
                    [
                        69.26872329642504,
                        -71.98328129731325
                    ],
                    [
                        69.2924438223738,
                        -71.96688190725432
                    ],
                    [
                        69.31926425506995,
                        -71.95094899923814
                    ],
                    [
                        69.34849800262553,
                        -71.93544000044166
                    ],
                    [
                        69.37983850588249,
                        -71.92033277470482
                    ],
                    [
                        69.41236446557383,
                        -71.90547102670504
                    ],
                    [
                        69.44584943241215,
                        -71.89082306798126
                    ],
                    [
                        69.48032573532578,
                        -71.87640662636011
                    ],
                    [
                        69.51568191083456,
                        -71.86221305005019
                    ],
                    [
                        69.55197659719231,
                        -71.84824869554738
                    ],
                    [
                        69.58908561093584,
                        -71.83450822628716
                    ],
                    [
                        69.62631716844948,
                        -71.82080076154183
                    ],
                    [
                        69.66296853997079,
                        -71.80695862298568
                    ],
                    [
                        69.69839318129647,
                        -71.79280675375817
                    ],
                    [
                        69.73272515261452,
                        -71.77840433480766
                    ],
                    [
                        69.76607003518731,
                        -71.76378797247926
                    ],
                    [
                        69.7984294880153,
                        -71.7489630513799
                    ],
                    [
                        69.8301407556954,
                        -71.7339975097484
                    ],
                    [
                        69.86129067150364,
                        -71.71893027782345
                    ],
                    [
                        69.89180942045422,
                        -71.70374394773673
                    ],
                    [
                        69.92159245337096,
                        -71.68841714842816
                    ],
                    [
                        69.95058955132127,
                        -71.67293956362917
                    ],
                    [
                        69.97849977119525,
                        -71.65728167147788
                    ],
                    [
                        70.00539958243176,
                        -71.64144774732638
                    ],
                    [
                        70.03126606801607,
                        -71.62545451541133
                    ],
                    [
                        70.05592921436165,
                        -71.60927316509135
                    ],
                    [
                        70.07944958401953,
                        -71.59292995340384
                    ],
                    [
                        70.10188086078641,
                        -71.5764359749724
                    ],
                    [
                        70.12328197765387,
                        -71.55980288759542
                    ],
                    [
                        70.14374262266404,
                        -71.5430601490628
                    ],
                    [
                        70.1634647306862,
                        -71.52623093097009
                    ],
                    [
                        70.18228084873462,
                        -71.50930566794408
                    ],
                    [
                        70.20037078672146,
                        -71.49230018981008
                    ],
                    [
                        70.21777140506113,
                        -71.47522350003199
                    ],
                    [
                        70.23447170591778,
                        -71.4580791162117
                    ],
                    [
                        70.25069622211076,
                        -71.44089270970345
                    ],
                    [
                        70.26652512189233,
                        -71.42366867183665
                    ],
                    [
                        70.28196791716347,
                        -71.40641284613733
                    ],
                    [
                        70.29722873019232,
                        -71.38914379725232
                    ],
                    [
                        70.31242320824283,
                        -71.37186521337925
                    ],
                    [
                        70.3275737603615,
                        -71.35458918194378
                    ],
                    [
                        70.34278755677185,
                        -71.33731842852357
                    ],
                    [
                        70.35825479548946,
                        -71.32007947156394
                    ],
                    [
                        70.37414639061562,
                        -71.30287281452254
                    ],
                    [
                        70.390139841221,
                        -71.28568061655474
                    ],
                    [
                        70.4060198618498,
                        -71.26848300701145
                    ],
                    [
                        70.42154562996026,
                        -71.25125718997175
                    ],
                    [
                        70.43674051956073,
                        -71.23399630973326
                    ],
                    [
                        70.45157828780367,
                        -71.21671162942826
                    ],
                    [
                        70.46610003088232,
                        -71.19939356029629
                    ],
                    [
                        70.48027954159757,
                        -71.18205336161962
                    ],
                    [
                        70.49414329263364,
                        -71.16468928526743
                    ],
                    [
                        70.50762154162568,
                        -71.14729332829603
                    ],
                    [
                        70.52083543941735,
                        -71.12987933423231
                    ],
                    [
                        70.53387841507117,
                        -71.11244847064329
                    ],
                    [
                        70.54679384812293,
                        -71.09501520047357
                    ],
                    [
                        70.5595600260155,
                        -71.07756751630139
                    ],
                    [
                        70.57212713034068,
                        -71.06011395709244
                    ],
                    [
                        70.58443726143382,
                        -71.04263836336098
                    ],
                    [
                        70.59643975370595,
                        -71.02513965762238
                    ],
                    [
                        70.60818277715175,
                        -71.00762808359569
                    ],
                    [
                        70.6195373512811,
                        -70.99008882337857
                    ],
                    [
                        70.63052524939845,
                        -70.97252433284166
                    ],
                    [
                        70.64121477697925,
                        -70.95494240686575
                    ],
                    [
                        70.65163519935349,
                        -70.93734636728657
                    ],
                    [
                        70.66177174197794,
                        -70.91973448287503
                    ],
                    [
                        70.67165616588747,
                        -70.90211036318115
                    ],
                    [
                        70.68131110580418,
                        -70.88446707879302
                    ],
                    [
                        70.69071847373282,
                        -70.86681676031402
                    ],
                    [
                        70.699842897476,
                        -70.849155302717
                    ],
                    [
                        70.70858415619111,
                        -70.83146638948317
                    ],
                    [
                        70.71704227539836,
                        -70.81377096176818
                    ],
                    [
                        70.72530022471169,
                        -70.79605954281267
                    ],
                    [
                        70.73324308118474,
                        -70.77833784303344
                    ],
                    [
                        70.7410107970011,
                        -70.76060769969057
                    ],
                    [
                        70.74867046082045,
                        -70.74287681508136
                    ],
                    [
                        70.75625178598182,
                        -70.72513910961405
                    ],
                    [
                        70.76375052165706,
                        -70.70739882214559
                    ],
                    [
                        70.7711975554768,
                        -70.68965950275586
                    ],
                    [
                        70.77872636039326,
                        -70.67192233047476
                    ],
                    [
                        70.78628701332926,
                        -70.6541910347615
                    ],
                    [
                        70.79388962400158,
                        -70.63646678866355
                    ],
                    [
                        70.80162564497962,
                        -70.61874121334459
                    ],
                    [
                        70.80948650856828,
                        -70.60102756206557
                    ],
                    [
                        70.81751188160445,
                        -70.58332570637718
                    ],
                    [
                        70.82578820204633,
                        -70.56563146512681
                    ],
                    [
                        70.83431677660005,
                        -70.54795924645666
                    ],
                    [
                        70.84312281651262,
                        -70.53029779534728
                    ],
                    [
                        70.8523252675015,
                        -70.5126656797001
                    ],
                    [
                        70.861952100085,
                        -70.49505672310717
                    ],
                    [
                        70.8721380314192,
                        -70.47748187143333
                    ],
                    [
                        70.88301040903676,
                        -70.45995596591374
                    ],
                    [
                        70.89447035252056,
                        -70.44247707192376
                    ],
                    [
                        70.9065560121315,
                        -70.4250449330997
                    ],
                    [
                        70.91943711882352,
                        -70.40767929783044
                    ],
                    [
                        70.9330947117742,
                        -70.39038274128744
                    ],
                    [
                        70.94760734735453,
                        -70.37316441027514
                    ],
                    [
                        70.96324577146284,
                        -70.35606521129759
                    ],
                    [
                        70.97992006219178,
                        -70.33907942183613
                    ],
                    [
                        70.9976485551482,
                        -70.3222138590925
                    ],
                    [
                        71.01658391055172,
                        -70.30550035465868
                    ],
                    [
                        71.0365651750827,
                        -70.28893430883791
                    ],
                    [
                        71.05762446805562,
                        -70.27251458040823
                    ],
                    [
                        71.07993792718578,
                        -70.25629923233123
                    ],
                    [
                        71.10331088608172,
                        -70.24025129261344
                    ],
                    [
                        71.12772996028252,
                        -70.22439260423393
                    ],
                    [
                        71.15339353254052,
                        -70.20876473796062
                    ],
                    [
                        71.18006665809176,
                        -70.19333545182374
                    ],
                    [
                        71.20757739199358,
                        -70.17807983665035
                    ],
                    [
                        71.23612843814516,
                        -70.16304930786427
                    ],
                    [
                        71.26553401819669,
                        -70.14822204770375
                    ],
                    [
                        71.29572185698309,
                        -70.13357992913758
                    ],
                    [
                        71.32677455038183,
                        -70.11915569154625
                    ],
                    [
                        71.35845850543613,
                        -70.10489849404473
                    ],
                    [
                        71.39073756932146,
                        -70.09079914654711
                    ],
                    [
                        71.42359295392104,
                        -70.07686460797551
                    ],
                    [
                        71.45681750323284,
                        -70.06303784174823
                    ],
                    [
                        71.49035390372947,
                        -70.04931207584033
                    ],
                    [
                        71.52422849863733,
                        -70.03568540802682
                    ],
                    [
                        71.55835597301461,
                        -70.02214319036544
                    ],
                    [
                        71.59266104795566,
                        -70.00865784315258
                    ],
                    [
                        71.62715277754826,
                        -69.99523968930136
                    ],
                    [
                        71.66179145674793,
                        -69.98186996315017
                    ],
                    [
                        71.69660351246769,
                        -69.96856096614161
                    ],
                    [
                        71.73170208835062,
                        -69.95534890713303
                    ],
                    [
                        71.76699303507817,
                        -69.94220882828715
                    ],
                    [
                        71.80250107853553,
                        -69.92914337493951
                    ],
                    [
                        71.83833439520146,
                        -69.91618809031951
                    ],
                    [
                        71.87437915221906,
                        -69.90331582568389
                    ],
                    [
                        71.91066995474895,
                        -69.89053030292386
                    ],
                    [
                        71.94717967760796,
                        -69.87782829096928
                    ],
                    [
                        71.98384889140868,
                        -69.86518886587876
                    ],
                    [
                        72.02073806342877,
                        -69.85263744101594
                    ],
                    [
                        72.05785373234441,
                        -69.84016987087867
                    ],
                    [
                        72.09510786191085,
                        -69.82776676953426
                    ],
                    [
                        72.13251588999113,
                        -69.81542034221617
                    ],
                    [
                        72.1701220559901,
                        -69.8031588299616
                    ],
                    [
                        72.20782866790238,
                        -69.7909383905739
                    ],
                    [
                        72.2455261351242,
                        -69.77872803509342
                    ],
                    [
                        72.28327994944645,
                        -69.76655373547602
                    ],
                    [
                        72.3211152549897,
                        -69.7544088234864
                    ],
                    [
                        72.35898643008677,
                        -69.7422928788174
                    ],
                    [
                        72.3969559752045,
                        -69.73021740513903
                    ],
                    [
                        72.43499696421577,
                        -69.71817935039617
                    ],
                    [
                        72.47307412288893,
                        -69.70617008589629
                    ],
                    [
                        72.51108747388596,
                        -69.69413648834887
                    ],
                    [
                        72.54902790158066,
                        -69.6820916327154
                    ],
                    [
                        72.58684364830634,
                        -69.6700065096609
                    ],
                    [
                        72.62448851095793,
                        -69.65786680818944
                    ],
                    [
                        72.66193342900813,
                        -69.64566012364303
                    ],
                    [
                        72.6992537011551,
                        -69.63341345344278
                    ],
                    [
                        72.73653036494531,
                        -69.62116836363157
                    ],
                    [
                        72.77384286190016,
                        -69.6089381192482
                    ],
                    [
                        72.8111812183687,
                        -69.5967309425384
                    ],
                    [
                        72.84865860212707,
                        -69.58458233362173
                    ],
                    [
                        72.88621556229074,
                        -69.57247176348497
                    ],
                    [
                        72.92390570936395,
                        -69.56041424145582
                    ],
                    [
                        72.96189507881425,
                        -69.54849744879137
                    ],
                    [
                        73.00008234490576,
                        -69.5366542845855
                    ],
                    [
                        73.03829252863895,
                        -69.52482857458841
                    ],
                    [
                        73.07670172896475,
                        -69.51309967620324
                    ],
                    [
                        73.11547423445799,
                        -69.50152684114438
                    ],
                    [
                        73.15462975149644,
                        -69.49012116346988
                    ],
                    [
                        73.19427186990335,
                        -69.47893521965676
                    ],
                    [
                        73.23431597020168,
                        -69.46794097801755
                    ],
                    [
                        73.27482944477448,
                        -69.4571591411857
                    ],
                    [
                        73.31591261844483,
                        -69.44667434285053
                    ],
                    [
                        73.35749335777264,
                        -69.43643186974639
                    ],
                    [
                        73.39955306673339,
                        -69.42644789156002
                    ],
                    [
                        73.44218048772804,
                        -69.41677771965755
                    ],
                    [
                        73.48526722192213,
                        -69.40738151188494
                    ],
                    [
                        73.52885590999195,
                        -69.39828179025879
                    ],
                    [
                        73.57302768879677,
                        -69.38955615714288
                    ],
                    [
                        73.61770113671757,
                        -69.38115828628226
                    ],
                    [
                        73.6628292709587,
                        -69.37308270493179
                    ],
                    [
                        73.70852727127586,
                        -69.36543362758566
                    ],
                    [
                        73.75465121724699,
                        -69.35811652939498
                    ],
                    [
                        73.80104555301527,
                        -69.3510312799005
                    ],
                    [
                        73.84626402780853,
                        -69.3430824437938
                    ],
                    [
                        73.8898909181417,
                        -69.33409912139415
                    ],
                    [
                        73.93262197102555,
                        -69.32459944124858
                    ],
                    [
                        73.97534126971132,
                        -69.31510558393403
                    ],
                    [
                        74.0181866145069,
                        -69.30568715339261
                    ],
                    [
                        74.06114898510569,
                        -69.29635235743454
                    ],
                    [
                        74.10427312305846,
                        -69.2871240950277
                    ],
                    [
                        74.1471701783352,
                        -69.27777493271051
                    ],
                    [
                        74.19002769744479,
                        -69.26841467595172
                    ],
                    [
                        74.23284568712769,
                        -69.25904334155199
                    ],
                    [
                        74.2756241542886,
                        -69.24966094630221
                    ],
                    [
                        74.31836310599566,
                        -69.2402675069834
                    ],
                    [
                        74.36106254947991,
                        -69.2308630403666
                    ],
                    [
                        74.40372249213455,
                        -69.22144756321293
                    ],
                    [
                        74.44634294151426,
                        -69.21202109227336
                    ],
                    [
                        74.48892390533463,
                        -69.20258364428874
                    ],
                    [
                        74.53146539147137,
                        -69.19313523598976
                    ],
                    [
                        74.57396740795973,
                        -69.18367588409676
                    ],
                    [
                        74.61642996299378,
                        -69.17420560531981
                    ],
                    [
                        74.65885306492581,
                        -69.16472441635861
                    ],
                    [
                        74.70123672226562,
                        -69.15523233390226
                    ],
                    [
                        74.74358094367986,
                        -69.14572937462948
                    ],
                    [
                        74.78588573799136,
                        -69.1362155552083
                    ],
                    [
                        74.82815111417851,
                        -69.12669089229611
                    ],
                    [
                        74.87037708137457,
                        -69.1171554025396
                    ],
                    [
                        74.91256364886699,
                        -69.10760910257467
                    ],
                    [
                        74.95471082609681,
                        -69.09805200902638
                    ]
                ]
            }
        }
    ]
}
