{
    "type": "FeatureCollection",
    "features": [
        {
            "type": "Feature",
            "properties": {
                "name": "Greenland Glacier 0229",
                "object": "transect",
                "component": "landice",
                "author": "Matthew Hoffman, converted from Felikson et al. (2020) Zenodo dataset",
                "tags": "Greenland_Ice_Sheet;flowline;zenodo_4284759;glacier_0229",
                "citation": "Felikson, Denis, Catania, Ginny, Bartholomaus, Timothy, Morlighem, Mathieu, & No\u00ebl, Brice. (2020). Inland limits to diffusion of thinning along Greenland Ice Sheet outlet glaciers (v1.0) [Data set]. Zenodo. https://doi.org/10.5281/zenodo.4284759",
                "license": "CC-BY-4.0"
            },
            "geometry": {
                "type": "LineString",
                "coordinates": [
                    [
                        -42.79247486667431,
                        61.91763555614833
                    ],
                    [
                        -42.78788230394527,
                        61.917287918595385
                    ],
                    [
                        -42.78331411579064,
                        61.91664467018706
                    ],
                    [
                        -42.77875751502723,
                        61.91586304970455
                    ],
                    [
                        -42.774204535853976,
                        61.915040527605015
                    ],
                    [
                        -42.76965856068733,
                        61.91413640225733
                    ],
                    [
                        -42.765109295792286,
                        61.91327553336246
                    ],
                    [
                        -42.76054945574857,
                        61.91254550522474
                    ],
                    [
                        -42.75598144678975,
                        61.91191657330358
                    ],
                    [
                        -42.751407238891,
                        61.91136446911037
                    ],
                    [
                        -42.74682730717341,
                        61.910883033728695
                    ],
                    [
                        -42.74224058533488,
                        61.91048459312714
                    ],
                    [
                        -42.73764932918513,
                        61.91014171860838
                    ],
                    [
                        -42.73305692130942,
                        61.90981377930758
                    ],
                    [
                        -42.728463413703466,
                        61.909500066497955
                    ],
                    [
                        -42.72386676350426,
                        61.909224731375666
                    ],
                    [
                        -42.719271938489484,
                        61.908928721033185
                    ],
                    [
                        -42.71467459357492,
                        61.908663504613
                    ],
                    [
                        -42.71007502908094,
                        61.908425355147905
                    ],
                    [
                        -42.705476801061465,
                        61.90817225663126
                    ],
                    [
                        -42.700875118958024,
                        61.9079605686766
                    ],
                    [
                        -42.696272274664096,
                        61.907763176216804
                    ],
                    [
                        -42.69167007714795,
                        61.90755882977425
                    ],
                    [
                        -42.68706619182313,
                        61.90737482938116
                    ],
                    [
                        -42.68245871463873,
                        61.907233241492385
                    ],
                    [
                        -42.67784892694208,
                        61.90711891175995
                    ],
                    [
                        -42.673237517236174,
                        61.90702368663802
                    ],
                    [
                        -42.6686318254685,
                        61.90686242746421
                    ],
                    [
                        -42.664029355274515,
                        61.90666438469081
                    ],
                    [
                        -42.65943314071013,
                        61.90639476605602
                    ],
                    [
                        -42.65484073772663,
                        61.906082136316684
                    ],
                    [
                        -42.650252679325426,
                        61.905720620136194
                    ],
                    [
                        -42.64566488043273,
                        61.90535736289128
                    ],
                    [
                        -42.6410732424561,
                        61.905039299616625
                    ],
                    [
                        -42.6364783188682,
                        61.90475984316599
                    ],
                    [
                        -42.6318769364979,
                        61.90455495860886
                    ],
                    [
                        -42.62726238343531,
                        61.904500611890874
                    ],
                    [
                        -42.62263004683533,
                        61.90464832942618
                    ],
                    [
                        -42.61798407727574,
                        61.90494986838942
                    ],
                    [
                        -42.61332687818629,
                        61.90537712798274
                    ],
                    [
                        -42.61332687818629,
                        61.90537712798274
                    ],
                    [
                        -42.60866953185327,
                        61.90580420980117
                    ],
                    [
                        -42.60399595980346,
                        61.90641233973469
                    ],
                    [
                        -42.59930782184178,
                        61.9071817769097
                    ],
                    [
                        -42.594607746365156,
                        61.90808205644061
                    ],
                    [
                        -42.58989341325721,
                        61.90913839476211
                    ],
                    [
                        -42.585168964588966,
                        61.910303543997884
                    ],
                    [
                        -42.580424096094404,
                        61.911691842124746
                    ],
                    [
                        -42.57566544525248,
                        61.91322802530757
                    ],
                    [
                        -42.570878723876696,
                        61.915070002776254
                    ],
                    [
                        -42.56657814661764,
                        61.9171628024541
                    ],
                    [
                        -42.56298103351531,
                        61.91926959767233
                    ],
                    [
                        -42.559483146886215,
                        61.92137830996543
                    ],
                    [
                        -42.55536508143864,
                        61.92347447277786
                    ],
                    [
                        -42.5512384454914,
                        61.92557035469806
                    ],
                    [
                        -42.546443767872866,
                        61.92745658824966
                    ],
                    [
                        -42.520153967625525,
                        61.93969943026949
                    ],
                    [
                        -42.4938403129419,
                        61.95193721482615
                    ],
                    [
                        -42.467502782455504,
                        61.964169933072604
                    ],
                    [
                        -42.44114135480142,
                        61.976397576150724
                    ],
                    [
                        -42.414756008616386,
                        61.98862013519128
                    ],
                    [
                        -42.38834672253898,
                        62.000837601313954
                    ],
                    [
                        -42.36191347520964,
                        62.01304996562731
                    ],
                    [
                        -42.335456245270855,
                        62.02525721922882
                    ],
                    [
                        -42.30897501136726,
                        62.037459353204845
                    ],
                    [
                        -42.28246975214572,
                        62.04965635863059
                    ],
                    [
                        -42.25594044625547,
                        62.061848226570135
                    ],
                    [
                        -42.22938707234826,
                        62.07403494807644
                    ],
                    [
                        -42.2028096090784,
                        62.086216514191314
                    ],
                    [
                        -42.176208035102945,
                        62.09839291594538
                    ],
                    [
                        -42.149582329081774,
                        62.11056414435814
                    ],
                    [
                        -42.12293246967774,
                        62.12273019043795
                    ],
                    [
                        -42.09625843555676,
                        62.134891045181924
                    ],
                    [
                        -42.06956020538793,
                        62.147046699576045
                    ],
                    [
                        -42.042837757843685,
                        62.15919714459511
                    ],
                    [
                        -42.016091071599874,
                        62.171342371202705
                    ]
                ]
            }
        }
    ]
}
