{
    "type": "FeatureCollection",
    "features": [
        {
            "type": "Feature",
            "properties": {
                "name": "Vincennes Bay",
                "object": "transect",
                "component": "landice",
                "author": "Matthew Hoffman, converted from https://github.com/yuwang115/sl-ice",
                "tags": "Antarctic_Ice_Sheet;flowline;sl-ice;vincennes_bay"
            },
            "geometry": {
                "type": "LineString",
                "coordinates": [
                    [
                        104.12079409492637,
                        -69.98487713097381
                    ],
                    [
                        104.1284570980025,
                        -69.96719667691345
                    ],
                    [
                        104.13584667797265,
                        -69.94950698557118
                    ],
                    [
                        104.14351079117631,
                        -69.93182984770657
                    ],
                    [
                        104.15277761328008,
                        -69.91424816062595
                    ],
                    [
                        104.16360653354886,
                        -69.8967740209102
                    ],
                    [
                        104.17607553937762,
                        -69.87942762167548
                    ],
                    [
                        104.18964273721167,
                        -69.86218632107892
                    ],
                    [
                        104.20294855884869,
                        -69.84491947607562
                    ],
                    [
                        104.21612309473315,
                        -69.82764347569997
                    ],
                    [
                        104.22953383497135,
                        -69.8103860848964
                    ],
                    [
                        104.24314330985852,
                        -69.79315508586055
                    ],
                    [
                        104.25700109207106,
                        -69.77594602472612
                    ],
                    [
                        104.27111293820447,
                        -69.75876748846483
                    ],
                    [
                        104.2852566695467,
                        -69.74159288256422
                    ],
                    [
                        104.2992520887097,
                        -69.7244012585818
                    ],
                    [
                        104.31277043734683,
                        -69.70717111680344
                    ],
                    [
                        104.32594332821449,
                        -69.68991404286587
                    ],
                    [
                        104.3385063463524,
                        -69.67259379653753
                    ],
                    [
                        104.35007370957507,
                        -69.65519892161753
                    ],
                    [
                        104.3606932880416,
                        -69.63773019806962
                    ],
                    [
                        104.37013818200101,
                        -69.62018525456008
                    ],
                    [
                        104.37775042970586,
                        -69.60253125747916
                    ],
                    [
                        104.38340064288727,
                        -69.58479430745093
                    ],
                    [
                        104.38669882430152,
                        -69.56698239258318
                    ],
                    [
                        104.38771505492493,
                        -69.54913600864944
                    ],
                    [
                        104.3879773282445,
                        -69.53128440909927
                    ],
                    [
                        104.38850312958392,
                        -69.51344229769877
                    ],
                    [
                        104.38977248399051,
                        -69.49559867653974
                    ],
                    [
                        104.39183053939603,
                        -69.47776771017544
                    ],
                    [
                        104.3945901309499,
                        -69.45994782327762
                    ],
                    [
                        104.39817583133618,
                        -69.44215060015694
                    ],
                    [
                        104.40254721822822,
                        -69.42437022720108
                    ],
                    [
                        104.40770431913994,
                        -69.40662026550241
                    ],
                    [
                        104.41371093910121,
                        -69.38890848837038
                    ],
                    [
                        104.42032897719143,
                        -69.37121934426438
                    ],
                    [
                        104.4276337883821,
                        -69.35356879464047
                    ],
                    [
                        104.4359558987048,
                        -69.33597257910877
                    ],
                    [
                        104.44507174639085,
                        -69.3184276289161
                    ],
                    [
                        104.45483004961245,
                        -69.30092899639692
                    ],
                    [
                        104.46575308511424,
                        -69.28352080461302
                    ],
                    [
                        104.47771332979497,
                        -69.26619578962328
                    ],
                    [
                        104.49053014681692,
                        -69.2489516127309
                    ],
                    [
                        104.50442583500656,
                        -69.2318181135354
                    ],
                    [
                        104.5193349926659,
                        -69.2147869653499
                    ],
                    [
                        104.5354918893492,
                        -69.19790513991464
                    ],
                    [
                        104.55280258122639,
                        -69.18117144747806
                    ],
                    [
                        104.57060057648877,
                        -69.16450877867956
                    ],
                    [
                        104.58861241367151,
                        -69.14787313947048
                    ],
                    [
                        104.60689137694823,
                        -69.1312778789563
                    ],
                    [
                        104.62528674496248,
                        -69.11470463887123
                    ],
                    [
                        104.64383767193657,
                        -69.09815430323168
                    ],
                    [
                        104.66297111114336,
                        -69.08169279852541
                    ],
                    [
                        104.68290534594735,
                        -69.06535921637166
                    ],
                    [
                        104.7032769880484,
                        -69.04909508718326
                    ],
                    [
                        104.72364837442952,
                        -69.03283078315097
                    ],
                    [
                        104.74419931429742,
                        -69.01660462032487
                    ],
                    [
                        104.76530431029722,
                        -69.00046861923155
                    ],
                    [
                        104.78739422188815,
                        -68.98451062295366
                    ],
                    [
                        104.8105766168922,
                        -68.96875667095887
                    ],
                    [
                        104.83526110574925,
                        -68.95330531452393
                    ],
                    [
                        104.8620303347723,
                        -68.93831655647641
                    ],
                    [
                        104.8903253740793,
                        -68.92369502899433
                    ],
                    [
                        104.91988961403902,
                        -68.90941361957094
                    ],
                    [
                        104.95061282129289,
                        -68.89545901309792
                    ],
                    [
                        104.98219005963607,
                        -68.88175840824748
                    ],
                    [
                        105.01435422272807,
                        -68.86824484303891
                    ],
                    [
                        105.04698168374902,
                        -68.85487917766596
                    ],
                    [
                        105.07990203782751,
                        -68.84161771536728
                    ],
                    [
                        105.11291389262469,
                        -68.82839227546152
                    ],
                    [
                        105.1459377068904,
                        -68.81517828398263
                    ],
                    [
                        105.17920906963536,
                        -68.80205869098849
                    ],
                    [
                        105.21292991850105,
                        -68.78909186049094
                    ],
                    [
                        105.24743610804354,
                        -68.77640578948612
                    ],
                    [
                        105.28261493016795,
                        -68.76397877544272
                    ],
                    [
                        105.31857642359198,
                        -68.75185478806675
                    ],
                    [
                        105.35561926233083,
                        -68.74017890728473
                    ],
                    [
                        105.39351023572806,
                        -68.7288767305262
                    ],
                    [
                        105.43206850574138,
                        -68.71788268183029
                    ],
                    [
                        105.47147735488252,
                        -68.70730254267939
                    ],
                    [
                        105.51140117613632,
                        -68.69699407966576
                    ],
                    [
                        105.55175376811886,
                        -68.6869194732086
                    ],
                    [
                        105.5925819544207,
                        -68.6771152606192
                    ],
                    [
                        105.63346541287913,
                        -68.66734668407032
                    ],
                    [
                        105.67436521506897,
                        -68.65759918906538
                    ],
                    [
                        105.7153328433133,
                        -68.64789983847777
                    ],
                    [
                        105.75646520644698,
                        -68.63830796551942
                    ],
                    [
                        105.79781982275333,
                        -68.62885451928892
                    ],
                    [
                        105.83981300986127,
                        -68.61979688824955
                    ],
                    [
                        105.88288636619185,
                        -68.61146814306078
                    ],
                    [
                        105.92716350003107,
                        -68.60402134761422
                    ],
                    [
                        105.97258163487139,
                        -68.59757349057932
                    ],
                    [
                        106.01819566140922,
                        -68.59132983982862
                    ],
                    [
                        106.06198416424274,
                        -68.5835816749938
                    ],
                    [
                        106.10433312074066,
                        -68.57480310002053
                    ],
                    [
                        106.14723043523024,
                        -68.5664053927163
                    ],
                    [
                        106.19098059079002,
                        -68.55862920242292
                    ],
                    [
                        106.23576666261843,
                        -68.55170012471892
                    ],
                    [
                        106.28102165005801,
                        -68.54520559745676
                    ],
                    [
                        106.32438618679268,
                        -68.53724310971552
                    ],
                    [
                        106.36225480104162,
                        -68.52610600918894
                    ],
                    [
                        106.39891211145968,
                        -68.5144466362172
                    ],
                    [
                        106.43609027979166,
                        -68.50301514092352
                    ],
                    [
                        106.47427131159029,
                        -68.49204177115372
                    ],
                    [
                        106.51292425601838,
                        -68.48131456426353
                    ],
                    [
                        106.55292916372296,
                        -68.47128925200714
                    ],
                    [
                        106.59528741202388,
                        -68.4626673870845
                    ],
                    [
                        106.63709739555804,
                        -68.45371007207572
                    ],
                    [
                        106.6776632676782,
                        -68.444020769169
                    ],
                    [
                        106.71670810102992,
                        -68.4335240376548
                    ],
                    [
                        106.75557618422376,
                        -68.42295421180442
                    ],
                    [
                        106.79320576275622,
                        -68.41180702272274
                    ],
                    [
                        106.82826341393906,
                        -68.39958155233428
                    ],
                    [
                        106.86209527660967,
                        -68.38690036161096
                    ],
                    [
                        106.8960649106358,
                        -68.37427598334132
                    ],
                    [
                        106.93306082746594,
                        -68.36290809100701
                    ],
                    [
                        106.97225720710544,
                        -68.35256690214852
                    ],
                    [
                        107.01031921727913,
                        -68.3416798817006
                    ],
                    [
                        107.04616036713573,
                        -68.32982224043235
                    ],
                    [
                        107.08105076501711,
                        -68.31758126396927
                    ],
                    [
                        107.11646470786826,
                        -68.30556634417911
                    ],
                    [
                        107.15403694684329,
                        -68.2944834728577
                    ],
                    [
                        107.19200578917048,
                        -68.28359783666474
                    ],
                    [
                        107.23037777348601,
                        -68.27292237061722
                    ],
                    [
                        107.26831086427859,
                        -68.26204187023082
                    ],
                    [
                        107.30517122401064,
                        -68.25068073889331
                    ],
                    [
                        107.34192089934697,
                        -68.23926828494545
                    ],
                    [
                        107.37986159223007,
                        -68.22842630044036
                    ],
                    [
                        107.41968924553701,
                        -68.21859916442463
                    ],
                    [
                        107.4606827130701,
                        -68.20942740687416
                    ],
                    [
                        107.50048309512012,
                        -68.1995746889054
                    ],
                    [
                        107.53893089213938,
                        -68.18902786141113
                    ],
                    [
                        107.57465433970171,
                        -68.17724101924782
                    ],
                    [
                        107.6081985172071,
                        -68.16459907994063
                    ],
                    [
                        107.64389134617727,
                        -68.15281002050723
                    ],
                    [
                        107.6816905415155,
                        -68.14197992975666
                    ],
                    [
                        107.72155972515354,
                        -68.13223762367771
                    ],
                    [
                        107.76096082414227,
                        -68.12224765404743
                    ],
                    [
                        107.7989258444309,
                        -68.11151974500791
                    ],
                    [
                        107.82481873777711,
                        -68.09677788536642
                    ],
                    [
                        107.84045418840876,
                        -68.08000486129792
                    ],
                    [
                        107.85773797383246,
                        -68.06346361600474
                    ],
                    [
                        107.88645620061124,
                        -68.04937384219407
                    ],
                    [
                        107.91927347999005,
                        -68.03653826403855
                    ],
                    [
                        107.95009035664137,
                        -68.02304255498123
                    ],
                    [
                        107.97707449811818,
                        -68.0084480150227
                    ],
                    [
                        107.99963816468272,
                        -67.99286157925802
                    ],
                    [
                        108.0179075124486,
                        -67.97648085836967
                    ],
                    [
                        108.03759464155569,
                        -67.96036096075322
                    ],
                    [
                        108.06245076588044,
                        -67.94526475865379
                    ],
                    [
                        108.08928015836804,
                        -67.93064717370692
                    ],
                    [
                        108.11667734005063,
                        -67.91618940609999
                    ],
                    [
                        108.14278586247201,
                        -67.90140071858846
                    ],
                    [
                        108.16816630554106,
                        -67.88643692735394
                    ],
                    [
                        108.19367568394811,
                        -67.8715100471279
                    ],
                    [
                        108.21938510148365,
                        -67.85663918949872
                    ],
                    [
                        108.24531589304546,
                        -67.84182622818197
                    ],
                    [
                        108.27162279675629,
                        -67.82711246172752
                    ],
                    [
                        108.29864784852192,
                        -67.81259509497947
                    ],
                    [
                        108.326153950002,
                        -67.79820982592696
                    ],
                    [
                        108.35269382763275,
                        -67.78357698472823
                    ],
                    [
                        108.37892613283793,
                        -67.7688668567603
                    ],
                    [
                        108.40417163807356,
                        -67.75391277637961
                    ],
                    [
                        108.42822211791079,
                        -67.73869028186647
                    ],
                    [
                        108.44952089762337,
                        -67.7228968102697
                    ],
                    [
                        108.4677124752794,
                        -67.70655585271308
                    ],
                    [
                        108.48350728354359,
                        -67.68985973644709
                    ],
                    [
                        108.49871544895461,
                        -67.67308008845917
                    ],
                    [
                        108.51452863720938,
                        -67.65638815982881
                    ],
                    [
                        108.5313776252268,
                        -67.63985022990977
                    ],
                    [
                        108.54985202273669,
                        -67.62356336729816
                    ],
                    [
                        108.56874804928009,
                        -67.60735325777537
                    ],
                    [
                        108.58585448753074,
                        -67.59086239538925
                    ],
                    [
                        108.60050299475998,
                        -67.57403271900127
                    ],
                    [
                        108.61255212649603,
                        -67.55690724189294
                    ],
                    [
                        108.62300891766708,
                        -67.53962896381442
                    ],
                    [
                        108.63330914847022,
                        -67.52233627733249
                    ],
                    [
                        108.64359314576276,
                        -67.5050438821429
                    ],
                    [
                        108.65384341231119,
                        -67.48775404942292
                    ],
                    [
                        108.6637387312951,
                        -67.47042886759984
                    ],
                    [
                        108.67222375599859,
                        -67.45300421361509
                    ],
                    [
                        108.67970561614065,
                        -67.43550743522243
                    ],
                    [
                        108.69017341952365,
                        -67.41825316240197
                    ],
                    [
                        108.70307684145968,
                        -67.40123665840754
                    ],
                    [
                        108.7160033013866,
                        -67.38421908898805
                    ],
                    [
                        108.72769461778783,
                        -67.36707933043968
                    ],
                    [
                        108.73789145040965,
                        -67.3497958076335
                    ],
                    [
                        108.74785704969446,
                        -67.33249398981823
                    ],
                    [
                        108.75816973348358,
                        -67.31522450916067
                    ],
                    [
                        108.76855123025665,
                        -67.29795820994774
                    ],
                    [
                        108.7789369399073,
                        -67.28069886836195
                    ],
                    [
                        108.78783168507933,
                        -67.2633250957462
                    ],
                    [
                        108.79338845714733,
                        -67.24573941734143
                    ],
                    [
                        108.79549886945951,
                        -67.22804646097735
                    ],
                    [
                        108.79685212801647,
                        -67.21033705402047
                    ],
                    [
                        108.79843210381523,
                        -67.1926312151283
                    ],
                    [
                        108.80233930110796,
                        -67.1750113879352
                    ],
                    [
                        108.81423214138243,
                        -67.15796731973708
                    ],
                    [
                        108.83098846309613,
                        -67.14150171746974
                    ],
                    [
                        108.84300952320736,
                        -67.12443497498133
                    ],
                    [
                        108.85048091318546,
                        -67.10697423512512
                    ],
                    [
                        108.85613921315904,
                        -67.08939836262518
                    ],
                    [
                        108.86242910768154,
                        -67.07186430141259
                    ],
                    [
                        108.87134763144701,
                        -67.05450770349006
                    ],
                    [
                        108.8817178742151,
                        -67.03727395795941
                    ],
                    [
                        108.89213673358971,
                        -67.02004589218421
                    ],
                    [
                        108.8967821283215,
                        -67.00251305002027
                    ],
                    [
                        108.89211763479192,
                        -66.98494104130282
                    ],
                    [
                        108.8783959734422,
                        -66.9680884723606
                    ],
                    [
                        108.86234556347542,
                        -66.95154082581791
                    ],
                    [
                        108.84905741949929,
                        -66.93463507726207
                    ],
                    [
                        108.83473513975561,
                        -66.91785183354922
                    ],
                    [
                        108.8204342241491,
                        -66.90106815393331
                    ],
                    [
                        108.80615462669084,
                        -66.88428404240982
                    ],
                    [
                        108.79189630151836,
                        -66.8674995029645
                    ],
                    [
                        108.77765920289521,
                        -66.8507145395735
                    ],
                    [
                        108.76344328521047,
                        -66.83392915620331
                    ],
                    [
                        108.74924850297843,
                        -66.81714335681075
                    ],
                    [
                        108.73507481083816,
                        -66.80035714534318
                    ],
                    [
                        108.72092216355308,
                        -66.78357052573836
                    ],
                    [
                        108.70679051601063,
                        -66.76678350192458
                    ],
                    [
                        108.6926798232217,
                        -66.74999607782064
                    ],
                    [
                        108.67859004032042,
                        -66.7332082573359
                    ],
                    [
                        108.66452112256364,
                        -66.71642004437032
                    ],
                    [
                        108.65047302533058,
                        -66.69963144281449
                    ],
                    [
                        108.63644570412242,
                        -66.68284245654968
                    ],
                    [
                        108.62243911456187,
                        -66.66605308944777
                    ],
                    [
                        108.60845321239285,
                        -66.64926334537147
                    ],
                    [
                        108.59448795348001,
                        -66.63247322817413
                    ],
                    [
                        108.58054329380842,
                        -66.61568274169997
                    ],
                    [
                        108.5666191894831,
                        -66.59889188978399
                    ]
                ]
            }
        }
    ]
}
