{
    "type": "FeatureCollection",
    "features": [
        {
            "type": "Feature",
            "properties": {
                "name": "Rennick",
                "object": "transect",
                "component": "landice",
                "author": "Matthew Hoffman, converted from https://github.com/yuwang115/sl-ice",
                "tags": "Antarctic_Ice_Sheet;flowline;sl-ice;rennick"
            },
            "geometry": {
                "type": "LineString",
                "coordinates": [
                    [
                        156.33623676721453,
                        -70.30794349769431
                    ],
                    [
                        156.38912961828896,
                        -70.30918827141615
                    ],
                    [
                        156.44209744710324,
                        -70.30852863734434
                    ],
                    [
                        156.49462807988522,
                        -70.3060916700151
                    ],
                    [
                        156.54580871802665,
                        -70.30149768341728
                    ],
                    [
                        156.59466276138812,
                        -70.29460282220627
                    ],
                    [
                        156.6409907988495,
                        -70.28592792226961
                    ],
                    [
                        156.68310729421012,
                        -70.27511429050024
                    ],
                    [
                        156.72207179146451,
                        -70.26300671768486
                    ],
                    [
                        156.75727247931002,
                        -70.24968437558152
                    ],
                    [
                        156.7835860944708,
                        -70.23417239862175
                    ],
                    [
                        156.8087103614192,
                        -70.21844679399084
                    ],
                    [
                        156.8369064842145,
                        -70.20333493770697
                    ],
                    [
                        156.86912069038763,
                        -70.18918200970485
                    ],
                    [
                        156.90337404825087,
                        -70.17558795397566
                    ],
                    [
                        156.9390130848258,
                        -70.16242800521609
                    ],
                    [
                        156.9761751028395,
                        -70.14976482511237
                    ],
                    [
                        157.01464668191983,
                        -70.13757142704407
                    ],
                    [
                        157.05464057499879,
                        -70.12596967112636
                    ],
                    [
                        157.09539766829238,
                        -70.1146840994229
                    ],
                    [
                        157.136064593145,
                        -70.10337316670713
                    ],
                    [
                        157.17462142332516,
                        -70.09125743742658
                    ],
                    [
                        157.2085246572904,
                        -70.07764446569153
                    ],
                    [
                        157.2375407917654,
                        -70.06277493485497
                    ],
                    [
                        157.26312292523232,
                        -70.04717851720953
                    ],
                    [
                        157.2882671677767,
                        -70.03150273660403
                    ],
                    [
                        157.31422748574747,
                        -70.01598993904501
                    ],
                    [
                        157.33832862145277,
                        -70.00013654380885
                    ],
                    [
                        157.36088058128712,
                        -69.98402110643771
                    ],
                    [
                        157.38421544443906,
                        -69.9680350187428
                    ],
                    [
                        157.41060863308027,
                        -69.9526335839308
                    ],
                    [
                        157.4401120640721,
                        -69.93791043793931
                    ],
                    [
                        157.47104321330045,
                        -69.92354241658116
                    ],
                    [
                        157.50463456892075,
                        -69.90991708634627
                    ],
                    [
                        157.54054309833936,
                        -69.89699870313397
                    ],
                    [
                        157.57595293006457,
                        -69.88395095030653
                    ],
                    [
                        157.60696766669926,
                        -69.86964633461638
                    ],
                    [
                        157.63300066213915,
                        -69.85419693062953
                    ],
                    [
                        157.65711284891938,
                        -69.83838588663603
                    ],
                    [
                        157.6790385514113,
                        -69.82220975647269
                    ],
                    [
                        157.69727394797223,
                        -69.80549920364714
                    ],
                    [
                        157.7108095184391,
                        -69.7882754155121
                    ],
                    [
                        157.71875787907146,
                        -69.77063901196277
                    ],
                    [
                        157.71977841022593,
                        -69.7527894306414
                    ],
                    [
                        157.71793154332534,
                        -69.73494393217527
                    ],
                    [
                        157.7127929264943,
                        -69.71718090901246
                    ],
                    [
                        157.7028271461321,
                        -69.69966619357488
                    ],
                    [
                        157.6890060666247,
                        -69.6824729702901
                    ],
                    [
                        157.67332797988027,
                        -69.6654692959747
                    ],
                    [
                        157.65834056941262,
                        -69.64839589596045
                    ],
                    [
                        157.6440590782385,
                        -69.63124572929388
                    ],
                    [
                        157.63055539182363,
                        -69.61402471365683
                    ],
                    [
                        157.6172607382911,
                        -69.59678673904814
                    ],
                    [
                        157.60230100025004,
                        -69.57972561887726
                    ],
                    [
                        157.58351785196967,
                        -69.5631326030442
                    ],
                    [
                        157.56652673269602,
                        -69.54630011711471
                    ],
                    [
                        157.55131071597657,
                        -69.52926549108294
                    ],
                    [
                        157.53805000190283,
                        -69.51203662077836
                    ],
                    [
                        157.52407947800438,
                        -69.4948751499768
                    ],
                    [
                        157.50919458714282,
                        -69.47780404073605
                    ],
                    [
                        157.4959210195964,
                        -69.46058172448033
                    ],
                    [
                        157.4873669312743,
                        -69.44300036586601
                    ],
                    [
                        157.47986643694352,
                        -69.42535367348826
                    ],
                    [
                        157.4722377477891,
                        -69.40771109701357
                    ],
                    [
                        157.46484830826276,
                        -69.3900635064971
                    ],
                    [
                        157.45699410738948,
                        -69.37243837243571
                    ],
                    [
                        157.4487395418369,
                        -69.35484005686271
                    ],
                    [
                        157.43990011942645,
                        -69.33727508044242
                    ],
                    [
                        157.43060153950452,
                        -69.31974227430965
                    ],
                    [
                        157.42071115693184,
                        -69.30225084848907
                    ],
                    [
                        157.41000279959007,
                        -69.28482027958148
                    ],
                    [
                        157.398792097602,
                        -69.26743869810848
                    ],
                    [
                        157.3870106209843,
                        -69.25009570538181
                    ],
                    [
                        157.37461433894038,
                        -69.23281825897698
                    ],
                    [
                        157.36185094000996,
                        -69.21557022807426
                    ],
                    [
                        157.3489383791118,
                        -69.19834024600684
                    ],
                    [
                        157.3358374840288,
                        -69.18112723283342
                    ],
                    [
                        157.32244077116258,
                        -69.16395372787618
                    ],
                    [
                        157.3086796629219,
                        -69.14680933324156
                    ],
                    [
                        157.294601140529,
                        -69.1297008296999
                    ],
                    [
                        157.28060190365494,
                        -69.11259066382262
                    ],
                    [
                        157.26679607367302,
                        -69.0954621387602
                    ],
                    [
                        157.25288107955384,
                        -69.0783452202654
                    ],
                    [
                        157.23898932911155,
                        -69.06122800487407
                    ],
                    [
                        157.2251207657844,
                        -69.04411049646527
                    ],
                    [
                        157.21127533318844,
                        -69.02699269890765
                    ],
                    [
                        157.19745297511676,
                        -69.00987461605955
                    ],
                    [
                        157.18365363553903,
                        -68.99275625176887
                    ],
                    [
                        157.16987725860062,
                        -68.9756376098733
                    ],
                    [
                        157.15612378862198,
                        -68.95851869420024
                    ],
                    [
                        157.1423931700981,
                        -68.94139950856685
                    ],
                    [
                        157.12868534769768,
                        -68.92428005678012
                    ],
                    [
                        157.11500026626263,
                        -68.90716034263694
                    ],
                    [
                        157.10133787080727,
                        -68.89004036992402
                    ],
                    [
                        157.08769810651782,
                        -68.8729201424181
                    ],
                    [
                        157.0740809187516,
                        -68.85579966388583
                    ],
                    [
                        157.06048625303657,
                        -68.8386789380839
                    ],
                    [
                        157.0469140550705,
                        -68.82155796875907
                    ],
                    [
                        157.03336427072043,
                        -68.80443675964813
                    ],
                    [
                        157.019836846022,
                        -68.78731531447808
                    ],
                    [
                        157.006331727179,
                        -68.77019363696604
                    ],
                    [
                        156.9928488605623,
                        -68.75307173081934
                    ]
                ]
            }
        }
    ]
}
