{
    "type": "FeatureCollection",
    "features": [
        {
            "type": "Feature",
            "properties": {
                "name": "Byrd",
                "object": "transect",
                "component": "landice",
                "author": "Matthew Hoffman, converted from https://github.com/yuwang115/sl-ice",
                "tags": "Antarctic_Ice_Sheet;flowline;sl-ice;byrd"
            },
            "geometry": {
                "type": "LineString",
                "coordinates": [
                    [
                        108.46653701353475,
                        -79.4860830841487
                    ],
                    [
                        108.55942909008374,
                        -79.49288056906877
                    ],
                    [
                        108.6518297252445,
                        -79.49991954037802
                    ],
                    [
                        108.74379119286948,
                        -79.50716868765544
                    ],
                    [
                        108.83504357077894,
                        -79.51474198444033
                    ],
                    [
                        108.9258389262706,
                        -79.5225138472879
                    ],
                    [
                        109.01652746001452,
                        -79.53036167423282
                    ],
                    [
                        109.10685581662659,
                        -79.53836932008515
                    ],
                    [
                        109.19700510684697,
                        -79.54646309810822
                    ],
                    [
                        109.28708074787865,
                        -79.55462215448297
                    ],
                    [
                        109.377131698385,
                        -79.56280489041775
                    ],
                    [
                        109.4670489337816,
                        -79.57106199472055
                    ],
                    [
                        109.5569098874694,
                        -79.57936940646685
                    ],
                    [
                        109.64691477275456,
                        -79.58765138547736
                    ],
                    [
                        109.73697867937807,
                        -79.59593276751362
                    ],
                    [
                        109.826944090587,
                        -79.60427722226724
                    ],
                    [
                        109.91679835505376,
                        -79.61268583004588
                    ],
                    [
                        110.00679790649717,
                        -79.62107400625177
                    ],
                    [
                        110.09690863161126,
                        -79.62944880030751
                    ],
                    [
                        110.18700772310943,
                        -79.63784263501519
                    ],
                    [
                        110.27735092989259,
                        -79.64618996797105
                    ],
                    [
                        110.36806589494628,
                        -79.65441879695958
                    ],
                    [
                        110.45926628598673,
                        -79.66251136943157
                    ],
                    [
                        110.55110125491467,
                        -79.6703888771214
                    ],
                    [
                        110.64352158541988,
                        -79.67807339211078
                    ],
                    [
                        110.73599171146674,
                        -79.68576164412691
                    ],
                    [
                        110.82882097307088,
                        -79.69334468232263
                    ],
                    [
                        110.92233811715242,
                        -79.700672548415
                    ],
                    [
                        111.01668035538812,
                        -79.7076811005014
                    ],
                    [
                        111.11191467149489,
                        -79.71433030145255
                    ],
                    [
                        111.2075903577149,
                        -79.72079700492216
                    ],
                    [
                        111.30374775507762,
                        -79.72704837242665
                    ],
                    [
                        111.40033191492155,
                        -79.73314636982487
                    ],
                    [
                        111.49706083640326,
                        -79.73917892795376
                    ],
                    [
                        111.59412515074631,
                        -79.74507350222342
                    ],
                    [
                        111.69149310858623,
                        -79.75083678123002
                    ],
                    [
                        111.78884210500009,
                        -79.75663880328264
                    ],
                    [
                        111.88586479374732,
                        -79.76264440045746
                    ],
                    [
                        111.98247647250759,
                        -79.76888009184276
                    ],
                    [
                        112.07932878006574,
                        -79.77502383498364
                    ],
                    [
                        112.1781003142324,
                        -79.78012538944843
                    ],
                    [
                        112.27818682060057,
                        -79.78441743664146
                    ],
                    [
                        112.3782743656338,
                        -79.78872899586045
                    ],
                    [
                        112.4787280411832,
                        -79.7927813337128
                    ],
                    [
                        112.57870073767809,
                        -79.79722956405446
                    ],
                    [
                        112.67972475050742,
                        -79.80088755093877
                    ],
                    [
                        112.78143354601548,
                        -79.80385920169545
                    ],
                    [
                        112.8816601322111,
                        -79.80820782457059
                    ],
                    [
                        112.98053204040043,
                        -79.81345695784758
                    ],
                    [
                        113.0794712020031,
                        -79.81870337284442
                    ],
                    [
                        113.17949183996942,
                        -79.82328410239734
                    ],
                    [
                        113.2798324686871,
                        -79.8276971916515
                    ],
                    [
                        113.38041438419732,
                        -79.8319580166689
                    ],
                    [
                        113.48132205132688,
                        -79.8360197772402
                    ],
                    [
                        113.58240015177932,
                        -79.8399585472933
                    ],
                    [
                        113.68365865655528,
                        -79.84379313544444
                    ],
                    [
                        113.78507317839625,
                        -79.8475350825646
                    ],
                    [
                        113.8865378339791,
                        -79.8512423128087
                    ],
                    [
                        113.9881855370397,
                        -79.85486434860661
                    ],
                    [
                        114.0898994741442,
                        -79.85840508520894
                    ],
                    [
                        114.19172585389245,
                        -79.86192576692942
                    ],
                    [
                        114.2935758395144,
                        -79.8654383763375
                    ],
                    [
                        114.39538340080662,
                        -79.86902342846462
                    ],
                    [
                        114.49725967037472,
                        -79.87258194283693
                    ],
                    [
                        114.59925671826123,
                        -79.87605943078782
                    ],
                    [
                        114.70141975323415,
                        -79.87940171902713
                    ],
                    [
                        114.80369813751281,
                        -79.88267791158356
                    ],
                    [
                        114.90597911542488,
                        -79.88599771467617
                    ],
                    [
                        115.00823135482797,
                        -79.88934873954848
                    ],
                    [
                        115.11054388428526,
                        -79.89270364709448
                    ],
                    [
                        115.21287619084634,
                        -79.89605570424176
                    ],
                    [
                        115.31529780200889,
                        -79.89935370137093
                    ],
                    [
                        115.41779750541994,
                        -79.9026237026243
                    ],
                    [
                        115.52035603645673,
                        -79.90586723999868
                    ],
                    [
                        115.62310667119884,
                        -79.90895147113456
                    ],
                    [
                        115.72595534622857,
                        -79.91194465741171
                    ],
                    [
                        115.82885068386878,
                        -79.91494223283075
                    ],
                    [
                        115.93170551027315,
                        -79.91800243855306
                    ],
                    [
                        116.03448967463521,
                        -79.92116369513529
                    ],
                    [
                        116.13726497221249,
                        -79.9243702025184
                    ],
                    [
                        116.24009098479138,
                        -79.9275660843366
                    ],
                    [
                        116.34305875131751,
                        -79.93065169658549
                    ],
                    [
                        116.44614397532365,
                        -79.93365430109577
                    ],
                    [
                        116.54923454168973,
                        -79.9366498030004
                    ],
                    [
                        116.65239837492359,
                        -79.93963739101817
                    ],
                    [
                        116.7556027428248,
                        -79.94260968978048
                    ],
                    [
                        116.85883135675599,
                        -79.94557324142625
                    ],
                    [
                        116.9621233427865,
                        -79.94850920998368
                    ],
                    [
                        117.06551865768047,
                        -79.9513831813556
                    ],
                    [
                        117.16892773622973,
                        -79.95424918221144
                    ],
                    [
                        117.27241565583766,
                        -79.95706540989818
                    ],
                    [
                        117.3759539331288,
                        -79.95987029468007
                    ],
                    [
                        117.47948587922487,
                        -79.96268440548488
                    ],
                    [
                        117.58303202117001,
                        -79.96554203998046
                    ],
                    [
                        117.68653424625721,
                        -79.96847447450442
                    ],
                    [
                        117.79002685061695,
                        -79.97145305378844
                    ],
                    [
                        117.89355445049506,
                        -79.9744118432453
                    ],
                    [
                        117.99713046660182,
                        -79.9773806152051
                    ],
                    [
                        118.1006984875618,
                        -79.98036983760346
                    ],
                    [
                        118.2042826230677,
                        -79.98337738810986
                    ],
                    [
                        118.30794282239106,
                        -79.98635105347628
                    ],
                    [
                        118.41158348971621,
                        -79.98936204630441
                    ],
                    [
                        118.51517516164354,
                        -79.99244453049035
                    ],
                    [
                        118.61868810112773,
                        -79.99565888544173
                    ],
                    [
                        118.72216534459282,
                        -79.99893381723075
                    ],
                    [
                        118.82568503569654,
                        -80.0021891317157
                    ],
                    [
                        118.92932609336275,
                        -80.0053911284227
                    ],
                    [
                        119.03302642685018,
                        -80.00855081315484
                    ],
                    [
                        119.13673127279884,
                        -80.01171520840045
                    ],
                    [
                        119.2404291130732,
                        -80.01495356815485
                    ],
                    [
                        119.34405828220211,
                        -80.01827219915509
                    ],
                    [
                        119.4476585804136,
                        -80.02163609943979
                    ],
                    [
                        119.55135935251757,
                        -80.024975026021
                    ],
                    [
                        119.65512849724327,
                        -80.0282552494493
                    ],
                    [
                        119.75889273063186,
                        -80.03158383741615
                    ],
                    [
                        119.86257592496558,
                        -80.035010720432
                    ],
                    [
                        119.96622070134295,
                        -80.03850572231767
                    ],
                    [
                        120.06985932995748,
                        -80.04203953068645
                    ],
                    [
                        120.17359025864266,
                        -80.0455337456641
                    ],
                    [
                        120.27739861433349,
                        -80.0489950242111
                    ],
                    [
                        120.38123171759354,
                        -80.05246037636327
                    ],
                    [
                        120.48507157023013,
                        -80.05593699474578
                    ],
                    [
                        120.58888972456398,
                        -80.05947564735088
                    ],
                    [
                        120.6926561473399,
                        -80.06309563781365
                    ],
                    [
                        120.79624004127415,
                        -80.06691184856263
                    ],
                    [
                        120.89962056802527,
                        -80.07090599154604
                    ],
                    [
                        121.00284414900793,
                        -80.07503676382137
                    ],
                    [
                        121.10599670424124,
                        -80.07927987081806
                    ],
                    [
                        121.20906719617312,
                        -80.08358888801145
                    ],
                    [
                        121.3120456318483,
                        -80.0880026547564
                    ],
                    [
                        121.41494407901263,
                        -80.09250969105734
                    ],
                    [
                        121.51783907411543,
                        -80.09703805857238
                    ],
                    [
                        121.62081653418906,
                        -80.10156271772769
                    ],
                    [
                        121.72376536509945,
                        -80.1061169593888
                    ],
                    [
                        121.8267081375228,
                        -80.11073622071275
                    ],
                    [
                        121.92951327778437,
                        -80.11545103381833
                    ],
                    [
                        122.0320972263862,
                        -80.1203463350135
                    ],
                    [
                        122.13448502029676,
                        -80.1253933095315
                    ],
                    [
                        122.23661830763416,
                        -80.1305990115839
                    ],
                    [
                        122.33876564513422,
                        -80.13585400198656
                    ],
                    [
                        122.44114384243571,
                        -80.14100498404353
                    ],
                    [
                        122.54376125588674,
                        -80.14603433940384
                    ],
                    [
                        122.6466740668496,
                        -80.15091368800522
                    ],
                    [
                        122.74986325291997,
                        -80.1556607590704
                    ],
                    [
                        122.85329944455201,
                        -80.16028364262901
                    ],
                    [
                        122.9571123117939,
                        -80.16469119069555
                    ],
                    [
                        123.06118609142663,
                        -80.16892800908238
                    ],
                    [
                        123.16553305401224,
                        -80.17300837072725
                    ],
                    [
                        123.27018037732965,
                        -80.1768902768286
                    ],
                    [
                        123.37506447793221,
                        -80.18061829494812
                    ],
                    [
                        123.48014937215073,
                        -80.1842122447405
                    ],
                    [
                        123.58539539590642,
                        -80.18769249373531
                    ],
                    [
                        123.69077262404667,
                        -80.19109491867059
                    ],
                    [
                        123.79629959545164,
                        -80.19439509050774
                    ],
                    [
                        123.90206935258252,
                        -80.19748283259734
                    ],
                    [
                        124.00806720877472,
                        -80.20037544564916
                    ],
                    [
                        124.11424706211187,
                        -80.20310498732242
                    ],
                    [
                        124.22061830644729,
                        -80.20565861705934
                    ],
                    [
                        124.32705348436293,
                        -80.20814997695315
                    ],
                    [
                        124.43348697531802,
                        -80.2106585192401
                    ],
                    [
                        124.53990084505429,
                        -80.21325859672136
                    ],
                    [
                        124.64622647956207,
                        -80.21599203521703
                    ],
                    [
                        124.75247378455937,
                        -80.2188249568289
                    ],
                    [
                        124.85866808534367,
                        -80.22177716475804
                    ],
                    [
                        124.96476515124314,
                        -80.22483218798706
                    ],
                    [
                        125.0708280607448,
                        -80.22797748169496
                    ],
                    [
                        125.17684416166834,
                        -80.23118706234732
                    ],
                    [
                        125.28286831437632,
                        -80.23444351552973
                    ],
                    [
                        125.3887915294584,
                        -80.23778825436055
                    ],
                    [
                        125.49465189476064,
                        -80.24125647391625
                    ],
                    [
                        125.6003997245855,
                        -80.24483234143405
                    ],
                    [
                        125.70602809414291,
                        -80.24855106637483
                    ],
                    [
                        125.81156194748948,
                        -80.25236751979934
                    ],
                    [
                        125.91708764112164,
                        -80.25625134803528
                    ],
                    [
                        126.02256762414316,
                        -80.26017927972822
                    ],
                    [
                        126.12801804133414,
                        -80.26416093543327
                    ],
                    [
                        126.23347878475451,
                        -80.26818036664957
                    ],
                    [
                        126.33883568092315,
                        -80.27229738500819
                    ],
                    [
                        126.44391715989947,
                        -80.27665212393407
                    ],
                    [
                        126.54866879288319,
                        -80.28125835318427
                    ],
                    [
                        126.65312855632361,
                        -80.28608646434633
                    ],
                    [
                        126.75733558109187,
                        -80.29108596631625
                    ],
                    [
                        126.86144833175487,
                        -80.2961818290277
                    ],
                    [
                        126.96552606044648,
                        -80.30132591246488
                    ],
                    [
                        127.06955790695905,
                        -80.30653366363669
                    ],
                    [
                        127.17345172326158,
                        -80.31184017851791
                    ],
                    [
                        127.27715822163314,
                        -80.31728683375495
                    ],
                    [
                        127.38058224533657,
                        -80.32292117299906
                    ],
                    [
                        127.48380389471029,
                        -80.32867865570844
                    ],
                    [
                        127.58689711709094,
                        -80.33454932003642
                    ],
                    [
                        127.68975926713571,
                        -80.34055060011252
                    ],
                    [
                        127.79254651065783,
                        -80.34662018607196
                    ],
                    [
                        127.89534151501802,
                        -80.35272340475044
                    ],
                    [
                        127.99800889616542,
                        -80.35890373182914
                    ],
                    [
                        128.10052372457648,
                        -80.36519399217487
                    ],
                    [
                        128.20292657627144,
                        -80.37156973486283
                    ],
                    [
                        128.30533968867692,
                        -80.37796642880022
                    ],
                    [
                        128.4080276324232,
                        -80.38427338824177
                    ],
                    [
                        128.5112013406086,
                        -80.39037801552227
                    ],
                    [
                        128.61549614985756,
                        -80.3959582084523
                    ],
                    [
                        128.7208329214641,
                        -80.40100401181236
                    ],
                    [
                        128.8271193888632,
                        -80.40549427742393
                    ],
                    [
                        128.9342715451742,
                        -80.4094172276143
                    ],
                    [
                        129.0417569283511,
                        -80.41310176488386
                    ],
                    [
                        129.1493925602029,
                        -80.41669992539435
                    ],
                    [
                        129.25717871831029,
                        -80.42022659357986
                    ],
                    [
                        129.36496307836381,
                        -80.42377078651607
                    ],
                    [
                        129.47272639920052,
                        -80.42734715567282
                    ],
                    [
                        129.58047075614178,
                        -80.43098888542085
                    ],
                    [
                        129.68814487564256,
                        -80.43472246796966
                    ],
                    [
                        129.795750769279,
                        -80.43854344335521
                    ],
                    [
                        129.90329869041324,
                        -80.44244617804196
                    ],
                    [
                        130.01090949193406,
                        -80.44633318886848
                    ],
                    [
                        130.11862935728217,
                        -80.45015255900152
                    ],
                    [
                        130.22651120409353,
                        -80.45389655098337
                    ],
                    [
                        130.33460362472567,
                        -80.45750995548278
                    ],
                    [
                        130.4428375324172,
                        -80.46103066289577
                    ],
                    [
                        130.55117415784738,
                        -80.46450220549275
                    ],
                    [
                        130.65962659858212,
                        -80.46791043978403
                    ],
                    [
                        130.7682254817833,
                        -80.47121809013814
                    ],
                    [
                        130.87696185833013,
                        -80.47440294458916
                    ],
                    [
                        130.98590328054644,
                        -80.47746314303973
                    ],
                    [
                        131.09505023143194,
                        -80.48034090065133
                    ],
                    [
                        131.20443543907427,
                        -80.48301833507792
                    ],
                    [
                        131.31388182228366,
                        -80.48564178750068
                    ],
                    [
                        131.42327864420224,
                        -80.48833447008334
                    ],
                    [
                        131.53264440601967,
                        -80.49112835311884
                    ],
                    [
                        131.64197649995904,
                        -80.49396449964809
                    ],
                    [
                        131.75130048680944,
                        -80.49686521123935
                    ],
                    [
                        131.86048386426592,
                        -80.49993031079312
                    ],
                    [
                        131.96963283386344,
                        -80.50306761088254
                    ],
                    [
                        132.07883313449747,
                        -80.50619954487189
                    ],
                    [
                        132.1880513950134,
                        -80.50933359344366
                    ],
                    [
                        132.29724980663673,
                        -80.51252125507955
                    ],
                    [
                        132.406448767492,
                        -80.51575365780192
                    ],
                    [
                        132.51563998875812,
                        -80.51901005438907
                    ],
                    [
                        132.6249272510397,
                        -80.52222647908553
                    ],
                    [
                        132.7342780007397,
                        -80.52542014024428
                    ],
                    [
                        132.84366185152345,
                        -80.52861929434073
                    ],
                    [
                        132.95299820817633,
                        -80.53189010359586
                    ],
                    [
                        133.06230475821513,
                        -80.53521785168421
                    ],
                    [
                        133.17160007446014,
                        -80.53860010032423
                    ],
                    [
                        133.28085926988228,
                        -80.54203482214358
                    ],
                    [
                        133.3900915134028,
                        -80.54552729501405
                    ],
                    [
                        133.49930157290976,
                        -80.54908729402098
                    ],
                    [
                        133.60847218383003,
                        -80.55269022227512
                    ],
                    [
                        133.7176598088258,
                        -80.55634023680068
                    ],
                    [
                        133.8267881637124,
                        -80.56006490615471
                    ],
                    [
                        133.93579759931893,
                        -80.56389452964247
                    ],
                    [
                        134.04473080558552,
                        -80.56783583264365
                    ],
                    [
                        134.15362750145738,
                        -80.57184504299946
                    ],
                    [
                        134.26248883931845,
                        -80.57589184302452
                    ],
                    [
                        134.37133470708943,
                        -80.57999897397194
                    ],
                    [
                        134.48007429420485,
                        -80.58420967929602
                    ],
                    [
                        134.58875616318792,
                        -80.58849635184524
                    ],
                    [
                        134.69738368916694,
                        -80.59284615984608
                    ],
                    [
                        134.8059631416247,
                        -80.59726890183406
                    ],
                    [
                        134.91444572002595,
                        -80.60178599547811
                    ],
                    [
                        135.02281517333532,
                        -80.6064059865526
                    ],
                    [
                        135.13116183379523,
                        -80.61108244113622
                    ],
                    [
                        135.23950699860114,
                        -80.6157824398441
                    ],
                    [
                        135.34773989076544,
                        -80.62058826748954
                    ],
                    [
                        135.45580210304414,
                        -80.62552473282254
                    ],
                    [
                        135.56386746762686,
                        -80.63049994950255
                    ],
                    [
                        135.67188677043754,
                        -80.63552376511683
                    ],
                    [
                        135.7797720187806,
                        -80.64066114477872
                    ],
                    [
                        135.88742504826408,
                        -80.64596620219712
                    ],
                    [
                        135.99475123560637,
                        -80.65146794750963
                    ],
                    [
                        136.10192603345178,
                        -80.65707889695777
                    ],
                    [
                        136.209126163192,
                        -80.66271845275972
                    ],
                    [
                        136.31625342113824,
                        -80.66841548294876
                    ],
                    [
                        136.4231715498362,
                        -80.6742560580927
                    ],
                    [
                        136.5298598394127,
                        -80.68023019069103
                    ],
                    [
                        136.63632693578685,
                        -80.68633878005295
                    ],
                    [
                        136.74304634387235,
                        -80.69237468851279
                    ],
                    [
                        136.85008191555528,
                        -80.69828499845529
                    ],
                    [
                        136.9573846881187,
                        -80.70410014774163
                    ],
                    [
                        137.0648885486234,
                        -80.7098578574022
                    ],
                    [
                        137.17238031959886,
                        -80.71564602263675
                    ],
                    [
                        137.2798565960294,
                        -80.72147769100496
                    ],
                    [
                        137.38744085420404,
                        -80.72729516083768
                    ],
                    [
                        137.49503970772844,
                        -80.73312429722428
                    ],
                    [
                        137.60274245661938,
                        -80.73895090579056
                    ],
                    [
                        137.71063306463995,
                        -80.74471669444858
                    ],
                    [
                        137.8188833306488,
                        -80.75032952933418
                    ],
                    [
                        137.92757891229238,
                        -80.75575537473013
                    ],
                    [
                        138.03665344968326,
                        -80.76101706694772
                    ],
                    [
                        138.14582465195056,
                        -80.76625861377718
                    ],
                    [
                        138.25495030036393,
                        -80.77155771939815
                    ],
                    [
                        138.36444931038602,
                        -80.77668380178059
                    ],
                    [
                        138.4745665889975,
                        -80.78149612569698
                    ],
                    [
                        138.58503061075302,
                        -80.78614260428377
                    ],
                    [
                        138.6955634959818,
                        -80.79076967025995
                    ],
                    [
                        138.80608486015458,
                        -80.79544752262163
                    ],
                    [
                        138.91647918208577,
                        -80.80023261817102
                    ],
                    [
                        139.02673349473955,
                        -80.80513245196825
                    ],
                    [
                        139.13702206772763,
                        -80.81004732453479
                    ],
                    [
                        139.24746762884817,
                        -80.8149070667623
                    ],
                    [
                        139.35786129916357,
                        -80.81982179053725
                    ],
                    [
                        139.46818569026055,
                        -80.8248177949633
                    ],
                    [
                        139.5788026376927,
                        -80.8296771422608
                    ],
                    [
                        139.69033020013757,
                        -80.83400988292968
                    ],
                    [
                        139.8025174876025,
                        -80.83792154461828
                    ],
                    [
                        139.91509168986528,
                        -80.84158972989705
                    ],
                    [
                        140.0277301909281,
                        -80.8452276011262
                    ],
                    [
                        140.14037302641913,
                        -80.84891067404911
                    ],
                    [
                        140.25295251394186,
                        -80.85266663899485
                    ],
                    [
                        140.36576640603377,
                        -80.85629564747914
                    ],
                    [
                        140.47886319985093,
                        -80.85970834883878
                    ],
                    [
                        140.5922931496534,
                        -80.86287177560723
                    ],
                    [
                        140.70599824293168,
                        -80.86582413969904
                    ],
                    [
                        140.81974343202188,
                        -80.86877176199958
                    ],
                    [
                        140.93355745481526,
                        -80.87168295482145
                    ],
                    [
                        141.04741552377044,
                        -80.87460167072764
                    ],
                    [
                        141.1612749996355,
                        -80.87753645276408
                    ],
                    [
                        141.2750697529169,
                        -80.88055618289874
                    ],
                    [
                        141.388797286712,
                        -80.88370467502887
                    ],
                    [
                        141.50287432724588,
                        -80.88654295761928
                    ],
                    [
                        141.617356171296,
                        -80.88896467634032
                    ],
                    [
                        141.73175445714648,
                        -80.89152089939988
                    ],
                    [
                        141.84606168741078,
                        -80.89423804219051
                    ],
                    [
                        141.96038415333317,
                        -80.89695202897342
                    ],
                    [
                        142.07513260382333,
                        -80.8991881110351
                    ],
                    [
                        142.19020932733696,
                        -80.90106226797492
                    ],
                    [
                        142.3053496357211,
                        -80.90280822185461
                    ],
                    [
                        142.4205210903318,
                        -80.90457720084147
                    ],
                    [
                        142.53565366651134,
                        -80.9064515997387
                    ],
                    [
                        142.65074068650554,
                        -80.90842322860458
                    ],
                    [
                        142.76563768833128,
                        -80.91067423970486
                    ],
                    [
                        142.88001452704353,
                        -80.91351857301184
                    ],
                    [
                        142.9936703159841,
                        -80.91709169561668
                    ],
                    [
                        143.10683945310646,
                        -80.9210276738454
                    ],
                    [
                        143.2202035201445,
                        -80.92486668004258
                    ],
                    [
                        143.33384404737095,
                        -80.92854778345281
                    ],
                    [
                        143.4473121374775,
                        -80.93239245414202
                    ],
                    [
                        143.56036721318307,
                        -80.93655525577786
                    ],
                    [
                        143.67323351532332,
                        -80.94087839383761
                    ],
                    [
                        143.78611845746093,
                        -80.94521973593534
                    ],
                    [
                        143.89983145252526,
                        -80.94901985503796
                    ],
                    [
                        144.0144949995466,
                        -80.95208388494729
                    ],
                    [
                        144.12961476161266,
                        -80.9547484267148
                    ],
                    [
                        144.24472527396387,
                        -80.95742312310138
                    ],
                    [
                        144.35957883373584,
                        -80.96041998380326
                    ],
                    [
                        144.473004139526,
                        -80.96455866635857
                    ],
                    [
                        144.5853669055728,
                        -80.96940747483475
                    ],
                    [
                        144.69781675121988,
                        -80.9742291505673
                    ],
                    [
                        144.81082960346842,
                        -80.97876848909596
                    ],
                    [
                        144.92464258995955,
                        -80.98279167539822
                    ],
                    [
                        145.0391407992921,
                        -80.98638676159808
                    ],
                    [
                        145.1532102712437,
                        -80.99030956169084
                    ],
                    [
                        145.26776726867152,
                        -80.99389713953603
                    ],
                    [
                        145.38354014242867,
                        -80.9963885782004
                    ],
                    [
                        145.49999583644777,
                        -80.99802403436424
                    ],
                    [
                        145.61669586323012,
                        -80.99918734610851
                    ],
                    [
                        145.73350978910088,
                        -81.00001465060866
                    ],
                    [
                        145.8502254608328,
                        -81.00120218465192
                    ],
                    [
                        145.96690836075248,
                        -81.00247832192002
                    ],
                    [
                        146.08372133047502,
                        -81.00352575468891
                    ],
                    [
                        146.20068308687092,
                        -81.00344988980805
                    ],
                    [
                        146.3174826087569,
                        -81.00242722469551
                    ],
                    [
                        146.43394927710267,
                        -81.00072618849211
                    ],
                    [
                        146.55021035779836,
                        -80.99873245074714
                    ],
                    [
                        146.66665993169156,
                        -80.99712739229824
                    ],
                    [
                        146.78348756164314,
                        -80.99684290201064
                    ],
                    [
                        146.90009881442603,
                        -80.99813263730171
                    ],
                    [
                        147.01677809176846,
                        -80.99898520776544
                    ],
                    [
                        147.13364493761634,
                        -80.99835772709844
                    ],
                    [
                        147.2500785059467,
                        -80.9967372370913
                    ],
                    [
                        147.36589035305403,
                        -80.99429158781396
                    ],
                    [
                        147.48130371201742,
                        -80.99141673813912
                    ],
                    [
                        147.59669765561028,
                        -80.9885499923083
                    ],
                    [
                        147.71204309682344,
                        -80.98569703215293
                    ],
                    [
                        147.82763372319278,
                        -80.98312343714136
                    ],
                    [
                        147.94358090036903,
                        -80.98102446022335
                    ],
                    [
                        148.05969255774636,
                        -80.97917428375685
                    ],
                    [
                        148.1755782983732,
                        -80.97706319508717
                    ],
                    [
                        148.29061945622794,
                        -80.97404192379797
                    ],
                    [
                        148.40562840876757,
                        -80.9710618821883
                    ],
                    [
                        148.52120061530985,
                        -80.9686682167195
                    ],
                    [
                        148.63708961006688,
                        -80.96677673566049
                    ],
                    [
                        148.75306913170252,
                        -80.96501159709877
                    ],
                    [
                        148.86906146626657,
                        -80.96332526721115
                    ],
                    [
                        148.98506516726007,
                        -80.9617119048107
                    ],
                    [
                        149.10109025598666,
                        -80.96013585955684
                    ],
                    [
                        149.21711799966283,
                        -80.9586132615334
                    ],
                    [
                        149.333240282097,
                        -80.95737152294693
                    ],
                    [
                        149.4494933419209,
                        -80.9565190804666
                    ],
                    [
                        149.56584602806953,
                        -80.95595810489314
                    ],
                    [
                        149.68219677075294,
                        -80.95572258092878
                    ],
                    [
                        149.79856002896665,
                        -80.95589942811957
                    ],
                    [
                        149.91488280938185,
                        -80.95649287640758
                    ],
                    [
                        150.03114241339512,
                        -80.95740013040843
                    ],
                    [
                        150.14738817316825,
                        -80.95832815741403
                    ],
                    [
                        150.26371072877384,
                        -80.95909745950296
                    ],
                    [
                        150.3800209516321,
                        -80.95988468714184
                    ],
                    [
                        150.49643346987628,
                        -80.9603425441779
                    ],
                    [
                        150.61286485365025,
                        -80.96040689775403
                    ],
                    [
                        150.72928075289445,
                        -80.96018613702955
                    ],
                    [
                        150.84566872251324,
                        -80.95969582957687
                    ],
                    [
                        150.96200870463736,
                        -80.95898220942283
                    ],
                    [
                        151.0782561803935,
                        -80.95799512508152
                    ],
                    [
                        151.19446620924353,
                        -80.95694388269814
                    ],
                    [
                        151.31058541169082,
                        -80.95570415079025
                    ],
                    [
                        151.42622517383052,
                        -80.95366512974235
                    ],
                    [
                        151.54128025318525,
                        -80.95098735131673
                    ],
                    [
                        151.65581042601102,
                        -80.94780315902607
                    ],
                    [
                        151.77095186872705,
                        -80.94535278681894
                    ],
                    [
                        151.88703240098178,
                        -80.94463062859138
                    ],
                    [
                        152.00324888646205,
                        -80.9448272920905
                    ],
                    [
                        152.11945969653226,
                        -80.94466514329575
                    ],
                    [
                        152.23561368018017,
                        -80.94393945425792
                    ],
                    [
                        152.35165982241685,
                        -80.94296283013625
                    ],
                    [
                        152.46763575493318,
                        -80.94183206179764
                    ],
                    [
                        152.58363437557873,
                        -80.94077166701034
                    ],
                    [
                        152.69972145126158,
                        -80.94003378379624
                    ],
                    [
                        152.8157846020048,
                        -80.93924821840804
                    ],
                    [
                        152.93179600296304,
                        -80.93833066331683
                    ],
                    [
                        153.04749454096878,
                        -80.93678336827789
                    ],
                    [
                        153.1626367126487,
                        -80.93440966854365
                    ],
                    [
                        153.27648870563246,
                        -80.93090334052499
                    ],
                    [
                        153.38870106854552,
                        -80.9262565500273
                    ],
                    [
                        153.49804007023238,
                        -80.92020303488607
                    ],
                    [
                        153.60157345653099,
                        -80.91205939170675
                    ],
                    [
                        153.69908860506206,
                        -80.90221119752223
                    ],
                    [
                        153.79798644662455,
                        -80.8927313726259
                    ],
                    [
                        153.89558710337735,
                        -80.88295157292241
                    ],
                    [
                        153.99028182823085,
                        -80.87249926745307
                    ],
                    [
                        154.08365417397627,
                        -80.86177435122066
                    ],
                    [
                        154.18038243550987,
                        -80.85187479515152
                    ],
                    [
                        154.27947673053856,
                        -80.84259884465334
                    ],
                    [
                        154.377246692804,
                        -80.83299187994695
                    ],
                    [
                        154.47501212573584,
                        -80.8234143902642
                    ],
                    [
                        154.5743749759824,
                        -80.81429163729622
                    ],
                    [
                        154.6746629366289,
                        -80.80545925333288
                    ],
                    [
                        154.7736829165183,
                        -80.79630061777738
                    ],
                    [
                        154.87111018172249,
                        -80.78674229424789
                    ],
                    [
                        154.96799330107282,
                        -80.77705637624815
                    ],
                    [
                        155.0648256659998,
                        -80.76739114573567
                    ],
                    [
                        155.16208003864563,
                        -80.75785722074824
                    ],
                    [
                        155.26062818458038,
                        -80.7487149027388
                    ],
                    [
                        155.3600548386222,
                        -80.73983107866749
                    ],
                    [
                        155.4593378503629,
                        -80.73095334272116
                    ],
                    [
                        155.5572585711906,
                        -80.72170101167879
                    ],
                    [
                        155.65334544434668,
                        -80.7120010981235
                    ],
                    [
                        155.7479374483188,
                        -80.70193545220664
                    ],
                    [
                        155.8410094447537,
                        -80.69153890222654
                    ],
                    [
                        155.9329730941493,
                        -80.68091280284538
                    ],
                    [
                        156.02393439098617,
                        -80.67008580794094
                    ],
                    [
                        156.11399088327062,
                        -80.65908078980189
                    ],
                    [
                        156.2035132468524,
                        -80.64799002459263
                    ],
                    [
                        156.29292230214563,
                        -80.63689886801706
                    ],
                    [
                        156.38279060498294,
                        -80.6259229216886
                    ],
                    [
                        156.4731079707814,
                        -80.61507086145211
                    ],
                    [
                        156.56370109615102,
                        -80.60430491261481
                    ],
                    [
                        156.65426575501348,
                        -80.5935583694898
                    ],
                    [
                        156.74477945014144,
                        -80.58281459936572
                    ],
                    [
                        156.83563658466403,
                        -80.57218074217805
                    ],
                    [
                        156.92720649044995,
                        -80.56173675617603
                    ],
                    [
                        157.01913082327556,
                        -80.55139721243442
                    ],
                    [
                        157.11169187361446,
                        -80.54124073833442
                    ],
                    [
                        157.20533060521868,
                        -80.53137632874228
                    ],
                    [
                        157.29989939068602,
                        -80.52178751295412
                    ],
                    [
                        157.3954290964605,
                        -80.51248012178729
                    ],
                    [
                        157.49100259802339,
                        -80.50320705548579
                    ],
                    [
                        157.5857214108343,
                        -80.49373382711588
                    ],
                    [
                        157.67870180541308,
                        -80.48382833015016
                    ],
                    [
                        157.7686828925895,
                        -80.47320953298326
                    ],
                    [
                        157.85628243062303,
                        -80.46208493366736
                    ],
                    [
                        157.942949396778,
                        -80.45078095561345
                    ],
                    [
                        158.03105960651888,
                        -80.43981243687774
                    ],
                    [
                        158.12123895408516,
                        -80.42934282051795
                    ],
                    [
                        158.21379090262457,
                        -80.41948852260525
                    ],
                    [
                        158.30885978139764,
                        -80.41034492368314
                    ],
                    [
                        158.40537550479638,
                        -80.40166619775633
                    ],
                    [
                        158.50310228577672,
                        -80.39338572208939
                    ],
                    [
                        158.6019284044016,
                        -80.38552390475812
                    ],
                    [
                        158.70140881989684,
                        -80.37791265308594
                    ],
                    [
                        158.80126648016167,
                        -80.37047898953229
                    ],
                    [
                        158.90144743228635,
                        -80.36317951006511
                    ],
                    [
                        159.0017178521581,
                        -80.35595941246189
                    ],
                    [
                        159.10205810251333,
                        -80.3487975557768
                    ],
                    [
                        159.20261685634952,
                        -80.34174227265892
                    ],
                    [
                        159.30333673590675,
                        -80.334794345317
                    ],
                    [
                        159.40427198702466,
                        -80.32795677761308
                    ],
                    [
                        159.50547066679843,
                        -80.32126139739613
                    ],
                    [
                        159.60686285234004,
                        -80.31468375855765
                    ],
                    [
                        159.70846081434132,
                        -80.3082144142972
                    ],
                    [
                        159.81030581650532,
                        -80.3018992910708
                    ],
                    [
                        159.91232255178045,
                        -80.29568450504364
                    ],
                    [
                        160.0144864067117,
                        -80.28958272333372
                    ],
                    [
                        160.11679514735837,
                        -80.283564233862
                    ],
                    [
                        160.21911393471106,
                        -80.27759620684078
                    ],
                    [
                        160.32142400250967,
                        -80.27165305694525
                    ],
                    [
                        160.42372025596876,
                        -80.2657295095015
                    ],
                    [
                        160.52599857192993,
                        -80.25982521475943
                    ],
                    [
                        160.62825359054716,
                        -80.2539349109053
                    ],
                    [
                        160.73044413580604,
                        -80.24807059886798
                    ],
                    [
                        160.83263233686418,
                        -80.2422165142025
                    ],
                    [
                        160.93474200220666,
                        -80.23634875806032
                    ],
                    [
                        161.03680071735292,
                        -80.23049311300855
                    ],
                    [
                        161.13875452110653,
                        -80.22461741793401
                    ],
                    [
                        161.24062366682628,
                        -80.21872288836867
                    ],
                    [
                        161.34232688189323,
                        -80.21279041712073
                    ],
                    [
                        161.44389252081552,
                        -80.20681693085098
                    ],
                    [
                        161.54530462463117,
                        -80.20078718082392
                    ],
                    [
                        161.64654340884832,
                        -80.19470501269842
                    ],
                    [
                        161.7476270046597,
                        -80.1885956607101
                    ],
                    [
                        161.84857144813157,
                        -80.18243607465868
                    ],
                    [
                        161.94936614337428,
                        -80.1762402075532
                    ],
                    [
                        162.05006728617786,
                        -80.17002568522301
                    ],
                    [
                        162.15062698413308,
                        -80.1637851041724
                    ],
                    [
                        162.25114172571114,
                        -80.1575478157701
                    ],
                    [
                        162.35156711658743,
                        -80.15130176945307
                    ],
                    [
                        162.4519215925466,
                        -80.14504318264771
                    ],
                    [
                        162.55224083428308,
                        -80.13880750667754
                    ],
                    [
                        162.6525294052259,
                        -80.1325805409695
                    ],
                    [
                        162.75277722609715,
                        -80.12637125366194
                    ],
                    [
                        162.85306619423463,
                        -80.12019347437861
                    ],
                    [
                        162.95330592185778,
                        -80.11404228603982
                    ],
                    [
                        163.05348307541416,
                        -80.1078882555356
                    ],
                    [
                        163.1536258953469,
                        -80.1017376093953
                    ],
                    [
                        163.25364838708202,
                        -80.09558584596216
                    ],
                    [
                        163.3536730509773,
                        -80.08942975946681
                    ],
                    [
                        163.4536420913839,
                        -80.08329968891088
                    ],
                    [
                        163.55354580231844,
                        -80.07716649041593
                    ],
                    [
                        163.65335841109322,
                        -80.07100980176118
                    ],
                    [
                        163.75308839415658,
                        -80.06485388180248
                    ],
                    [
                        163.8527143012039,
                        -80.05866911475192
                    ],
                    [
                        163.95219224323446,
                        -80.0524486227367
                    ],
                    [
                        164.05151881951116,
                        -80.04618758899782
                    ],
                    [
                        164.1506904464237,
                        -80.03988120064
                    ],
                    [
                        164.2497185992321,
                        -80.03352539282193
                    ],
                    [
                        164.3485099357955,
                        -80.02710626454608
                    ],
                    [
                        164.44709776709107,
                        -80.02061615069272
                    ],
                    [
                        164.54545722509138,
                        -80.01404931433832
                    ],
                    [
                        164.64354616417697,
                        -80.00740396861643
                    ],
                    [
                        164.74137232892176,
                        -80.00065706073154
                    ],
                    [
                        164.8389230701459,
                        -79.99382247496415
                    ],
                    [
                        164.93616134016415,
                        -79.98688455417458
                    ],
                    [
                        165.03308168473174,
                        -79.97983863405409
                    ],
                    [
                        165.12965655671206,
                        -79.97268376685325
                    ],
                    [
                        165.22590915778088,
                        -79.96542136503905
                    ],
                    [
                        165.32178318336614,
                        -79.95804445765674
                    ],
                    [
                        165.41721973479832,
                        -79.95052242372057
                    ],
                    [
                        165.51221084928372,
                        -79.94285535962167
                    ],
                    [
                        165.60686514789447,
                        -79.93508160618002
                    ],
                    [
                        165.70102565836186,
                        -79.92717091634054
                    ],
                    [
                        165.7946878961883,
                        -79.9190952958522
                    ],
                    [
                        165.88785737080013,
                        -79.91087904595429
                    ],
                    [
                        165.98045069667683,
                        -79.9024813224055
                    ],
                    [
                        166.07232551913935,
                        -79.8938870944149
                    ],
                    [
                        166.1636393270325,
                        -79.88512738747502
                    ],
                    [
                        166.2543870660977,
                        -79.87621192088704
                    ],
                    [
                        166.3444848403745,
                        -79.86711882570769
                    ],
                    [
                        166.43399925353802,
                        -79.8578797211623
                    ],
                    [
                        166.52286873430364,
                        -79.84846433422774
                    ],
                    [
                        166.61088992507936,
                        -79.83883653480352
                    ],
                    [
                        166.69811847722517,
                        -79.82900878614869
                    ],
                    [
                        166.78459437697646,
                        -79.81899751312915
                    ],
                    [
                        166.87030949592508,
                        -79.80880770640327
                    ],
                    [
                        166.95529034273045,
                        -79.79845045801021
                    ],
                    [
                        167.03950077090303,
                        -79.78792019743732
                    ],
                    [
                        167.12284161349584,
                        -79.77719477470387
                    ],
                    [
                        167.20547165191888,
                        -79.76631406894425
                    ],
                    [
                        167.28733010025,
                        -79.7552714992681
                    ],
                    [
                        167.36830624310758,
                        -79.74405854510522
                    ],
                    [
                        167.4485041061782,
                        -79.73267998224733
                    ],
                    [
                        167.52784207992084,
                        -79.72113783536888
                    ],
                    [
                        167.606144639222,
                        -79.70937906894235
                    ],
                    [
                        167.68354016971767,
                        -79.69746086228218
                    ],
                    [
                        167.7600591108267,
                        -79.68537566602534
                    ],
                    [
                        167.8355382125983,
                        -79.67309907976022
                    ],
                    [
                        167.91019742250268,
                        -79.66068695346144
                    ],
                    [
                        167.98404746164826,
                        -79.64813087513856
                    ],
                    [
                        168.05695512785317,
                        -79.63541228289192
                    ],
                    [
                        168.12898849820098,
                        -79.62256233668448
                    ],
                    [
                        168.20015899368641,
                        -79.60956332719502
                    ],
                    [
                        168.2703134563883,
                        -79.59641002857003
                    ],
                    [
                        168.3397387320241,
                        -79.58313704693727
                    ],
                    [
                        168.4083808559379,
                        -79.56974744791047
                    ],
                    [
                        168.47594032150138,
                        -79.55619797445515
                    ],
                    [
                        168.54261023768368,
                        -79.54251962476265
                    ],
                    [
                        168.60842126520177,
                        -79.52871399676877
                    ],
                    [
                        168.6731433628883,
                        -79.5147591878168
                    ],
                    [
                        168.737112384059,
                        -79.50069588211463
                    ],
                    [
                        168.80025104007527,
                        -79.48653096673735
                    ],
                    [
                        168.8623741502472,
                        -79.47222561108337
                    ],
                    [
                        168.9236258344706,
                        -79.45780408299697
                    ],
                    [
                        168.9839833997548,
                        -79.44327063444514
                    ],
                    [
                        169.0432823223599,
                        -79.42861053352873
                    ],
                    [
                        169.1017155572257,
                        -79.41384038430512
                    ],
                    [
                        169.15934364482018,
                        -79.39896734911555
                    ],
                    [
                        169.21591021932406,
                        -79.3839781305394
                    ],
                    [
                        169.27157350829765,
                        -79.36887870898738
                    ],
                    [
                        169.32629228200847,
                        -79.35367266724155
                    ],
                    [
                        169.3799184146225,
                        -79.33835060252794
                    ],
                    [
                        169.43260985622754,
                        -79.3229184063421
                    ],
                    [
                        169.48438981346177,
                        -79.30739580482933
                    ],
                    [
                        169.5351198416575,
                        -79.29176445770713
                    ],
                    [
                        169.58506503313984,
                        -79.27605237542286
                    ],
                    [
                        169.63414546438878,
                        -79.26025246541138
                    ],
                    [
                        169.682262351278,
                        -79.24435702811745
                    ],
                    [
                        169.72956463831338,
                        -79.22838998105694
                    ],
                    [
                        169.77609247886198,
                        -79.21234366502942
                    ],
                    [
                        169.82170081552286,
                        -79.19622271268338
                    ],
                    [
                        169.86651622391906,
                        -79.18002238082545
                    ],
                    [
                        169.9104945945021,
                        -79.16375069992358
                    ],
                    [
                        169.95349465118755,
                        -79.14739393059
                    ],
                    [
                        169.99563530532112,
                        -79.13096557324415
                    ],
                    [
                        170.03691907487928,
                        -79.11446131310805
                    ],
                    [
                        170.07741732238387,
                        -79.09789763404112
                    ],
                    [
                        170.1171946687346,
                        -79.08127686660569
                    ],
                    [
                        170.15625854665586,
                        -79.06459943170687
                    ],
                    [
                        170.19445552766305,
                        -79.04786046025465
                    ],
                    [
                        170.23187806732204,
                        -79.03105855491441
                    ],
                    [
                        170.26853045000263,
                        -79.01420328785515
                    ],
                    [
                        170.30431002469288,
                        -78.99727759532871
                    ],
                    [
                        170.3393788746371,
                        -78.98031007452485
                    ],
                    [
                        170.3735874703338,
                        -78.96328213026102
                    ],
                    [
                        170.40703846944623,
                        -78.94620188560997
                    ],
                    [
                        170.4398152811981,
                        -78.92907680619959
                    ],
                    [
                        170.47185594091616,
                        -78.91190963619434
                    ],
                    [
                        170.50308109033244,
                        -78.89467944855585
                    ],
                    [
                        170.53369526316516,
                        -78.87742532810663
                    ],
                    [
                        170.56368866417682,
                        -78.86012856011317
                    ],
                    [
                        170.59279808583804,
                        -78.8427761779966
                    ],
                    [
                        170.62107527261114,
                        -78.82537921528926
                    ],
                    [
                        170.64868137745518,
                        -78.80794294029627
                    ],
                    [
                        170.6754387731579,
                        -78.79046177031017
                    ],
                    [
                        170.70145741145194,
                        -78.7729393180538
                    ],
                    [
                        170.72682522907596,
                        -78.75538771101893
                    ],
                    [
                        170.75147802287577,
                        -78.73779111892406
                    ],
                    [
                        170.7755197930407,
                        -78.72017601788775
                    ],
                    [
                        170.79890387260247,
                        -78.70252250847913
                    ],
                    [
                        170.82156520629374,
                        -78.68483320780453
                    ],
                    [
                        170.84353623849373,
                        -78.66711844137346
                    ],
                    [
                        170.8647908460834,
                        -78.64936820048764
                    ],
                    [
                        170.88531941257912,
                        -78.63158685037158
                    ],
                    [
                        170.90522183276067,
                        -78.61378221257874
                    ],
                    [
                        170.92453734875053,
                        -78.59595556243693
                    ],
                    [
                        170.9432222429906,
                        -78.57810093398341
                    ],
                    [
                        170.96137650077966,
                        -78.5602307432684
                    ],
                    [
                        170.97900067730353,
                        -78.5423357982232
                    ],
                    [
                        170.9959678350528,
                        -78.52442134501516
                    ],
                    [
                        171.0123252048885,
                        -78.5064842773737
                    ],
                    [
                        171.02813063066503,
                        -78.48853104711932
                    ],
                    [
                        171.04337667843234,
                        -78.47055681601509
                    ],
                    [
                        171.05816577416988,
                        -78.45256943204632
                    ],
                    [
                        171.07244164701336,
                        -78.43456712567955
                    ],
                    [
                        171.08618423510987,
                        -78.41654926643203
                    ],
                    [
                        171.09948997668644,
                        -78.39851889138711
                    ],
                    [
                        171.11239760168874,
                        -78.38048182969025
                    ],
                    [
                        171.1247597393295,
                        -78.362424209619
                    ],
                    [
                        171.13665212440281,
                        -78.344357633477
                    ],
                    [
                        171.14804133479643,
                        -78.3262810378129
                    ],
                    [
                        171.1588220984207,
                        -78.30818647983175
                    ],
                    [
                        171.16913124411994,
                        -78.29008286776943
                    ],
                    [
                        171.17896651712528,
                        -78.27197011340905
                    ],
                    [
                        171.18836105047032,
                        -78.25384924335944
                    ],
                    [
                        171.19730704794452,
                        -78.2357153817934
                    ],
                    [
                        171.20578311069366,
                        -78.21758165952937
                    ],
                    [
                        171.21382803064208,
                        -78.19943544863813
                    ],
                    [
                        171.22144917648146,
                        -78.18128156685955
                    ],
                    [
                        171.22870553732207,
                        -78.16312185528967
                    ],
                    [
                        171.2354683586665,
                        -78.14495681910236
                    ],
                    [
                        171.24176515330578,
                        -78.12678268680587
                    ],
                    [
                        171.24770725244008,
                        -78.10860295612457
                    ],
                    [
                        171.2531587377277,
                        -78.09042249785183
                    ],
                    [
                        171.25811985325552,
                        -78.07223206199572
                    ],
                    [
                        171.2625480349405,
                        -78.05404407280417
                    ],
                    [
                        171.26648511822552,
                        -78.03584138174887
                    ],
                    [
                        171.26999371870454,
                        -78.01764436546655
                    ],
                    [
                        171.27314203454685,
                        -77.99944133424745
                    ],
                    [
                        171.27582467678732,
                        -77.98123348734907
                    ],
                    [
                        171.27798537058698,
                        -77.96302818370803
                    ],
                    [
                        171.2796718826762,
                        -77.94481767780862
                    ],
                    [
                        171.28091318595295,
                        -77.92660744633874
                    ],
                    [
                        171.28148995054144,
                        -77.90839959553387
                    ],
                    [
                        171.28155330529648,
                        -77.89018968477866
                    ],
                    [
                        171.2815308208233,
                        -77.87197760345832
                    ],
                    [
                        171.28175540993212,
                        -77.85376947953624
                    ],
                    [
                        171.28216518660776,
                        -77.83555874339592
                    ],
                    [
                        171.28226025312364,
                        -77.81734766304729
                    ],
                    [
                        171.2817427868248,
                        -77.79914035444298
                    ],
                    [
                        171.28042102571746,
                        -77.78093510348238
                    ],
                    [
                        171.27816801480543,
                        -77.76273225694659
                    ],
                    [
                        171.2755114053158,
                        -77.744539640438
                    ],
                    [
                        171.2727855857162,
                        -77.72634047078866
                    ],
                    [
                        171.2697497587087,
                        -77.70814528069864
                    ],
                    [
                        171.26631867597277,
                        -77.68996043066184
                    ],
                    [
                        171.262441595362,
                        -77.67177497347096
                    ],
                    [
                        171.25821303139816,
                        -77.65359193374599
                    ],
                    [
                        171.25357768892573,
                        -77.63541862986565
                    ],
                    [
                        171.24805899797147,
                        -77.61725765973107
                    ],
                    [
                        171.24155199038108,
                        -77.5991053650572
                    ],
                    [
                        171.23450226617888,
                        -77.58096710213523
                    ],
                    [
                        171.2270239541453,
                        -77.56284193856644
                    ],
                    [
                        171.21903043253064,
                        -77.5447222844134
                    ],
                    [
                        171.21073206142137,
                        -77.52661504460549
                    ],
                    [
                        171.20205346543102,
                        -77.50850841375862
                    ],
                    [
                        171.19259710647142,
                        -77.49042578205228
                    ],
                    [
                        171.1838375091631,
                        -77.47232799169578
                    ],
                    [
                        171.1751033779328,
                        -77.45423051438262
                    ],
                    [
                        171.16639460229263,
                        -77.43613335224288
                    ],
                    [
                        171.15771107239058,
                        -77.41803650739914
                    ],
                    [
                        171.14905267900596,
                        -77.3999399819665
                    ],
                    [
                        171.14041931354498,
                        -77.38184377805258
                    ],
                    [
                        171.13181086803607,
                        -77.36374789775765
                    ],
                    [
                        171.1232272351257,
                        -77.34565234317459
                    ],
                    [
                        171.11466830807382,
                        -77.32755711638907
                    ],
                    [
                        171.10613398074946,
                        -77.3094622194795
                    ],
                    [
                        171.09762414762662,
                        -77.29136765451707
                    ],
                    [
                        171.0891387037797,
                        -77.27327342356588
                    ],
                    [
                        171.08067754487953,
                        -77.25517952868293
                    ],
                    [
                        171.07224056718889,
                        -77.23708597191819
                    ],
                    [
                        171.0638276675586,
                        -77.21899275531463
                    ],
                    [
                        171.0554387434231,
                        -77.20089988090831
                    ],
                    [
                        171.0470736927966,
                        -77.18280735072835
                    ],
                    [
                        171.03873241426876,
                        -77.1647151667971
                    ],
                    [
                        171.0304148070009,
                        -77.14662333113003
                    ],
                    [
                        171.0221207707218,
                        -77.12853184573594
                    ]
                ]
            }
        }
    ]
}
