{
    "type": "FeatureCollection",
    "features": [
        {
            "type": "Feature",
            "properties": {
                "name": "Greenland Glacier 0071",
                "object": "transect",
                "component": "landice",
                "author": "Matthew Hoffman, converted from Felikson et al. (2020) Zenodo dataset",
                "tags": "Greenland_Ice_Sheet;flowline;zenodo_4284759;glacier_0071",
                "citation": "Felikson, Denis, Catania, Ginny, Bartholomaus, Timothy, Morlighem, Mathieu, & No\u00ebl, Brice. (2020). Inland limits to diffusion of thinning along Greenland Ice Sheet outlet glaciers (v1.0) [Data set]. Zenodo. https://doi.org/10.5281/zenodo.4284759",
                "license": "CC-BY-4.0"
            },
            "geometry": {
                "type": "LineString",
                "coordinates": [
                    [
                        -65.4274251272815,
                        76.58895433209479
                    ],
                    [
                        -65.43017674346592,
                        76.59114701957789
                    ],
                    [
                        -65.43746588456712,
                        76.58916223486224
                    ],
                    [
                        -65.44567417322773,
                        76.58775071716413
                    ],
                    [
                        -65.45681241938124,
                        76.58816279848955
                    ],
                    [
                        -65.46579731265709,
                        76.58723519275533
                    ],
                    [
                        -65.47027884937592,
                        76.58441593433645
                    ],
                    [
                        -65.4799917730022,
                        76.5860054092756
                    ],
                    [
                        -65.48943345629684,
                        76.58761822731027
                    ],
                    [
                        -65.50080286582818,
                        76.5881710196728
                    ],
                    [
                        -65.5119938131075,
                        76.58963157364656
                    ],
                    [
                        -65.52062096545076,
                        76.59131446615686
                    ],
                    [
                        -65.5308158242979,
                        76.592861078644
                    ],
                    [
                        -65.54228710539066,
                        76.59347118686146
                    ],
                    [
                        -65.55411512240457,
                        76.59430077103084
                    ],
                    [
                        -65.5633324216422,
                        76.59593159484014
                    ],
                    [
                        -65.57525034907569,
                        76.59732722596759
                    ],
                    [
                        -65.58429092097842,
                        76.59643096666343
                    ],
                    [
                        -65.59160169200798,
                        76.59822721413467
                    ],
                    [
                        -65.5997015192294,
                        76.59675030636522
                    ],
                    [
                        -65.60439411946676,
                        76.59877453422128
                    ],
                    [
                        -65.61467637581855,
                        76.59864318374471
                    ],
                    [
                        -65.62228036372065,
                        76.59686141818774
                    ],
                    [
                        -65.6296777763945,
                        76.59495342442264
                    ],
                    [
                        -65.63681551880953,
                        76.59288659623334
                    ],
                    [
                        -65.6448229552209,
                        76.59135643613371
                    ],
                    [
                        -65.65328128348284,
                        76.5901046802865
                    ],
                    [
                        -65.66212424599449,
                        76.58909026697911
                    ],
                    [
                        -65.6713887898945,
                        76.58833563788596
                    ],
                    [
                        -65.68030266967696,
                        76.58736574813074
                    ],
                    [
                        -65.68839168999015,
                        76.58588945214458
                    ],
                    [
                        -65.69697752416872,
                        76.58471920424688
                    ],
                    [
                        -65.70668810182354,
                        76.58424023819667
                    ],
                    [
                        -65.71748446442663,
                        76.5844276571775
                    ],
                    [
                        -65.72774821625336,
                        76.58428775822951
                    ],
                    [
                        -65.73424382397282,
                        76.58183723870061
                    ],
                    [
                        -65.74087317982169,
                        76.57947003234256
                    ],
                    [
                        -65.74895100726353,
                        76.57799198052503
                    ],
                    [
                        -65.75822594972986,
                        76.57724824123737
                    ],
                    [
                        -65.76760400648732,
                        76.57656793630045
                    ],
                    [
                        -65.77124982585978,
                        76.57381097270557
                    ],
                    [
                        -65.78206601426167,
                        76.57401232527346
                    ],
                    [
                        -65.7753706342839,
                        76.57216648521185
                    ],
                    [
                        -65.78531360741212,
                        76.57372602498731
                    ],
                    [
                        -65.7826787984707,
                        76.57152227708764
                    ],
                    [
                        -65.7926413548548,
                        76.57307982599818
                    ],
                    [
                        -65.80190392119214,
                        76.57233047210543
                    ],
                    [
                        -65.80947896537121,
                        76.57054988709848
                    ],
                    [
                        -65.81873931257599,
                        76.56980020386949
                    ],
                    [
                        -65.83064179156666,
                        76.57118508382632
                    ],
                    [
                        -65.84246634737673,
                        76.57257650346945
                    ],
                    [
                        -65.85154736543497,
                        76.57171647878114
                    ],
                    [
                        -65.85933694423014,
                        76.57006944694244
                    ],
                    [
                        -65.86748935890692,
                        76.56864451642453
                    ],
                    [
                        -65.87862411419847,
                        76.56903739097955
                    ],
                    [
                        -65.88888282319621,
                        76.56889600832557
                    ],
                    [
                        -65.90140579338824,
                        76.57022302020329
                    ],
                    [
                        -65.91084095586051,
                        76.56957948975811
                    ],
                    [
                        -65.91945726464898,
                        76.56843839836233
                    ],
                    [
                        -65.92816914162223,
                        76.56735597963683
                    ],
                    [
                        -65.93751303745425,
                        76.56665801449971
                    ],
                    [
                        -65.94614807251621,
                        76.56552990419543
                    ],
                    [
                        -65.95351213972738,
                        76.5636309209935
                    ],
                    [
                        -65.96103160164316,
                        76.56182730374027
                    ],
                    [
                        -65.96932934578115,
                        76.56049687082749
                    ],
                    [
                        -65.97769679071357,
                        76.55920943768757
                    ],
                    [
                        -65.98646715822969,
                        76.5581669696365
                    ],
                    [
                        -65.99461900142121,
                        76.55675019181999
                    ],
                    [
                        -66.0014991660521,
                        76.55456372716652
                    ],
                    [
                        -66.00939779601876,
                        76.5529953890173
                    ],
                    [
                        -66.01559145527848,
                        76.55039540425557
                    ],
                    [
                        -66.02153451694227,
                        76.54764498481902
                    ],
                    [
                        -66.02427578642052,
                        76.5449599739092
                    ],
                    [
                        -66.02533907521023,
                        76.54242501053712
                    ],
                    [
                        -66.0265821666312,
                        76.53987392541497
                    ],
                    [
                        -66.02587657383143,
                        76.53749726115792
                    ],
                    [
                        -66.02448290103118,
                        76.53518223287719
                    ],
                    [
                        -66.02987913861604,
                        76.5322591775249
                    ],
                    [
                        -66.03714261654179,
                        76.53031521648325
                    ],
                    [
                        -66.04476219633028,
                        76.52858802025224
                    ],
                    [
                        -66.05285254377546,
                        76.527146842594
                    ],
                    [
                        -66.06095921278171,
                        76.52571633938656
                    ],
                    [
                        -66.06859450726583,
                        76.5240013823951
                    ],
                    [
                        -66.07516346118972,
                        76.52164223686162
                    ],
                    [
                        -66.08148598345721,
                        76.51913525318469
                    ],
                    [
                        -66.0873995247564,
                        76.51638217266374
                    ],
                    [
                        -66.0923889998471,
                        76.51349253071126
                    ],
                    [
                        -66.0967384271589,
                        76.51066023248147
                    ],
                    [
                        -66.10169035586819,
                        76.50777344140808
                    ],
                    [
                        -66.10676113714183,
                        76.50487566441849
                    ],
                    [
                        -66.11123632201749,
                        76.50203129614317
                    ],
                    [
                        -66.11705309553894,
                        76.49922735000537
                    ],
                    [
                        -66.1238188351749,
                        76.49699852035663
                    ],
                    [
                        -66.13069871079631,
                        76.49483986851084
                    ],
                    [
                        -66.1372134627115,
                        76.4924617069029
                    ],
                    [
                        -66.14314342732064,
                        76.4897314008262
                    ],
                    [
                        -66.14905458081806,
                        76.48699106067464
                    ],
                    [
                        -66.15533548538983,
                        76.48447544529742
                    ],
                    [
                        -66.16199705404102,
                        76.48219104965627
                    ],
                    [
                        -66.16882337767078,
                        76.48000735626199
                    ],
                    [
                        -66.17566620905981,
                        76.47783479302322
                    ],
                    [
                        -66.18265660377732,
                        76.47575246935516
                    ],
                    [
                        -66.18975341676168,
                        76.47373549462434
                    ],
                    [
                        -66.19688917219588,
                        76.47174310929303
                    ],
                    [
                        -66.2042011023089,
                        76.469858084678
                    ],
                    [
                        -66.2117415650297,
                        76.46811192015883
                    ],
                    [
                        -66.21946821007606,
                        76.4664789710139
                    ],
                    [
                        -66.22719814185835,
                        76.46484889841635
                    ],
                    [
                        -66.23494712917417,
                        76.46323120185596
                    ],
                    [
                        -66.24249740296109,
                        76.46149467906235
                    ],
                    [
                        -66.25023462314292,
                        76.4598716994923
                    ],
                    [
                        -66.25822282587616,
                        76.45840072211618
                    ],
                    [
                        -66.26629083801345,
                        76.4569785794041
                    ],
                    [
                        -66.27417191731296,
                        76.45544472330859
                    ],
                    [
                        -66.28186139298101,
                        76.45379644282987
                    ],
                    [
                        -66.28950278992684,
                        76.4521201475486
                    ],
                    [
                        -66.29691294993867,
                        76.45030573942539
                    ],
                    [
                        -66.30443020950044,
                        76.44855669262499
                    ],
                    [
                        -66.31209264838596,
                        76.44689583838519
                    ],
                    [
                        -66.31958419357231,
                        76.44513322248828
                    ],
                    [
                        -66.32672988947917,
                        76.4431638416397
                    ],
                    [
                        -66.33372614872924,
                        76.44110578165899
                    ],
                    [
                        -66.3400427421878,
                        76.43864075160513
                    ],
                    [
                        -66.34574386704969,
                        76.43580747133484
                    ],
                    [
                        -66.3514170392057,
                        76.43295873628175
                    ],
                    [
                        -66.35562046838191,
                        76.43012833315129
                    ],
                    [
                        -66.35775656557695,
                        76.42748750982611
                    ],
                    [
                        -66.35880522823447,
                        76.42494646132404
                    ],
                    [
                        -66.35885411588704,
                        76.42249720812082
                    ],
                    [
                        -66.35888093931811,
                        76.42004999201882
                    ],
                    [
                        -66.35877723487111,
                        76.41761477905588
                    ],
                    [
                        -66.35880243873837,
                        76.41516773603435
                    ],
                    [
                        -66.35869331734226,
                        76.4127330493923
                    ],
                    [
                        -66.35877215131026,
                        76.41028110102472
                    ],
                    [
                        -66.35895789310678,
                        76.40781933300947
                    ],
                    [
                        -66.35900566923058,
                        76.40537025751223
                    ],
                    [
                        -66.35812341604978,
                        76.40300672697765
                    ],
                    [
                        -66.35632818328273,
                        76.40072720542419
                    ],
                    [
                        -66.35343448745323,
                        76.39854877091341
                    ],
                    [
                        -66.34946502084718,
                        76.39646933895526
                    ],
                    [
                        -66.3444067431989,
                        76.39449009259339
                    ],
                    [
                        -66.33851980475913,
                        76.39258707748115
                    ],
                    [
                        -66.33209161078985,
                        76.39073383599982
                    ],
                    [
                        -66.32501278527269,
                        76.38894039072709
                    ],
                    [
                        -66.31739725001364,
                        76.387196232335
                    ],
                    [
                        -66.3092890249545,
                        76.3854972779568
                    ],
                    [
                        -66.3011518255374,
                        76.3838009073066
                    ],
                    [
                        -66.29303614064438,
                        76.3821024831497
                    ],
                    [
                        -66.28482346828721,
                        76.38041288211065
                    ],
                    [
                        -66.27591730141395,
                        76.37878681971877
                    ],
                    [
                        -66.26608843651803,
                        76.37724524912244
                    ],
                    [
                        -66.25580223934094,
                        76.37574541310742
                    ],
                    [
                        -66.24535297472622,
                        76.37426029688156
                    ],
                    [
                        -66.23501591355863,
                        76.37276467049925
                    ],
                    [
                        -66.22471453023536,
                        76.37126555260485
                    ],
                    [
                        -66.21419530373142,
                        76.36978614605398
                    ],
                    [
                        -66.20387657046572,
                        76.36828816110554
                    ],
                    [
                        -66.19374114893843,
                        76.36677319196538
                    ],
                    [
                        -66.18297281775247,
                        76.36531585357321
                    ],
                    [
                        -66.17101032021667,
                        76.36396733307268
                    ],
                    [
                        -66.15876533800896,
                        76.36281345763878
                    ],
                    [
                        -66.14673572246647,
                        76.36178902691334
                    ],
                    [
                        -66.13465679525413,
                        76.36073279757052
                    ],
                    [
                        -66.12290961406123,
                        76.35936309636944
                    ],
                    [
                        -66.11271649353708,
                        76.35785147309753
                    ],
                    [
                        -66.10386210840214,
                        76.35621771668332
                    ],
                    [
                        -66.09599729000887,
                        76.35449374330841
                    ],
                    [
                        -66.08836069035786,
                        76.35274893088898
                    ],
                    [
                        -66.08096182512128,
                        76.350982430335
                    ],
                    [
                        -66.07453016625367,
                        76.34912789205968
                    ],
                    [
                        -66.06900115775201,
                        76.3471912415593
                    ],
                    [
                        -66.0644194674597,
                        76.34516845241183
                    ],
                    [
                        -66.06087543082741,
                        76.34305133211863
                    ],
                    [
                        -66.058430243708,
                        76.34083432350968
                    ],
                    [
                        -66.05684458823494,
                        76.3385391868683
                    ],
                    [
                        -66.05585730759644,
                        76.33618966219831
                    ],
                    [
                        -66.05504897337563,
                        76.33382389383935
                    ],
                    [
                        -66.05375120135945,
                        76.33150269786383
                    ],
                    [
                        -66.05175291637481,
                        76.32924529601331
                    ],
                    [
                        -66.04907496168202,
                        76.3270498025632
                    ],
                    [
                        -66.04608387623117,
                        76.32488286465785
                    ],
                    [
                        -66.04312504382587,
                        76.32271305115688
                    ],
                    [
                        -66.04038488371049,
                        76.3205233969145
                    ],
                    [
                        -66.03801177914436,
                        76.31830039691123
                    ],
                    [
                        -66.03642438085872,
                        76.31600594393414
                    ],
                    [
                        -66.03601131056132,
                        76.31360464453735
                    ],
                    [
                        -66.03695191578203,
                        76.31108012069376
                    ],
                    [
                        -66.03897353030177,
                        76.30845712137022
                    ],
                    [
                        -66.04215535317114,
                        76.30572834405011
                    ],
                    [
                        -66.04691055286682,
                        76.30285601345554
                    ],
                    [
                        -66.05290289855591,
                        76.30020712635374
                    ],
                    [
                        -66.05950604704277,
                        76.29793544177058
                    ],
                    [
                        -66.06669870198725,
                        76.29602765182487
                    ],
                    [
                        -66.07439746547159,
                        76.29443220093407
                    ],
                    [
                        -66.082339673906,
                        76.29298731474647
                    ],
                    [
                        -66.09046784023815,
                        76.29165751692355
                    ],
                    [
                        -66.09046784023815,
                        76.29165751692355
                    ],
                    [
                        -66.09859441505148,
                        76.29032744935793
                    ],
                    [
                        -66.1068670508949,
                        76.28908781170381
                    ],
                    [
                        -66.11520649781986,
                        76.28788984719318
                    ],
                    [
                        -66.12354467693433,
                        76.28669172230498
                    ],
                    [
                        -66.13179164931776,
                        76.28543824717049
                    ],
                    [
                        -66.13987591611912,
                        76.28408561752076
                    ],
                    [
                        -66.14751377840089,
                        76.28245994753419
                    ],
                    [
                        -66.20903039644186,
                        76.27157630220412
                    ],
                    [
                        -66.27044858285339,
                        76.26067724088142
                    ],
                    [
                        -66.33176843288477,
                        76.24976280235241
                    ],
                    [
                        -66.39299004238161,
                        76.23883302533659
                    ],
                    [
                        -66.45411350778,
                        76.22788794848647
                    ],
                    [
                        -66.51513892610063,
                        76.21692761038739
                    ],
                    [
                        -66.57606639494297,
                        76.20595204955737
                    ],
                    [
                        -66.63689601247957,
                        76.19496130444693
                    ],
                    [
                        -66.6976278774502,
                        76.18395541343895
                    ],
                    [
                        -66.75826208915623,
                        76.17293441484851
                    ],
                    [
                        -66.81879874745479,
                        76.16189834692277
                    ],
                    [
                        -66.87923795275323,
                        76.15084724784072
                    ],
                    [
                        -66.93957980600335,
                        76.13978115571321
                    ],
                    [
                        -66.99982440869586,
                        76.12870010858263
                    ],
                    [
                        -67.05997186285471,
                        76.11760414442288
                    ],
                    [
                        -67.12002227103162,
                        76.10649330113921
                    ],
                    [
                        -67.17997573630038,
                        76.09536761656807
                    ],
                    [
                        -67.23983236225145,
                        76.08422712847698
                    ],
                    [
                        -67.29959225298647,
                        76.07307187456443
                    ],
                    [
                        -67.35925551311269,
                        76.06190189245973
                    ]
                ]
            }
        }
    ]
}
