{
    "type": "FeatureCollection",
    "features": [
        {
            "type": "Feature",
            "properties": {
                "name": "Greenland Glacier 0220",
                "object": "transect",
                "component": "landice",
                "author": "Matthew Hoffman, converted from Felikson et al. (2020) Zenodo dataset",
                "tags": "Greenland_Ice_Sheet;flowline;zenodo_4284759;glacier_0220;tjasse_gletsjer",
                "citation": "Felikson, Denis, Catania, Ginny, Bartholomaus, Timothy, Morlighem, Mathieu, & No\u00ebl, Brice. (2020). Inland limits to diffusion of thinning along Greenland Ice Sheet outlet glaciers (v1.0) [Data set]. Zenodo. https://doi.org/10.5281/zenodo.4284759",
                "license": "CC-BY-4.0",
                "officialName": "Tjasse Gletsjer",
                "foreignName": "Tjasse Gletsjer"
            },
            "geometry": {
                "type": "LineString",
                "coordinates": [
                    [
                        -44.40710902170163,
                        63.62052421148195
                    ],
                    [
                        -44.402164474201804,
                        63.62125500079081
                    ],
                    [
                        -44.39724132370916,
                        63.62106879779259
                    ],
                    [
                        -44.39230603409953,
                        63.62139460496842
                    ],
                    [
                        -44.38737177686074,
                        63.62167202271937
                    ],
                    [
                        -44.38244529999187,
                        63.62162369370455
                    ],
                    [
                        -44.377508143236724,
                        63.622013253760095
                    ],
                    [
                        -44.37256520929349,
                        63.62263118489261
                    ],
                    [
                        -44.36763733964086,
                        63.622632095781604
                    ],
                    [
                        -44.362661336978555,
                        63.624557733667416
                    ],
                    [
                        -44.357697357644405,
                        63.62597630836267
                    ],
                    [
                        -44.35275625941894,
                        63.62647204595495
                    ],
                    [
                        -44.34781854168411,
                        63.62682799075178
                    ],
                    [
                        -44.34287960229967,
                        63.62722577652169
                    ],
                    [
                        -44.33793788262273,
                        63.62772445760637
                    ],
                    [
                        -44.33298184235093,
                        63.62876267511901
                    ],
                    [
                        -44.32803450170218,
                        63.62945549427695
                    ],
                    [
                        -44.32309873689007,
                        63.62970223781517
                    ],
                    [
                        -44.318158956316175,
                        63.63009529740043
                    ],
                    [
                        -44.31320036931959,
                        63.63118025556385
                    ],
                    [
                        -44.30822754828558,
                        63.63277374513101
                    ],
                    [
                        -44.30326732728855,
                        63.63388356204212
                    ],
                    [
                        -44.29832056049631,
                        63.63448900286026
                    ],
                    [
                        -44.29338292192941,
                        63.634756665558385
                    ],
                    [
                        -44.28844823450909,
                        63.63491476134972
                    ],
                    [
                        -44.28351396836267,
                        63.635055512292745
                    ],
                    [
                        -44.27857995552098,
                        63.63518520501368
                    ],
                    [
                        -44.27364615472118,
                        63.63530551099623
                    ],
                    [
                        -44.26871621242305,
                        63.63528958392814
                    ],
                    [
                        -44.26379151230235,
                        63.635092277021826
                    ],
                    [
                        -44.25887660815792,
                        63.63456065907157
                    ],
                    [
                        -44.253969230212135,
                        63.63377883397272
                    ],
                    [
                        -44.24907238697445,
                        63.63264960743515
                    ],
                    [
                        -44.244187301265825,
                        63.631138464769016
                    ],
                    [
                        -44.23929688863848,
                        63.629824991892775
                    ],
                    [
                        -44.23439855234638,
                        63.628791854058576
                    ],
                    [
                        -44.22950646162713,
                        63.627565105796805
                    ],
                    [
                        -44.224618396440626,
                        63.626221350673106
                    ],
                    [
                        -44.219738230930616,
                        63.624636226238096
                    ],
                    [
                        -44.21487757865863,
                        63.62243717701039
                    ],
                    [
                        -44.2110088966538,
                        63.62022120647468
                    ],
                    [
                        -44.20693459328855,
                        63.61800386868282
                    ],
                    [
                        -44.20240940459472,
                        63.61578362466639
                    ],
                    [
                        -44.19755131265992,
                        63.61360376032464
                    ],
                    [
                        -44.19311330964392,
                        63.61138376165164
                    ],
                    [
                        -44.18938179467283,
                        63.609168075603954
                    ],
                    [
                        -44.1860831698131,
                        63.606955034820125
                    ],
                    [
                        -44.182648354593326,
                        63.604741060375254
                    ],
                    [
                        -44.1789289117746,
                        63.60252519417487
                    ],
                    [
                        -44.175041013248624,
                        63.600308155904564
                    ],
                    [
                        -44.17114913225804,
                        63.59809098959494
                    ],
                    [
                        -44.16733695453903,
                        63.59587423647359
                    ],
                    [
                        -44.16346419493081,
                        63.59365699161125
                    ],
                    [
                        -44.1590261025819,
                        63.59143595065654
                    ],
                    [
                        -44.15487389164262,
                        63.589216649641976
                    ],
                    [
                        -44.150768669172734,
                        63.586997539567285
                    ],
                    [
                        -44.146324302461,
                        63.58477606252255
                    ],
                    [
                        -44.14215396794477,
                        63.58255627453096
                    ],
                    [
                        -44.13819213539199,
                        63.58033776348604
                    ],
                    [
                        -44.134186973743596,
                        63.5781188534619
                    ],
                    [
                        -44.129833091500565,
                        63.575897473767476
                    ],
                    [
                        -44.12527947389144,
                        63.573674602169675
                    ],
                    [
                        -44.120435180390686,
                        63.5715154149134
                    ],
                    [
                        -44.11558642342973,
                        63.56950858698034
                    ],
                    [
                        -44.11073763425148,
                        63.567524400969575
                    ],
                    [
                        -44.105889877303035,
                        63.56553208354969
                    ],
                    [
                        -44.10104010429955,
                        63.56361836379158
                    ],
                    [
                        -44.096187231544874,
                        63.5618126120347
                    ],
                    [
                        -44.091325878354354,
                        63.5602643679919
                    ],
                    [
                        -44.08646112075999,
                        63.55882762166809
                    ],
                    [
                        -44.08159734159746,
                        63.55737870420305
                    ],
                    [
                        -44.076743413251165,
                        63.555672298469204
                    ],
                    [
                        -44.07189092188354,
                        63.55394401193971
                    ],
                    [
                        -44.06703568675486,
                        63.55230867259636
                    ],
                    [
                        -44.06217691534454,
                        63.55078644119267
                    ],
                    [
                        -44.05731672148308,
                        63.549318284222295
                    ],
                    [
                        -44.052453882423464,
                        63.547936350367344
                    ],
                    [
                        -44.047588225384594,
                        63.54664396409135
                    ],
                    [
                        -44.04272152110046,
                        63.54539249589027
                    ],
                    [
                        -44.037856415190724,
                        63.544111051756545
                    ],
                    [
                        -44.032990519546665,
                        63.54286319671228
                    ],
                    [
                        -44.02812176519265,
                        63.54170284042252
                    ],
                    [
                        -44.02325038420652,
                        63.5406226091258
                    ],
                    [
                        -44.018380309517816,
                        63.539518902805106
                    ],
                    [
                        -44.01351263296831,
                        63.53836377176342
                    ],
                    [
                        -44.00864603849587,
                        63.53719190188451
                    ],
                    [
                        -44.00377694204938,
                        63.53609550644747
                    ],
                    [
                        -43.998904775244974,
                        63.53508800548954
                    ],
                    [
                        -43.99403266746787,
                        63.53408858254731
                    ],
                    [
                        -43.98916114048632,
                        63.53308392262041
                    ],
                    [
                        -43.98428923480755,
                        63.53209825150844
                    ],
                    [
                        -43.979415988963346,
                        63.531155385125125
                    ],
                    [
                        -43.97454006079888,
                        63.53028818186041
                    ],
                    [
                        -43.96965847118533,
                        63.52956950641636
                    ],
                    [
                        -43.964771760889064,
                        63.52898390968817
                    ],
                    [
                        -43.959884439632006,
                        63.528418651557104
                    ],
                    [
                        -43.95499690007851,
                        63.527863837951436
                    ],
                    [
                        -43.950108790704,
                        63.52732788447789
                    ],
                    [
                        -43.94522184251624,
                        63.526768561364946
                    ],
                    [
                        -43.94033919683817,
                        63.52611037903695
                    ],
                    [
                        -43.93546099755077,
                        63.52535123355174
                    ],
                    [
                        -43.93058386010723,
                        63.52457343733422
                    ],
                    [
                        -43.92570616986513,
                        63.5238156805376
                    ],
                    [
                        -43.920828412516656,
                        63.52306618092349
                    ],
                    [
                        -43.915948363715295,
                        63.52237730613731
                    ],
                    [
                        -43.9110664500414,
                        63.52173822444121
                    ],
                    [
                        -43.90618623780371,
                        63.5210648774931
                    ],
                    [
                        -43.90130538500148,
                        63.52041224124078
                    ],
                    [
                        -43.89642587307869,
                        63.51973411515487
                    ],
                    [
                        -43.89154805018612,
                        63.5190227987834
                    ],
                    [
                        -43.88667085320684,
                        63.51830315098401
                    ],
                    [
                        -43.88179352423471,
                        63.51759261704221
                    ],
                    [
                        -43.87691809116711,
                        63.516844886987776
                    ],
                    [
                        -43.87204661620244,
                        63.5160136687154
                    ],
                    [
                        -43.86717672419731,
                        63.51515366901977
                    ],
                    [
                        -43.86230376359005,
                        63.51436985323844
                    ],
                    [
                        -43.85742792548014,
                        63.51365697223708
                    ],
                    [
                        -43.85255373912835,
                        63.51291313729943
                    ],
                    [
                        -43.84768107990087,
                        63.512141504929126
                    ],
                    [
                        -43.84280660685821,
                        63.511416291985235
                    ],
                    [
                        -43.837930747539495,
                        63.51072750289537
                    ],
                    [
                        -43.833052738397775,
                        63.51009142423214
                    ],
                    [
                        -43.82817424370233,
                        63.50947105971536
                    ],
                    [
                        -43.82329531640724,
                        63.508865062248134
                    ],
                    [
                        -43.8184160825292,
                        63.50827052460819
                    ],
                    [
                        -43.81353413415673,
                        63.507739237425135
                    ],
                    [
                        -43.80865046132249,
                        63.50724916022035
                    ],
                    [
                        -43.80376563400149,
                        63.50678759642216
                    ],
                    [
                        -43.79888125244953,
                        63.50632010469168
                    ],
                    [
                        -43.79399311719605,
                        63.50593586534634
                    ],
                    [
                        -43.78909921621961,
                        63.50567639357616
                    ],
                    [
                        -43.78420450976606,
                        63.505435778870144
                    ],
                    [
                        -43.77931093229286,
                        63.505173239293676
                    ],
                    [
                        -43.77442151873207,
                        63.50482566386624
                    ],
                    [
                        -43.769531587272986,
                        63.504491436487214
                    ],
                    [
                        -43.76463636359496,
                        63.5042693032732
                    ],
                    [
                        -43.75973511518887,
                        63.504173053064484
                    ],
                    [
                        -43.75482927179689,
                        63.50417181420781
                    ],
                    [
                        -43.74992666789773,
                        63.50410407863706
                    ],
                    [
                        -43.74502790296952,
                        63.503958399912996
                    ],
                    [
                        -43.74013225149569,
                        63.50375042324116
                    ],
                    [
                        -43.73524053040743,
                        63.50346433967009
                    ],
                    [
                        -43.730351858712936,
                        63.50311880752892
                    ],
                    [
                        -43.725463320337504,
                        63.50277306340774
                    ],
                    [
                        -43.72057139276072,
                        63.50249757186668
                    ],
                    [
                        -43.715676451806225,
                        63.502284041943774
                    ],
                    [
                        -43.710780147770656,
                        63.50209900693547
                    ],
                    [
                        -43.70588623167536,
                        63.5018679598544
                    ],
                    [
                        -43.700992952595946,
                        63.501625916732316
                    ],
                    [
                        -43.69609888806044,
                        63.5014009216887
                    ],
                    [
                        -43.69120412369036,
                        63.501191108715744
                    ],
                    [
                        -43.68631180368322,
                        63.5009350502562
                    ],
                    [
                        -43.681425372101394,
                        63.5005664075954
                    ],
                    [
                        -43.676542812217434,
                        63.500125425492946
                    ],
                    [
                        -43.67166018604212,
                        63.49968877752647
                    ],
                    [
                        -43.666775266833376,
                        63.49929916502819
                    ],
                    [
                        -43.66188810661049,
                        63.498955078770024
                    ],
                    [
                        -43.65700242546214,
                        63.498585121601785
                    ],
                    [
                        -43.652122333892905,
                        63.49811151391477
                    ],
                    [
                        -43.6472424102466,
                        63.497637961073785
                    ],
                    [
                        -43.64236054658218,
                        63.49720420536982
                    ],
                    [
                        -43.63747703939362,
                        63.49680424966474
                    ],
                    [
                        -43.63258997944187,
                        63.496473473248116
                    ],
                    [
                        -43.627697908047736,
                        63.49623834768962
                    ],
                    [
                        -43.622802547825806,
                        63.49606583650187
                    ],
                    [
                        -43.61790736247324,
                        63.49589112219758
                    ],
                    [
                        -43.61301364406465,
                        63.49569038069637
                    ],
                    [
                        -43.60812425526438,
                        63.4954112369054
                    ],
                    [
                        -43.60323724896048,
                        63.49509019686707
                    ],
                    [
                        -43.59835319967083,
                        63.494717204072195
                    ],
                    [
                        -43.59347025691224,
                        63.494326476896376
                    ],
                    [
                        -43.58858720143374,
                        63.49394031246774
                    ],
                    [
                        -43.58370180608283,
                        63.49359891964614
                    ],
                    [
                        -43.578818989053715,
                        63.49321324395758
                    ],
                    [
                        -43.57393952383635,
                        63.492769852192545
                    ],
                    [
                        -43.56906144928638,
                        63.49230441878012
                    ],
                    [
                        -43.56418188041763,
                        63.49186860775879
                    ],
                    [
                        -43.55929833031191,
                        63.49150631211321
                    ],
                    [
                        -43.55440954503893,
                        63.49123899616789
                    ],
                    [
                        -43.549515136720615,
                        63.49107254744953
                    ],
                    [
                        -43.5446217679962,
                        63.4908887439276
                    ],
                    [
                        -43.53973440856001,
                        63.490600627097486
                    ],
                    [
                        -43.534853700636916,
                        63.49019801490329
                    ],
                    [
                        -43.52997292876737,
                        63.489799004761686
                    ],
                    [
                        -43.52509118720721,
                        63.48941928343741
                    ],
                    [
                        -43.52020697440956,
                        63.48908464009013
                    ],
                    [
                        -43.51531979704014,
                        63.48880313827288
                    ],
                    [
                        -43.51042952623181,
                        63.48857647067529
                    ],
                    [
                        -43.50553781256365,
                        63.4883758205507
                    ],
                    [
                        -43.50064605897427,
                        63.48817697521468
                    ],
                    [
                        -43.4957581813386,
                        63.487913262357885
                    ],
                    [
                        -43.490875254721665,
                        63.48756706988824
                    ],
                    [
                        -43.48599561445537,
                        63.48716734576329
                    ],
                    [
                        -43.481115329715955,
                        63.48678086941387
                    ],
                    [
                        -43.47623094153041,
                        63.48646563864039
                    ],
                    [
                        -43.47134499479883,
                        63.48617834332871
                    ],
                    [
                        -43.46646263049997,
                        63.485832875562686
                    ],
                    [
                        -43.46158718465661,
                        63.48537425945834
                    ],
                    [
                        -43.456717425026135,
                        63.48482400782232
                    ],
                    [
                        -43.451848647961306,
                        63.484260781478085
                    ],
                    [
                        -43.44697790998604,
                        63.483733236256676
                    ],
                    [
                        -43.442101176888606,
                        63.48330735177496
                    ],
                    [
                        -43.43721862018184,
                        63.48297936918901
                    ],
                    [
                        -43.43233378018057,
                        63.482690543078384
                    ],
                    [
                        -43.427448620924054,
                        63.48240852466791
                    ],
                    [
                        -43.422563047653114,
                        63.48213478863964
                    ],
                    [
                        -43.41767930363983,
                        63.48183295125107
                    ],
                    [
                        -43.41279552987601,
                        63.481533265713765
                    ],
                    [
                        -43.4079102258253,
                        63.48125984878565
                    ],
                    [
                        -43.40302724232451,
                        63.480950705165625
                    ],
                    [
                        -43.39814679304884,
                        63.4806027437489
                    ],
                    [
                        -43.39326749704733,
                        63.480238328161
                    ],
                    [
                        -43.38839153713761,
                        63.479822918396685
                    ],
                    [
                        -43.38351788051757,
                        63.479373336851744
                    ],
                    [
                        -43.378645811848365,
                        63.47890118939932
                    ],
                    [
                        -43.3737724736392,
                        63.47845168088216
                    ],
                    [
                        -43.36889614099655,
                        63.47805169377339
                    ],
                    [
                        -43.364017761726046,
                        63.47768594777195
                    ],
                    [
                        -43.359134550331234,
                        63.47739761787357
                    ],
                    [
                        -43.35425112630478,
                        63.477114122558206
                    ],
                    [
                        -43.349373317085615,
                        63.47674499231012
                    ],
                    [
                        -43.34450100775716,
                        63.47629275855742
                    ],
                    [
                        -43.33963172817091,
                        63.47579625520273
                    ],
                    [
                        -43.33476310389273,
                        63.475292391234554
                    ],
                    [
                        -43.32989715775968,
                        63.47475020502911
                    ],
                    [
                        -43.32503134331356,
                        63.474208971133514
                    ],
                    [
                        -43.32016363254257,
                        63.473699605827534
                    ],
                    [
                        -43.31529652419468,
                        63.47318383980495
                    ],
                    [
                        -43.310429855586364,
                        63.47266419393896
                    ],
                    [
                        -43.305563968001486,
                        63.47213554113078
                    ],
                    [
                        -43.30069947544232,
                        63.47158870131417
                    ],
                    [
                        -43.295837433804046,
                        63.47100795571986
                    ],
                    [
                        -43.29097721504688,
                        63.47040300555503
                    ],
                    [
                        -43.28611653185651,
                        63.46980824529505
                    ],
                    [
                        -43.28125699262891,
                        63.46919961366082
                    ],
                    [
                        -43.276401673877565,
                        63.468531496277976
                    ],
                    [
                        -43.2715548582197,
                        63.46774090869787
                    ],
                    [
                        -43.26670919867978,
                        63.4669374711257
                    ],
                    [
                        -43.2618610145496,
                        63.46617554693888
                    ],
                    [
                        -43.2570074451926,
                        63.46549684447187
                    ],
                    [
                        -43.25215297626035,
                        63.464834916260685
                    ],
                    [
                        -43.24730198931368,
                        63.46412556661929
                    ],
                    [
                        -43.24245370078872,
                        63.46338060825269
                    ],
                    [
                        -43.237603665472186,
                        63.4626649646131
                    ],
                    [
                        -43.23275264856292,
                        63.461967299997205
                    ],
                    [
                        -43.22790180116625,
                        63.46127082116597
                    ],
                    [
                        -43.22304915067765,
                        63.460603966145406
                    ],
                    [
                        -43.21819919617812,
                        63.459901784762465
                    ],
                    [
                        -43.213354754687884,
                        63.45912415373956
                    ],
                    [
                        -43.20851269994608,
                        63.458316402323874
                    ],
                    [
                        -43.20366800207283,
                        63.45755053520212
                    ],
                    [
                        -43.1988213732046,
                        63.45681608335861
                    ],
                    [
                        -43.193978408856175,
                        63.45603338556224
                    ],
                    [
                        -43.18913784074548,
                        63.455220775883774
                    ],
                    [
                        -43.184297788047644,
                        63.454405041614464
                    ],
                    [
                        -43.179452884386095,
                        63.45366176316274
                    ],
                    [
                        -43.174609890682824,
                        63.452895427560115
                    ],
                    [
                        -43.16977514350291,
                        63.45201746634968
                    ],
                    [
                        -43.16495377649824,
                        63.4509570364808
                    ],
                    [
                        -43.16014032794187,
                        63.44979165381318
                    ],
                    [
                        -43.155323075281565,
                        63.448685044187016
                    ],
                    [
                        -43.15050590706025,
                        63.44758285071262
                    ],
                    [
                        -43.14569381060988,
                        63.44641608070061
                    ],
                    [
                        -43.14089081899129,
                        63.445129605174266
                    ],
                    [
                        -43.13609156893207,
                        63.44379811320617
                    ],
                    [
                        -43.13129547670787,
                        63.44242995401867
                    ],
                    [
                        -43.12650594845632,
                        63.44097878131921
                    ],
                    [
                        -43.121717322418,
                        63.439522518177284
                    ],
                    [
                        -43.11691564131822,
                        63.43825128699303
                    ],
                    [
                        -43.112105698941754,
                        63.43709857540013
                    ],
                    [
                        -43.107297042014956,
                        63.435934126418935
                    ],
                    [
                        -43.10249144083665,
                        63.43473409747705
                    ],
                    [
                        -43.0976822457536,
                        63.43358841323082
                    ],
                    [
                        -43.09286288925627,
                        63.43258499965731
                    ],
                    [
                        -43.088028517726706,
                        63.43178791106657
                    ],
                    [
                        -43.08318528336832,
                        63.43111326966623
                    ],
                    [
                        -43.078345836180006,
                        63.43039129112503
                    ],
                    [
                        -43.07351703090866,
                        63.42953105018256
                    ],
                    [
                        -43.068692137938555,
                        63.42862296260951
                    ],
                    [
                        -43.06387208490769,
                        63.42765508926841
                    ],
                    [
                        -43.05905180974927,
                        63.42669477985129
                    ],
                    [
                        -43.05422284503709,
                        63.425853626713746
                    ],
                    [
                        -43.04938198029801,
                        63.425172981893986
                    ],
                    [
                        -43.04453539467096,
                        63.424570587874776
                    ],
                    [
                        -43.03969220183499,
                        63.42392658246015
                    ],
                    [
                        -43.03484710420164,
                        63.423310439203604
                    ],
                    [
                        -43.02999257440833,
                        63.42281999555433
                    ],
                    [
                        -43.02512779507012,
                        63.42246494976553
                    ],
                    [
                        -43.02026129567019,
                        63.42213375772633
                    ],
                    [
                        -43.01539260485654,
                        63.42183233837586
                    ],
                    [
                        -43.0105253234921,
                        63.42151403047197
                    ],
                    [
                        -43.005662279482536,
                        63.42114257169179
                    ],
                    [
                        -43.00080256346648,
                        63.420730019597954
                    ],
                    [
                        -42.99593834591211,
                        63.42037692312952
                    ],
                    [
                        -42.99106749139875,
                        63.42011012824083
                    ],
                    [
                        -42.986196468447915,
                        63.41984658495833
                    ],
                    [
                        -42.98132135474286,
                        63.41963612928751
                    ],
                    [
                        -42.97642793246406,
                        63.41965867618736
                    ],
                    [
                        -42.97151542958225,
                        63.41992230334237
                    ],
                    [
                        -42.966608004611125,
                        63.420120388360026
                    ],
                    [
                        -42.96171770528553,
                        63.42010173453688
                    ],
                    [
                        -42.95682370804765,
                        63.42012942586215
                    ],
                    [
                        -42.951894845971985,
                        63.42059361365912
                    ],
                    [
                        -42.94693368317464,
                        63.42145908368046
                    ],
                    [
                        -42.94197508997279,
                        63.42228815750653
                    ],
                    [
                        -42.93702559967237,
                        63.42299984429361
                    ],
                    [
                        -42.93206834935682,
                        63.423804215608136
                    ],
                    [
                        -42.927101478986636,
                        63.424723618779204
                    ],
                    [
                        -42.922127476426446,
                        63.425726499154564
                    ],
                    [
                        -42.91715141452269,
                        63.426749767269776
                    ],
                    [
                        -42.91218525809138,
                        63.42764626190476
                    ],
                    [
                        -42.90723719917306,
                        63.42831648179044
                    ],
                    [
                        -42.90230510612501,
                        63.428788111865266
                    ],
                    [
                        -42.8973831038769,
                        63.42913423543217
                    ],
                    [
                        -42.892463618829304,
                        63.42944791711448
                    ],
                    [
                        -42.88754157582707,
                        63.42979101065243
                    ],
                    [
                        -42.88261881189226,
                        63.43014105493389
                    ],
                    [
                        -42.8777000473629,
                        63.43044095048272
                    ],
                    [
                        -42.87279045945168,
                        63.430628619426855
                    ],
                    [
                        -42.867890394194816,
                        63.43070067655255
                    ],
                    [
                        -42.86299783056324,
                        63.430682176247615
                    ],
                    [
                        -42.8581115541629,
                        63.430588281893584
                    ],
                    [
                        -42.85323372451222,
                        63.430393705206875
                    ],
                    [
                        -42.848365121700624,
                        63.43008982942082
                    ],
                    [
                        -42.84350325433852,
                        63.42970702560041
                    ],
                    [
                        -42.83864363309993,
                        63.429299102499535
                    ],
                    [
                        -42.8337869496446,
                        63.42885803749155
                    ],
                    [
                        -42.82893628272507,
                        63.42834767504407
                    ],
                    [
                        -42.824097360457145,
                        63.42770094508417
                    ],
                    [
                        -42.81926812622737,
                        63.42694293922826
                    ],
                    [
                        -42.81444378350534,
                        63.42613068684118
                    ],
                    [
                        -42.80962282574007,
                        63.425282186479336
                    ],
                    [
                        -42.8048036070264,
                        63.42441690869618
                    ],
                    [
                        -42.799985400160104,
                        63.42354344195619
                    ],
                    [
                        -42.79517283749428,
                        63.42260793440174
                    ],
                    [
                        -42.79037222797002,
                        63.42153752829596
                    ],
                    [
                        -42.78558118252329,
                        63.42036076782142
                    ],
                    [
                        -42.78078822161421,
                        63.419211059437984
                    ],
                    [
                        -42.77599101117558,
                        63.418115160410665
                    ],
                    [
                        -42.77119211312518,
                        63.41704323186548
                    ],
                    [
                        -42.76639022591293,
                        63.41601007447723
                    ],
                    [
                        -42.761585707600894,
                        63.415011336712915
                    ],
                    [
                        -42.75678217388876,
                        63.41400543437597
                    ],
                    [
                        -42.751982536060716,
                        63.412959175143676
                    ],
                    [
                        -42.74718936371546,
                        63.411843537432595
                    ],
                    [
                        -42.742401156405165,
                        63.41067601310829
                    ],
                    [
                        -42.737618586956565,
                        63.40944929120769
                    ],
                    [
                        -42.73284337676565,
                        63.408144248589316
                    ],
                    [
                        -42.72807514468692,
                        63.406765674303855
                    ],
                    [
                        -42.723300793687784,
                        63.40546169562074
                    ],
                    [
                        -42.718520886506155,
                        63.40422552064608
                    ],
                    [
                        -42.71374146703901,
                        63.40298886288056
                    ],
                    [
                        -42.70896502717242,
                        63.40172379934766
                    ],
                    [
                        -42.704194203467175,
                        63.40040101664815
                    ],
                    [
                        -42.69942549914978,
                        63.39905989225609
                    ],
                    [
                        -42.694656639385784,
                        63.397725874166625
                    ],
                    [
                        -42.689886409720756,
                        63.39641241777289
                    ],
                    [
                        -42.68511317803979,
                        63.39513750310267
                    ],
                    [
                        -42.68034060839552,
                        63.39386033153902
                    ],
                    [
                        -42.67556734634916,
                        63.3925958804139
                    ],
                    [
                        -42.67079989480096,
                        63.391272367688934
                    ],
                    [
                        -42.66604383383814,
                        63.389828739876236
                    ],
                    [
                        -42.66130183956211,
                        63.38823632000303
                    ],
                    [
                        -42.65657709220236,
                        63.38646112649649
                    ],
                    [
                        -42.65187116825149,
                        63.3844869813228
                    ],
                    [
                        -42.64717784226574,
                        63.38238301319588
                    ],
                    [
                        -42.64248799400205,
                        63.38024936209719
                    ],
                    [
                        -42.63779790890305,
                        63.37812660066893
                    ],
                    [
                        -42.63310302198644,
                        63.37606422411965
                    ],
                    [
                        -42.62839447100643,
                        63.37415791277851
                    ],
                    [
                        -42.623668078604005,
                        63.37245194402458
                    ],
                    [
                        -42.61892456254051,
                        63.37093741017778
                    ],
                    [
                        -42.61416017110483,
                        63.369653612796036
                    ],
                    [
                        -42.60937427237784,
                        63.36860599458668
                    ],
                    [
                        -42.60457050127208,
                        63.36775416013883
                    ],
                    [
                        -42.599752959973436,
                        63.367053019649
                    ],
                    [
                        -42.59492455615222,
                        63.36647060112022
                    ],
                    [
                        -42.59008845083745,
                        63.36597248050146
                    ],
                    [
                        -42.585249974954706,
                        63.365501406841275
                    ],
                    [
                        -42.58041474350126,
                        63.36499756537621
                    ],
                    [
                        -42.575592974613336,
                        63.36435280763414
                    ],
                    [
                        -42.5707995603659,
                        63.363410370597116
                    ],
                    [
                        -42.56603916035011,
                        63.362122769920454
                    ],
                    [
                        -42.56131237003066,
                        63.3604857045272
                    ],
                    [
                        -42.556620038720055,
                        63.35849220696168
                    ],
                    [
                        -42.55209446940216,
                        63.35621359154536
                    ],
                    [
                        -42.54813152080604,
                        63.35394564110315
                    ],
                    [
                        -42.54466298748276,
                        63.35168709719132
                    ],
                    [
                        -42.54163680699612,
                        63.3494369984977
                    ],
                    [
                        -42.538928642083675,
                        63.34719297811379
                    ],
                    [
                        -42.53635439236205,
                        63.34495149958686
                    ],
                    [
                        -42.53380429503262,
                        63.342710447814575
                    ],
                    [
                        -42.531258342794196,
                        63.340469436784694
                    ],
                    [
                        -42.52872329964983,
                        63.33822859792581
                    ],
                    [
                        -42.526199555570045,
                        63.33598793949974
                    ],
                    [
                        -42.52376131719985,
                        63.333748904416765
                    ],
                    [
                        -42.52120704744189,
                        63.3315075769892
                    ],
                    [
                        -42.51843696546285,
                        63.32926200605187
                    ],
                    [
                        -42.51532591080237,
                        63.327009735260894
                    ],
                    [
                        -42.51162883655831,
                        63.32474595100926
                    ],
                    [
                        -42.50736056912285,
                        63.32247088964585
                    ],
                    [
                        -42.50268566763841,
                        63.32041046388264
                    ],
                    [
                        -42.49797259961436,
                        63.31875031876516
                    ],
                    [
                        -42.49323661719735,
                        63.317331606492424
                    ],
                    [
                        -42.488480920748245,
                        63.31612018385992
                    ],
                    [
                        -42.483708402277735,
                        63.31508530556383
                    ],
                    [
                        -42.47892907453048,
                        63.31412371776922
                    ],
                    [
                        -42.4741477835995,
                        63.313185605626366
                    ],
                    [
                        -42.469359632975866,
                        63.31232066352457
                    ],
                    [
                        -42.46456515998079,
                        63.311523024866034
                    ],
                    [
                        -42.45976854128622,
                        63.31074997050499
                    ],
                    [
                        -42.45497042729614,
                        63.30999478122682
                    ],
                    [
                        -42.45016819595221,
                        63.30928384019455
                    ],
                    [
                        -42.44536061220594,
                        63.30862935128844
                    ],
                    [
                        -42.440549660225834,
                        63.308011033398145
                    ],
                    [
                        -42.43573733329852,
                        63.307408664113304
                    ],
                    [
                        -42.43092445046396,
                        63.30681394311254
                    ],
                    [
                        -42.42611216103318,
                        63.30621532660591
                    ],
                    [
                        -42.42130040241889,
                        63.30561346086307
                    ],
                    [
                        -42.41648915323694,
                        63.30500857659278
                    ],
                    [
                        -42.41168076533577,
                        63.304377285606975
                    ],
                    [
                        -42.40687702350372,
                        63.30370200402478
                    ],
                    [
                        -42.40207718015696,
                        63.302990385022376
                    ],
                    [
                        -42.397280541643674,
                        63.302249491853274
                    ],
                    [
                        -42.397280541643674,
                        63.302249491853274
                    ],
                    [
                        -42.392484178888616,
                        63.30150842022744
                    ],
                    [
                        -42.38769253868063,
                        63.300723319799495
                    ],
                    [
                        -42.3829105291319,
                        63.299846115692404
                    ],
                    [
                        -42.37814322866348,
                        63.298827403489824
                    ],
                    [
                        -42.37339189105827,
                        63.29765564135479
                    ],
                    [
                        -42.368654793151244,
                        63.296348512091434
                    ],
                    [
                        -42.36393036613383,
                        63.29492206104271
                    ],
                    [
                        -42.35921789786187,
                        63.29338385936084
                    ],
                    [
                        -42.35451676370676,
                        63.29174057021963
                    ],
                    [
                        -42.34983519162689,
                        63.28991272735356
                    ],
                    [
                        -42.34517026957531,
                        63.28792954035228
                    ],
                    [
                        -42.340510054733834,
                        63.28590753294131
                    ],
                    [
                        -42.33586260083311,
                        63.283768980930844
                    ],
                    [
                        -42.331230486287176,
                        63.28148956190704
                    ],
                    [
                        -42.32690634280021,
                        63.279207204935645
                    ],
                    [
                        -42.323134349936666,
                        63.276936331391816
                    ],
                    [
                        -42.319926502231496,
                        63.27467724605464
                    ],
                    [
                        -42.316727447656355,
                        63.272418274000664
                    ],
                    [
                        -42.31350757629165,
                        63.270158790154284
                    ],
                    [
                        -42.310652758212704,
                        63.26790695761187
                    ],
                    [
                        -42.308088420798335,
                        63.26566122339315
                    ],
                    [
                        -42.30561213594558,
                        63.26341731502646
                    ],
                    [
                        -42.30322241748365,
                        63.261175206554064
                    ],
                    [
                        -42.30029113073471,
                        63.25892155936597
                    ],
                    [
                        -42.295654934363725,
                        63.256752504596925
                    ],
                    [
                        -42.2909399909485,
                        63.255340692196434
                    ],
                    [
                        -42.28619899687935,
                        63.25418128869628
                    ],
                    [
                        -42.2814389042331,
                        63.25320701955468
                    ],
                    [
                        -42.27666061692649,
                        63.25240836641383
                    ],
                    [
                        -42.27186659894189,
                        63.251761114649774
                    ],
                    [
                        -42.267057587702055,
                        63.25125751359811
                    ],
                    [
                        -42.26223557669938,
                        63.250878023515234
                    ],
                    [
                        -42.257403896793434,
                        63.25059065496055
                    ],
                    [
                        -42.25256606036589,
                        63.25036193541248
                    ],
                    [
                        -42.24772587997601,
                        63.25015581157776
                    ],
                    [
                        -42.24289034939436,
                        63.249906709093246
                    ],
                    [
                        -42.238068137934725,
                        63.24953385658741
                    ],
                    [
                        -42.2332671643196,
                        63.248964040722505
                    ],
                    [
                        -42.22849387866928,
                        63.248138217717326
                    ],
                    [
                        -42.22375490347043,
                        63.24699612885179
                    ],
                    [
                        -42.21905640588402,
                        63.2454821229267
                    ],
                    [
                        -42.2144013554876,
                        63.24357051144659
                    ],
                    [
                        -42.2097866374903,
                        63.241292021179646
                    ],
                    [
                        -42.205673500648444,
                        63.23901017018233
                    ],
                    [
                        -42.20182837370596,
                        63.23673409793775
                    ],
                    [
                        -42.198214264619295,
                        63.23446301381461
                    ],
                    [
                        -42.19457544571101,
                        63.23219128743876
                    ],
                    [
                        -42.19086426554922,
                        63.2299178619645
                    ],
                    [
                        -42.186987831247144,
                        63.227640671849244
                    ],
                    [
                        -42.18291058673196,
                        63.225358911790515
                    ],
                    [
                        -42.17917645419189,
                        63.22308465305793
                    ],
                    [
                        -42.17591199428836,
                        63.2208207445649
                    ],
                    [
                        -42.1730575963088,
                        63.21856589692995
                    ],
                    [
                        -42.170446011643016,
                        63.21631641002549
                    ],
                    [
                        -42.1509426659414,
                        63.20118219645345
                    ],
                    [
                        -42.13146212978648,
                        63.18604590773608
                    ],
                    [
                        -42.11200436768332,
                        63.170907550099244
                    ],
                    [
                        -42.09256934419892,
                        63.15576712975688
                    ],
                    [
                        -42.0731570239621,
                        63.14062465291078
                    ],
                    [
                        -42.05376737166343,
                        63.12548012575082
                    ],
                    [
                        -42.03440035205514,
                        63.110333554454876
                    ],
                    [
                        -42.015055929950954,
                        63.095184945188855
                    ],
                    [
                        -41.99573407022613,
                        63.08003430410679
                    ],
                    [
                        -41.976434737817236,
                        63.06488163735079
                    ],
                    [
                        -41.95715789772212,
                        63.04972695105112
                    ],
                    [
                        -41.937903514999796,
                        63.0345702513262
                    ],
                    [
                        -41.91867155477037,
                        63.01941154428267
                    ],
                    [
                        -41.899461982214895,
                        63.004250836015345
                    ],
                    [
                        -41.88027476257535,
                        62.98908813260734
                    ],
                    [
                        -41.86110986115447,
                        62.97392344013002
                    ],
                    [
                        -41.8419672433157,
                        62.95875676464302
                    ],
                    [
                        -41.82284687448309,
                        62.94358811219436
                    ],
                    [
                        -41.803748720141186,
                        62.92841748882039
                    ],
                    [
                        -41.784672745834946,
                        62.91324490054585
                    ]
                ]
            }
        }
    ]
}
