{
    "type": "FeatureCollection",
    "features": [
        {
            "type": "Feature",
            "properties": {
                "name": "Greenland Glacier 0088",
                "object": "transect",
                "component": "landice",
                "author": "Matthew Hoffman, converted from Felikson et al. (2020) Zenodo dataset",
                "tags": "Greenland_Ice_Sheet;flowline;zenodo_4284759;glacier_0088;melville_gletsjer",
                "citation": "Felikson, Denis, Catania, Ginny, Bartholomaus, Timothy, Morlighem, Mathieu, & No\u00ebl, Brice. (2020). Inland limits to diffusion of thinning along Greenland Ice Sheet outlet glaciers (v1.0) [Data set]. Zenodo. https://doi.org/10.5281/zenodo.4284759",
                "license": "CC-BY-4.0",
                "officialName": "Toornaarsulissuup Sermii",
                "foreignName": "Melville Gletsjer"
            },
            "geometry": {
                "type": "LineString",
                "coordinates": [
                    [
                        -67.22615646518982,
                        78.03071922201056
                    ],
                    [
                        -67.21644773474021,
                        78.03182807058289
                    ],
                    [
                        -67.20834600226517,
                        78.03375390842976
                    ],
                    [
                        -67.19495881482746,
                        78.03299455159214
                    ],
                    [
                        -67.18307187467798,
                        78.03299685729067
                    ],
                    [
                        -67.17036300011894,
                        78.0325802975936
                    ],
                    [
                        -67.1622456291164,
                        78.03450088600752
                    ],
                    [
                        -67.15695097872617,
                        78.03741391151031
                    ],
                    [
                        -67.14969607075061,
                        78.03977612028491
                    ],
                    [
                        -67.13981082224014,
                        78.04079977670663
                    ],
                    [
                        -67.12886656183859,
                        78.0412841980676
                    ],
                    [
                        -67.11759846937598,
                        78.04160349828012
                    ],
                    [
                        -67.10670897519023,
                        78.04211582394717
                    ],
                    [
                        -67.09825050990423,
                        78.04386906985141
                    ],
                    [
                        -67.0889782294978,
                        78.0452078574209
                    ],
                    [
                        -67.08219595893684,
                        78.04781899176392
                    ],
                    [
                        -67.0750781414519,
                        78.0502601361083
                    ],
                    [
                        -67.06513940888092,
                        78.05126156270408
                    ],
                    [
                        -67.05542314539257,
                        78.05237719869463
                    ],
                    [
                        -67.04302383630801,
                        78.05212138604014
                    ],
                    [
                        -67.0356669939259,
                        78.0502743165738
                    ],
                    [
                        -67.02941567540172,
                        78.04833459146842
                    ],
                    [
                        -67.02607626119722,
                        78.04615085521449
                    ],
                    [
                        -67.02253000673119,
                        78.04398452689539
                    ],
                    [
                        -67.01702849182807,
                        78.0419821455387
                    ],
                    [
                        -67.01122889997175,
                        78.04000479549337
                    ],
                    [
                        -67.00631533543924,
                        78.03795325338749
                    ],
                    [
                        -67.00144754851272,
                        78.03589793807221
                    ],
                    [
                        -66.99617634781016,
                        78.03387648242052
                    ],
                    [
                        -66.99098188237873,
                        78.03184865564259
                    ],
                    [
                        -66.98612820762678,
                        78.0297923418129
                    ],
                    [
                        -66.98122450204797,
                        78.02774028114258
                    ],
                    [
                        -66.97626923470618,
                        78.02569260081789
                    ],
                    [
                        -66.97162981372944,
                        78.02361853196341
                    ],
                    [
                        -66.96764285778626,
                        78.02148989080399
                    ],
                    [
                        -66.96426823818244,
                        78.01931004193052
                    ],
                    [
                        -66.96055757410608,
                        78.01715840485288
                    ],
                    [
                        -66.9564599661665,
                        78.01503924098616
                    ],
                    [
                        -66.95267900203761,
                        78.01289363156049
                    ],
                    [
                        -66.94884185344463,
                        78.01075279722566
                    ],
                    [
                        -66.94467345311439,
                        78.00863977016462
                    ],
                    [
                        -66.94071222158186,
                        78.00650946542059
                    ],
                    [
                        -66.93713746885253,
                        78.00434687048936
                    ],
                    [
                        -66.93347974060478,
                        78.00219129370244
                    ],
                    [
                        -66.92948370774675,
                        78.00006411328526
                    ],
                    [
                        -66.92547480810957,
                        77.99793807961774
                    ],
                    [
                        -66.92178829705477,
                        77.99578512352883
                    ],
                    [
                        -66.91857355478399,
                        77.9935927386529
                    ],
                    [
                        -66.91536980343666,
                        77.9913995034589
                    ],
                    [
                        -66.91177072190894,
                        77.98923943868034
                    ],
                    [
                        -66.90791005467241,
                        77.98710134599256
                    ],
                    [
                        -66.90423844270664,
                        77.98494749440428
                    ],
                    [
                        -66.90074152947062,
                        77.98277908629397
                    ],
                    [
                        -66.89690524006798,
                        77.98063916272065
                    ],
                    [
                        -66.89305177762517,
                        77.97850074667414
                    ],
                    [
                        -66.88972494491324,
                        77.97631830963918
                    ],
                    [
                        -66.88668768608528,
                        77.97411169796239
                    ],
                    [
                        -66.88340614318764,
                        77.97192560863031
                    ],
                    [
                        -66.87983765260171,
                        77.96976361454368
                    ],
                    [
                        -66.87628359780656,
                        77.96760048186658
                    ],
                    [
                        -66.87275302597372,
                        77.9654354530887
                    ],
                    [
                        -66.86925668013924,
                        77.96326762870764
                    ],
                    [
                        -66.86572427512009,
                        77.96110289343142
                    ],
                    [
                        -66.8622290248262,
                        77.95893511728099
                    ],
                    [
                        -66.85919337107579,
                        77.95672893006025
                    ],
                    [
                        -66.85624020402997,
                        77.95451590493701
                    ],
                    [
                        -66.85266281346789,
                        77.95235521615332
                    ],
                    [
                        -66.84899906224399,
                        77.95020182823734
                    ],
                    [
                        -66.84584425903574,
                        77.94800589531579
                    ],
                    [
                        -66.84284276669766,
                        77.94579719422266
                    ],
                    [
                        -66.83983172027929,
                        77.94358936170525
                    ],
                    [
                        -66.83675828972268,
                        77.94138682175574
                    ],
                    [
                        -66.8333449189796,
                        77.93921281732618
                    ],
                    [
                        -66.8300901006801,
                        77.9370256053141
                    ],
                    [
                        -66.8274380664919,
                        77.93478798352812
                    ],
                    [
                        -66.82484167053533,
                        77.93254576826801
                    ],
                    [
                        -66.82224703883783,
                        77.93030347093044
                    ],
                    [
                        -66.81971508064065,
                        77.92805598984253
                    ],
                    [
                        -66.81661664169637,
                        77.92585602303872
                    ],
                    [
                        -66.81274162926566,
                        77.92372117084922
                    ],
                    [
                        -66.80876954123018,
                        77.92159451814528
                    ],
                    [
                        -66.80516768159612,
                        77.91943692552194
                    ],
                    [
                        -66.80177089085063,
                        77.91726222666539
                    ],
                    [
                        -66.79835390224736,
                        77.91508928887335
                    ],
                    [
                        -66.79484576084198,
                        77.91292405506265
                    ],
                    [
                        -66.79131262342962,
                        77.91076098416913
                    ],
                    [
                        -66.78783406616216,
                        77.9085934111859
                    ],
                    [
                        -66.78433359029044,
                        77.90642774331168
                    ],
                    [
                        -66.78076605296695,
                        77.90426776148014
                    ],
                    [
                        -66.77716455099718,
                        77.90211069356417
                    ],
                    [
                        -66.77344062813347,
                        77.89996394804116
                    ],
                    [
                        -66.76963195121311,
                        77.89782436977683
                    ],
                    [
                        -66.76581601143177,
                        77.89568546841782
                    ],
                    [
                        -66.76170078429699,
                        77.89357170044013
                    ],
                    [
                        -66.75727240623465,
                        77.89148422404025
                    ],
                    [
                        -66.75283783493778,
                        77.88939733096582
                    ],
                    [
                        -66.748396505177,
                        77.88731106841574
                    ],
                    [
                        -66.7438814258014,
                        77.88523104534738
                    ],
                    [
                        -66.73935557914938,
                        77.8831519875041
                    ],
                    [
                        -66.73479730352088,
                        77.8810757081619
                    ],
                    [
                        -66.7301491020415,
                        77.87900701999858
                    ],
                    [
                        -66.72544533819759,
                        77.87694304498174
                    ],
                    [
                        -66.72071880348636,
                        77.87488103740057
                    ],
                    [
                        -66.71594505130959,
                        77.87282304284022
                    ],
                    [
                        -66.71112884282145,
                        77.87076866190864
                    ],
                    [
                        -66.70647384203447,
                        77.86870085075232
                    ],
                    [
                        -66.70211606800727,
                        77.8666082303315
                    ],
                    [
                        -66.69788150801139,
                        77.86450536490213
                    ],
                    [
                        -66.6936462736716,
                        77.86240262164442
                    ],
                    [
                        -66.6894419293072,
                        77.8602973596202
                    ],
                    [
                        -66.68537774668778,
                        77.85818043702439
                    ],
                    [
                        -66.68142273676949,
                        77.85605444763962
                    ],
                    [
                        -66.67739024744374,
                        77.85393500741546
                    ],
                    [
                        -66.67324094151444,
                        77.85182540645366
                    ],
                    [
                        -66.6689821955487,
                        77.84972502648445
                    ],
                    [
                        -66.66446169605611,
                        77.84764660676325
                    ],
                    [
                        -66.6594177620687,
                        77.84561203010338
                    ],
                    [
                        -66.65379083184685,
                        77.84362626548203
                    ],
                    [
                        -66.64760909394838,
                        77.84168693750817
                    ],
                    [
                        -66.64085837506866,
                        77.83979520907627
                    ],
                    [
                        -66.63355351865997,
                        77.83794981230787
                    ],
                    [
                        -66.62589898331255,
                        77.83613363163003
                    ],
                    [
                        -66.61826452398934,
                        77.83431575653614
                    ],
                    [
                        -66.61106737795956,
                        77.83246133996727
                    ],
                    [
                        -66.60453974284766,
                        77.83055101548042
                    ],
                    [
                        -66.59876554462511,
                        77.82857780538235
                    ],
                    [
                        -66.59388223838515,
                        77.8265302590496
                    ],
                    [
                        -66.59022129805746,
                        77.8243807211444
                    ],
                    [
                        -66.5881565836797,
                        77.82209798052304
                    ],
                    [
                        -66.58757081779879,
                        77.8196917991177
                    ],
                    [
                        -66.58787360765311,
                        77.81721143017869
                    ],
                    [
                        -66.58857270024059,
                        77.814697952203
                    ],
                    [
                        -66.58956067785344,
                        77.8121603181559
                    ],
                    [
                        -66.59068700864388,
                        77.80961109252438
                    ],
                    [
                        -66.59172403908022,
                        77.8070693007429
                    ],
                    [
                        -66.59242512770102,
                        77.80455557573374
                    ],
                    [
                        -66.5926935206945,
                        77.80207803104904
                    ],
                    [
                        -66.59265445977086,
                        77.79962621150464
                    ],
                    [
                        -66.59245962585592,
                        77.79718743941224
                    ],
                    [
                        -66.59230004741511,
                        77.79474573362072
                    ],
                    [
                        -66.59229305316481,
                        77.7922912704606
                    ],
                    [
                        -66.59244253367424,
                        77.78982371659372
                    ],
                    [
                        -66.5926804624099,
                        77.78734876104993
                    ],
                    [
                        -66.59290119299172,
                        77.78487524877853
                    ],
                    [
                        -66.59328781247699,
                        77.78238784083167
                    ],
                    [
                        -66.59416545281768,
                        77.77985928033641
                    ],
                    [
                        -66.59592102667362,
                        77.77725710172646
                    ],
                    [
                        -66.59866361130746,
                        77.7745720916368
                    ],
                    [
                        -66.60234364476716,
                        77.77180831960086
                    ],
                    [
                        -66.60652684680328,
                        77.76900213925946
                    ],
                    [
                        -66.61072869792606,
                        77.76619418010024
                    ],
                    [
                        -66.61450851300307,
                        77.76342145976585
                    ],
                    [
                        -66.61768434767401,
                        77.76069931239378
                    ],
                    [
                        -66.62015902706422,
                        77.75803596494936
                    ],
                    [
                        -66.62199491000992,
                        77.75542623386124
                    ],
                    [
                        -66.62353119570835,
                        77.75284163684813
                    ],
                    [
                        -66.62522285135516,
                        77.75024391555084
                    ],
                    [
                        -66.62522285135516,
                        77.75024391555084
                    ],
                    [
                        -66.62691378440509,
                        77.74764619579871
                    ],
                    [
                        -66.62907058873257,
                        77.74500919518846
                    ],
                    [
                        -66.63171973669392,
                        77.74233064632533
                    ],
                    [
                        -66.63471211585924,
                        77.73962306864219
                    ],
                    [
                        -66.63797855873754,
                        77.73689225975173
                    ],
                    [
                        -66.64149348597276,
                        77.73414034969207
                    ],
                    [
                        -66.64528646811124,
                        77.7313648189257
                    ],
                    [
                        -66.64912959153382,
                        77.72858487150224
                    ],
                    [
                        -66.65294583314285,
                        77.72580700463244
                    ],
                    [
                        -66.65536938105619,
                        77.72314657110063
                    ],
                    [
                        -66.6770009335569,
                        77.7054770695444
                    ],
                    [
                        -66.69856993688286,
                        77.68780639730177
                    ],
                    [
                        -66.72007665585362,
                        77.67013456283364
                    ],
                    [
                        -66.7415213538317,
                        77.65246157455768
                    ],
                    [
                        -66.76290429273242,
                        77.63478744084864
                    ],
                    [
                        -66.78422573303338,
                        77.61711217003867
                    ],
                    [
                        -66.80548593378427,
                        77.59943577041756
                    ],
                    [
                        -66.82668515261622,
                        77.58175825023302
                    ],
                    [
                        -66.84782364575132,
                        77.56407961769112
                    ],
                    [
                        -66.868901668012,
                        77.54639988095637
                    ],
                    [
                        -66.88991947283026,
                        77.52871904815213
                    ],
                    [
                        -66.91087731225699,
                        77.5110371273609
                    ],
                    [
                        -66.93177543697102,
                        77.49335412662447
                    ],
                    [
                        -66.95261409628833,
                        77.4756700539444
                    ],
                    [
                        -66.97339353817092,
                        77.45798491728213
                    ],
                    [
                        -66.99411400923587,
                        77.44029872455933
                    ],
                    [
                        -67.01477575476417,
                        77.42261148365813
                    ],
                    [
                        -67.03537901870955,
                        77.40492320242144
                    ],
                    [
                        -67.05592404370717,
                        77.38723388865318
                    ],
                    [
                        -67.0764110710823,
                        77.36954355011854
                    ]
                ]
            }
        }
    ]
}
