{
    "type": "FeatureCollection",
    "features": [
        {
            "type": "Feature",
            "properties": {
                "name": "Shirase Glacier",
                "object": "transect",
                "component": "landice",
                "author": "Matthew Hoffman, converted from https://github.com/yuwang115/sl-ice",
                "tags": "Antarctic_Ice_Sheet;flowline;sl-ice;shirase_glacier"
            },
            "geometry": {
                "type": "LineString",
                "coordinates": [
                    [
                        39.87499026322398,
                        -73.50632995694036
                    ],
                    [
                        39.87388980282477,
                        -73.4882884775652
                    ],
                    [
                        39.87322998088337,
                        -73.47024937040675
                    ],
                    [
                        39.87424547042514,
                        -73.45221222196732
                    ],
                    [
                        39.877497583991826,
                        -73.43419470644871
                    ],
                    [
                        39.8821358080851,
                        -73.41620396630377
                    ],
                    [
                        39.88773546909633,
                        -73.39823684187117
                    ],
                    [
                        39.89389187592289,
                        -73.3802823419157
                    ],
                    [
                        39.899208427439,
                        -73.36231243500453
                    ],
                    [
                        39.90310798071745,
                        -73.34431107829764
                    ],
                    [
                        39.90524933036899,
                        -73.32628615283171
                    ],
                    [
                        39.906136508808515,
                        -73.30825432481615
                    ],
                    [
                        39.90591010443616,
                        -73.29022039298366
                    ],
                    [
                        39.90481030643314,
                        -73.27218850836697
                    ],
                    [
                        39.90357476972686,
                        -73.25415898880358
                    ],
                    [
                        39.90278992237319,
                        -73.23613027648406
                    ],
                    [
                        39.902911766908005,
                        -73.21809880608373
                    ],
                    [
                        39.903683920955125,
                        -73.20006828104184
                    ],
                    [
                        39.90469364422336,
                        -73.18204409449545
                    ],
                    [
                        39.90551992805973,
                        -73.16401410645624
                    ],
                    [
                        39.90662492340387,
                        -73.14599089566843
                    ],
                    [
                        39.907701682337546,
                        -73.1279665378514
                    ],
                    [
                        39.907980178139795,
                        -73.10994028218555
                    ],
                    [
                        39.90778816411243,
                        -73.09191288782695
                    ],
                    [
                        39.9069905598239,
                        -73.07389296368063
                    ],
                    [
                        39.905472564214904,
                        -73.05587490793381
                    ],
                    [
                        39.90328989131545,
                        -73.0378632930934
                    ],
                    [
                        39.90073881769075,
                        -73.01985553164262
                    ],
                    [
                        39.8977495543136,
                        -73.00185487321838
                    ],
                    [
                        39.89398472398953,
                        -72.98386906487481
                    ],
                    [
                        39.88905920868647,
                        -72.96590964687374
                    ],
                    [
                        39.882980643353925,
                        -72.94797791127371
                    ],
                    [
                        39.876276947668046,
                        -72.9300683672911
                    ],
                    [
                        39.86954827578181,
                        -72.91215964488434
                    ],
                    [
                        39.862939688685216,
                        -72.89424662406826
                    ],
                    [
                        39.85655651421575,
                        -72.87633148141592
                    ],
                    [
                        39.85027093763465,
                        -72.85841150106965
                    ],
                    [
                        39.84367251685227,
                        -72.84050326513913
                    ],
                    [
                        39.83636617357555,
                        -72.82262110274922
                    ],
                    [
                        39.82824692080948,
                        -72.80476909425803
                    ],
                    [
                        39.819784560815634,
                        -72.78693026515766
                    ],
                    [
                        39.81124467556774,
                        -72.76910017950435
                    ],
                    [
                        39.80283734000376,
                        -72.75126211099615
                    ],
                    [
                        39.7946456089963,
                        -72.7334176965231
                    ],
                    [
                        39.786936393445195,
                        -72.71555696053815
                    ],
                    [
                        39.77997937354508,
                        -72.69767135333643
                    ],
                    [
                        39.773509071408036,
                        -72.6797652964957
                    ],
                    [
                        39.767309407663234,
                        -72.66185343846215
                    ],
                    [
                        39.761454842250515,
                        -72.64393467114414
                    ],
                    [
                        39.7559211581143,
                        -72.6260077535252
                    ],
                    [
                        39.75123532723004,
                        -72.60805845883678
                    ],
                    [
                        39.74739660571496,
                        -72.59009457491078
                    ],
                    [
                        39.74490996315745,
                        -72.57210905683966
                    ],
                    [
                        39.74374039815127,
                        -72.55411197666967
                    ],
                    [
                        39.74371107081796,
                        -72.53611137128847
                    ],
                    [
                        39.745151878971264,
                        -72.51811518395202
                    ],
                    [
                        39.74754504972368,
                        -72.5001347479893
                    ],
                    [
                        39.75063325068943,
                        -72.48216234875403
                    ],
                    [
                        39.754269114142325,
                        -72.4641945719011
                    ],
                    [
                        39.758391728123605,
                        -72.44624508067137
                    ],
                    [
                        39.76293097537522,
                        -72.42830299743508
                    ],
                    [
                        39.76801317615479,
                        -72.41037246416985
                    ],
                    [
                        39.773530093611264,
                        -72.39245687377762
                    ],
                    [
                        39.77924660589632,
                        -72.37454843703169
                    ],
                    [
                        39.78494184578222,
                        -72.35663720609512
                    ],
                    [
                        39.790560858207726,
                        -72.33873124129813
                    ],
                    [
                        39.79605272518624,
                        -72.3208189147195
                    ],
                    [
                        39.80138754312821,
                        -72.30290323226124
                    ],
                    [
                        39.80674544333104,
                        -72.28498662537935
                    ],
                    [
                        39.81195633237738,
                        -72.26707013487432
                    ],
                    [
                        39.81688855452361,
                        -72.24914756358702
                    ],
                    [
                        39.8214354969612,
                        -72.23121468375768
                    ],
                    [
                        39.82554937167107,
                        -72.21327463920171
                    ],
                    [
                        39.829301110643584,
                        -72.19532491838757
                    ],
                    [
                        39.83267303471785,
                        -72.17737268543165
                    ],
                    [
                        39.83573389264689,
                        -72.15941472772576
                    ],
                    [
                        39.83860843209128,
                        -72.14145449359168
                    ],
                    [
                        39.84144150616675,
                        -72.12349599375962
                    ],
                    [
                        39.84442042010089,
                        -72.10553804071128
                    ],
                    [
                        39.847744832985896,
                        -72.08759128683437
                    ],
                    [
                        39.85123060308644,
                        -72.06964424881157
                    ],
                    [
                        39.85480633133652,
                        -72.0516987785015
                    ],
                    [
                        39.858182787015075,
                        -72.03375322713265
                    ],
                    [
                        39.86119294822568,
                        -72.01580167280692
                    ],
                    [
                        39.863664901381846,
                        -71.99784315366702
                    ],
                    [
                        39.86595155707878,
                        -71.97988172102738
                    ],
                    [
                        39.86830415767632,
                        -71.96192627258587
                    ],
                    [
                        39.870861598523604,
                        -71.94397238471977
                    ],
                    [
                        39.87340831028526,
                        -71.92601725249718
                    ],
                    [
                        39.87531124835491,
                        -71.90805663129646
                    ],
                    [
                        39.87621546529246,
                        -71.89009079491082
                    ],
                    [
                        39.87635305054843,
                        -71.87212105207259
                    ],
                    [
                        39.87575404101847,
                        -71.85415774758168
                    ],
                    [
                        39.874400348049505,
                        -71.83619329061786
                    ],
                    [
                        39.87239742321776,
                        -71.81823820924845
                    ],
                    [
                        39.869864952959524,
                        -71.80028749517639
                    ],
                    [
                        39.86688543351996,
                        -71.78235041477595
                    ],
                    [
                        39.86341793738774,
                        -71.76441810370845
                    ],
                    [
                        39.85952081248368,
                        -71.74649787695097
                    ],
                    [
                        39.85527779096929,
                        -71.72858565908497
                    ],
                    [
                        39.85061119213157,
                        -71.7106868490003
                    ],
                    [
                        39.845736230617646,
                        -71.69279090320047
                    ],
                    [
                        39.84064805357802,
                        -71.67490274980972
                    ],
                    [
                        39.835338168579824,
                        -71.65702593569081
                    ],
                    [
                        39.82963034018112,
                        -71.639156670171
                    ],
                    [
                        39.82341280995108,
                        -71.62130826066226
                    ],
                    [
                        39.81672892006392,
                        -71.60347547700417
                    ],
                    [
                        39.80964366624835,
                        -71.58566136763952
                    ],
                    [
                        39.80208918985402,
                        -71.5678677206093
                    ],
                    [
                        39.79357690224178,
                        -71.55011857769948
                    ],
                    [
                        39.78484920440716,
                        -71.53237975110615
                    ],
                    [
                        39.775510061413044,
                        -71.51467539005172
                    ],
                    [
                        39.764719788015064,
                        -71.49705611222406
                    ],
                    [
                        39.753138681729844,
                        -71.47948472144554
                    ],
                    [
                        39.741187933511604,
                        -71.46194592570079
                    ],
                    [
                        39.72948754510607,
                        -71.444389009082
                    ],
                    [
                        39.71796650155812,
                        -71.42682214461654
                    ],
                    [
                        39.70679003183726,
                        -71.40923178674824
                    ],
                    [
                        39.69540469990924,
                        -71.3916583310858
                    ],
                    [
                        39.6834658858849,
                        -71.37412332563629
                    ],
                    [
                        39.671048713883266,
                        -71.35662693807626
                    ],
                    [
                        39.65812938491361,
                        -71.33916639937273
                    ],
                    [
                        39.645098341263775,
                        -71.3217163302864
                    ],
                    [
                        39.63264204015739,
                        -71.30422602956456
                    ],
                    [
                        39.621301225670194,
                        -71.28665977568409
                    ],
                    [
                        39.61204359098688,
                        -71.26897268079921
                    ],
                    [
                        39.606882799833514,
                        -71.25112003762983
                    ],
                    [
                        39.60520689985823,
                        -71.23319226781584
                    ],
                    [
                        39.601420807775405,
                        -71.21530039276776
                    ],
                    [
                        39.593895557943654,
                        -71.19753832107591
                    ],
                    [
                        39.58382973661503,
                        -71.17989797728835
                    ],
                    [
                        39.57410484317402,
                        -71.16224296570425
                    ],
                    [
                        39.56510363516801,
                        -71.14454757536333
                    ],
                    [
                        39.55715406598722,
                        -71.12680044647728
                    ],
                    [
                        39.54841660495113,
                        -71.10909778705332
                    ],
                    [
                        39.538803185837864,
                        -71.09143922254901
                    ],
                    [
                        39.53035645907077,
                        -71.07371864024586
                    ],
                    [
                        39.52161990898456,
                        -71.05601893004666
                    ],
                    [
                        39.51180670204849,
                        -71.03837465669706
                    ],
                    [
                        39.50138899064642,
                        -71.02077358961154
                    ],
                    [
                        39.492813999586986,
                        -71.00306895925858
                    ],
                    [
                        39.48777010662223,
                        -70.98522648201413
                    ],
                    [
                        39.48910128335325,
                        -70.96731280985331
                    ],
                    [
                        39.4917768480922,
                        -70.9494125427745
                    ],
                    [
                        39.492442014515916,
                        -70.93149258561947
                    ],
                    [
                        39.49310242651431,
                        -70.91357214864813
                    ],
                    [
                        39.49446553752424,
                        -70.89565765497483
                    ],
                    [
                        39.49463454774401,
                        -70.87774205657469
                    ],
                    [
                        39.49097616111651,
                        -70.85986731496547
                    ],
                    [
                        39.48546231184166,
                        -70.84204000565715
                    ],
                    [
                        39.48000778048464,
                        -70.8242117938605
                    ],
                    [
                        39.475585501090336,
                        -70.80635574412663
                    ],
                    [
                        39.471871919585155,
                        -70.78848462892154
                    ],
                    [
                        39.46744829879043,
                        -70.7706302660274
                    ],
                    [
                        39.46224007947979,
                        -70.752797149799
                    ],
                    [
                        39.45563237542483,
                        -70.73501951163608
                    ],
                    [
                        39.44950062892389,
                        -70.71722432667174
                    ],
                    [
                        39.440200446529474,
                        -70.69958195360421
                    ],
                    [
                        39.42829764143572,
                        -70.68211176364802
                    ],
                    [
                        39.41504599561409,
                        -70.66475181116188
                    ],
                    [
                        39.40188614417605,
                        -70.647383725458
                    ],
                    [
                        39.389817663706744,
                        -70.62993198435726
                    ],
                    [
                        39.377081723932385,
                        -70.61253278291935
                    ],
                    [
                        39.363788770596315,
                        -70.59518062603115
                    ],
                    [
                        39.349581104646866,
                        -70.57791316710339
                    ],
                    [
                        39.33463344907222,
                        -70.56071550803335
                    ],
                    [
                        39.318888899182845,
                        -70.54359885250686
                    ],
                    [
                        39.30424710187031,
                        -70.52637552300368
                    ],
                    [
                        39.29111438052826,
                        -70.50902194415741
                    ],
                    [
                        39.28135532620498,
                        -70.4914254841133
                    ],
                    [
                        39.27373808607719,
                        -70.47370854965261
                    ],
                    [
                        39.26428378131246,
                        -70.45609656710808
                    ],
                    [
                        39.25019314803239,
                        -70.43883231398324
                    ],
                    [
                        39.23829022658798,
                        -70.42140184160984
                    ],
                    [
                        39.232790225566895,
                        -70.40362382437591
                    ],
                    [
                        39.234241266377865,
                        -70.38574575760863
                    ],
                    [
                        39.24044243751412,
                        -70.36797962918186
                    ],
                    [
                        39.249125555852565,
                        -70.3503292326781
                    ],
                    [
                        39.254255046705225,
                        -70.3325359197003
                    ],
                    [
                        39.25283821752232,
                        -70.31468318393082
                    ],
                    [
                        39.24210904963606,
                        -70.29720442769018
                    ],
                    [
                        39.22244444667634,
                        -70.2806184105624
                    ],
                    [
                        39.197443673597085,
                        -70.26485540988422
                    ],
                    [
                        39.17043077636122,
                        -70.24947627528421
                    ],
                    [
                        39.1410099978112,
                        -70.23461869417687
                    ],
                    [
                        39.10908645541295,
                        -70.22037516886923
                    ],
                    [
                        39.07382903029047,
                        -70.20707722752022
                    ],
                    [
                        39.03415623918033,
                        -70.1952990360563
                    ],
                    [
                        38.99236676938341,
                        -70.18439530591033
                    ],
                    [
                        38.95009779521626,
                        -70.1737157053203
                    ],
                    [
                        38.908560086685334,
                        -70.16272324091176
                    ],
                    [
                        38.868101032491836,
                        -70.15128678354736
                    ],
                    [
                        38.82916460285055,
                        -70.13926636734304
                    ],
                    [
                        38.79217226566336,
                        -70.12656293323421
                    ],
                    [
                        38.75683655706982,
                        -70.11333435912334
                    ],
                    [
                        38.72345680135666,
                        -70.09953764398385
                    ],
                    [
                        38.6932021956226,
                        -70.08493575303109
                    ],
                    [
                        38.66604208862974,
                        -70.06965470796746
                    ],
                    [
                        38.64206684656355,
                        -70.05376519839294
                    ],
                    [
                        38.62152697759097,
                        -70.03732804766906
                    ],
                    [
                        38.60383465429522,
                        -70.02051119308844
                    ],
                    [
                        38.588799773001405,
                        -70.00339436760493
                    ],
                    [
                        38.576580506761644,
                        -69.98602027991623
                    ],
                    [
                        38.56668704678913,
                        -69.96847584096534
                    ],
                    [
                        38.558515599614054,
                        -69.95082671556108
                    ],
                    [
                        38.55219568285852,
                        -69.93308791070521
                    ],
                    [
                        38.54731372417444,
                        -69.91529844528193
                    ],
                    [
                        38.543453612152874,
                        -69.89748118847936
                    ],
                    [
                        38.54028953210372,
                        -69.87964714619609
                    ],
                    [
                        38.53633450530573,
                        -69.86183240855692
                    ],
                    [
                        38.532386609812136,
                        -69.84401852359198
                    ],
                    [
                        38.52844582639,
                        -69.82620549232897
                    ],
                    [
                        38.524512135875376,
                        -69.80839331579429
                    ],
                    [
                        38.520585519173004,
                        -69.79058199501326
                    ],
                    [
                        38.51666595725591,
                        -69.77277153100995
                    ],
                    [
                        38.51275343116521,
                        -69.75496192480732
                    ],
                    [
                        38.50884792200974,
                        -69.73715317742707
                    ],
                    [
                        38.5049494109658,
                        -69.71934528988987
                    ],
                    [
                        38.501057879276786,
                        -69.70153826321507
                    ],
                    [
                        38.49717330825298,
                        -69.68373209842098
                    ],
                    [
                        38.493295679271185,
                        -69.6659267965247
                    ],
                    [
                        38.48942497377445,
                        -69.64812235854222
                    ],
                    [
                        38.48556117327178,
                        -69.63031878548833
                    ],
                    [
                        38.48170425933785,
                        -69.6125160783767
                    ],
                    [
                        38.477854213612716,
                        -69.5947142382199
                    ],
                    [
                        38.47401101780149,
                        -69.5769132660293
                    ],
                    [
                        38.47017465367411,
                        -69.55911316281518
                    ],
                    [
                        38.46634510306498,
                        -69.54131392958668
                    ],
                    [
                        38.4625223478728,
                        -69.52351556735182
                    ]
                ]
            }
        }
    ]
}
