{
    "type": "FeatureCollection",
    "features": [
        {
            "type": "Feature",
            "properties": {
                "name": "Brunt Stancomb",
                "object": "transect",
                "component": "landice",
                "author": "Matthew Hoffman, converted from https://github.com/yuwang115/sl-ice",
                "tags": "Antarctic_Ice_Sheet;flowline;sl-ice;brunt_stancomb"
            },
            "geometry": {
                "type": "LineString",
                "coordinates": [
                    [
                        -4.0598856398448975,
                        -75.54131632774224
                    ],
                    [
                        -4.109833254394067,
                        -75.55447129014846
                    ],
                    [
                        -4.160680141159204,
                        -75.56742205580106
                    ],
                    [
                        -4.212343788430194,
                        -75.58018410255578
                    ],
                    [
                        -4.265059082569814,
                        -75.59268709159345
                    ],
                    [
                        -4.3186918969193835,
                        -75.6049582827405
                    ],
                    [
                        -4.37306148991415,
                        -75.61704048269945
                    ],
                    [
                        -4.428018729153161,
                        -75.62897242068097
                    ],
                    [
                        -4.483430754667199,
                        -75.64078628661696
                    ],
                    [
                        -4.539239444608921,
                        -75.65249564912936
                    ],
                    [
                        -4.595456713499457,
                        -75.66410364298079
                    ],
                    [
                        -4.652078843331233,
                        -75.67559915239273
                    ],
                    [
                        -4.709164922023974,
                        -75.6869725079096
                    ],
                    [
                        -4.766864833402701,
                        -75.6981666172976
                    ],
                    [
                        -4.82512156580571,
                        -75.70919950600818
                    ],
                    [
                        -4.883644434812198,
                        -75.72015970404973
                    ],
                    [
                        -4.941983428929526,
                        -75.73119587666397
                    ],
                    [
                        -4.99955493728288,
                        -75.7424837218117
                    ],
                    [
                        -5.0560121209331985,
                        -75.75412520651118
                    ],
                    [
                        -5.110750891683058,
                        -75.76626744616728
                    ],
                    [
                        -5.164511782937827,
                        -75.77868497840777
                    ],
                    [
                        -5.218370198122458,
                        -75.7910876218127
                    ],
                    [
                        -5.27324184163877,
                        -75.80323512556645
                    ],
                    [
                        -5.32927290314848,
                        -75.81507243237623
                    ],
                    [
                        -5.386127968515735,
                        -75.82668569976727
                    ],
                    [
                        -5.443364849868297,
                        -75.83820216798246
                    ],
                    [
                        -5.500598308227815,
                        -75.84973179049729
                    ],
                    [
                        -5.557602156382364,
                        -75.86134286514148
                    ],
                    [
                        -5.6143102046977775,
                        -75.87305542702724
                    ],
                    [
                        -5.670858516884743,
                        -75.88482634392174
                    ],
                    [
                        -5.727361818567626,
                        -75.89662471404165
                    ],
                    [
                        -5.784395726758324,
                        -75.90828597915296
                    ],
                    [
                        -5.842024990991473,
                        -75.91978627417105
                    ],
                    [
                        -5.900263474340566,
                        -75.93111479346906
                    ],
                    [
                        -5.9590215527473545,
                        -75.94229981541314
                    ],
                    [
                        -6.018211516060462,
                        -75.95336510113134
                    ],
                    [
                        -6.078024418348548,
                        -75.96424975540674
                    ],
                    [
                        -6.138658105093884,
                        -75.97487515471188
                    ],
                    [
                        -6.199764637002427,
                        -75.98535839793816
                    ],
                    [
                        -6.261425819717711,
                        -75.99566500893076
                    ],
                    [
                        -6.323509264839055,
                        -76.00583735012707
                    ],
                    [
                        -6.3857674437901055,
                        -76.01596213000916
                    ],
                    [
                        -6.448276723362805,
                        -76.02601706611087
                    ],
                    [
                        -6.511402373164281,
                        -76.03586315785238
                    ],
                    [
                        -6.5749450143393195,
                        -76.04556115291841
                    ],
                    [
                        -6.638837409959499,
                        -76.0551463979005
                    ],
                    [
                        -6.703365983911198,
                        -76.06449996228321
                    ],
                    [
                        -6.76840529912952,
                        -76.07366325872904
                    ],
                    [
                        -6.833969943398037,
                        -76.08262263252831
                    ],
                    [
                        -6.900037900574642,
                        -76.0913828324541
                    ],
                    [
                        -6.966491028223714,
                        -76.0999989880685
                    ],
                    [
                        -7.0334047721752455,
                        -76.1084200724414
                    ],
                    [
                        -7.101023602279181,
                        -76.11652587606456
                    ],
                    [
                        -7.169165709357311,
                        -76.12439711860553
                    ],
                    [
                        -7.237897244932668,
                        -76.13199011987439
                    ],
                    [
                        -7.307442463527347,
                        -76.13916565573756
                    ],
                    [
                        -7.377653237598922,
                        -76.14598329155643
                    ],
                    [
                        -7.448418336554102,
                        -76.15247783621707
                    ],
                    [
                        -7.519961810149039,
                        -76.15848690519681
                    ],
                    [
                        -7.592184179158061,
                        -76.16402834404764
                    ],
                    [
                        -7.665061336342776,
                        -76.16908380523228
                    ],
                    [
                        -7.738655838590535,
                        -76.17353229560422
                    ],
                    [
                        -7.812772148155729,
                        -76.1774754694545
                    ],
                    [
                        -7.8873124666629275,
                        -76.1809689804238
                    ],
                    [
                        -7.962214747395772,
                        -76.183996875287
                    ],
                    [
                        -8.03741186893378,
                        -76.18658742450836
                    ],
                    [
                        -8.11292551776476,
                        -76.18864679392887
                    ],
                    [
                        -8.188662727089374,
                        -76.19016200645757
                    ],
                    [
                        -8.264500956463655,
                        -76.1914321121629
                    ],
                    [
                        -8.340364536063943,
                        -76.1926154734764
                    ],
                    [
                        -8.416227427871847,
                        -76.19381478601932
                    ],
                    [
                        -8.49210243435773,
                        -76.19503144988992
                    ],
                    [
                        -8.567995756713335,
                        -76.19617713926675
                    ],
                    [
                        -8.64390716353233,
                        -76.19725915755404
                    ],
                    [
                        -8.719806582408141,
                        -76.19839976490893
                    ],
                    [
                        -8.79570621266586,
                        -76.19962795799323
                    ],
                    [
                        -8.871528038450569,
                        -76.20109276497894
                    ],
                    [
                        -8.947309705294675,
                        -76.20269928862022
                    ],
                    [
                        -9.023150645539355,
                        -76.20413604211032
                    ],
                    [
                        -9.099127829644026,
                        -76.20516002710606
                    ],
                    [
                        -9.175187095192257,
                        -76.20570675272255
                    ],
                    [
                        -9.25129138447941,
                        -76.20584625015114
                    ],
                    [
                        -9.32738857120676,
                        -76.2057476607543
                    ],
                    [
                        -9.403471609338842,
                        -76.20542859888316
                    ],
                    [
                        -9.479541324771281,
                        -76.20488430333864
                    ],
                    [
                        -9.555569837534076,
                        -76.2041350884923
                    ],
                    [
                        -9.631597157263865,
                        -76.20339373677004
                    ],
                    [
                        -9.707641171198903,
                        -76.2027709423932
                    ],
                    [
                        -9.783712922361632,
                        -76.20240723114983
                    ],
                    [
                        -9.859785534675517,
                        -76.20240796896107
                    ],
                    [
                        -9.935836283016917,
                        -76.20291257648324
                    ],
                    [
                        -10.011730091856375,
                        -76.20420730437056
                    ],
                    [
                        -10.087435799730834,
                        -76.20604621013796
                    ],
                    [
                        -10.162972569800845,
                        -76.2082474012907
                    ],
                    [
                        -10.238434495855394,
                        -76.21063109754601
                    ],
                    [
                        -10.31389543062083,
                        -76.21305685608469
                    ],
                    [
                        -10.389387659415872,
                        -76.21543473058469
                    ],
                    [
                        -10.464978140155957,
                        -76.21766204442642
                    ],
                    [
                        -10.54064870000971,
                        -76.21972833976159
                    ],
                    [
                        -10.616410167424739,
                        -76.22163572562715
                    ],
                    [
                        -10.692306693288243,
                        -76.22326194881468
                    ],
                    [
                        -10.768322306630143,
                        -76.22450023369399
                    ],
                    [
                        -10.844454649839271,
                        -76.225278209026
                    ],
                    [
                        -10.920649231378661,
                        -76.22564322211903
                    ],
                    [
                        -10.996865951098231,
                        -76.22574470162685
                    ],
                    [
                        -11.073074181577141,
                        -76.22555056170194
                    ],
                    [
                        -11.149237202733675,
                        -76.22491429173832
                    ],
                    [
                        -11.225286020507815,
                        -76.22378981142356
                    ],
                    [
                        -11.301154400399327,
                        -76.22211706269235
                    ],
                    [
                        -11.376766142310757,
                        -76.21989018389584
                    ],
                    [
                        -11.452223772149356,
                        -76.21741427057067
                    ],
                    [
                        -11.527635821604749,
                        -76.214857215483
                    ],
                    [
                        -11.602978459258376,
                        -76.21224239607967
                    ],
                    [
                        -11.678261458089239,
                        -76.20954617472093
                    ],
                    [
                        -11.753400270424336,
                        -76.20663738230188
                    ],
                    [
                        -11.828308443244037,
                        -76.20344797007084
                    ],
                    [
                        -11.903031680084265,
                        -76.20004797766691
                    ],
                    [
                        -11.977396683422684,
                        -76.19623742534249
                    ],
                    [
                        -12.0512599679583,
                        -76.19191969258667
                    ],
                    [
                        -12.124704747186838,
                        -76.18724374555838
                    ],
                    [
                        -12.197769747095682,
                        -76.18226711508585
                    ],
                    [
                        -12.270621912001848,
                        -76.17712705294862
                    ],
                    [
                        -12.343284381372593,
                        -76.17186421233895
                    ],
                    [
                        -12.415776512518589,
                        -76.16648042842459
                    ],
                    [
                        -12.488166413746047,
                        -76.16105115007215
                    ],
                    [
                        -12.560425550192768,
                        -76.15553796139895
                    ],
                    [
                        -12.632536482631558,
                        -76.149948347482
                    ],
                    [
                        -12.704537027999654,
                        -76.14429056027686
                    ],
                    [
                        -12.776265122442991,
                        -76.13845991345865
                    ],
                    [
                        -12.847619470508825,
                        -76.1323810701483
                    ],
                    [
                        -12.918388089859127,
                        -76.12595783173035
                    ],
                    [
                        -12.98810391188364,
                        -76.11893134464044
                    ],
                    [
                        -13.055604028565135,
                        -76.11076883577864
                    ],
                    [
                        -13.120598209482736,
                        -76.10151384904978
                    ],
                    [
                        -13.185735792220859,
                        -76.09234297641069
                    ],
                    [
                        -13.251406148317422,
                        -76.08340744513927
                    ],
                    [
                        -13.317939555842548,
                        -76.07487084073695
                    ],
                    [
                        -13.384308591500718,
                        -76.0662720078945
                    ],
                    [
                        -13.451529514234705,
                        -76.05809353919318
                    ],
                    [
                        -13.520048386798562,
                        -76.05058715326169
                    ],
                    [
                        -13.590107093815142,
                        -76.04399284986332
                    ],
                    [
                        -13.661941335777176,
                        -76.0386583416338
                    ],
                    [
                        -13.735337654150502,
                        -76.03473194758003
                    ],
                    [
                        -13.807172942833386,
                        -76.02953329978634
                    ],
                    [
                        -13.87264412968763,
                        -76.02078133227
                    ],
                    [
                        -13.933019926091358,
                        -76.01000056872859
                    ],
                    [
                        -13.994315332912814,
                        -75.99954746084191
                    ],
                    [
                        -14.056842659375558,
                        -75.98954926877401
                    ],
                    [
                        -14.11946547781605,
                        -75.9796020436326
                    ],
                    [
                        -14.182843730446182,
                        -75.96994970911105
                    ],
                    [
                        -14.247166480811325,
                        -75.96069616674941
                    ],
                    [
                        -14.312465375568282,
                        -75.95187817593266
                    ],
                    [
                        -14.379753965441298,
                        -75.94402759599954
                    ],
                    [
                        -14.450094744327869,
                        -75.93799665162828
                    ],
                    [
                        -14.522186287744596,
                        -75.93330560942368
                    ],
                    [
                        -14.594757879805734,
                        -75.92912243585371
                    ],
                    [
                        -14.668717404325474,
                        -75.92701053445901
                    ],
                    [
                        -14.743139613680409,
                        -75.92586581929132
                    ],
                    [
                        -14.817033377220078,
                        -75.92352416331623
                    ],
                    [
                        -14.889991402620847,
                        -75.91981036821123
                    ],
                    [
                        -14.961951106586989,
                        -75.91508765643832
                    ],
                    [
                        -15.033742725046647,
                        -75.91024185530485
                    ],
                    [
                        -15.105634204606458,
                        -75.9055024684417
                    ],
                    [
                        -15.176955947723712,
                        -75.90030098430448
                    ],
                    [
                        -15.247661488815282,
                        -75.89464340283898
                    ],
                    [
                        -15.317319018413444,
                        -75.88828504930862
                    ],
                    [
                        -15.386380447950065,
                        -75.88156373731367
                    ],
                    [
                        -15.455563767210085,
                        -75.87493749142187
                    ],
                    [
                        -15.524432009762112,
                        -75.86813938929271
                    ],
                    [
                        -15.591678507680944,
                        -75.86046581117225
                    ],
                    [
                        -15.656637449219266,
                        -75.8517088092937
                    ],
                    [
                        -15.719868092010739,
                        -75.84223525771215
                    ],
                    [
                        -15.780517922932239,
                        -75.83181675258561
                    ],
                    [
                        -15.838910826752265,
                        -75.82067086534629
                    ],
                    [
                        -15.896591538198617,
                        -75.80931161154076
                    ],
                    [
                        -15.95507091371056,
                        -75.7982191462838
                    ],
                    [
                        -16.01528822348428,
                        -75.78771540573509
                    ],
                    [
                        -16.076836333147202,
                        -75.77770727552492
                    ],
                    [
                        -16.14115110877239,
                        -75.76884313332596
                    ],
                    [
                        -16.208148071365738,
                        -75.761293580768
                    ],
                    [
                        -16.27661146436397,
                        -75.75459485478008
                    ],
                    [
                        -16.34514498121852,
                        -75.74795421667962
                    ],
                    [
                        -16.412366507625077,
                        -75.74056449508177
                    ],
                    [
                        -16.478218040973857,
                        -75.73248150394502
                    ],
                    [
                        -16.54289661312293,
                        -75.72385697201901
                    ],
                    [
                        -16.60685145421051,
                        -75.71492524047132
                    ],
                    [
                        -16.67021540679364,
                        -75.70576394032068
                    ],
                    [
                        -16.733501501811205,
                        -75.69657953798618
                    ],
                    [
                        -16.79797770521953,
                        -75.68794033694691
                    ],
                    [
                        -16.862891726388607,
                        -75.67951747460077
                    ],
                    [
                        -16.926903997391452,
                        -75.67070468683782
                    ],
                    [
                        -16.99015302576776,
                        -75.66157443467175
                    ],
                    [
                        -17.05282372683579,
                        -75.65222021845662
                    ],
                    [
                        -17.114452349708902,
                        -75.64246435326663
                    ],
                    [
                        -17.17471726685934,
                        -75.63221445465012
                    ],
                    [
                        -17.2330509768133,
                        -75.62131955042074
                    ],
                    [
                        -17.289817390266705,
                        -75.60993117604147
                    ],
                    [
                        -17.34662560569804,
                        -75.59857389482657
                    ],
                    [
                        -17.404284651515148,
                        -75.58749609958139
                    ],
                    [
                        -17.463344411565416,
                        -75.5769049655914
                    ],
                    [
                        -17.523373313460823,
                        -75.5666729214936
                    ],
                    [
                        -17.584137849557973,
                        -75.55673033754367
                    ],
                    [
                        -17.64596771245549,
                        -75.54721701474875
                    ],
                    [
                        -17.707996938468607,
                        -75.53781225459693
                    ],
                    [
                        -17.770484913215768,
                        -75.52860746600935
                    ],
                    [
                        -17.833397717852545,
                        -75.51960700738404
                    ],
                    [
                        -17.896281085643956,
                        -75.51061021542465
                    ],
                    [
                        -17.959274044117915,
                        -75.5016744045425
                    ],
                    [
                        -18.02169594746687,
                        -75.49251190878411
                    ],
                    [
                        -18.085123529765383,
                        -75.48381570293041
                    ],
                    [
                        -18.149741512954854,
                        -75.47570834520754
                    ],
                    [
                        -18.21500144680207,
                        -75.46793976720501
                    ],
                    [
                        -18.280933682634227,
                        -75.4605730062641
                    ],
                    [
                        -18.348000648764796,
                        -75.4538967481018
                    ],
                    [
                        -18.415817423679254,
                        -75.44773652934866
                    ],
                    [
                        -18.483409344972067,
                        -75.44143648681894
                    ],
                    [
                        -18.550331888930664,
                        -75.43472737899704
                    ],
                    [
                        -18.61602554743579,
                        -75.42730304916225
                    ],
                    [
                        -18.68062266006599,
                        -75.41930855051974
                    ],
                    [
                        -18.74395318151868,
                        -75.41071867974965
                    ],
                    [
                        -18.805415223705893,
                        -75.40132056838219
                    ],
                    [
                        -18.865322883287234,
                        -75.39132173473105
                    ],
                    [
                        -18.923830839726914,
                        -75.38082364610408
                    ],
                    [
                        -18.981151966132707,
                        -75.36992743780299
                    ],
                    [
                        -19.037847870989967,
                        -75.35883593708806
                    ],
                    [
                        -19.094298752293717,
                        -75.34768687386283
                    ],
                    [
                        -19.150966155156503,
                        -75.33661818873445
                    ],
                    [
                        -19.2080314054582,
                        -75.32569238154309
                    ],
                    [
                        -19.26555142118657,
                        -75.31494156420297
                    ],
                    [
                        -19.323830436569786,
                        -75.304467007066
                    ],
                    [
                        -19.382770116258982,
                        -75.2942558850352
                    ],
                    [
                        -19.44238616684139,
                        -75.28431215226867
                    ],
                    [
                        -19.50276455974811,
                        -75.27469011917472
                    ],
                    [
                        -19.56378070876081,
                        -75.26534678197751
                    ],
                    [
                        -19.625407750746827,
                        -75.25628230034727
                    ],
                    [
                        -19.687712828236283,
                        -75.24754217726496
                    ],
                    [
                        -19.750513688632815,
                        -75.23905325097718
                    ],
                    [
                        -19.81376290423183,
                        -75.23079846274571
                    ],
                    [
                        -19.877455149580705,
                        -75.22279061920244
                    ],
                    [
                        -19.941387478388453,
                        -75.2149298263318
                    ],
                    [
                        -20.005477516381905,
                        -75.20716485625533
                    ],
                    [
                        -20.069659906176266,
                        -75.19947281563469
                    ],
                    [
                        -20.133850857632748,
                        -75.19179979415026
                    ],
                    [
                        -20.198047707718942,
                        -75.18414892984762
                    ],
                    [
                        -20.262208130108146,
                        -75.17650105161457
                    ],
                    [
                        -20.326213018898557,
                        -75.16878152295867
                    ],
                    [
                        -20.39001393964796,
                        -75.16097568350918
                    ],
                    [
                        -20.453588004241798,
                        -75.15306067283626
                    ],
                    [
                        -20.517013438463533,
                        -75.14509094282214
                    ],
                    [
                        -20.58026710649538,
                        -75.1370484721016
                    ],
                    [
                        -20.643126089978928,
                        -75.12882037936598
                    ],
                    [
                        -20.705549908460576,
                        -75.1204010699768
                    ],
                    [
                        -20.767646427651332,
                        -75.11183445224256
                    ],
                    [
                        -20.829409564457784,
                        -75.10312512960148
                    ],
                    [
                        -20.89068569310587,
                        -75.09421370743868
                    ],
                    [
                        -20.95156113173815,
                        -75.0851394141851
                    ],
                    [
                        -21.01196634651045,
                        -75.07587440202221
                    ],
                    [
                        -21.071809094990844,
                        -75.06638342598586
                    ],
                    [
                        -21.13121667668636,
                        -75.0567278445846
                    ],
                    [
                        -21.19012489537069,
                        -75.04689099922744
                    ],
                    [
                        -21.248496895379464,
                        -75.03685451680212
                    ],
                    [
                        -21.306403453473933,
                        -75.02666402179352
                    ],
                    [
                        -21.36386674393141,
                        -75.01631267461072
                    ],
                    [
                        -21.420885506800484,
                        -75.00581542585886
                    ],
                    [
                        -21.47744103723418,
                        -74.99516567936395
                    ],
                    [
                        -21.533448105946963,
                        -74.98434030113489
                    ],
                    [
                        -21.588986619286693,
                        -74.97336548705842
                    ],
                    [
                        -21.64409072096559,
                        -74.96226428863494
                    ],
                    [
                        -21.698638090525304,
                        -74.95098434025333
                    ],
                    [
                        -21.752766888772374,
                        -74.93958960588664
                    ],
                    [
                        -21.80644714619879,
                        -74.92806591780104
                    ],
                    [
                        -21.85944197219832,
                        -74.91633784249096
                    ],
                    [
                        -21.911985619452118,
                        -74.90448759583971
                    ],
                    [
                        -21.96415165141573,
                        -74.89253895652953
                    ],
                    [
                        -22.015837763261114,
                        -74.88046000281281
                    ],
                    [
                        -22.067101440851662,
                        -74.86827132064982
                    ],
                    [
                        -22.11793821928243,
                        -74.85597756190512
                    ],
                    [
                        -22.168305276058685,
                        -74.84356109317075
                    ],
                    [
                        -22.21824602980122,
                        -74.83103810221174
                    ],
                    [
                        -22.267776074544138,
                        -74.81841403772523
                    ],
                    [
                        -22.316829817857133,
                        -74.80568057577742
                    ],
                    [
                        -22.365505320038377,
                        -74.79285288940773
                    ],
                    [
                        -22.41378618470924,
                        -74.77993495522517
                    ],
                    [
                        -22.46160022587988,
                        -74.76690942330707
                    ],
                    [
                        -22.508952383272575,
                        -74.75378194486395
                    ],
                    [
                        -22.555831607451502,
                        -74.74054326510004
                    ],
                    [
                        -22.602217269182056,
                        -74.72719694249062
                    ],
                    [
                        -22.648142711124343,
                        -74.71375238905028
                    ],
                    [
                        -22.693624905744553,
                        -74.70021098763479
                    ],
                    [
                        -22.73855604391369,
                        -74.68655162580448
                    ],
                    [
                        -22.78304104939496,
                        -74.6727983523384
                    ],
                    [
                        -22.827068063226317,
                        -74.65895770054705
                    ],
                    [
                        -22.870557039544053,
                        -74.64500261096931
                    ],
                    [
                        -22.913608274680985,
                        -74.63096345799822
                    ],
                    [
                        -22.95622941470114,
                        -74.61684263353648
                    ],
                    [
                        -22.99840541014073,
                        -74.60263525542437
                    ],
                    [
                        -23.04014213311868,
                        -74.58834489948991
                    ],
                    [
                        -23.08140581762554,
                        -74.57396881878961
                    ],
                    [
                        -23.122172667592046,
                        -74.55949431851579
                    ],
                    [
                        -23.162485137546387,
                        -74.54494542620385
                    ],
                    [
                        -23.20237287535868,
                        -74.53031513942265
                    ],
                    [
                        -23.241778249929876,
                        -74.51560642476942
                    ],
                    [
                        -23.280792237406626,
                        -74.50082294409059
                    ],
                    [
                        -23.319397759889615,
                        -74.48597678183756
                    ],
                    [
                        -23.357477348270056,
                        -74.47104045005635
                    ],
                    [
                        -23.395136636849887,
                        -74.4560335941663
                    ],
                    [
                        -23.432387069814983,
                        -74.44096306117727
                    ],
                    [
                        -23.46912824805642,
                        -74.42580733669483
                    ],
                    [
                        -23.505491408814315,
                        -74.41059284150347
                    ],
                    [
                        -23.54147110742736,
                        -74.39532047934841
                    ],
                    [
                        -23.5769229064984,
                        -74.37996410054537
                    ],
                    [
                        -23.611984079472105,
                        -74.36454933565886
                    ],
                    [
                        -23.64670489389107,
                        -74.34908433443906
                    ],
                    [
                        -23.680963372131007,
                        -74.33355220178751
                    ],
                    [
                        -23.714843782415482,
                        -74.31796398806827
                    ],
                    [
                        -23.74833736988839,
                        -74.30232297537385
                    ],
                    [
                        -23.781373005091233,
                        -74.28661422513679
                    ],
                    [
                        -23.81399416322997,
                        -74.27085063787658
                    ],
                    [
                        -23.846285541306887,
                        -74.25503914154388
                    ],
                    [
                        -23.878158416743194,
                        -74.23917185910321
                    ],
                    [
                        -23.909655532647715,
                        -74.22325678199687
                    ],
                    [
                        -23.94082627512956,
                        -74.20729710290688
                    ],
                    [
                        -23.971646472517328,
                        -74.19129103237756
                    ],
                    [
                        -24.00216571834971,
                        -74.1752486157856
                    ],
                    [
                        -24.032325237097485,
                        -74.1591623802238
                    ],
                    [
                        -24.062066764890485,
                        -74.14302286808966
                    ],
                    [
                        -24.091493994308387,
                        -74.12684440669383
                    ],
                    [
                        -24.12057043592327,
                        -74.11061981002962
                    ],
                    [
                        -24.149320151270505,
                        -74.09436121346491
                    ],
                    [
                        -24.17776830000915,
                        -74.0780637655199
                    ],
                    [
                        -24.205950829437846,
                        -74.06173808948753
                    ],
                    [
                        -24.233831272191733,
                        -74.04537699566004
                    ],
                    [
                        -24.261485212493753,
                        -74.02899112996744
                    ],
                    [
                        -24.288913228678435,
                        -74.01258057462806
                    ],
                    [
                        -24.316088557254165,
                        -73.99614188098435
                    ],
                    [
                        -24.34298424093934,
                        -73.97967363249288
                    ],
                    [
                        -24.36965290158399,
                        -73.9631813312654
                    ],
                    [
                        -24.39656069468185,
                        -73.94672167036181
                    ],
                    [
                        -24.42327352090499,
                        -73.93024252010431
                    ],
                    [
                        -24.44993091698256,
                        -73.91376057114364
                    ],
                    [
                        -24.476533043760263,
                        -73.89727583520677
                    ],
                    [
                        -24.503080061512854,
                        -73.88078832397763
                    ],
                    [
                        -24.529572129946352,
                        -73.86429804909724
                    ],
                    [
                        -24.5560094082003,
                        -73.84780502216397
                    ],
                    [
                        -24.58239205484999,
                        -73.8313092547337
                    ],
                    [
                        -24.608720227908687,
                        -73.81481075832005
                    ],
                    [
                        -24.634994084829813,
                        -73.79830954439453
                    ],
                    [
                        -24.66121378250918,
                        -73.78180562438672
                    ],
                    [
                        -24.687379477287173,
                        -73.76529900968457
                    ],
                    [
                        -24.71349132495093,
                        -73.74878971163444
                    ],
                    [
                        -24.739549480736514,
                        -73.73227774154144
                    ],
                    [
                        -24.7655540993311,
                        -73.7157631106695
                    ],
                    [
                        -24.791505334875133,
                        -73.69924583024161
                    ],
                    [
                        -24.81740334096445,
                        -73.68272591144002
                    ],
                    [
                        -24.843248270652467,
                        -73.66620336540637
                    ],
                    [
                        -24.86904027645227,
                        -73.64967820324199
                    ],
                    [
                        -24.894779510338786,
                        -73.63315043600791
                    ],
                    [
                        -24.920466123750867,
                        -73.6166200747252
                    ]
                ]
            }
        }
    ]
}
