{
    "type": "FeatureCollection",
    "features": [
        {
            "type": "Feature",
            "properties": {
                "name": "D Orville Coast",
                "object": "transect",
                "component": "landice",
                "author": "Matthew Hoffman, converted from https://github.com/yuwang115/sl-ice",
                "tags": "Antarctic_Ice_Sheet;flowline;sl-ice;d_orville_coast"
            },
            "geometry": {
                "type": "LineString",
                "coordinates": [
                    [
                        -65.67284405725982,
                        -74.56196143642752
                    ],
                    [
                        -65.69924047869499,
                        -74.57858181601343
                    ],
                    [
                        -65.7144216711637,
                        -74.59618989052633
                    ],
                    [
                        -65.71732091841685,
                        -74.61421124018311
                    ],
                    [
                        -65.69111616487099,
                        -74.63032200971661
                    ],
                    [
                        -65.63606869112124,
                        -74.64083680268574
                    ],
                    [
                        -65.57724988858426,
                        -74.65002717160972
                    ],
                    [
                        -65.51929144265252,
                        -74.65960323879263
                    ],
                    [
                        -65.46381012406133,
                        -74.67016306896903
                    ],
                    [
                        -65.41110657111521,
                        -74.68169696455307
                    ],
                    [
                        -65.36155490731443,
                        -74.69417819490866
                    ],
                    [
                        -65.31569071290556,
                        -74.70761044664118
                    ],
                    [
                        -65.27296788275987,
                        -74.72176438464038
                    ],
                    [
                        -65.23347038917989,
                        -74.73656315175285
                    ],
                    [
                        -65.19775094487963,
                        -74.75201346353573
                    ],
                    [
                        -65.16569475878451,
                        -74.76802269225777
                    ],
                    [
                        -65.13990299343176,
                        -74.78479332774697
                    ],
                    [
                        -65.11996818558897,
                        -74.80210748343916
                    ],
                    [
                        -65.10314343176886,
                        -74.81965959629052
                    ],
                    [
                        -65.08426137395118,
                        -74.83706759970653
                    ],
                    [
                        -65.06210349958745,
                        -74.85421159840057
                    ],
                    [
                        -65.03706865647298,
                        -74.87108637245686
                    ],
                    [
                        -65.00963021350205,
                        -74.88771053994338
                    ],
                    [
                        -64.97954985274201,
                        -74.90402204575848
                    ],
                    [
                        -64.94466772507391,
                        -74.9196668848128
                    ],
                    [
                        -64.90281465572538,
                        -74.93411692637639
                    ],
                    [
                        -64.85605558887015,
                        -74.94752318942862
                    ],
                    [
                        -64.80523596176882,
                        -74.95990313017718
                    ],
                    [
                        -64.75127027565195,
                        -74.97137073271746
                    ],
                    [
                        -64.69482065906242,
                        -74.98201950908441
                    ],
                    [
                        -64.6360285909368,
                        -74.99178928060263
                    ],
                    [
                        -64.57318975697757,
                        -74.9996907980317
                    ],
                    [
                        -64.50747750032177,
                        -75.00585020097397
                    ],
                    [
                        -64.44144829662112,
                        -75.01183626632896
                    ],
                    [
                        -64.37554797602884,
                        -75.01790964542455
                    ],
                    [
                        -64.30796083306697,
                        -75.02262109922108
                    ],
                    [
                        -64.23888236703392,
                        -75.0255068056421
                    ],
                    [
                        -64.16900587067654,
                        -75.02520261581503
                    ],
                    [
                        -64.10053271094075,
                        -75.021602131782
                    ],
                    [
                        -64.03317163588706,
                        -75.01666330921935
                    ],
                    [
                        -63.964325831353655,
                        -75.01347751463948
                    ],
                    [
                        -63.89470855440057,
                        -75.01163162287426
                    ],
                    [
                        -63.82530708782288,
                        -75.0093351438366
                    ],
                    [
                        -63.75730819791605,
                        -75.00513103864793
                    ],
                    [
                        -63.69124381982612,
                        -74.99922694668395
                    ],
                    [
                        -63.626850819793326,
                        -74.99218441274328
                    ],
                    [
                        -63.56259515367562,
                        -74.98508151429202
                    ],
                    [
                        -63.496453555154716,
                        -74.97932980260273
                    ],
                    [
                        -63.427900705326714,
                        -74.9760436347675
                    ],
                    [
                        -63.35820382818028,
                        -74.97651703812917
                    ],
                    [
                        -63.28969738236713,
                        -74.97979263310262
                    ],
                    [
                        -63.224276330853115,
                        -74.98603821013602
                    ],
                    [
                        -63.16873146723741,
                        -74.99689575406516
                    ],
                    [
                        -63.125066851866066,
                        -75.01095397611398
                    ],
                    [
                        -63.08985754166822,
                        -75.02659047803633
                    ],
                    [
                        -63.057707671170625,
                        -75.04267995376105
                    ],
                    [
                        -63.022912667870756,
                        -75.05839370614882
                    ],
                    [
                        -62.98432437692827,
                        -75.0735224452006
                    ],
                    [
                        -62.94207970364776,
                        -75.0879915812621
                    ],
                    [
                        -62.8951249539335,
                        -75.10145546474278
                    ],
                    [
                        -62.84023298201343,
                        -75.11273692495641
                    ],
                    [
                        -62.77633770397486,
                        -75.12028295135971
                    ],
                    [
                        -62.70821224487006,
                        -75.12482368050125
                    ],
                    [
                        -62.6382086988946,
                        -75.12683813808698
                    ],
                    [
                        -62.56775897818108,
                        -75.12628218931899
                    ],
                    [
                        -62.497927059879736,
                        -75.12386450090133
                    ],
                    [
                        -62.42932851176005,
                        -75.11972605415886
                    ],
                    [
                        -62.36283983853176,
                        -75.11374576279711
                    ],
                    [
                        -62.29884127623167,
                        -75.10620606401368
                    ],
                    [
                        -62.23799272589949,
                        -75.09711342957391
                    ],
                    [
                        -62.18153473697075,
                        -75.0863198661762
                    ],
                    [
                        -62.1290353378782,
                        -75.07429200274896
                    ],
                    [
                        -62.08084878965685,
                        -75.06112881737657
                    ],
                    [
                        -62.03620663343205,
                        -75.0471564174778
                    ],
                    [
                        -61.99235759571381,
                        -75.03302781101473
                    ],
                    [
                        -61.95008345096088,
                        -75.01859075028555
                    ],
                    [
                        -61.909216560823154,
                        -75.00388995616174
                    ],
                    [
                        -61.867742637964994,
                        -74.98931776909882
                    ],
                    [
                        -61.826364653406294,
                        -74.97473221952148
                    ],
                    [
                        -61.785067834892395,
                        -74.96013940564524
                    ],
                    [
                        -61.743851986618914,
                        -74.94553935139542
                    ],
                    [
                        -61.70271691321336,
                        -74.93093208061909
                    ],
                    [
                        -61.661662419735165,
                        -74.91631761708516
                    ],
                    [
                        -61.62068831167583,
                        -74.90169598448468
                    ],
                    [
                        -61.579794394958874,
                        -74.88706720643115
                    ],
                    [
                        -61.53898047593996,
                        -74.87243130646078
                    ],
                    [
                        -61.4982463614069,
                        -74.85778830803265
                    ],
                    [
                        -61.45759185857961,
                        -74.8431382345291
                    ],
                    [
                        -61.41701677511023,
                        -74.82848110925592
                    ],
                    [
                        -61.376520919082985,
                        -74.8138169554426
                    ],
                    [
                        -61.33610409901422,
                        -74.79914579624264
                    ],
                    [
                        -61.29576612385242,
                        -74.78446765473376
                    ],
                    [
                        -61.25550680297805,
                        -74.76978255391819
                    ],
                    [
                        -61.21532594620356,
                        -74.75509051672289
                    ],
                    [
                        -61.17522336377333,
                        -74.74039156599989
                    ],
                    [
                        -61.13519886636351,
                        -74.7256857245264
                    ],
                    [
                        -61.09525226508202,
                        -74.71097301500524
                    ],
                    [
                        -61.05538337146836,
                        -74.69625346006491
                    ]
                ]
            }
        }
    ]
}
