{
    "type": "FeatureCollection",
    "features": [
        {
            "type": "Feature",
            "properties": {
                "name": "Greenland Glacier 0023",
                "object": "transect",
                "component": "landice",
                "author": "Matthew Hoffman, converted from Felikson et al. (2020) Zenodo dataset",
                "tags": "Greenland_Ice_Sheet;flowline;zenodo_4284759;glacier_0023",
                "citation": "Felikson, Denis, Catania, Ginny, Bartholomaus, Timothy, Morlighem, Mathieu, & No\u00ebl, Brice. (2020). Inland limits to diffusion of thinning along Greenland Ice Sheet outlet glaciers (v1.0) [Data set]. Zenodo. https://doi.org/10.5281/zenodo.4284759",
                "license": "CC-BY-4.0"
            },
            "geometry": {
                "type": "LineString",
                "coordinates": [
                    [
                        -54.71761566395598,
                        73.04753349137461
                    ],
                    [
                        -54.70984457063584,
                        73.04768147646328
                    ],
                    [
                        -54.70141004572881,
                        73.04669724635649
                    ],
                    [
                        -54.69304578700379,
                        73.04482190502897
                    ],
                    [
                        -54.686917568763405,
                        73.04283493754258
                    ],
                    [
                        -54.68172206530487,
                        73.04080142148158
                    ],
                    [
                        -54.676869053562385,
                        73.03875079474082
                    ],
                    [
                        -54.67208286462041,
                        73.03669679311658
                    ],
                    [
                        -54.66730085847426,
                        73.03464253579334
                    ],
                    [
                        -54.66254355045631,
                        73.03258700304919
                    ],
                    [
                        -54.658300470459686,
                        73.03050586781151
                    ],
                    [
                        -54.654653926086276,
                        73.02839506573841
                    ],
                    [
                        -54.65165005023598,
                        73.02625232858695
                    ],
                    [
                        -54.64946601883618,
                        73.02406887457204
                    ],
                    [
                        -54.64798981908472,
                        73.02185028023902
                    ],
                    [
                        -54.647181431374726,
                        73.0195985364787
                    ],
                    [
                        -54.647007542006016,
                        73.0173152938986
                    ],
                    [
                        -54.64720594584863,
                        73.01501356966361
                    ],
                    [
                        -54.64772265645237,
                        73.01269603811822
                    ],
                    [
                        -54.64837396333685,
                        73.01037182163262
                    ],
                    [
                        -54.648970735699834,
                        73.0080503186669
                    ],
                    [
                        -54.64959742622148,
                        73.00572733153432
                    ],
                    [
                        -54.650548103931534,
                        73.00338823395816
                    ],
                    [
                        -54.650548103931534,
                        73.00338823395816
                    ],
                    [
                        -54.65149851628724,
                        73.00104914549068
                    ],
                    [
                        -54.65308761502566,
                        72.9986782716802
                    ],
                    [
                        -54.655290040517336,
                        72.99627684602527
                    ],
                    [
                        -54.65759396363375,
                        72.99387032416159
                    ],
                    [
                        -54.66089471326178,
                        72.99141409381566
                    ],
                    [
                        -54.67939845167481,
                        72.9741712540967
                    ],
                    [
                        -54.69786421347033,
                        72.95692741418345
                    ],
                    [
                        -54.71629211161763,
                        72.93968258038228
                    ],
                    [
                        -54.734682258654516,
                        72.92243675897747
                    ],
                    [
                        -54.753034766689275,
                        72.90518995623127
                    ],
                    [
                        -54.77134974740266,
                        72.88794217838401
                    ],
                    [
                        -54.789627312049866,
                        72.87069343165416
                    ],
                    [
                        -54.8078675714624,
                        72.85344372223855
                    ],
                    [
                        -54.82607063605008,
                        72.83619305631234
                    ],
                    [
                        -54.84423661580294,
                        72.81894144002923
                    ],
                    [
                        -54.8623656202931,
                        72.8016888795215
                    ],
                    [
                        -54.8804577586767,
                        72.78443538090013
                    ],
                    [
                        -54.89851313969582,
                        72.76718095025491
                    ],
                    [
                        -54.91653187168033,
                        72.74992559365451
                    ],
                    [
                        -54.93451406254974,
                        72.73266931714664
                    ],
                    [
                        -54.9524598198151,
                        72.71541212675808
                    ],
                    [
                        -54.97036925058084,
                        72.69815402849486
                    ],
                    [
                        -54.98824246154662,
                        72.68089502834223
                    ],
                    [
                        -55.006079559009144,
                        72.66363513226494
                    ],
                    [
                        -55.02388064886401,
                        72.64637434620715
                    ]
                ]
            }
        }
    ]
}
