{
    "type": "FeatureCollection",
    "features": [
        {
            "type": "Feature",
            "properties": {
                "name": "Greenland Glacier 0150",
                "object": "transect",
                "component": "landice",
                "author": "Matthew Hoffman, converted from Felikson et al. (2020) Zenodo dataset",
                "tags": "Greenland_Ice_Sheet;flowline;zenodo_4284759;glacier_0150",
                "citation": "Felikson, Denis, Catania, Ginny, Bartholomaus, Timothy, Morlighem, Mathieu, & No\u00ebl, Brice. (2020). Inland limits to diffusion of thinning along Greenland Ice Sheet outlet glaciers (v1.0) [Data set]. Zenodo. https://doi.org/10.5281/zenodo.4284759",
                "license": "CC-BY-4.0"
            },
            "geometry": {
                "type": "LineString",
                "coordinates": [
                    [
                        -28.186185730451673,
                        69.71608580287993
                    ],
                    [
                        -28.18750900556592,
                        69.71856352657944
                    ],
                    [
                        -28.183937803826005,
                        69.7205281943299
                    ],
                    [
                        -28.17636555328764,
                        69.72147923064776
                    ],
                    [
                        -28.16910668354116,
                        69.72206977457247
                    ],
                    [
                        -28.161933369127873,
                        69.72256145522466
                    ],
                    [
                        -28.154752243427488,
                        69.72306136655097
                    ],
                    [
                        -28.14755149725064,
                        69.72358301772302
                    ],
                    [
                        -28.140277776179648,
                        69.72418743694601
                    ],
                    [
                        -28.132837400747373,
                        69.72498165760622
                    ],
                    [
                        -28.12511270138685,
                        69.72609991466624
                    ],
                    [
                        -28.11731377620466,
                        69.72761920415658
                    ],
                    [
                        -28.110888703808428,
                        69.72928289657159
                    ],
                    [
                        -28.10554983341441,
                        69.73106084319538
                    ],
                    [
                        -28.10108413819802,
                        69.73293069409156
                    ],
                    [
                        -28.097364199653782,
                        69.73487908047501
                    ],
                    [
                        -28.094198046082813,
                        69.73688581211663
                    ],
                    [
                        -28.091526163575345,
                        69.73894463712661
                    ],
                    [
                        -28.089304671221413,
                        69.74105094324511
                    ],
                    [
                        -28.087418490580088,
                        69.74319261145497
                    ],
                    [
                        -28.085750251683443,
                        69.74535727742844
                    ],
                    [
                        -28.084118471700453,
                        69.74752582030078
                    ],
                    [
                        -28.08238582871474,
                        69.74968377173545
                    ],
                    [
                        -28.080559846503725,
                        69.75183192425942
                    ],
                    [
                        -28.078603162543022,
                        69.75396634081487
                    ],
                    [
                        -28.076375822610153,
                        69.7560722737539
                    ],
                    [
                        -28.073748659460527,
                        69.75813610860902
                    ],
                    [
                        -28.0705286129963,
                        69.76013749099927
                    ],
                    [
                        -28.066926058102162,
                        69.76209857485442
                    ],
                    [
                        -28.063282585055546,
                        69.76405535349762
                    ],
                    [
                        -28.059298425253537,
                        69.76597622023735
                    ],
                    [
                        -28.054969140203802,
                        69.76786068998845
                    ],
                    [
                        -28.05040814103884,
                        69.76972070471976
                    ],
                    [
                        -28.04569935061553,
                        69.7715651033938
                    ],
                    [
                        -28.040400757817018,
                        69.77334723598084
                    ],
                    [
                        -28.035009876419092,
                        69.77511956831393
                    ],
                    [
                        -28.035009876419092,
                        69.77511956831393
                    ],
                    [
                        -28.029618031026637,
                        69.77689173453514
                    ],
                    [
                        -28.024262886142782,
                        69.77866771198775
                    ],
                    [
                        -28.018579854161903,
                        69.78040899315596
                    ],
                    [
                        -28.012394195250334,
                        69.78209708667497
                    ],
                    [
                        -28.005373825008355,
                        69.7836968430557
                    ],
                    [
                        -27.99730482320373,
                        69.78518554554564
                    ],
                    [
                        -27.989317105492177,
                        69.78655979928045
                    ],
                    [
                        -27.981432270819703,
                        69.78781619847626
                    ],
                    [
                        -27.97371666485848,
                        69.78888002866788
                    ],
                    [
                        -27.966000723394615,
                        69.78994294655398
                    ],
                    [
                        -27.9581241590808,
                        69.79118573513475
                    ],
                    [
                        -27.950611266961385,
                        69.79273182602928
                    ],
                    [
                        -27.94459214071966,
                        69.79443612467912
                    ],
                    [
                        -27.939800556242652,
                        69.79627053283983
                    ],
                    [
                        -27.935572873845317,
                        69.79816473075886
                    ],
                    [
                        -27.93147514739582,
                        69.80007270642176
                    ],
                    [
                        -27.927285964940168,
                        69.80197096994978
                    ],
                    [
                        -27.923001788337455,
                        69.8038591408693
                    ],
                    [
                        -27.918648225227983,
                        69.80573993240013
                    ],
                    [
                        -27.91430285284141,
                        69.80762157774576
                    ],
                    [
                        -27.910071912369837,
                        69.80951536009721
                    ],
                    [
                        -27.906022561603304,
                        69.81142841900137
                    ],
                    [
                        -27.902232845551975,
                        69.81336905457775
                    ],
                    [
                        -27.898800558571896,
                        69.81534766872775
                    ],
                    [
                        -27.895853307604373,
                        69.81737783365604
                    ],
                    [
                        -27.89349135563466,
                        69.81947021648003
                    ],
                    [
                        -27.891738639409397,
                        69.82162736948132
                    ],
                    [
                        -27.89058145922715,
                        69.82384783821466
                    ],
                    [
                        -27.890017295913317,
                        69.8261313486119
                    ],
                    [
                        -27.890038961504352,
                        69.82847712314457
                    ],
                    [
                        -27.890612048663016,
                        69.83088148601584
                    ],
                    [
                        -27.891677403910613,
                        69.83333812881527
                    ],
                    [
                        -27.893199281232803,
                        69.83584322744186
                    ],
                    [
                        -27.895189953220964,
                        69.8383980535617
                    ],
                    [
                        -27.897723590546814,
                        69.84101044163896
                    ],
                    [
                        -27.900812002831234,
                        69.84368159583344
                    ],
                    [
                        -27.904339129098933,
                        69.84639915162344
                    ],
                    [
                        -27.908045576799935,
                        69.84913556197694
                    ],
                    [
                        -27.911709666708237,
                        69.85186731434544
                    ],
                    [
                        -27.915281912086158,
                        69.85458917113878
                    ],
                    [
                        -27.9188168266215,
                        69.85730691564362
                    ],
                    [
                        -27.92249062295152,
                        69.86003920629408
                    ],
                    [
                        -27.926478271778535,
                        69.8628045430565
                    ],
                    [
                        -27.930671694649327,
                        69.86559145565937
                    ],
                    [
                        -27.934626288671204,
                        69.86835290692629
                    ],
                    [
                        -27.93756903004969,
                        69.87100721357854
                    ],
                    [
                        -27.93906364503935,
                        69.87350836827926
                    ],
                    [
                        -27.939058425335013,
                        69.87585100436625
                    ],
                    [
                        -27.937606009273104,
                        69.8780407371986
                    ],
                    [
                        -27.93502459984289,
                        69.88011120062524
                    ],
                    [
                        -27.931686496729224,
                        69.88210172130053
                    ],
                    [
                        -27.92782369769445,
                        69.8840367958263
                    ],
                    [
                        -27.92354790302984,
                        69.8859282090655
                    ],
                    [
                        -27.919169622004752,
                        69.88780877265698
                    ],
                    [
                        -27.91497291924688,
                        69.88970852402413
                    ],
                    [
                        -27.91098871702545,
                        69.89163074389093
                    ],
                    [
                        -27.90699046291534,
                        69.89355147501348
                    ],
                    [
                        -27.90269726455542,
                        69.89544099494005
                    ],
                    [
                        -27.898040388409985,
                        69.89729201283832
                    ],
                    [
                        -27.89313571059081,
                        69.89911677193392
                    ],
                    [
                        -27.888232432215773,
                        69.90094164085734
                    ],
                    [
                        -27.88341703650293,
                        69.90277577856845
                    ],
                    [
                        -27.878680436363048,
                        69.90461822845693
                    ],
                    [
                        -27.87401060577145,
                        69.9064677216073
                    ],
                    [
                        -27.869404213161758,
                        69.90832390929177
                    ],
                    [
                        -27.864801174450335,
                        69.91018042737151
                    ],
                    [
                        -27.860211505824388,
                        69.91203833788944
                    ],
                    [
                        -27.85563465522085,
                        69.91389758317774
                    ],
                    [
                        -27.851050992008016,
                        69.91575608224748
                    ],
                    [
                        -27.846452031499805,
                        69.91761293473752
                    ],
                    [
                        -27.841817582103438,
                        69.9194659975765
                    ],
                    [
                        -27.837143130552803,
                        69.92131478964461
                    ],
                    [
                        -27.832402275230447,
                        69.92315650629936
                    ],
                    [
                        -27.827561753267876,
                        69.92498761215457
                    ],
                    [
                        -27.822594260886433,
                        69.92680520139878
                    ],
                    [
                        -27.8174866148305,
                        69.92860786503573
                    ],
                    [
                        -27.81224094034681,
                        69.93039581861728
                    ],
                    [
                        -27.806811025314463,
                        69.93216414133833
                    ],
                    [
                        -27.8010551794349,
                        69.93389775890978
                    ],
                    [
                        -27.79475502361024,
                        69.93557342544334
                    ],
                    [
                        -27.787657754672328,
                        69.93716420015764
                    ],
                    [
                        -27.779550300334584,
                        69.93864731968434
                    ],
                    [
                        -27.77165124202708,
                        69.93982774848578
                    ],
                    [
                        -27.763911465966924,
                        69.9408305249462
                    ],
                    [
                        -27.756262853536636,
                        69.94173125869057
                    ],
                    [
                        -27.748675434862726,
                        69.94256323264005
                    ],
                    [
                        -27.741147866366703,
                        69.94332803535531
                    ],
                    [
                        -27.733687319770805,
                        69.9440178482044
                    ],
                    [
                        -27.72628695825065,
                        69.94464032720312
                    ],
                    [
                        -27.71893222093608,
                        69.94521163275556
                    ],
                    [
                        -27.711594063873477,
                        69.94576386254924
                    ],
                    [
                        -27.704243128757053,
                        69.9463293990751
                    ],
                    [
                        -27.69685636089156,
                        69.94693361896748
                    ],
                    [
                        -27.68943399662266,
                        69.94757620571153
                    ],
                    [
                        -27.68199966450607,
                        69.94823110029408
                    ],
                    [
                        -27.67458049178306,
                        69.94886844597563
                    ],
                    [
                        -27.667197029597954,
                        69.94946567381868
                    ],
                    [
                        -27.659837093817753,
                        69.9500362305125
                    ],
                    [
                        -27.6524690487647,
                        69.95061490157455
                    ],
                    [
                        -27.645056455617475,
                        69.95124167878332
                    ],
                    [
                        -27.637585400192084,
                        69.95193175990259
                    ],
                    [
                        -27.630078420579647,
                        69.95266033287001
                    ],
                    [
                        -27.62259640163855,
                        69.9533605979556
                    ],
                    [
                        -27.615189325661923,
                        69.95397783214746
                    ],
                    [
                        -27.607859230708296,
                        69.9545099233962
                    ],
                    [
                        -27.600586185405366,
                        69.95497881032959
                    ],
                    [
                        -27.593355920545175,
                        69.95540019383587
                    ],
                    [
                        -27.586179731542362,
                        69.95576178638133
                    ],
                    [
                        -27.579071128915647,
                        69.95604890043438
                    ],
                    [
                        -27.57206271973819,
                        69.95622600695035
                    ],
                    [
                        -27.56517421369651,
                        69.95627172257535
                    ],
                    [
                        -27.558428023933573,
                        69.95616174375238
                    ],
                    [
                        -27.551832069961623,
                        69.95588761721727
                    ],
                    [
                        -27.545366669424354,
                        69.95547100673814
                    ],
                    [
                        -27.53899962142838,
                        69.95494718864646
                    ],
                    [
                        -27.532693379100625,
                        69.95435721150058
                    ],
                    [
                        -27.526411511235583,
                        69.95374084748455
                    ],
                    [
                        -27.52011853069842,
                        69.9531367835484
                    ],
                    [
                        -27.51377911449155,
                        69.95258347296873
                    ],
                    [
                        -27.507359170657264,
                        69.95211797309231
                    ],
                    [
                        -27.500839871376755,
                        69.9517606747499
                    ],
                    [
                        -27.4941992879442,
                        69.95153530756421
                    ],
                    [
                        -27.48737835853924,
                        69.95150593382897
                    ],
                    [
                        -27.48025649580666,
                        69.95180336699295
                    ],
                    [
                        -27.472757000913372,
                        69.95251048529083
                    ],
                    [
                        -27.464906324762516,
                        69.95359796912265
                    ],
                    [
                        -27.456791650577106,
                        69.95497061283292
                    ],
                    [
                        -27.44925100304037,
                        69.95650269231119
                    ],
                    [
                        -27.442804671955393,
                        69.95815332206722
                    ],
                    [
                        -27.397980629007503,
                        69.96737670469639
                    ],
                    [
                        -27.353114497780446,
                        69.97658830618845
                    ],
                    [
                        -27.3082062740672,
                        69.98578810850606
                    ],
                    [
                        -27.263255953859712,
                        69.99497609360255
                    ],
                    [
                        -27.218263533349685,
                        70.00415224342198
                    ],
                    [
                        -27.173229008929386,
                        70.01331653989925
                    ],
                    [
                        -27.128152377192396,
                        70.02246896496013
                    ],
                    [
                        -27.08303363493445,
                        70.03160950052137
                    ],
                    [
                        -27.037872779154185,
                        70.04073812849086
                    ],
                    [
                        -26.992669807053943,
                        70.0498548307676
                    ],
                    [
                        -26.947424716040555,
                        70.0589595892419
                    ],
                    [
                        -26.90213750372614,
                        70.06805238579537
                    ],
                    [
                        -26.85680816792891,
                        70.07713320230108
                    ],
                    [
                        -26.81143670667391,
                        70.08620202062363
                    ],
                    [
                        -26.766023118193846,
                        70.09525882261924
                    ],
                    [
                        -26.72056740092989,
                        70.10430359013581
                    ],
                    [
                        -26.67506955353243,
                        70.11333630501306
                    ],
                    [
                        -26.62952957486189,
                        70.12235694908264
                    ],
                    [
                        -26.5839474639895,
                        70.13136550416813
                    ],
                    [
                        -26.538323220198112,
                        70.14036195208521
                    ]
                ]
            }
        }
    ]
}
