{
    "type": "FeatureCollection",
    "features": [
        {
            "type": "Feature",
            "properties": {
                "name": "Prince Olav Coast",
                "object": "transect",
                "component": "landice",
                "author": "Matthew Hoffman, converted from https://github.com/yuwang115/sl-ice",
                "tags": "Antarctic_Ice_Sheet;flowline;sl-ice;prince_olav_coast"
            },
            "geometry": {
                "type": "LineString",
                "coordinates": [
                    [
                        44.71514690207152,
                        -69.15288036813612
                    ],
                    [
                        44.708182659544946,
                        -69.13522703817796
                    ],
                    [
                        44.70310770391977,
                        -69.11749718045947
                    ],
                    [
                        44.70099208470196,
                        -69.09969236317231
                    ],
                    [
                        44.70299801062674,
                        -69.08188672825047
                    ],
                    [
                        44.70692227790017,
                        -69.06411771613702
                    ],
                    [
                        44.712351253603714,
                        -69.04640208998946
                    ],
                    [
                        44.71831052402354,
                        -69.02871151916965
                    ],
                    [
                        44.72416649804471,
                        -69.01101334879837
                    ],
                    [
                        44.730043929454354,
                        -68.99332103240702
                    ],
                    [
                        44.73536597318684,
                        -68.97560274293882
                    ],
                    [
                        44.73937872427405,
                        -68.95784407909788
                    ],
                    [
                        44.74200487074962,
                        -68.94005383489744
                    ],
                    [
                        44.74501660031041,
                        -68.92227334951502
                    ],
                    [
                        44.74957696096827,
                        -68.90453340941461
                    ],
                    [
                        44.75790044682758,
                        -68.88698905080724
                    ],
                    [
                        44.772198051369344,
                        -68.86994135769169
                    ],
                    [
                        44.787106163793176,
                        -68.85296593088887
                    ],
                    [
                        44.80169569429678,
                        -68.83595249020908
                    ],
                    [
                        44.82111985837177,
                        -68.81985403354211
                    ],
                    [
                        44.85478139239361,
                        -68.80689259105382
                    ],
                    [
                        44.889675110197935,
                        -68.79433718591726
                    ],
                    [
                        44.927990576587895,
                        -68.78324691174605
                    ],
                    [
                        44.969764825301,
                        -68.77385835492727
                    ],
                    [
                        45.01018288901372,
                        -68.7637546783568
                    ],
                    [
                        45.04985775996746,
                        -68.7532540633861
                    ],
                    [
                        45.08803949746741,
                        -68.74208619845133
                    ],
                    [
                        45.12290251409145,
                        -68.72958640657366
                    ],
                    [
                        45.15478969411162,
                        -68.71606323709447
                    ],
                    [
                        45.186512301182,
                        -68.7025085454879
                    ],
                    [
                        45.22232376898372,
                        -68.69040123661264
                    ],
                    [
                        45.26016385314944,
                        -68.67912685332605
                    ],
                    [
                        45.29745906397361,
                        -68.66765593245748
                    ],
                    [
                        45.325339342410174,
                        -68.65318236965601
                    ],
                    [
                        45.36015454775259,
                        -68.6407025007514
                    ],
                    [
                        45.394149832510664,
                        -68.62792916328698
                    ],
                    [
                        45.43007257504668,
                        -68.61590062217824
                    ],
                    [
                        45.47071347424679,
                        -68.60607326401208
                    ],
                    [
                        45.51070342066436,
                        -68.59590356971088
                    ],
                    [
                        45.548544414866434,
                        -68.58470579065958
                    ],
                    [
                        45.58297548230718,
                        -68.57213643440197
                    ],
                    [
                        45.61467830382336,
                        -68.55865388872925
                    ],
                    [
                        45.64258697543798,
                        -68.54409568904647
                    ],
                    [
                        45.672960109483384,
                        -68.53021133086294
                    ],
                    [
                        45.70436966323314,
                        -68.51664460882687
                    ],
                    [
                        45.73523932562737,
                        -68.50291851043174
                    ],
                    [
                        45.76636669134504,
                        -68.48927478371749
                    ],
                    [
                        45.799356436773024,
                        -68.47624915005248
                    ],
                    [
                        45.83367863754544,
                        -68.4637010134823
                    ],
                    [
                        45.871873666744705,
                        -68.4527769861984
                    ],
                    [
                        45.90752442718198,
                        -68.4407905956182
                    ],
                    [
                        45.93736296690625,
                        -68.42684009392518
                    ],
                    [
                        45.97012680926676,
                        -68.41377296799467
                    ],
                    [
                        45.99975179843546,
                        -68.399757842035
                    ],
                    [
                        46.02842311897503,
                        -68.38545573240049
                    ],
                    [
                        46.05387434285847,
                        -68.37035120897175
                    ],
                    [
                        46.07885667848378,
                        -68.35514501779423
                    ],
                    [
                        46.10513517434353,
                        -68.34024864759871
                    ],
                    [
                        46.13150920263984,
                        -68.32537713032764
                    ],
                    [
                        46.1564947949552,
                        -68.31018812732364
                    ],
                    [
                        46.180564059779954,
                        -68.29480010819964
                    ],
                    [
                        46.20571407576562,
                        -68.27965756439887
                    ],
                    [
                        46.229630678058136,
                        -68.26424647245425
                    ],
                    [
                        46.24949573483719,
                        -68.24808294796047
                    ],
                    [
                        46.266302839413896,
                        -68.23143905639326
                    ],
                    [
                        46.283298509561675,
                        -68.21482136068104
                    ],
                    [
                        46.30073855334415,
                        -68.1982716284588
                    ],
                    [
                        46.31826743388807,
                        -68.18173741929131
                    ],
                    [
                        46.33462453481041,
                        -68.16504108030253
                    ],
                    [
                        46.34953052725898,
                        -68.1481565701302
                    ],
                    [
                        46.363473997054925,
                        -68.13116487118536
                    ],
                    [
                        46.376701204395005,
                        -68.11409172172677
                    ],
                    [
                        46.38924512920992,
                        -68.09695462853968
                    ],
                    [
                        46.40113918891641,
                        -68.07975284816219
                    ],
                    [
                        46.412623308614336,
                        -68.06251010343784
                    ],
                    [
                        46.42340848319707,
                        -68.04520908304656
                    ],
                    [
                        46.43198767315847,
                        -68.02774156457752
                    ],
                    [
                        46.43784849326792,
                        -68.01011344488272
                    ],
                    [
                        46.442170248965084,
                        -67.99243083709702
                    ],
                    [
                        46.444889808692565,
                        -67.9746945150717
                    ],
                    [
                        46.44677498860335,
                        -67.95695071868006
                    ],
                    [
                        46.447346246595394,
                        -67.93919275095244
                    ],
                    [
                        46.44481838896222,
                        -67.92146084946572
                    ],
                    [
                        46.43971825350891,
                        -67.90381211646404
                    ],
                    [
                        46.43230441462936,
                        -67.8862815807253
                    ],
                    [
                        46.424154508383225,
                        -67.86879575635386
                    ],
                    [
                        46.41878176641836,
                        -67.8511635091637
                    ],
                    [
                        46.416297806087954,
                        -67.83343993380069
                    ],
                    [
                        46.41396691039654,
                        -67.8157096839156
                    ],
                    [
                        46.40903458493251,
                        -67.79806558899914
                    ],
                    [
                        46.40115802414357,
                        -67.78057150408941
                    ],
                    [
                        46.38862861447549,
                        -67.76347809471383
                    ],
                    [
                        46.37175765314997,
                        -67.7469358098432
                    ],
                    [
                        46.353546118712245,
                        -67.73058492896328
                    ],
                    [
                        46.34121964803841,
                        -67.71350927825056
                    ],
                    [
                        46.33692140666813,
                        -67.69587268219976
                    ],
                    [
                        46.337960555371964,
                        -67.67814143928435
                    ],
                    [
                        46.340534184552304,
                        -67.66042328908404
                    ],
                    [
                        46.33947665188608,
                        -67.64270647214036
                    ],
                    [
                        46.330083754851685,
                        -67.62538590849987
                    ],
                    [
                        46.32744749638416,
                        -67.60767420196521
                    ],
                    [
                        46.32481550865562,
                        -67.589963492915
                    ],
                    [
                        46.32218778130766,
                        -67.57225378219908
                    ],
                    [
                        46.31956430401529,
                        -67.55454507066669
                    ],
                    [
                        46.31694506648684,
                        -67.53683735916634
                    ],
                    [
                        46.314330058463774,
                        -67.51913064854595
                    ],
                    [
                        46.31171926972064,
                        -67.50142493965282
                    ],
                    [
                        46.309112690064836,
                        -67.48372023333359
                    ],
                    [
                        46.306510309336566,
                        -67.46601653043426
                    ],
                    [
                        46.30391211740866,
                        -67.44831383180019
                    ],
                    [
                        46.30131810418643,
                        -67.43061213827613
                    ],
                    [
                        46.298728259607614,
                        -67.41291145070622
                    ],
                    [
                        46.29614257364214,
                        -67.39521176993387
                    ],
                    [
                        46.293561036292104,
                        -67.37751309680199
                    ],
                    [
                        46.29098363759156,
                        -67.3598154321528
                    ],
                    [
                        46.28841036760642,
                        -67.34211877682783
                    ],
                    [
                        46.285841216434356,
                        -67.32442313166813
                    ],
                    [
                        46.28327617420463,
                        -67.30672849751399
                    ],
                    [
                        46.280715231078005,
                        -67.28903487520518
                    ],
                    [
                        46.278158377246555,
                        -67.27134226558074
                    ]
                ]
            }
        }
    ]
}
