{
    "type": "FeatureCollection",
    "features": [
        {
            "type": "Feature",
            "properties": {
                "name": "David",
                "object": "transect",
                "component": "landice",
                "author": "Matthew Hoffman, converted from https://github.com/yuwang115/sl-ice",
                "tags": "Antarctic_Ice_Sheet;flowline;sl-ice;david"
            },
            "geometry": {
                "type": "LineString",
                "coordinates": [
                    [
                        134.7194963000967,
                        -75.4869458946754
                    ],
                    [
                        134.78007746740613,
                        -75.49684261601429
                    ],
                    [
                        134.8409477067256,
                        -75.50665312490025
                    ],
                    [
                        134.90224795271882,
                        -75.51630357948909
                    ],
                    [
                        134.9640412166288,
                        -75.52577123731646
                    ],
                    [
                        135.02613397388004,
                        -75.53513585478417
                    ],
                    [
                        135.08855112412925,
                        -75.54438438756277
                    ],
                    [
                        135.1514962648763,
                        -75.55342032494326
                    ],
                    [
                        135.2148654570493,
                        -75.56228180494318
                    ],
                    [
                        135.27856819100762,
                        -75.57101667845929
                    ],
                    [
                        135.342641509739,
                        -75.57960220342814
                    ],
                    [
                        135.40717286816923,
                        -75.58798986426417
                    ],
                    [
                        135.4721981437466,
                        -75.59615037554265
                    ],
                    [
                        135.5377784903262,
                        -75.60405434590336
                    ],
                    [
                        135.6037971114727,
                        -75.611743286518
                    ],
                    [
                        135.67022721991478,
                        -75.61924255498997
                    ],
                    [
                        135.7369274334981,
                        -75.6266003430292
                    ],
                    [
                        135.80373440157513,
                        -75.6339227830408
                    ],
                    [
                        135.8706598155818,
                        -75.64119373791208
                    ],
                    [
                        135.93801552393978,
                        -75.64824837674095
                    ],
                    [
                        136.00573430371423,
                        -75.65508342021158
                    ],
                    [
                        136.073816052202,
                        -75.66173061673919
                    ],
                    [
                        136.1425020038427,
                        -75.6679961062744
                    ],
                    [
                        136.21177538306026,
                        -75.67388904627474
                    ],
                    [
                        136.28144396160675,
                        -75.67948370478608
                    ],
                    [
                        136.3513251666755,
                        -75.68494430783308
                    ],
                    [
                        136.4212260821747,
                        -75.69043218097968
                    ],
                    [
                        136.49098713460188,
                        -75.69602852710624
                    ],
                    [
                        136.56053911520698,
                        -75.70179811196913
                    ],
                    [
                        136.6301254547567,
                        -75.70757911502695
                    ],
                    [
                        136.69991122635452,
                        -75.71322921340838
                    ],
                    [
                        136.7700024573332,
                        -75.7186736616299
                    ],
                    [
                        136.8403462608844,
                        -75.72392542959831
                    ],
                    [
                        136.9109869109739,
                        -75.72894543098549
                    ],
                    [
                        136.98194554441608,
                        -75.7337203746906
                    ],
                    [
                        137.05289218724945,
                        -75.73850950208053
                    ],
                    [
                        137.1234505860405,
                        -75.74366596466695
                    ],
                    [
                        137.1934692822023,
                        -75.74927183262191
                    ],
                    [
                        137.26331413132252,
                        -75.7550514152981
                    ],
                    [
                        137.3330248272651,
                        -75.76091468538765
                    ],
                    [
                        137.40289915412853,
                        -75.7666886626804
                    ],
                    [
                        137.47318779913155,
                        -75.77217158963923
                    ],
                    [
                        137.54383051886836,
                        -75.77741186299014
                    ],
                    [
                        137.6145671507865,
                        -75.78257253466508
                    ],
                    [
                        137.6855272913942,
                        -75.78758463304898
                    ],
                    [
                        137.75661348731646,
                        -75.79249404156522
                    ],
                    [
                        137.82791719354896,
                        -75.79724175806919
                    ],
                    [
                        137.89942388963573,
                        -75.80183096572812
                    ],
                    [
                        137.97098548384906,
                        -75.80637572504389
                    ],
                    [
                        138.04272912140092,
                        -75.81080049264507
                    ],
                    [
                        138.11464711893836,
                        -75.81501850167818
                    ],
                    [
                        138.18683524962216,
                        -75.81900256979065
                    ],
                    [
                        138.25897120324663,
                        -75.82307164757101
                    ],
                    [
                        138.3308729895435,
                        -75.827392222238
                    ],
                    [
                        138.40253518774588,
                        -75.83198072950152
                    ],
                    [
                        138.47389126929454,
                        -75.83687058854225
                    ],
                    [
                        138.54510951688502,
                        -75.84187971589863
                    ],
                    [
                        138.6165213490102,
                        -75.84675898364806
                    ],
                    [
                        138.6882589353589,
                        -75.85136795553701
                    ],
                    [
                        138.7602065919267,
                        -75.85577884427536
                    ],
                    [
                        138.83227444417707,
                        -75.8601053831318
                    ],
                    [
                        138.90415763154783,
                        -75.86462574570741
                    ],
                    [
                        138.97590600633143,
                        -75.86932004406117
                    ],
                    [
                        139.04776063420223,
                        -75.87392069973272
                    ],
                    [
                        139.1199892617438,
                        -75.87817856108352
                    ],
                    [
                        139.19249116816815,
                        -75.88216896482035
                    ],
                    [
                        139.26518699795437,
                        -75.88598951778425
                    ],
                    [
                        139.33807057766188,
                        -75.88958545287917
                    ],
                    [
                        139.41119511371883,
                        -75.89292659984211
                    ],
                    [
                        139.48446843527137,
                        -75.89606590528483
                    ],
                    [
                        139.55788226367292,
                        -75.89906768758279
                    ],
                    [
                        139.6313722404456,
                        -75.90194271225047
                    ],
                    [
                        139.7049803676913,
                        -75.90466429947178
                    ],
                    [
                        139.77874039217417,
                        -75.90714472780938
                    ],
                    [
                        139.85270154704847,
                        -75.90927012431496
                    ],
                    [
                        139.92686360333553,
                        -75.9110176664672
                    ],
                    [
                        140.00113233737423,
                        -75.91239871303058
                    ],
                    [
                        140.07545941309655,
                        -75.91365878220289
                    ],
                    [
                        140.14978053405466,
                        -75.91495053620797
                    ],
                    [
                        140.2241106488788,
                        -75.91627688884749
                    ],
                    [
                        140.29845668137634,
                        -75.91751530775488
                    ],
                    [
                        140.37286892102966,
                        -75.91859373773245
                    ],
                    [
                        140.44729619611874,
                        -75.91945526458787
                    ],
                    [
                        140.5217935307748,
                        -75.92014683534457
                    ],
                    [
                        140.59629812934648,
                        -75.92081483104887
                    ],
                    [
                        140.6707911416693,
                        -75.92154349083347
                    ],
                    [
                        140.7452969315469,
                        -75.92219688348412
                    ],
                    [
                        140.8198256905543,
                        -75.92270702386945
                    ],
                    [
                        140.89436171423932,
                        -75.92304199237486
                    ],
                    [
                        140.96891757257328,
                        -75.92317560038343
                    ],
                    [
                        141.04346271126062,
                        -75.92316658776627
                    ],
                    [
                        141.11803152407407,
                        -75.92327849706282
                    ],
                    [
                        141.19258534484928,
                        -75.9235091549562
                    ],
                    [
                        141.26716241162188,
                        -75.92361563317162
                    ],
                    [
                        141.3416880372788,
                        -75.92320621048684
                    ],
                    [
                        141.41612478198414,
                        -75.92224624066407
                    ],
                    [
                        141.4905710674965,
                        -75.92122023226173
                    ],
                    [
                        141.56504129031725,
                        -75.92035694487811
                    ],
                    [
                        141.63950466017937,
                        -75.91958626778762
                    ],
                    [
                        141.713972776253,
                        -75.91884656194675
                    ],
                    [
                        141.78843941117543,
                        -75.9180152899501
                    ],
                    [
                        141.86282027377254,
                        -75.91689784078669
                    ],
                    [
                        141.93705629136377,
                        -75.91530530422804
                    ],
                    [
                        142.01124447698595,
                        -75.9136547402322
                    ],
                    [
                        142.0855545472055,
                        -75.91230620357808
                    ],
                    [
                        142.15987993131702,
                        -75.91109490431249
                    ],
                    [
                        142.23415685873766,
                        -75.90971575630273
                    ],
                    [
                        142.30837140448517,
                        -75.90817238998952
                    ],
                    [
                        142.3825715815572,
                        -75.90663465462063
                    ],
                    [
                        142.45679519193155,
                        -75.90517251178409
                    ],
                    [
                        142.53102383054346,
                        -75.9037251043373
                    ],
                    [
                        142.605240437461,
                        -75.90226063288046
                    ],
                    [
                        142.67944619018996,
                        -75.90085348456932
                    ],
                    [
                        142.75369305885656,
                        -75.89954728236579
                    ],
                    [
                        142.82795051082013,
                        -75.89828479300974
                    ],
                    [
                        142.9021510052872,
                        -75.89692261923835
                    ],
                    [
                        142.97628704227967,
                        -75.89533472675811
                    ],
                    [
                        143.05037307621154,
                        -75.89364362851941
                    ],
                    [
                        143.1245747969086,
                        -75.89233916710916
                    ],
                    [
                        143.198903657698,
                        -75.89172235369547
                    ],
                    [
                        143.27329219209267,
                        -75.89175047381805
                    ],
                    [
                        143.34764185278306,
                        -75.89235281786614
                    ],
                    [
                        143.42198955828337,
                        -75.89307133029956
                    ],
                    [
                        143.49634839810815,
                        -75.89362027654954
                    ],
                    [
                        143.57075817234318,
                        -75.89380999371562
                    ],
                    [
                        143.64513470689093,
                        -75.89413314963355
                    ],
                    [
                        143.71947562380498,
                        -75.89492087481761
                    ],
                    [
                        143.79366089886716,
                        -75.89630781702715
                    ],
                    [
                        143.8677344649738,
                        -75.89809808567627
                    ],
                    [
                        143.9416813254475,
                        -75.90011407163428
                    ],
                    [
                        144.0155938710733,
                        -75.90228753440795
                    ],
                    [
                        144.08949031315223,
                        -75.90452047858496
                    ],
                    [
                        144.16342201301754,
                        -75.90668751504977
                    ],
                    [
                        144.23744436069265,
                        -75.9086531780064
                    ],
                    [
                        144.31152003339568,
                        -75.91058449884268
                    ],
                    [
                        144.38554381879243,
                        -75.91264167894754
                    ],
                    [
                        144.4594485046165,
                        -75.91491862383558
                    ],
                    [
                        144.5333753145924,
                        -75.91722772298492
                    ],
                    [
                        144.60732408257374,
                        -75.91949093709157
                    ],
                    [
                        144.68142869884537,
                        -75.92144240309734
                    ],
                    [
                        144.75570242807066,
                        -75.92301289076822
                    ],
                    [
                        144.83006002095297,
                        -75.92431625663127
                    ],
                    [
                        144.90449199375286,
                        -75.92545683406966
                    ],
                    [
                        144.97892989235768,
                        -75.92658391809121
                    ],
                    [
                        145.05332518769808,
                        -75.92783313852362
                    ],
                    [
                        145.12765632710835,
                        -75.92930004616241
                    ],
                    [
                        145.20198194692773,
                        -75.93087802427861
                    ],
                    [
                        145.27629347020076,
                        -75.93249910077505
                    ],
                    [
                        145.3505847145591,
                        -75.93418968916623
                    ],
                    [
                        145.42488431949425,
                        -75.93584424042008
                    ],
                    [
                        145.49923891977406,
                        -75.93745411025976
                    ],
                    [
                        145.57354780493793,
                        -75.93915103759015
                    ],
                    [
                        145.64786181313337,
                        -75.9408773431233
                    ],
                    [
                        145.72221929300372,
                        -75.9424746135119
                    ],
                    [
                        145.79666089455174,
                        -75.94391145764914
                    ],
                    [
                        145.8710842523929,
                        -75.94540147765098
                    ],
                    [
                        145.94548329512008,
                        -75.9469763890095
                    ],
                    [
                        146.01985250252116,
                        -75.94862413749769
                    ],
                    [
                        146.0942146045846,
                        -75.95036465564789
                    ],
                    [
                        146.16862536789873,
                        -75.95196652168
                    ],
                    [
                        146.2431963371134,
                        -75.95307170574422
                    ],
                    [
                        146.31785349733218,
                        -75.95390373465428
                    ],
                    [
                        146.39250892694417,
                        -75.95468321270403
                    ],
                    [
                        146.46715947861418,
                        -75.95556211345925
                    ],
                    [
                        146.54178383437426,
                        -75.95652587550411
                    ],
                    [
                        146.61640424458403,
                        -75.95752896120638
                    ],
                    [
                        146.6910321784077,
                        -75.95858394230439
                    ],
                    [
                        146.76566106647252,
                        -75.95961912291212
                    ],
                    [
                        146.8403057394471,
                        -75.96062063493474
                    ],
                    [
                        146.91496578507167,
                        -75.96158846848557
                    ],
                    [
                        146.98958219204056,
                        -75.96270269103724
                    ],
                    [
                        147.06420020455738,
                        -75.96391062322805
                    ],
                    [
                        147.13881556982585,
                        -75.96504394971213
                    ],
                    [
                        147.21352069516448,
                        -75.96597700657361
                    ],
                    [
                        147.2882381295609,
                        -75.96671429966753
                    ],
                    [
                        147.36300444343502,
                        -75.96732660963127
                    ],
                    [
                        147.43776510766762,
                        -75.96788108495848
                    ],
                    [
                        147.51252935991073,
                        -75.96837390797276
                    ],
                    [
                        147.58732630712535,
                        -75.9687022352556
                    ],
                    [
                        147.66213175803418,
                        -75.96876071016474
                    ],
                    [
                        147.73691559428354,
                        -75.96844880980638
                    ],
                    [
                        147.81163427653914,
                        -75.96764824953551
                    ],
                    [
                        147.88629871271075,
                        -75.96656007679579
                    ],
                    [
                        147.96088405835863,
                        -75.96524011139732
                    ],
                    [
                        148.03527407640246,
                        -75.96338265710186
                    ],
                    [
                        148.10938981447197,
                        -75.9609879335674
                    ],
                    [
                        148.18341684600853,
                        -75.95844837279095
                    ],
                    [
                        148.25758475027723,
                        -75.95620419926475
                    ],
                    [
                        148.33180059908688,
                        -75.95409673922984
                    ],
                    [
                        148.40600218836937,
                        -75.95199382677222
                    ],
                    [
                        148.48017208342347,
                        -75.94977578135206
                    ],
                    [
                        148.55421391847386,
                        -75.94740198030803
                    ],
                    [
                        148.6280999633568,
                        -75.94475720997444
                    ],
                    [
                        148.7016456881763,
                        -75.94162386210193
                    ],
                    [
                        148.77508957268847,
                        -75.93837262948263
                    ],
                    [
                        148.84858079195604,
                        -75.93520595511892
                    ],
                    [
                        148.92203524550447,
                        -75.93202121594476
                    ],
                    [
                        148.9954400842388,
                        -75.92879011570604
                    ],
                    [
                        149.0687530287531,
                        -75.92545373242534
                    ],
                    [
                        149.14191464388253,
                        -75.92195616107739
                    ],
                    [
                        149.21498454095743,
                        -75.91839097723395
                    ],
                    [
                        149.28798379175524,
                        -75.91473504834013
                    ],
                    [
                        149.36082659254262,
                        -75.9109235160938
                    ],
                    [
                        149.4335235782811,
                        -75.90695835711954
                    ],
                    [
                        149.50606759934584,
                        -75.9028810821485
                    ],
                    [
                        149.57845551639943,
                        -75.8986495070473
                    ],
                    [
                        149.6506328909724,
                        -75.89423527366137
                    ],
                    [
                        149.7226060633732,
                        -75.88962406768302
                    ],
                    [
                        149.79424906720286,
                        -75.88477756814022
                    ],
                    [
                        149.86568918990693,
                        -75.87974600588286
                    ],
                    [
                        149.93706699082753,
                        -75.87472268323027
                    ],
                    [
                        150.00863742413495,
                        -75.86984301281048
                    ],
                    [
                        150.080119234815,
                        -75.8649361447066
                    ],
                    [
                        150.1514732829937,
                        -75.85991302369263
                    ],
                    [
                        150.22270386291373,
                        -75.85484248260416
                    ],
                    [
                        150.2940496347112,
                        -75.84987283940248
                    ],
                    [
                        150.3654665118988,
                        -75.84499239667582
                    ],
                    [
                        150.43682500477573,
                        -75.84006819932026
                    ],
                    [
                        150.50811171892423,
                        -75.83509849347011
                    ],
                    [
                        150.57925401927702,
                        -75.83006294988095
                    ],
                    [
                        150.6500685562037,
                        -75.82475444275984
                    ],
                    [
                        150.7206547396633,
                        -75.81929139078092
                    ],
                    [
                        150.79108435881224,
                        -75.81373084547118
                    ],
                    [
                        150.86143924192956,
                        -75.80812580707871
                    ],
                    [
                        150.93166651595922,
                        -75.80246398494907
                    ],
                    [
                        151.0019494113582,
                        -75.79685861114838
                    ],
                    [
                        151.07239895852254,
                        -75.79139190321514
                    ],
                    [
                        151.14287832383937,
                        -75.78598276385983
                    ],
                    [
                        151.21317228705462,
                        -75.78044157650415
                    ],
                    [
                        151.28307709201135,
                        -75.77463270024916
                    ],
                    [
                        151.35292179242552,
                        -75.76880779355092
                    ],
                    [
                        151.42280177013075,
                        -75.76302614227869
                    ],
                    [
                        151.49277041761084,
                        -75.7573360060973
                    ],
                    [
                        151.5627742890085,
                        -75.75167840878561
                    ],
                    [
                        151.63267690554395,
                        -75.74597838977789
                    ],
                    [
                        151.70252746074527,
                        -75.7402477457298
                    ],
                    [
                        151.77220729067506,
                        -75.73442966904587
                    ],
                    [
                        151.84181028158736,
                        -75.72857280921968
                    ],
                    [
                        151.91165574323972,
                        -75.72291457844621
                    ],
                    [
                        151.98151018846696,
                        -75.71727477237971
                    ],
                    [
                        152.05123070905768,
                        -75.71157300434915
                    ],
                    [
                        152.12089913387464,
                        -75.70584066416738
                    ],
                    [
                        152.19041488615676,
                        -75.7000237009364
                    ],
                    [
                        152.2594355551758,
                        -75.69386783727307
                    ],
                    [
                        152.32815890420292,
                        -75.68753790128243
                    ],
                    [
                        152.39723685957864,
                        -75.68148193112515
                    ],
                    [
                        152.4666867514461,
                        -75.67569111254807
                    ],
                    [
                        152.53587965033094,
                        -75.66975671278084
                    ],
                    [
                        152.60450537884648,
                        -75.66344022005244
                    ],
                    [
                        152.6726672925078,
                        -75.65683250075595
                    ],
                    [
                        152.7410646889082,
                        -75.6504112635353
                    ],
                    [
                        152.80964190002584,
                        -75.64412299176664
                    ],
                    [
                        152.87789182081357,
                        -75.63765326470795
                    ],
                    [
                        152.94583729536492,
                        -75.6309902432741
                    ],
                    [
                        153.0137060428574,
                        -75.62430568511112
                    ],
                    [
                        153.08181921069732,
                        -75.61780282909601
                    ],
                    [
                        153.1504302917441,
                        -75.61164511061938
                    ],
                    [
                        153.21915135027112,
                        -75.60558478921695
                    ],
                    [
                        153.2880499999471,
                        -75.59967569518564
                    ],
                    [
                        153.35702287390293,
                        -75.59383855134138
                    ],
                    [
                        153.42584971491974,
                        -75.58790380546671
                    ],
                    [
                        153.4941688261183,
                        -75.5816495154032
                    ],
                    [
                        153.56158387074103,
                        -75.57483514343889
                    ],
                    [
                        153.6284345894748,
                        -75.56770157294031
                    ],
                    [
                        153.69534318600222,
                        -75.5606146141885
                    ],
                    [
                        153.7642742269022,
                        -75.55492729402476
                    ],
                    [
                        153.83470947071797,
                        -75.55051136022034
                    ],
                    [
                        153.905786338746,
                        -75.54681872324164
                    ],
                    [
                        153.97692808632277,
                        -75.54321737084894
                    ],
                    [
                        154.04765489807284,
                        -75.53915478731825
                    ],
                    [
                        154.1177238332641,
                        -75.53446666991978
                    ],
                    [
                        154.18689321830217,
                        -75.52903480660538
                    ],
                    [
                        154.2553889006563,
                        -75.52309469157267
                    ],
                    [
                        154.3239907127145,
                        -75.51725435646482
                    ],
                    [
                        154.39281648933922,
                        -75.51160804575936
                    ],
                    [
                        154.4621832950456,
                        -75.50640909342646
                    ],
                    [
                        154.5321249455631,
                        -75.501745611635
                    ],
                    [
                        154.60268688745438,
                        -75.49774696722599
                    ],
                    [
                        154.67322249576284,
                        -75.49372814955673
                    ],
                    [
                        154.74351509937708,
                        -75.48944311124534
                    ],
                    [
                        154.81374780852698,
                        -75.48516945434086
                    ],
                    [
                        154.88370259402822,
                        -75.48060129421386
                    ],
                    [
                        154.95341895155408,
                        -75.475843997706
                    ],
                    [
                        155.0230846859513,
                        -75.47105496993184
                    ],
                    [
                        155.09260631039004,
                        -75.46616842140716
                    ],
                    [
                        155.16184139288086,
                        -75.46104322133934
                    ],
                    [
                        155.23084360801093,
                        -75.45574607217135
                    ],
                    [
                        155.29990929539284,
                        -75.45052612120935
                    ],
                    [
                        155.36947534230143,
                        -75.44575749893562
                    ],
                    [
                        155.43836021730206,
                        -75.4404364109774
                    ],
                    [
                        155.50664060983289,
                        -75.43465273546148
                    ],
                    [
                        155.57551906228574,
                        -75.4293612005489
                    ],
                    [
                        155.64480620553053,
                        -75.42443943427779
                    ],
                    [
                        155.7143622212709,
                        -75.41979601327097
                    ],
                    [
                        155.7840022130229,
                        -75.41524037072352
                    ],
                    [
                        155.8532833056156,
                        -75.41035978497217
                    ],
                    [
                        155.9221951391903,
                        -75.40519358002156
                    ],
                    [
                        155.9912802138281,
                        -75.4002101023392
                    ],
                    [
                        156.06015063348028,
                        -75.39504820164268
                    ],
                    [
                        156.12809099095563,
                        -75.38916767329779
                    ],
                    [
                        156.19548846817727,
                        -75.3829353214337
                    ],
                    [
                        156.2631372831983,
                        -75.3768856900906
                    ],
                    [
                        156.3313247203867,
                        -75.37126276698598
                    ],
                    [
                        156.40012152383832,
                        -75.3661572709143
                    ],
                    [
                        156.4692319584669,
                        -75.36134259886447
                    ],
                    [
                        156.53805961662772,
                        -75.3563080858581
                    ],
                    [
                        156.60657318195507,
                        -75.3510113626117
                    ],
                    [
                        156.67509845330346,
                        -75.34576980038946
                    ],
                    [
                        156.74446926949514,
                        -75.3413248179406
                    ],
                    [
                        156.81481930540164,
                        -75.33802401607073
                    ],
                    [
                        156.88590135089362,
                        -75.33598573034308
                    ],
                    [
                        156.9571951428835,
                        -75.3344768181724
                    ],
                    [
                        157.02858226529617,
                        -75.33329162837866
                    ],
                    [
                        157.1000389819689,
                        -75.33250076223442
                    ],
                    [
                        157.17139503636528,
                        -75.33130882527267
                    ],
                    [
                        157.2427099729696,
                        -75.32993407926168
                    ],
                    [
                        157.31410567710535,
                        -75.32894943662792
                    ],
                    [
                        157.3855961418032,
                        -75.32880221158008
                    ],
                    [
                        157.45693189641656,
                        -75.32994049508628
                    ],
                    [
                        157.52788599391374,
                        -75.33222591827989
                    ],
                    [
                        157.59888128489268,
                        -75.33443227089397
                    ],
                    [
                        157.67022980936562,
                        -75.33571551747559
                    ],
                    [
                        157.74160816612527,
                        -75.33695358425132
                    ],
                    [
                        157.81296222369966,
                        -75.33828767751204
                    ],
                    [
                        157.88427897519458,
                        -75.33977500716571
                    ],
                    [
                        157.9554780662614,
                        -75.34159284894002
                    ],
                    [
                        158.02651715280024,
                        -75.34380488162566
                    ],
                    [
                        158.09730167365254,
                        -75.3465084655134
                    ],
                    [
                        158.16748222974516,
                        -75.35009715055621
                    ],
                    [
                        158.2369779520372,
                        -75.35446942313904
                    ],
                    [
                        158.30630759707478,
                        -75.35904325386939
                    ],
                    [
                        158.37642622693,
                        -75.3627739500188
                    ],
                    [
                        158.44743652049425,
                        -75.36514128035738
                    ],
                    [
                        158.51899992422963,
                        -75.36616622460348
                    ],
                    [
                        158.59068201214703,
                        -75.36626455579609
                    ],
                    [
                        158.6623638842536,
                        -75.36599480477909
                    ],
                    [
                        158.73406337140185,
                        -75.3658939786235
                    ],
                    [
                        158.80574810239847,
                        -75.36608009859444
                    ],
                    [
                        158.87740118793278,
                        -75.3666676560015
                    ],
                    [
                        158.94895882219984,
                        -75.36778580042551
                    ],
                    [
                        159.02027262352524,
                        -75.36967177221725
                    ],
                    [
                        159.09146426415916,
                        -75.37184665968721
                    ],
                    [
                        159.16246638545226,
                        -75.37443457413181
                    ],
                    [
                        159.233121460331,
                        -75.37757023533337
                    ],
                    [
                        159.30375931137996,
                        -75.38075683301311
                    ],
                    [
                        159.37459190230368,
                        -75.38368045987504
                    ],
                    [
                        159.4458453494865,
                        -75.3858740179799
                    ],
                    [
                        159.51738784463052,
                        -75.38735953096968
                    ],
                    [
                        159.5881817653009,
                        -75.39024932769578
                    ],
                    [
                        159.6569931151646,
                        -75.3954366646331
                    ],
                    [
                        159.72545244581818,
                        -75.40094252934757
                    ],
                    [
                        159.79438237387936,
                        -75.40607560529942
                    ],
                    [
                        159.8641236226438,
                        -75.41047170514558
                    ],
                    [
                        159.93459188431177,
                        -75.4140942926846
                    ],
                    [
                        160.00575729470992,
                        -75.41670951928312
                    ],
                    [
                        160.0774437015242,
                        -75.41822968290994
                    ],
                    [
                        160.14933632069673,
                        -75.41889205855085
                    ],
                    [
                        160.22126110115923,
                        -75.41852295673655
                    ],
                    [
                        160.29293017432872,
                        -75.41694857656144
                    ],
                    [
                        160.36428599964484,
                        -75.41466106012822
                    ],
                    [
                        160.43558440829753,
                        -75.41225671226492
                    ],
                    [
                        160.50681960909893,
                        -75.40979287602462
                    ],
                    [
                        160.57688605904204,
                        -75.40583592323692
                    ],
                    [
                        160.64579399306228,
                        -75.40068741308913
                    ],
                    [
                        160.71640890971744,
                        -75.3974153715926
                    ],
                    [
                        160.78770015294472,
                        -75.3952055805404
                    ],
                    [
                        160.85685186386087,
                        -75.39048131916556
                    ],
                    [
                        160.90839846335163,
                        -75.37810469340316
                    ],
                    [
                        160.94198848024746,
                        -75.3621729660504
                    ],
                    [
                        160.97918546132698,
                        -75.3467592322604
                    ],
                    [
                        161.0421748670159,
                        -75.33875602639162
                    ],
                    [
                        161.11324819082773,
                        -75.33752730448985
                    ],
                    [
                        161.1846914886364,
                        -75.33848667189883
                    ],
                    [
                        161.25615942816685,
                        -75.33944871334015
                    ],
                    [
                        161.32768468148228,
                        -75.33994760036263
                    ],
                    [
                        161.39924353512185,
                        -75.33978587497003
                    ],
                    [
                        161.4706682754751,
                        -75.33873510836789
                    ],
                    [
                        161.54193298551223,
                        -75.33709997481607
                    ],
                    [
                        161.6132169500237,
                        -75.3355504048322
                    ],
                    [
                        161.68470508081435,
                        -75.33508469707795
                    ],
                    [
                        161.756146731446,
                        -75.33589023691324
                    ],
                    [
                        161.8273104921942,
                        -75.33776509402121
                    ],
                    [
                        161.8980232467932,
                        -75.34051758174905
                    ],
                    [
                        161.9685467437905,
                        -75.34362082115658
                    ],
                    [
                        162.03887059324575,
                        -75.347016592663
                    ],
                    [
                        162.10903381626144,
                        -75.3506365417869
                    ],
                    [
                        162.17921480973527,
                        -75.35425716433777
                    ],
                    [
                        162.2494266733669,
                        -75.35786524067842
                    ],
                    [
                        162.31956201093686,
                        -75.36157572842767
                    ],
                    [
                        162.38963201130775,
                        -75.36539899736212
                    ],
                    [
                        162.45971873666426,
                        -75.36922277015059
                    ],
                    [
                        162.52976208760498,
                        -75.37311349884683
                    ],
                    [
                        162.5996632391597,
                        -75.37718202486458
                    ],
                    [
                        162.66948546432297,
                        -75.38137633610346
                    ],
                    [
                        162.73927199905648,
                        -75.3856048927559
                    ],
                    [
                        162.80913419495528,
                        -75.38979577861889
                    ],
                    [
                        162.87902993370784,
                        -75.39396465976941
                    ],
                    [
                        162.9489129956022,
                        -75.39816482731857
                    ],
                    [
                        163.01877324704918,
                        -75.40241443800339
                    ],
                    [
                        163.08857846836483,
                        -75.40673467864171
                    ],
                    [
                        163.1582687164717,
                        -75.41120143698053
                    ],
                    [
                        163.22789470840192,
                        -75.41574282102222
                    ],
                    [
                        163.29753512079284,
                        -75.42031273955378
                    ],
                    [
                        163.36710963489193,
                        -75.42494767659791
                    ],
                    [
                        163.43667072923256,
                        -75.42962320805981
                    ],
                    [
                        163.50619338212084,
                        -75.43435162905625
                    ],
                    [
                        163.57566841685738,
                        -75.43915114935419
                    ],
                    [
                        163.64507131904455,
                        -75.44403411251524
                    ],
                    [
                        163.71445227979112,
                        -75.44896171991869
                    ],
                    [
                        163.78379817120245,
                        -75.4539330020783
                    ],
                    [
                        163.85315365123668,
                        -75.45892290823767
                    ],
                    [
                        163.9225121644623,
                        -75.46393095005892
                    ],
                    [
                        163.99190394621644,
                        -75.46893101466887
                    ],
                    [
                        164.0612645519925,
                        -75.47397973414205
                    ],
                    [
                        164.1305700567303,
                        -75.4790989529275
                    ],
                    [
                        164.19978156791274,
                        -75.48431416560979
                    ],
                    [
                        164.26901383713096,
                        -75.48953462644677
                    ],
                    [
                        164.33828030957042,
                        -75.49475185788832
                    ],
                    [
                        164.40748374223548,
                        -75.50002961622101
                    ],
                    [
                        164.47666398442237,
                        -75.5053565827264
                    ],
                    [
                        164.54582798118332,
                        -75.51072382616418
                    ],
                    [
                        164.61493141863198,
                        -75.51615178904058
                    ],
                    [
                        164.68394869635594,
                        -75.52167162516163
                    ],
                    [
                        164.75285031502995,
                        -75.52730482324178
                    ],
                    [
                        164.82155765200807,
                        -75.53309772717787
                    ],
                    [
                        164.89014012069052,
                        -75.5389987488465
                    ],
                    [
                        164.95861794971407,
                        -75.54500459331233
                    ],
                    [
                        165.02696099981267,
                        -75.55112734661523
                    ],
                    [
                        165.09517084556933,
                        -75.55735308808046
                    ],
                    [
                        165.16363307786273,
                        -75.56343078014127
                    ],
                    [
                        165.2321534716937,
                        -75.56948812989774
                    ],
                    [
                        165.30073190496563,
                        -75.57552511054058
                    ],
                    [
                        165.36936825470977,
                        -75.58154169530626
                    ],
                    [
                        165.4380623970847,
                        -75.58753785747753
                    ],
                    [
                        165.50681420737578,
                        -75.59351357038388
                    ],
                    [
                        165.57562355999457,
                        -75.59946880740196
                    ],
                    [
                        165.6444903284784,
                        -75.6054035419562
                    ],
                    [
                        165.71341438548995,
                        -75.61131774751915
                    ],
                    [
                        165.78239560281665,
                        -75.61721139761197
                    ],
                    [
                        165.85143385137042,
                        -75.62308446580502
                    ],
                    [
                        165.92052900118716,
                        -75.62893692571822
                    ],
                    [
                        165.98968092142653,
                        -75.63476875102155
                    ],
                    [
                        166.05888948037145,
                        -75.64057991543564
                    ],
                    [
                        166.1281545454279,
                        -75.64637039273207
                    ],
                    [
                        166.19747598312466,
                        -75.65214015673402
                    ],
                    [
                        166.2668536591129,
                        -75.65788918131665
                    ],
                    [
                        166.33628743816624,
                        -75.66361744040763
                    ],
                    [
                        166.4057771841802,
                        -75.66932490798759
                    ],
                    [
                        166.47532276017225,
                        -75.67501155809063
                    ]
                ]
            }
        }
    ]
}
