{
    "type": "FeatureCollection",
    "features": [
        {
            "type": "Feature",
            "properties": {
                "name": "Wilhelm Ii Coast",
                "object": "transect",
                "component": "landice",
                "author": "Matthew Hoffman, converted from https://github.com/yuwang115/sl-ice",
                "tags": "Antarctic_Ice_Sheet;flowline;sl-ice;wilhelm_ii_coast"
            },
            "geometry": {
                "type": "LineString",
                "coordinates": [
                    [
                        93.93902016536953,
                        -69.0618078237029
                    ],
                    [
                        93.91451901044353,
                        -69.04629148573119
                    ],
                    [
                        93.89041291413959,
                        -69.03070091380637
                    ],
                    [
                        93.86515097254136,
                        -69.01535068215355
                    ],
                    [
                        93.83890505636008,
                        -69.00021824569815
                    ],
                    [
                        93.81415573980715,
                        -68.98477499990408
                    ],
                    [
                        93.79048737634709,
                        -68.96911187032904
                    ],
                    [
                        93.7665894606838,
                        -68.95350138600715
                    ],
                    [
                        93.74190924372724,
                        -68.93805463762638
                    ],
                    [
                        93.71581672347176,
                        -68.92291541739034
                    ],
                    [
                        93.68791586109855,
                        -68.90819932634223
                    ],
                    [
                        93.66047382840645,
                        -68.8933845774407
                    ],
                    [
                        93.63383575346198,
                        -68.87838317540687
                    ],
                    [
                        93.61001866774836,
                        -68.86278819756538
                    ],
                    [
                        93.58970171253486,
                        -68.84656766082668
                    ],
                    [
                        93.57171680567504,
                        -68.82998565327549
                    ],
                    [
                        93.55339976405415,
                        -68.81345518751915
                    ],
                    [
                        93.53324848980995,
                        -68.79721045419323
                    ],
                    [
                        93.51187413810516,
                        -68.78117475376706
                    ],
                    [
                        93.49016989585999,
                        -68.76520298065438
                    ],
                    [
                        93.46887980663354,
                        -68.74915376912037
                    ],
                    [
                        93.44845691931947,
                        -68.7329638556451
                    ],
                    [
                        93.4290417308272,
                        -68.71661712242197
                    ],
                    [
                        93.40994373762045,
                        -68.70022250840022
                    ],
                    [
                        93.39154093696374,
                        -68.68372738580706
                    ],
                    [
                        93.37407408869112,
                        -68.6671000639946
                    ],
                    [
                        93.3571761008809,
                        -68.65039771119245
                    ],
                    [
                        93.34082944848527,
                        -68.6336253240255
                    ],
                    [
                        93.3254338614148,
                        -68.61673892612166
                    ],
                    [
                        93.3101680416373,
                        -68.59983633948023
                    ],
                    [
                        93.29525738570005,
                        -68.58289502746203
                    ],
                    [
                        93.2820059168598,
                        -68.56576741902072
                    ],
                    [
                        93.27033435157382,
                        -68.54850010151328
                    ],
                    [
                        93.25918426650793,
                        -68.53117783251571
                    ],
                    [
                        93.24831458145763,
                        -68.51383690891677
                    ],
                    [
                        93.23783703662583,
                        -68.49646614845823
                    ],
                    [
                        93.22791139734446,
                        -68.47905339735932
                    ],
                    [
                        93.22028660372952,
                        -68.46148686773732
                    ],
                    [
                        93.21495660692327,
                        -68.44381147242305
                    ],
                    [
                        93.2108336872168,
                        -68.42608989313517
                    ],
                    [
                        93.20785418068515,
                        -68.4083368466728
                    ],
                    [
                        93.20580942310308,
                        -68.39056556028396
                    ],
                    [
                        93.20439517476483,
                        -68.37279121600726
                    ],
                    [
                        93.20321414549726,
                        -68.3550131034333
                    ],
                    [
                        93.20211678785245,
                        -68.33723430864788
                    ],
                    [
                        93.2011563755137,
                        -68.31945818055678
                    ],
                    [
                        93.2008561222967,
                        -68.30167833988054
                    ],
                    [
                        93.20124312776865,
                        -68.28389419631223
                    ],
                    [
                        93.202633370162,
                        -68.26612586649053
                    ],
                    [
                        93.20521880206313,
                        -68.24837373346965
                    ],
                    [
                        93.2084763496143,
                        -68.2306396569345
                    ],
                    [
                        93.21210376256317,
                        -68.21291650691168
                    ],
                    [
                        93.21609296324907,
                        -68.19520440574126
                    ],
                    [
                        93.220452593851,
                        -68.17750312444018
                    ],
                    [
                        93.22542335153884,
                        -68.15982981054759
                    ],
                    [
                        93.23057937995803,
                        -68.14215772889524
                    ],
                    [
                        93.23554067732803,
                        -68.12448596425911
                    ],
                    [
                        93.24029687392907,
                        -68.10680586659409
                    ],
                    [
                        93.24488239008514,
                        -68.08912118773142
                    ],
                    [
                        93.24948406092348,
                        -68.07143688587941
                    ],
                    [
                        93.2541357099612,
                        -68.05375668843323
                    ],
                    [
                        93.25887274683971,
                        -68.036079833289
                    ],
                    [
                        93.26389342977333,
                        -68.01841541658398
                    ],
                    [
                        93.26888930306657,
                        -68.0007522082733
                    ],
                    [
                        93.27167611046147,
                        -67.98302144075741
                    ],
                    [
                        93.27337634512462,
                        -67.96527931308057
                    ],
                    [
                        93.27675809665038,
                        -67.94756422590376
                    ],
                    [
                        93.28083265636535,
                        -67.92987061209232
                    ],
                    [
                        93.28425992927401,
                        -67.91216062614895
                    ],
                    [
                        93.28708385690416,
                        -67.89443339897667
                    ],
                    [
                        93.28950141847788,
                        -67.8767025170507
                    ],
                    [
                        93.29182674007913,
                        -67.85896565320122
                    ],
                    [
                        93.29434812676281,
                        -67.84124322761618
                    ],
                    [
                        93.29661876125219,
                        -67.82350937953623
                    ],
                    [
                        93.29783039728672,
                        -67.80576396733633
                    ],
                    [
                        93.29875068849067,
                        -67.7880170049313
                    ],
                    [
                        93.30033730544085,
                        -67.77027871739796
                    ],
                    [
                        93.30238222250182,
                        -67.75254915216047
                    ],
                    [
                        93.30520635012773,
                        -67.7348345695657
                    ],
                    [
                        93.3106434494405,
                        -67.71721017545828
                    ],
                    [
                        93.31654520595713,
                        -67.69960729938224
                    ],
                    [
                        93.32366794682305,
                        -67.68207137385912
                    ],
                    [
                        93.33336455806506,
                        -67.66471436717157
                    ],
                    [
                        93.34435163689736,
                        -67.64747087060141
                    ],
                    [
                        93.35644197701424,
                        -67.6303402567481
                    ],
                    [
                        93.37088061514245,
                        -67.61347638361163
                    ],
                    [
                        93.38423853989066,
                        -67.59648490833689
                    ],
                    [
                        93.39809923040971,
                        -67.57955241821877
                    ],
                    [
                        93.41396110171414,
                        -67.56288447014269
                    ],
                    [
                        93.42973886774504,
                        -67.54620382138347
                    ],
                    [
                        93.44530265796628,
                        -67.5294957255685
                    ],
                    [
                        93.4597719445531,
                        -67.5126473965016
                    ],
                    [
                        93.47608237444635,
                        -67.49605728325218
                    ],
                    [
                        93.49411032126284,
                        -67.47972754791262
                    ],
                    [
                        93.51129008571287,
                        -67.46326931554924
                    ],
                    [
                        93.52727755016365,
                        -67.44663334566403
                    ],
                    [
                        93.54264943915018,
                        -67.42991296446584
                    ],
                    [
                        93.5586616251922,
                        -67.41329596922684
                    ],
                    [
                        93.57690419097948,
                        -67.39701473886899
                    ],
                    [
                        93.59517713615101,
                        -67.38074410243556
                    ],
                    [
                        93.61119060439103,
                        -67.36412680237589
                    ],
                    [
                        93.62738465695867,
                        -67.3475347872068
                    ],
                    [
                        93.64357878217568,
                        -67.33095021763569
                    ],
                    [
                        93.6613889460681,
                        -67.31461731318032
                    ],
                    [
                        93.6798343179014,
                        -67.2983910457419
                    ],
                    [
                        93.69808591164237,
                        -67.28212758890567
                    ],
                    [
                        93.71546347959084,
                        -67.26573757454379
                    ],
                    [
                        93.73130838322707,
                        -67.24911370602568
                    ],
                    [
                        93.74584623833725,
                        -67.23231300733589
                    ],
                    [
                        93.75744760667993,
                        -67.21517771303553
                    ],
                    [
                        93.76752473229537,
                        -67.1979034568077
                    ],
                    [
                        93.77584196677519,
                        -67.18048338320018
                    ],
                    [
                        93.7837890932017,
                        -67.16304641883896
                    ],
                    [
                        93.79292981650835,
                        -67.14569436021097
                    ],
                    [
                        93.79997003976688,
                        -67.1282014343622
                    ],
                    [
                        93.80527309621262,
                        -67.11061193057067
                    ],
                    [
                        93.81001982598623,
                        -67.09300201225192
                    ],
                    [
                        93.81402347867717,
                        -67.075363315395
                    ],
                    [
                        93.81459100219125,
                        -67.05765512851326
                    ],
                    [
                        93.81346632845127,
                        -67.03995655074651
                    ],
                    [
                        93.81079662006245,
                        -67.02228156030262
                    ],
                    [
                        93.80520326499567,
                        -67.00471925643414
                    ],
                    [
                        93.79771312719777,
                        -66.98725609616685
                    ],
                    [
                        93.78864771498513,
                        -66.96991902652186
                    ],
                    [
                        93.77895178846805,
                        -66.95262571878867
                    ],
                    [
                        93.7697654410224,
                        -66.93530227504934
                    ],
                    [
                        93.76178363642299,
                        -66.91788206006424
                    ],
                    [
                        93.75430061712242,
                        -66.9004277470787
                    ],
                    [
                        93.74671834287085,
                        -66.8829858177409
                    ],
                    [
                        93.73794441418124,
                        -66.86562866555629
                    ],
                    [
                        93.72725967673853,
                        -66.848445495095
                    ],
                    [
                        93.71733038534059,
                        -66.8311860219462
                    ],
                    [
                        93.70964530277551,
                        -66.81376358050149
                    ],
                    [
                        93.7081507724115,
                        -66.79611306031508
                    ],
                    [
                        93.71385330336538,
                        -66.77859853726443
                    ],
                    [
                        93.72516601368001,
                        -66.76149440382807
                    ],
                    [
                        93.74338414018104,
                        -66.74535485171714
                    ],
                    [
                        93.764899284493,
                        -66.7298453388508
                    ],
                    [
                        93.78775436882502,
                        -66.71464765963546
                    ],
                    [
                        93.81257598340625,
                        -66.69995723668853
                    ],
                    [
                        93.84023598054853,
                        -66.68607319545646
                    ],
                    [
                        93.86828309834827,
                        -66.67231947774115
                    ],
                    [
                        93.89324459447664,
                        -66.65767746051716
                    ],
                    [
                        93.91503140493654,
                        -66.64226213939082
                    ],
                    [
                        93.93459552918453,
                        -66.62638147545604
                    ],
                    [
                        93.95202522667081,
                        -66.61011386326467
                    ],
                    [
                        93.97158727881437,
                        -66.59423705151106
                    ],
                    [
                        93.99112208563382,
                        -66.57835846556135
                    ],
                    [
                        94.01062969947685,
                        -66.56247811191267
                    ],
                    [
                        94.03011017257077,
                        -66.54659599704691
                    ],
                    [
                        94.04956355702271,
                        -66.53071212743065
                    ],
                    [
                        94.06898990481999,
                        -66.51482650951532
                    ],
                    [
                        94.08838926783035,
                        -66.49893914973715
                    ],
                    [
                        94.10776169780236,
                        -66.48305005451729
                    ],
                    [
                        94.12710724636558,
                        -66.4671592302618
                    ],
                    [
                        94.1464259650309,
                        -66.45126668336172
                    ],
                    [
                        94.16571790519086,
                        -66.43537242019312
                    ],
                    [
                        94.18498311811986,
                        -66.41947644711712
                    ],
                    [
                        94.20422165497457,
                        -66.40357877047995
                    ],
                    [
                        94.2234335667941,
                        -66.38767939661301
                    ],
                    [
                        94.24261890450032,
                        -66.37177833183287
                    ],
                    [
                        94.26177771889824,
                        -66.35587558244139
                    ],
                    [
                        94.28091006067613,
                        -66.33997115472565
                    ],
                    [
                        94.30001598040597,
                        -66.3240650549581
                    ],
                    [
                        94.3190955285436,
                        -66.30815728939656
                    ],
                    [
                        94.33814875542909,
                        -66.29224786428425
                    ]
                ]
            }
        }
    ]
}
