{
    "type": "FeatureCollection",
    "features": [
        {
            "type": "Feature",
            "properties": {
                "name": "Greenland Glacier 0233",
                "object": "transect",
                "component": "landice",
                "author": "Matthew Hoffman, converted from Felikson et al. (2020) Zenodo dataset",
                "tags": "Greenland_Ice_Sheet;flowline;zenodo_4284759;glacier_0233",
                "citation": "Felikson, Denis, Catania, Ginny, Bartholomaus, Timothy, Morlighem, Mathieu, & No\u00ebl, Brice. (2020). Inland limits to diffusion of thinning along Greenland Ice Sheet outlet glaciers (v1.0) [Data set]. Zenodo. https://doi.org/10.5281/zenodo.4284759",
                "license": "CC-BY-4.0"
            },
            "geometry": {
                "type": "LineString",
                "coordinates": [
                    [
                        -43.450073657510956,
                        61.691705956308674
                    ],
                    [
                        -43.45456305032092,
                        61.69331788401579
                    ],
                    [
                        -43.45914724482119,
                        61.69326541610584
                    ],
                    [
                        -43.46371722937892,
                        61.69346408457064
                    ],
                    [
                        -43.46818691342112,
                        61.69544501180279
                    ],
                    [
                        -43.47269462353915,
                        61.696760164787854
                    ],
                    [
                        -43.47583214560778,
                        61.69897553719329
                    ],
                    [
                        -43.47735384451433,
                        61.70117046064467
                    ],
                    [
                        -43.478153432016796,
                        61.703356276414645
                    ],
                    [
                        -43.47845512937106,
                        61.70553582836675
                    ],
                    [
                        -43.478123252894825,
                        61.70770741047355
                    ],
                    [
                        -43.47724699767263,
                        61.70987214468247
                    ],
                    [
                        -43.47564629108349,
                        61.71202774635117
                    ],
                    [
                        -43.47325593252167,
                        61.71417336385028
                    ],
                    [
                        -43.470217302157366,
                        61.71631074420372
                    ],
                    [
                        -43.46661086158284,
                        61.71844086224679
                    ],
                    [
                        -43.461915445442436,
                        61.72038440494427
                    ],
                    [
                        -43.457253022167365,
                        61.72173472983823
                    ],
                    [
                        -43.45260493802285,
                        61.722824905250874
                    ],
                    [
                        -43.44796515762476,
                        61.72376297804665
                    ],
                    [
                        -43.443329371630945,
                        61.72462555314822
                    ],
                    [
                        -43.438700807088985,
                        61.72535714029609
                    ],
                    [
                        -43.43408078194272,
                        61.7259360386286
                    ],
                    [
                        -43.429461761404596,
                        61.72649397496557
                    ],
                    [
                        -43.42484281845151,
                        61.727047126639526
                    ],
                    [
                        -43.4202255787096,
                        61.727567573393706
                    ],
                    [
                        -43.41560908572447,
                        61.72807200565085
                    ],
                    [
                        -43.41099168272728,
                        61.72858889403432
                    ],
                    [
                        -43.406374611839844,
                        61.72909695047516
                    ],
                    [
                        -43.401758444449165,
                        61.729586537345014
                    ],
                    [
                        -43.39714374782803,
                        61.73004819841454
                    ],
                    [
                        -43.3925299712588,
                        61.73049148343063
                    ],
                    [
                        -43.387915488906515,
                        61.73094395203028
                    ],
                    [
                        -43.38330152504023,
                        61.73138495005237
                    ],
                    [
                        -43.37868493034893,
                        61.73186734955914
                    ],
                    [
                        -43.37406990127985,
                        61.73232067465925
                    ],
                    [
                        -43.36945621623934,
                        61.73274886518548
                    ],
                    [
                        -43.36484395496669,
                        61.733150809579946
                    ],
                    [
                        -43.36023356039985,
                        61.733519391341844
                    ],
                    [
                        -43.355625394975014,
                        61.733848903977304
                    ],
                    [
                        -43.35102019543383,
                        61.7341275381779
                    ],
                    [
                        -43.34641868411676,
                        61.734343852858245
                    ],
                    [
                        -43.34182144037336,
                        61.734488876296744
                    ],
                    [
                        -43.3372282969216,
                        61.734565933676826
                    ],
                    [
                        -43.332638511837466,
                        61.73458767510576
                    ],
                    [
                        -43.32805174726686,
                        61.73456004554475
                    ],
                    [
                        -43.32346799553376,
                        61.73448357421071
                    ],
                    [
                        -43.31888787396952,
                        61.73434868414444
                    ],
                    [
                        -43.314311652156,
                        61.73415150601009
                    ],
                    [
                        -43.309738399908,
                        61.733907494634884
                    ],
                    [
                        -43.30516733712121,
                        61.733629532168365
                    ],
                    [
                        -43.30059819472351,
                        61.73332219275923
                    ],
                    [
                        -43.296030787870826,
                        61.73298865854391
                    ],
                    [
                        -43.29146436212037,
                        61.73264113478527
                    ],
                    [
                        -43.286898759609926,
                        61.73228223594094
                    ],
                    [
                        -43.2823351561935,
                        61.73189345356507
                    ],
                    [
                        -43.27777375740228,
                        61.73147178142083
                    ],
                    [
                        -43.27321424664852,
                        61.73102245952048
                    ],
                    [
                        -43.26865516033161,
                        61.73056867222609
                    ],
                    [
                        -43.26409665830556,
                        61.73010795204621
                    ],
                    [
                        -43.259538456967206,
                        61.72964477987236
                    ],
                    [
                        -43.25497975596098,
                        61.72919163590828
                    ],
                    [
                        -43.25042213994873,
                        61.728723832200316
                    ],
                    [
                        -43.245864254393624,
                        61.72826246315782
                    ],
                    [
                        -43.24130130395927,
                        61.727881564704525
                    ],
                    [
                        -43.236730460228266,
                        61.727624099201904
                    ],
                    [
                        -43.232152826978805,
                        61.72747214638174
                    ],
                    [
                        -43.22757206139746,
                        61.727368824337105
                    ],
                    [
                        -43.222991217463154,
                        61.72726705963393
                    ],
                    [
                        -43.21841303619548,
                        61.72712503557037
                    ],
                    [
                        -43.2138407740707,
                        61.72689352211111
                    ],
                    [
                        -43.20927556075928,
                        61.726556061347
                    ],
                    [
                        -43.204716465650606,
                        61.72612754328811
                    ],
                    [
                        -43.20016244681257,
                        61.72562438647678
                    ],
                    [
                        -43.19561488210771,
                        61.72502640221731
                    ],
                    [
                        -43.191082034772265,
                        61.72421016850279
                    ],
                    [
                        -43.18657226537084,
                        61.72305201919296
                    ],
                    [
                        -43.182088887153526,
                        61.721504930902235
                    ],
                    [
                        -43.177763565725456,
                        61.719263489201744
                    ],
                    [
                        -43.175180214440914,
                        61.717048252363256
                    ],
                    [
                        -43.17387979449851,
                        61.71485239325921
                    ],
                    [
                        -43.17342364813772,
                        61.712669318987786
                    ],
                    [
                        -43.173662105098394,
                        61.710496776729144
                    ],
                    [
                        -43.174427845802,
                        61.7083322332608
                    ],
                    [
                        -43.175628126717,
                        61.706174277927694
                    ],
                    [
                        -43.17734409739475,
                        61.70402412511731
                    ],
                    [
                        -43.179420841343195,
                        61.70187941666961
                    ],
                    [
                        -43.18186307103061,
                        61.699740206100536
                    ],
                    [
                        -43.1842803617717,
                        61.69760059592325
                    ],
                    [
                        -43.18673758813118,
                        61.6954615628679
                    ],
                    [
                        -43.18907709359524,
                        61.693320737458194
                    ],
                    [
                        -43.19125729775083,
                        61.69117750254683
                    ],
                    [
                        -43.19338163170033,
                        61.68903341588327
                    ],
                    [
                        -43.19533459946171,
                        61.68688675172872
                    ],
                    [
                        -43.1971704240312,
                        61.684738328641934
                    ],
                    [
                        -43.19898830730795,
                        61.682589633547295
                    ],
                    [
                        -43.200774105412385,
                        61.680440456107284
                    ],
                    [
                        -43.20207922425595,
                        61.67828410784935
                    ],
                    [
                        -43.202766691936056,
                        61.67611856071249
                    ],
                    [
                        -43.202929772084666,
                        61.67394521389704
                    ],
                    [
                        -43.202873696243444,
                        61.671768619641426
                    ],
                    [
                        -43.202602851805366,
                        61.6695888423838
                    ],
                    [
                        -43.20199693808549,
                        61.66740408509571
                    ],
                    [
                        -43.201091256514125,
                        61.66521486868382
                    ],
                    [
                        -43.20003944818883,
                        61.663023480772466
                    ],
                    [
                        -43.19834066894351,
                        61.660822428397296
                    ],
                    [
                        -43.195900426654,
                        61.6586102670656
                    ],
                    [
                        -43.19271169982184,
                        61.65638684394806
                    ],
                    [
                        -43.18906361961285,
                        61.654156444406034
                    ],
                    [
                        -43.184724838541506,
                        61.6519155385964
                    ],
                    [
                        -43.18029157768616,
                        61.64979539435785
                    ],
                    [
                        -43.17585154302122,
                        61.64778656687503
                    ],
                    [
                        -43.171408328788374,
                        61.645834715724234
                    ],
                    [
                        -43.16696869036883,
                        61.643839028382736
                    ],
                    [
                        -43.162532738859404,
                        61.64179816466204
                    ],
                    [
                        -43.1580781101025,
                        61.640043282403816
                    ],
                    [
                        -43.15363109159286,
                        61.638184398312404
                    ],
                    [
                        -43.14920715566968,
                        61.63599442525457
                    ],
                    [
                        -43.145160483395344,
                        61.6337566646929
                    ],
                    [
                        -43.14145215342635,
                        61.63152400415782
                    ],
                    [
                        -43.1381065854557,
                        61.62929685383471
                    ],
                    [
                        -43.135016173539064,
                        61.62707357765903
                    ],
                    [
                        -43.13242516098424,
                        61.62485798698571
                    ],
                    [
                        -43.13060091376535,
                        61.62265426985936
                    ],
                    [
                        -43.12925217943444,
                        61.620457935577114
                    ],
                    [
                        -43.1277159857885,
                        61.6182586862059
                    ],
                    [
                        -43.12598215204902,
                        61.616056355340184
                    ],
                    [
                        -43.123587792983926,
                        61.613843714194125
                    ],
                    [
                        -43.12086877148028,
                        61.611625968583816
                    ],
                    [
                        -43.117989163833876,
                        61.60940566289258
                    ],
                    [
                        -43.11512058733371,
                        61.6071854748417
                    ],
                    [
                        -43.111559679653276,
                        61.60495436212167
                    ],
                    [
                        -43.10791696569285,
                        61.602721868885844
                    ],
                    [
                        -43.10406042283416,
                        61.600485905720575
                    ],
                    [
                        -43.09986081592878,
                        61.59824440889165
                    ],
                    [
                        -43.09543092200822,
                        61.59629274749127
                    ],
                    [
                        -43.09543092200822,
                        61.59629274749127
                    ],
                    [
                        -43.091001661538264,
                        61.59434093918189
                    ],
                    [
                        -43.086557976291616,
                        61.59260374235552
                    ],
                    [
                        -43.05906921417703,
                        61.581164925406604
                    ],
                    [
                        -43.03160347602301,
                        61.56972038603522
                    ],
                    [
                        -43.00416074552219,
                        61.55827013323272
                    ],
                    [
                        -42.976741006352285,
                        61.546814175981005
                    ],
                    [
                        -42.94934424217622,
                        61.53535252325266
                    ],
                    [
                        -42.92197043664225,
                        61.52388518401086
                    ],
                    [
                        -42.89461957338411,
                        61.512412167209355
                    ],
                    [
                        -42.86729163602115,
                        61.50093348179253
                    ],
                    [
                        -42.83998660815842,
                        61.489449136695384
                    ],
                    [
                        -42.81270447338682,
                        61.47795914084351
                    ],
                    [
                        -42.785445215283275,
                        61.466463503153115
                    ],
                    [
                        -42.75820881741075,
                        61.45496223253104
                    ],
                    [
                        -42.73099526331848,
                        61.443455337874695
                    ],
                    [
                        -42.703804536542066,
                        61.431942828072124
                    ],
                    [
                        -42.676636620603546,
                        61.42042471200197
                    ],
                    [
                        -42.64949149901162,
                        61.40890099853351
                    ],
                    [
                        -42.62236915526167,
                        61.3973716965266
                    ],
                    [
                        -42.59526957283597,
                        61.38583681483175
                    ],
                    [
                        -42.56819273520373,
                        61.374296362290025
                    ],
                    [
                        -42.541138625821304,
                        61.36275034773318
                    ]
                ]
            }
        }
    ]
}
