{
    "type": "FeatureCollection",
    "features": [
        {
            "type": "Feature",
            "properties": {
                "name": "Moller",
                "object": "transect",
                "component": "landice",
                "author": "Matthew Hoffman, converted from https://github.com/yuwang115/sl-ice",
                "tags": "Antarctic_Ice_Sheet;flowline;sl-ice;moller"
            },
            "geometry": {
                "type": "LineString",
                "coordinates": [
                    [
                        -93.40450025464388,
                        -84.25291329824726
                    ],
                    [
                        -93.52307266904631,
                        -84.23894826632846
                    ],
                    [
                        -93.6347624158136,
                        -84.22443805739604
                    ],
                    [
                        -93.75833552753099,
                        -84.21095099822548
                    ],
                    [
                        -93.86062071520925,
                        -84.19577729818796
                    ],
                    [
                        -93.95544058308612,
                        -84.18012422305596
                    ],
                    [
                        -94.05058597646519,
                        -84.16451118068022
                    ],
                    [
                        -94.16280087751315,
                        -84.15032348902061
                    ],
                    [
                        -94.30286641343568,
                        -84.13879707967847
                    ],
                    [
                        -94.41247042000788,
                        -84.12444541107324
                    ],
                    [
                        -94.5034725158629,
                        -84.1086303711903
                    ],
                    [
                        -94.60377905279532,
                        -84.09349150559301
                    ],
                    [
                        -94.70735627255564,
                        -84.07855786615755
                    ],
                    [
                        -94.7916546110578,
                        -84.06239737026408
                    ],
                    [
                        -94.8731092962,
                        -84.04608881578446
                    ],
                    [
                        -94.9523240117112,
                        -84.02967783578018
                    ],
                    [
                        -95.02946772858157,
                        -84.0131703360659
                    ],
                    [
                        -95.10466590131821,
                        -83.99657434887347
                    ],
                    [
                        -95.17784666879905,
                        -83.97989416142582
                    ],
                    [
                        -95.247238933529,
                        -83.96304358602633
                    ],
                    [
                        -95.31233904395043,
                        -83.94601812948085
                    ],
                    [
                        -95.37142136927142,
                        -83.9287556087637
                    ],
                    [
                        -95.42378915066925,
                        -83.91125526332759
                    ],
                    [
                        -95.46977657070751,
                        -83.89356315220103
                    ],
                    [
                        -95.50300250885107,
                        -83.87556353622905
                    ],
                    [
                        -95.52303705126859,
                        -83.85733164400128
                    ],
                    [
                        -95.53546356456566,
                        -83.83902603162653
                    ],
                    [
                        -95.54123745555802,
                        -83.82068221648821
                    ],
                    [
                        -95.5470456121002,
                        -83.80233884711954
                    ],
                    [
                        -95.55765285204293,
                        -83.78402042594332
                    ],
                    [
                        -95.57034992909486,
                        -83.76571619053226
                    ],
                    [
                        -95.58076618061598,
                        -83.74739671478842
                    ],
                    [
                        -95.58395712825573,
                        -83.7290515525203
                    ],
                    [
                        -95.5761519526675,
                        -83.71072278402569
                    ],
                    [
                        -95.55222862158219,
                        -83.69256341275853
                    ],
                    [
                        -95.5131403423983,
                        -83.67473863110487
                    ],
                    [
                        -95.45363069066536,
                        -83.65762532357694
                    ],
                    [
                        -95.36306187723997,
                        -83.64231761261357
                    ],
                    [
                        -95.2438811595487,
                        -83.62969252784005
                    ],
                    [
                        -95.10664869747853,
                        -83.61949831619127
                    ],
                    [
                        -94.96356188061601,
                        -83.6103639623074
                    ],
                    [
                        -94.82094596661261,
                        -83.60117196271469
                    ],
                    [
                        -94.68276988646174,
                        -83.59121510134685
                    ],
                    [
                        -94.55246659605803,
                        -83.5800532109426
                    ],
                    [
                        -94.42907078930358,
                        -83.56797323993065
                    ],
                    [
                        -94.31197705718394,
                        -83.55515736229502
                    ],
                    [
                        -94.19824641498973,
                        -83.54199104335932
                    ],
                    [
                        -94.08451768824445,
                        -83.52884287455488
                    ],
                    [
                        -93.96980561649649,
                        -83.51583446179727
                    ],
                    [
                        -93.85450386963315,
                        -83.50291965876025
                    ],
                    [
                        -93.73907302473624,
                        -83.49004206544741
                    ],
                    [
                        -93.622072890109,
                        -83.47737910285764
                    ],
                    [
                        -93.5000047202686,
                        -83.46538221444595
                    ],
                    [
                        -93.37357455527518,
                        -83.45401330619482
                    ],
                    [
                        -93.24435480831657,
                        -83.44309321836562
                    ],
                    [
                        -93.11505658769836,
                        -83.43221675435625
                    ],
                    [
                        -92.99037492897233,
                        -83.42069595584103
                    ],
                    [
                        -92.87218738258518,
                        -83.40833599827457
                    ],
                    [
                        -92.75711499295937,
                        -83.39561479712526
                    ],
                    [
                        -92.64389517817085,
                        -83.3827036490644
                    ],
                    [
                        -92.53110146509579,
                        -83.36976614380714
                    ],
                    [
                        -92.41870359567929,
                        -83.35681082612186
                    ],
                    [
                        -92.30543484131881,
                        -83.34398144060087
                    ],
                    [
                        -92.19100734490468,
                        -83.33132073501379
                    ],
                    [
                        -92.07555442640349,
                        -83.31880789546001
                    ],
                    [
                        -91.96138712491627,
                        -83.30616846013582
                    ],
                    [
                        -91.84838768628956,
                        -83.29340820626832
                    ],
                    [
                        -91.73677829685772,
                        -83.28051140202906
                    ],
                    [
                        -91.62715090367432,
                        -83.26740896955268
                    ],
                    [
                        -91.52046448599609,
                        -83.25399908793112
                    ],
                    [
                        -91.41699304612207,
                        -83.24026806849226
                    ],
                    [
                        -91.31542224382459,
                        -83.22636543614256
                    ],
                    [
                        -91.21586282140308,
                        -83.21228462859928
                    ],
                    [
                        -91.1191868507197,
                        -83.19794399997771
                    ],
                    [
                        -91.02525857344472,
                        -83.18336561936533
                    ],
                    [
                        -90.93331686058282,
                        -83.16862674556339
                    ],
                    [
                        -90.84249597795316,
                        -83.15381247212659
                    ],
                    [
                        -90.75231143919308,
                        -83.13895710006638
                    ],
                    [
                        -90.66277600935052,
                        -83.12406269216571
                    ],
                    [
                        -90.5734466020481,
                        -83.10916763960418
                    ],
                    [
                        -90.48424613747619,
                        -83.09428211529153
                    ],
                    [
                        -90.39508182586549,
                        -83.07940524176479
                    ],
                    [
                        -90.3047125461273,
                        -83.0646542070415
                    ],
                    [
                        -90.21197699764285,
                        -83.05013420091787
                    ],
                    [
                        -90.11064428678876,
                        -83.03652662583336
                    ],
                    [
                        -89.97850836517796,
                        -83.0276175053875
                    ],
                    [
                        -89.85627173809964,
                        -83.0171283586118
                    ],
                    [
                        -89.75091419818894,
                        -83.00402230303158
                    ],
                    [
                        -89.63067781804293,
                        -82.99310966263045
                    ],
                    [
                        -89.48942841367021,
                        -82.9884156765065
                    ],
                    [
                        -89.33931259986991,
                        -82.98768724673585
                    ],
                    [
                        -89.1998776507997,
                        -82.98193704865933
                    ],
                    [
                        -89.07063051712149,
                        -82.97315978295384
                    ],
                    [
                        -88.92712388558567,
                        -82.9679092207441
                    ],
                    [
                        -88.78883345666743,
                        -82.96152978606355
                    ],
                    [
                        -88.63945125261176,
                        -82.96055013885926
                    ],
                    [
                        -88.4900257159077,
                        -82.95957478187448
                    ],
                    [
                        -88.34200174881175,
                        -82.9569473435165
                    ],
                    [
                        -88.19473831108004,
                        -82.95384342588977
                    ],
                    [
                        -88.05136475648885,
                        -82.94872966638657
                    ],
                    [
                        -87.90783341404168,
                        -82.94367583285732
                    ],
                    [
                        -87.76300952303725,
                        -82.939256249651
                    ],
                    [
                        -87.61922660916889,
                        -82.93439321673337
                    ],
                    [
                        -87.47983698529677,
                        -82.92791149017702
                    ],
                    [
                        -87.33930933754773,
                        -82.92184740008412
                    ],
                    [
                        -87.20171411890301,
                        -82.91490610570301
                    ],
                    [
                        -87.07132416960428,
                        -82.90611973172172
                    ],
                    [
                        -86.94435410823027,
                        -82.89662769744065
                    ],
                    [
                        -86.81878246667686,
                        -82.88689159825454
                    ],
                    [
                        -86.6938980005271,
                        -82.8770542579289
                    ],
                    [
                        -86.5686923028387,
                        -82.86730882921326
                    ],
                    [
                        -86.4425949142932,
                        -82.85778282305637
                    ],
                    [
                        -86.31247249541764,
                        -82.84917984952833
                    ],
                    [
                        -86.17862570348468,
                        -82.84155518681308
                    ],
                    [
                        -86.04229354374911,
                        -82.83467843909987
                    ],
                    [
                        -85.90591021451176,
                        -82.8278596639318
                    ],
                    [
                        -85.77108735898086,
                        -82.82060611766069
                    ],
                    [
                        -85.63856760419343,
                        -82.8127567816166
                    ],
                    [
                        -85.50695072383085,
                        -82.80471248098407
                    ],
                    [
                        -85.37481295098975,
                        -82.79683835065424
                    ],
                    [
                        -85.24158803840866,
                        -82.7893009441989
                    ],
                    [
                        -85.10735057193243,
                        -82.78208450320354
                    ],
                    [
                        -84.97319018374353,
                        -82.77489465724592
                    ],
                    [
                        -84.83841636063374,
                        -82.76792605815412
                    ],
                    [
                        -84.70326575191717,
                        -82.76110911233718
                    ],
                    [
                        -84.56859473117024,
                        -82.75418757133633
                    ],
                    [
                        -84.43207012834242,
                        -82.74792060022045
                    ],
                    [
                        -84.29328077230102,
                        -82.74253565087743
                    ],
                    [
                        -84.15596289484957,
                        -82.73662701388051
                    ],
                    [
                        -84.0201158271172,
                        -82.73023616193143
                    ],
                    [
                        -83.8840078113351,
                        -82.72396660102623
                    ],
                    [
                        -83.74762506179796,
                        -82.71784279020537
                    ],
                    [
                        -83.61102979256543,
                        -82.71182570286872
                    ],
                    [
                        -83.4749996946254,
                        -82.70565789911602
                    ],
                    [
                        -83.34043733559255,
                        -82.69902819226078
                    ],
                    [
                        -83.20682825140814,
                        -82.692137427511
                    ],
                    [
                        -83.07263351543874,
                        -82.68546291989747
                    ],
                    [
                        -82.93700346647593,
                        -82.67932981051345
                    ],
                    [
                        -82.80016805039402,
                        -82.67369646438053
                    ],
                    [
                        -82.66249280873048,
                        -82.66842482791488
                    ],
                    [
                        -82.52388699879602,
                        -82.66364689467052
                    ],
                    [
                        -82.38273461543412,
                        -82.6603889418573
                    ],
                    [
                        -82.2397582286165,
                        -82.65887531989384
                    ],
                    [
                        -82.09655730194861,
                        -82.65775811075247
                    ],
                    [
                        -81.95357700771373,
                        -82.65629189565821
                    ],
                    [
                        -81.81111773811912,
                        -82.65420788914298
                    ],
                    [
                        -81.66921982387001,
                        -82.65159654778617
                    ],
                    [
                        -81.52788464295017,
                        -82.64857555603764
                    ],
                    [
                        -81.38781097332648,
                        -82.64475705582409
                    ],
                    [
                        -81.24927447550736,
                        -82.64014121961523
                    ],
                    [
                        -81.11234157898674,
                        -82.63483941587418
                    ],
                    [
                        -80.97731693942207,
                        -82.62882144036698
                    ],
                    [
                        -80.8441498127345,
                        -82.62219676712054
                    ],
                    [
                        -80.71226203441257,
                        -82.61519854716012
                    ],
                    [
                        -80.5813818277734,
                        -82.60793876613636
                    ],
                    [
                        -80.45159348648127,
                        -82.60038913788692
                    ],
                    [
                        -80.32316917962024,
                        -82.59250045570965
                    ],
                    [
                        -80.19700315945907,
                        -82.58406740930039
                    ],
                    [
                        -80.07245497732588,
                        -82.57527604493855
                    ],
                    [
                        -79.94856650195497,
                        -82.56635765869265
                    ],
                    [
                        -79.82485041744397,
                        -82.55744376212664
                    ],
                    [
                        -79.7017938202099,
                        -82.54840614073997
                    ],
                    [
                        -79.57913806839963,
                        -82.5393135326951
                    ],
                    [
                        -79.4562085491995,
                        -82.53032229372045
                    ],
                    [
                        -79.33316233424873,
                        -82.52138472919744
                    ],
                    [
                        -79.21104957280416,
                        -82.51227016507913
                    ],
                    [
                        -79.09046011593055,
                        -82.50284462589103
                    ],
                    [
                        -78.97066927439086,
                        -82.49328948229598
                    ],
                    [
                        -78.8515548948665,
                        -82.48361699844092
                    ],
                    [
                        -78.73276037127465,
                        -82.47390888865559
                    ],
                    [
                        -78.61422651478084,
                        -82.46418523149148
                    ],
                    [
                        -78.49658718826204,
                        -82.45430313604284
                    ],
                    [
                        -78.38106223001373,
                        -82.4440312966193
                    ],
                    [
                        -78.26754221318363,
                        -82.43341017648974
                    ],
                    [
                        -78.15541870851406,
                        -82.42256468453931
                    ],
                    [
                        -78.04480545580513,
                        -82.41148013212616
                    ],
                    [
                        -77.93635199198961,
                        -82.40005586599396
                    ],
                    [
                        -77.82931579143238,
                        -82.38843050480278
                    ],
                    [
                        -77.72120469161696,
                        -82.37700475450816
                    ],
                    [
                        -77.61208943961411,
                        -82.36577516801077
                    ],
                    [
                        -77.5023151105813,
                        -82.35469202122864
                    ],
                    [
                        -77.39207375304207,
                        -82.34371356593296
                    ],
                    [
                        -77.28234754101605,
                        -82.33267733139886
                    ],
                    [
                        -77.17529915985058,
                        -82.32120578300001
                    ],
                    [
                        -77.0698112122817,
                        -82.30950513118248
                    ],
                    [
                        -76.96416139256405,
                        -82.2978596538097
                    ],
                    [
                        -76.85613074777316,
                        -82.2866409560986
                    ],
                    [
                        -76.74171621960252,
                        -82.27667991500732
                    ],
                    [
                        -76.62313648234476,
                        -82.26764857237362
                    ],
                    [
                        -76.50783667479864,
                        -82.25792000452341
                    ],
                    [
                        -76.40225384481909,
                        -82.24640341494995
                    ],
                    [
                        -76.3062292959852,
                        -82.23346575143646
                    ],
                    [
                        -76.21615368268438,
                        -82.219777453678
                    ],
                    [
                        -76.12898466214916,
                        -82.20576813468783
                    ],
                    [
                        -76.04301991212577,
                        -82.19164183716471
                    ],
                    [
                        -75.95857329728598,
                        -82.17735898814628
                    ],
                    [
                        -75.8753426663848,
                        -82.1629659071204
                    ],
                    [
                        -75.79455876468131,
                        -82.14833106537417
                    ],
                    [
                        -75.71713169613808,
                        -82.13337523150716
                    ],
                    [
                        -75.64080635233003,
                        -82.11832779314001
                    ],
                    [
                        -75.56367581777816,
                        -82.10337455765209
                    ],
                    [
                        -75.48636365857911,
                        -82.0884548218245
                    ],
                    [
                        -75.41492027769038,
                        -82.07300269829366
                    ],
                    [
                        -75.34909329040659,
                        -82.05709325919935
                    ],
                    [
                        -75.28978235249424,
                        -82.04071530618346
                    ],
                    [
                        -75.2397488823817,
                        -82.02376052213098
                    ],
                    [
                        -75.1948974193054,
                        -82.00653358927914
                    ],
                    [
                        -75.15301622289658,
                        -81.98916497662974
                    ],
                    [
                        -75.11348428523723,
                        -81.97169475832126
                    ],
                    [
                        -75.07708901660132,
                        -81.95409755549271
                    ],
                    [
                        -75.04398270913403,
                        -81.93637301916114
                    ],
                    [
                        -75.01311165060486,
                        -81.91857596272499
                    ],
                    [
                        -74.98319105502274,
                        -81.90074514553127
                    ],
                    [
                        -74.9548790957434,
                        -81.88286708631614
                    ],
                    [
                        -74.92765966935839,
                        -81.8649579243214
                    ],
                    [
                        -74.90089529358653,
                        -81.8470364289962
                    ],
                    [
                        -74.87474295744455,
                        -81.82909933537832
                    ],
                    [
                        -74.8496029030654,
                        -81.81113387579703
                    ],
                    [
                        -74.82604472447066,
                        -81.7931274241966
                    ],
                    [
                        -74.80467018058566,
                        -81.77506891626707
                    ],
                    [
                        -74.78494440131036,
                        -81.7569716008819
                    ],
                    [
                        -74.76688698868163,
                        -81.73884069631187
                    ],
                    [
                        -74.75021167298775,
                        -81.72068269452879
                    ],
                    [
                        -74.73358788199907,
                        -81.7025254402236
                    ],
                    [
                        -74.71654717535363,
                        -81.68437701461345
                    ],
                    [
                        -74.699396423782,
                        -81.6662323350582
                    ],
                    [
                        -74.68226515140022,
                        -81.64808891390192
                    ],
                    [
                        -74.6650892424357,
                        -81.62994609417177
                    ],
                    [
                        -74.64768837493693,
                        -81.61180992468528
                    ],
                    [
                        -74.62947888770377,
                        -81.59369104044495
                    ],
                    [
                        -74.61004699205526,
                        -81.57560186719572
                    ],
                    [
                        -74.58855287045215,
                        -81.55756299691372
                    ],
                    [
                        -74.56378550539756,
                        -81.5396174370981
                    ],
                    [
                        -74.53696089542908,
                        -81.5217382921848
                    ],
                    [
                        -74.50878586286925,
                        -81.50390796097425
                    ],
                    [
                        -74.47915392331409,
                        -81.4861290272681
                    ],
                    [
                        -74.44842345120622,
                        -81.46839562842294
                    ],
                    [
                        -74.41688697873623,
                        -81.45069464176605
                    ],
                    [
                        -74.38423585566728,
                        -81.43304322305913
                    ],
                    [
                        -74.35057230495661,
                        -81.415437475069
                    ],
                    [
                        -74.31590367602173,
                        -81.39787623065645
                    ],
                    [
                        -74.27892290496838,
                        -81.38042648431843
                    ],
                    [
                        -74.23991288797029,
                        -81.36308187564771
                    ],
                    [
                        -74.19913575451494,
                        -81.34583248045664
                    ],
                    [
                        -74.15659078632206,
                        -81.32868298461516
                    ],
                    [
                        -74.11295005012109,
                        -81.31160512693953
                    ],
                    [
                        -74.06816659390189,
                        -81.29459623567543
                    ],
                    [
                        -74.0224839504863,
                        -81.27765287471534
                    ],
                    [
                        -73.97601482299127,
                        -81.26076037392596
                    ],
                    [
                        -73.92901161317053,
                        -81.24390931345522
                    ],
                    [
                        -73.88126792652504,
                        -81.22711406991839
                    ],
                    [
                        -73.83268247482604,
                        -81.21038017044582
                    ],
                    [
                        -73.78313716106256,
                        -81.19371897762994
                    ],
                    [
                        -73.73225150209896,
                        -81.1771624217721
                    ],
                    [
                        -73.68058096376981,
                        -81.16066885548175
                    ],
                    [
                        -73.62829414289699,
                        -81.14422917440214
                    ],
                    [
                        -73.57552107108889,
                        -81.1278345669235
                    ],
                    [
                        -73.52246626177521,
                        -81.11146923533113
                    ],
                    [
                        -73.46920250737233,
                        -81.09512772429461
                    ],
                    [
                        -73.41557074175323,
                        -81.078822570923
                    ],
                    [
                        -73.36170815690318,
                        -81.0625436449282
                    ],
                    [
                        -73.30758848050692,
                        -81.04629527134509
                    ],
                    [
                        -73.25335984596447,
                        -81.03006127360376
                    ],
                    [
                        -73.1991892689003,
                        -81.01383126483974
                    ],
                    [
                        -73.14523721033484,
                        -80.99759469216632
                    ],
                    [
                        -73.09172048418954,
                        -80.98133043973671
                    ],
                    [
                        -73.03883009673035,
                        -80.96502398699509
                    ],
                    [
                        -72.98726813715987,
                        -80.94861956602622
                    ],
                    [
                        -72.93811502619212,
                        -80.93204010184822
                    ],
                    [
                        -72.89177901251769,
                        -80.91526765108658
                    ],
                    [
                        -72.84801172703018,
                        -80.89833101585815
                    ],
                    [
                        -72.80663208714044,
                        -80.88124962704954
                    ],
                    [
                        -72.76670023938881,
                        -80.86408582547689
                    ],
                    [
                        -72.72790641983772,
                        -80.84686245930945
                    ],
                    [
                        -72.68993450634522,
                        -80.82959415650126
                    ],
                    [
                        -72.65249134082859,
                        -80.81230315336288
                    ],
                    [
                        -72.61545549652212,
                        -80.79499515059507
                    ],
                    [
                        -72.57861306033165,
                        -80.77768069079167
                    ],
                    [
                        -72.54207727454677,
                        -80.76035024357205
                    ],
                    [
                        -72.50555936082236,
                        -80.74302575867091
                    ],
                    [
                        -72.4690232567943,
                        -80.72570731205673
                    ],
                    [
                        -72.4326503892811,
                        -80.70838112847935
                    ],
                    [
                        -72.39625906289822,
                        -80.69106386012395
                    ],
                    [
                        -72.35998733500108,
                        -80.67374244404546
                    ],
                    [
                        -72.32375479566481,
                        -80.65642140699747
                    ],
                    [
                        -72.28752246666092,
                        -80.63910544778726
                    ],
                    [
                        -72.25066630308449,
                        -80.62182728629213
                    ],
                    [
                        -72.21312611260821,
                        -80.6045949176281
                    ],
                    [
                        -72.17529402067001,
                        -80.58738052714368
                    ],
                    [
                        -72.13823753528658,
                        -80.57013077875419
                    ],
                    [
                        -72.10163267951751,
                        -80.55285391043608
                    ],
                    [
                        -72.06551989684768,
                        -80.53555808047776
                    ],
                    [
                        -72.02990867463086,
                        -80.5182373348082
                    ],
                    [
                        -71.99482958568343,
                        -80.50088685322194
                    ],
                    [
                        -71.96020360535961,
                        -80.4835190105327
                    ],
                    [
                        -71.92637669497037,
                        -80.46611332296219
                    ],
                    [
                        -71.8938960627579,
                        -80.44864028447122
                    ],
                    [
                        -71.86287138087745,
                        -80.43109698190545
                    ],
                    [
                        -71.83346356049968,
                        -80.41348048637997
                    ],
                    [
                        -71.80529576864004,
                        -80.3958085178539
                    ],
                    [
                        -71.77849825097546,
                        -80.3780821547839
                    ],
                    [
                        -71.75341395964898,
                        -80.36028735351968
                    ],
                    [
                        -71.73010292421566,
                        -80.34243023335274
                    ],
                    [
                        -71.70867255902228,
                        -80.32450416624462
                    ],
                    [
                        -71.68879218372044,
                        -80.306533034199
                    ],
                    [
                        -71.66985742222256,
                        -80.28853289860922
                    ],
                    [
                        -71.65256410425168,
                        -80.2704863918773
                    ],
                    [
                        -71.63665080946411,
                        -80.25240653463742
                    ],
                    [
                        -71.62170630026492,
                        -80.23430254780112
                    ],
                    [
                        -71.60791913264863,
                        -80.21617395595477
                    ],
                    [
                        -71.59564106364697,
                        -80.19801422074667
                    ],
                    [
                        -71.58442844322732,
                        -80.1798382719187
                    ],
                    [
                        -71.57417562749255,
                        -80.16164535163004
                    ],
                    [
                        -71.56457858528894,
                        -80.14344161646369
                    ],
                    [
                        -71.55553598902526,
                        -80.12523116574388
                    ],
                    [
                        -71.54712550003146,
                        -80.1070128928864
                    ],
                    [
                        -71.53957192313537,
                        -80.08878166217052
                    ],
                    [
                        -71.53290068805528,
                        -80.07054215887628
                    ],
                    [
                        -71.52672563815267,
                        -80.05229843817267
                    ],
                    [
                        -71.52144299468786,
                        -80.0340485585285
                    ],
                    [
                        -71.51671129523325,
                        -80.01579135866963
                    ],
                    [
                        -71.51285843893363,
                        -79.99753356104144
                    ],
                    [
                        -71.51001742969405,
                        -79.979266841611
                    ],
                    [
                        -71.50871790356781,
                        -79.96099738719296
                    ],
                    [
                        -71.50921937464983,
                        -79.94272352945849
                    ],
                    [
                        -71.51091428907075,
                        -79.92445556325947
                    ],
                    [
                        -71.51332154762912,
                        -79.90618877363781
                    ],
                    [
                        -71.51656390771687,
                        -79.88792865310768
                    ],
                    [
                        -71.52077641286115,
                        -79.86967375173244
                    ],
                    [
                        -71.52550963914463,
                        -79.85142195646873
                    ],
                    [
                        -71.53063642253694,
                        -79.83317554259142
                    ],
                    [
                        -71.53686339877069,
                        -79.8149426416178
                    ],
                    [
                        -71.54427921773966,
                        -79.79672204024759
                    ],
                    [
                        -71.55372855862915,
                        -79.7785341937344
                    ],
                    [
                        -71.56603880221833,
                        -79.76039682627656
                    ],
                    [
                        -71.58135707269776,
                        -79.7423384785301
                    ],
                    [
                        -71.6008819477586,
                        -79.72440767650033
                    ],
                    [
                        -71.62473290418716,
                        -79.70664953245979
                    ],
                    [
                        -71.6513219641891,
                        -79.68901526031492
                    ],
                    [
                        -71.6803316620854,
                        -79.67150629086602
                    ],
                    [
                        -71.71122477507228,
                        -79.6541051480454
                    ],
                    [
                        -71.74185290530568,
                        -79.6366900213076
                    ],
                    [
                        -71.77165276558543,
                        -79.61923419774739
                    ],
                    [
                        -71.79981623578335,
                        -79.60169258934039
                    ],
                    [
                        -71.82566368657979,
                        -79.58404020421878
                    ],
                    [
                        -71.8489908047744,
                        -79.56627346866016
                    ],
                    [
                        -71.86853582438364,
                        -79.5483624063036
                    ],
                    [
                        -71.88428152393966,
                        -79.5303276819846
                    ],
                    [
                        -71.8963542901514,
                        -79.51220122739744
                    ],
                    [
                        -71.9043144244033,
                        -79.49400128800971
                    ],
                    [
                        -71.90992768893,
                        -79.47577274870007
                    ],
                    [
                        -71.91287675348903,
                        -79.4575210119185
                    ],
                    [
                        -71.91269418222642,
                        -79.4392634348684
                    ],
                    [
                        -71.90927436284379,
                        -79.42102151008977
                    ],
                    [
                        -71.90331050343285,
                        -79.40279641781915
                    ],
                    [
                        -71.89510135080235,
                        -79.38460329594237
                    ],
                    [
                        -71.88593718711871,
                        -79.36642505801693
                    ],
                    [
                        -71.87598532199799,
                        -79.34826376421213
                    ],
                    [
                        -71.86521858325355,
                        -79.33011936696631
                    ],
                    [
                        -71.8529957651133,
                        -79.31200536945752
                    ],
                    [
                        -71.83863678068954,
                        -79.29394789280245
                    ],
                    [
                        -71.82231204320878,
                        -79.27594967348821
                    ],
                    [
                        -71.80400663176968,
                        -79.2580184912196
                    ],
                    [
                        -71.78398512670053,
                        -79.24015235819505
                    ],
                    [
                        -71.76072353042562,
                        -79.22242751952878
                    ],
                    [
                        -71.73518690461287,
                        -79.20481354681031
                    ],
                    [
                        -71.70644080528878,
                        -79.1873809905382
                    ],
                    [
                        -71.6735114028526,
                        -79.17021064591682
                    ],
                    [
                        -71.63793960973878,
                        -79.15323381945466
                    ],
                    [
                        -71.60047663236054,
                        -79.13640560917496
                    ],
                    [
                        -71.56149805469707,
                        -79.11970422645743
                    ],
                    [
                        -71.52025235970821,
                        -79.10320338494395
                    ],
                    [
                        -71.47642570508997,
                        -79.0869519400499
                    ],
                    [
                        -71.43101816181763,
                        -79.07085886298644
                    ],
                    [
                        -71.38438447563895,
                        -79.054903415005
                    ],
                    [
                        -71.33621504614263,
                        -79.03911879221302
                    ],
                    [
                        -71.28619783056062,
                        -79.02355700316994
                    ],
                    [
                        -71.23438011260374,
                        -79.00821308434311
                    ],
                    [
                        -71.18075946867731,
                        -78.99310969932539
                    ],
                    [
                        -71.12518327211917,
                        -78.97827415586109
                    ],
                    [
                        -71.0683350958316,
                        -78.96363229883605
                    ],
                    [
                        -71.01025354718861,
                        -78.94917418477019
                    ],
                    [
                        -70.95099410447783,
                        -78.9349083796339
                    ],
                    [
                        -70.89064892715294,
                        -78.92082279088937
                    ],
                    [
                        -70.82962646344906,
                        -78.90685511212072
                    ],
                    [
                        -70.76774921751768,
                        -78.89304506703179
                    ],
                    [
                        -70.70518012213337,
                        -78.87936051592087
                    ],
                    [
                        -70.64141398853016,
                        -78.86590006101879
                    ],
                    [
                        -70.57659614643467,
                        -78.85264373533504
                    ],
                    [
                        -70.51071127476666,
                        -78.83959649929359
                    ],
                    [
                        -70.44458951808176,
                        -78.8266124598661
                    ],
                    [
                        -70.37865134154234,
                        -78.81360626983988
                    ],
                    [
                        -70.3121299179391,
                        -78.80072618428868
                    ],
                    [
                        -70.2453853791902,
                        -78.78790875019237
                    ],
                    [
                        -70.1787368128513,
                        -78.77508603620865
                    ],
                    [
                        -70.1127014223164,
                        -78.76215878821107
                    ],
                    [
                        -70.04725291484955,
                        -78.74913329819623
                    ],
                    [
                        -69.98215388613801,
                        -78.73605709641313
                    ],
                    [
                        -69.91660602567299,
                        -78.72308107304573
                    ],
                    [
                        -69.85101280209837,
                        -78.71012704120591
                    ],
                    [
                        -69.78551905100392,
                        -78.6971704166334
                    ],
                    [
                        -69.71891227257454,
                        -78.68444991102125
                    ],
                    [
                        -69.65111745512083,
                        -78.67198844002071
                    ],
                    [
                        -69.58261173882195,
                        -78.65969460224427
                    ],
                    [
                        -69.51330393142494,
                        -78.64758941016623
                    ],
                    [
                        -69.44340256668195,
                        -78.63564000141787
                    ],
                    [
                        -69.37260435196245,
                        -78.62391111442096
                    ],
                    [
                        -69.30140513838896,
                        -78.61229684896547
                    ],
                    [
                        -69.23001262804846,
                        -78.60074717403526
                    ],
                    [
                        -69.15863122578922,
                        -78.58920906174208
                    ],
                    [
                        -69.08749984023683,
                        -78.5776273844972
                    ],
                    [
                        -69.01622018170465,
                        -78.56610379587387
                    ],
                    [
                        -68.94466517780032,
                        -78.55466266434028
                    ],
                    [
                        -68.87332638585018,
                        -78.54318712320956
                    ],
                    [
                        -68.80249622177925,
                        -78.53160794139492
                    ],
                    [
                        -68.73217140912428,
                        -78.51992223755063
                    ],
                    [
                        -68.66238927318001,
                        -78.50812147410882
                    ],
                    [
                        -68.5931774991769,
                        -78.49621205661232
                    ],
                    [
                        -68.5243749859066,
                        -78.48421890818248
                    ],
                    [
                        -68.4557159868962,
                        -78.47221732554118
                    ],
                    [
                        -68.38686534858613,
                        -78.46027003422282
                    ],
                    [
                        -68.31788337315704,
                        -78.44837089215082
                    ],
                    [
                        -68.24888842069718,
                        -78.43649688114671
                    ],
                    [
                        -68.1799221702552,
                        -78.42463169455304
                    ],
                    [
                        -68.11098852569481,
                        -78.41277073312898
                    ],
                    [
                        -68.04185411940344,
                        -78.40097662603654
                    ],
                    [
                        -67.97237302996032,
                        -78.3892825637678
                    ],
                    [
                        -67.90204739515683,
                        -78.37781379146757
                    ],
                    [
                        -67.8306655295532,
                        -78.36663009738672
                    ],
                    [
                        -67.75795514725723,
                        -78.35582056310776
                    ],
                    [
                        -67.68331612033558,
                        -78.34558184694143
                    ],
                    [
                        -67.60694733706927,
                        -78.33589787870383
                    ],
                    [
                        -67.52877038210978,
                        -78.3268499277037
                    ],
                    [
                        -67.44829585851197,
                        -78.31868508041548
                    ],
                    [
                        -67.36608371455519,
                        -78.31129771815615
                    ],
                    [
                        -67.28233462527776,
                        -78.30468169279908
                    ],
                    [
                        -67.19688591309585,
                        -78.29904826428806
                    ],
                    [
                        -67.11011630977768,
                        -78.29435673520693
                    ],
                    [
                        -67.02226109722588,
                        -78.29062381023947
                    ],
                    [
                        -66.93336899190996,
                        -78.28811291771352
                    ],
                    [
                        -66.84414535991753,
                        -78.28617613801931
                    ],
                    [
                        -66.75525399102382,
                        -78.28372187512247
                    ],
                    [
                        -66.66846685984021,
                        -78.27911363242643
                    ],
                    [
                        -66.5818840928374,
                        -78.2743784628236
                    ],
                    [
                        -66.49529165593044,
                        -78.26967026780693
                    ],
                    [
                        -66.40908252927251,
                        -78.26471677489782
                    ],
                    [
                        -66.32311112328657,
                        -78.25961532296783
                    ],
                    [
                        -66.23733821643488,
                        -78.25440812989446
                    ],
                    [
                        -66.15183508060412,
                        -78.24904082996581
                    ],
                    [
                        -66.06664275256145,
                        -78.24349615120336
                    ],
                    [
                        -65.98179309190233,
                        -78.23776796862018
                    ],
                    [
                        -65.89731869071889,
                        -78.23183428247515
                    ],
                    [
                        -65.81316928077594,
                        -78.2257443854856
                    ],
                    [
                        -65.72928296144566,
                        -78.21952556971719
                    ],
                    [
                        -65.64572219636229,
                        -78.21314861139889
                    ],
                    [
                        -65.56245058082433,
                        -78.20664015747509
                    ],
                    [
                        -65.47945987965296,
                        -78.20000947464361
                    ],
                    [
                        -65.39676500892182,
                        -78.19325097775716
                    ],
                    [
                        -65.31435126596831,
                        -78.18637234186349
                    ],
                    [
                        -65.23223262663761,
                        -78.179374922756
                    ],
                    [
                        -65.15054196926413,
                        -78.17219007044173
                    ],
                    [
                        -65.06931979433892,
                        -78.16481668221381
                    ],
                    [
                        -64.98850194967387,
                        -78.15727384334023
                    ],
                    [
                        -64.90802105295053,
                        -78.1496054346067
                    ],
                    [
                        -64.82764889078422,
                        -78.14191228812017
                    ],
                    [
                        -64.74719476945374,
                        -78.13427766457201
                    ],
                    [
                        -64.66681510807027,
                        -78.12663718284031
                    ],
                    [
                        -64.58738776269787,
                        -78.1186017798805
                    ],
                    [
                        -64.50937766021293,
                        -78.11002460941394
                    ],
                    [
                        -64.43220887654698,
                        -78.10115624024937
                    ],
                    [
                        -64.35501336554897,
                        -78.0923110770556
                    ],
                    [
                        -64.27761848682806,
                        -78.08356493737466
                    ],
                    [
                        -64.19996493482412,
                        -78.07494016599384
                    ],
                    [
                        -64.12233578772373,
                        -78.06632539056524
                    ],
                    [
                        -64.0447964504514,
                        -78.05769884935683
                    ],
                    [
                        -63.96736216532486,
                        -78.0490519874441
                    ],
                    [
                        -63.89009693020947,
                        -78.04036193124377
                    ],
                    [
                        -63.81309614978064,
                        -78.03159280358523
                    ],
                    [
                        -63.73634326723272,
                        -78.02275620559871
                    ],
                    [
                        -63.65984076743499,
                        -78.01384741088629
                    ],
                    [
                        -63.583639992338966,
                        -78.00484334121822
                    ],
                    [
                        -63.50780844168007,
                        -77.99573278265838
                    ],
                    [
                        -63.432227835307536,
                        -77.98655346573914
                    ],
                    [
                        -63.35685763790999,
                        -77.97731857374478
                    ],
                    [
                        -63.28199257893849,
                        -77.96792454739494
                    ],
                    [
                        -63.20757524121673,
                        -77.95840021893608
                    ],
                    [
                        -63.133439783228376,
                        -77.94879867025014
                    ],
                    [
                        -63.059657578768324,
                        -77.93910104213683
                    ],
                    [
                        -62.98619003126014,
                        -77.9293197296369
                    ],
                    [
                        -62.91311278420775,
                        -77.91943024368975
                    ],
                    [
                        -62.84045043522058,
                        -77.90942516875127
                    ],
                    [
                        -62.76813052277377,
                        -77.89933271399964
                    ],
                    [
                        -62.69613387073349,
                        -77.88915916308972
                    ],
                    [
                        -62.62451667759656,
                        -77.87888412467692
                    ],
                    [
                        -62.55322761766545,
                        -77.86853089933872
                    ],
                    [
                        -62.48221778279714,
                        -77.85811174544762
                    ],
                    [
                        -62.41155089202887,
                        -77.8476091573372
                    ],
                    [
                        -62.34118566648044,
                        -77.83703622286303
                    ],
                    [
                        -62.271069392840104,
                        -77.8264026790508
                    ],
                    [
                        -62.20120132779414,
                        -77.81571885092818
                    ],
                    [
                        -62.13164581082412,
                        -77.80496116683123
                    ],
                    [
                        -62.062372698962804,
                        -77.79414392346172
                    ],
                    [
                        -61.993452599237756,
                        -77.78324119738274
                    ],
                    [
                        -61.92482019794785,
                        -77.77227158296687
                    ],
                    [
                        -61.85648226628151,
                        -77.76124425402367
                    ],
                    [
                        -61.78841647956979,
                        -77.7501547738568
                    ],
                    [
                        -61.72068048449312,
                        -77.73899023041986
                    ],
                    [
                        -61.65329481038797,
                        -77.7277562588406
                    ],
                    [
                        -61.58622834382937,
                        -77.71644431226247
                    ],
                    [
                        -61.51944139891949,
                        -77.70507792591772
                    ],
                    [
                        -61.45296289268748,
                        -77.69364403735986
                    ],
                    [
                        -61.38679229211449,
                        -77.68214690156891
                    ],
                    [
                        -61.32091535495492,
                        -77.67059229388973
                    ],
                    [
                        -61.255295366847854,
                        -77.65898334837804
                    ],
                    [
                        -61.18997487032516,
                        -77.64731690205737
                    ],
                    [
                        -61.124924984157325,
                        -77.63559491975897
                    ],
                    [
                        -61.06012890889966,
                        -77.62382596217392
                    ],
                    [
                        -60.9955581939442,
                        -77.61201928187614
                    ],
                    [
                        -60.93120365476882,
                        -77.60017287803515
                    ],
                    [
                        -60.867089939903074,
                        -77.58827732606855
                    ],
                    [
                        -60.803246572607634,
                        -77.57633630979879
                    ],
                    [
                        -60.7396147178839,
                        -77.56435020208168
                    ],
                    [
                        -60.67622704385557,
                        -77.55232515683714
                    ],
                    [
                        -60.61309210241065,
                        -77.54025610359184
                    ],
                    [
                        -60.55014775019356,
                        -77.52815024836497
                    ],
                    [
                        -60.48743150467358,
                        -77.51600810414034
                    ],
                    [
                        -60.42496184842116,
                        -77.503822669677
                    ],
                    [
                        -60.36272145651476,
                        -77.49159510183334
                    ],
                    [
                        -60.30070346612476,
                        -77.47932992464736
                    ],
                    [
                        -60.238924357091584,
                        -77.4670209356685
                    ],
                    [
                        -60.17735538303122,
                        -77.45467728228631
                    ],
                    [
                        -60.115998909541176,
                        -77.44230358664075
                    ],
                    [
                        -60.054831419127424,
                        -77.42989598957452
                    ],
                    [
                        -59.993844836231304,
                        -77.4174630381935
                    ],
                    [
                        -59.93305051362883,
                        -77.40499682058558
                    ],
                    [
                        -59.872469563842394,
                        -77.39249486634911
                    ],
                    [
                        -59.812114688615516,
                        -77.37995786992899
                    ],
                    [
                        -59.751964403154226,
                        -77.36738850268934
                    ],
                    [
                        -59.69204933321758,
                        -77.35477711633817
                    ],
                    [
                        -59.63233364533253,
                        -77.34213717620838
                    ],
                    [
                        -59.57281538227797,
                        -77.32946223131238
                    ],
                    [
                        -59.51348554715695,
                        -77.31676284626674
                    ],
                    [
                        -59.45421471468381,
                        -77.30406037679495
                    ],
                    [
                        -59.395102993856014,
                        -77.29134251754817
                    ],
                    [
                        -59.336127179759174,
                        -77.27860000493362
                    ],
                    [
                        -59.277350769782046,
                        -77.26583065015554
                    ],
                    [
                        -59.218764964546544,
                        -77.2530323726325
                    ],
                    [
                        -59.16037375035562,
                        -77.24020370180378
                    ],
                    [
                        -59.10205925966299,
                        -77.22737049581256
                    ],
                    [
                        -59.04371842141842,
                        -77.21455834791753
                    ],
                    [
                        -58.98553836707508,
                        -77.20172107228211
                    ],
                    [
                        -58.92773863911396,
                        -77.18881485286627
                    ],
                    [
                        -58.870159783727054,
                        -77.17587380571774
                    ],
                    [
                        -58.81278045195922,
                        -77.16290051907941
                    ],
                    [
                        -58.75554466779013,
                        -77.1499120269518
                    ],
                    [
                        -58.69843182557108,
                        -77.13690882861219
                    ],
                    [
                        -58.64145579050429,
                        -77.1238875594624
                    ],
                    [
                        -58.584604360895675,
                        -77.11085090326173
                    ],
                    [
                        -58.52785683604112,
                        -77.09780463460874
                    ],
                    [
                        -58.47122707298226,
                        -77.08474538559715
                    ],
                    [
                        -58.414727341790275,
                        -77.07167385129726
                    ],
                    [
                        -58.358323051019255,
                        -77.0585938880269
                    ],
                    [
                        -58.30203364900483,
                        -77.04550183611775
                    ],
                    [
                        -58.24585971243675,
                        -77.03239571025603
                    ],
                    [
                        -58.189810510162424,
                        -77.01927901193712
                    ],
                    [
                        -58.133892521946585,
                        -77.00614417067058
                    ],
                    [
                        -58.07816794946658,
                        -76.99298071356664
                    ],
                    [
                        -58.02263310143531,
                        -76.97978825128715
                    ],
                    [
                        -57.96731634522773,
                        -76.96656340779643
                    ],
                    [
                        -57.912228936752044,
                        -76.95330041769891
                    ],
                    [
                        -57.857363319225016,
                        -76.94000372836955
                    ],
                    [
                        -57.80272309477972,
                        -76.92666863573587
                    ],
                    [
                        -57.748303562286615,
                        -76.91330536413732
                    ],
                    [
                        -57.69406314531688,
                        -76.8999134914753
                    ],
                    [
                        -57.63998693561288,
                        -76.88650174940014
                    ],
                    [
                        -57.58605007828468,
                        -76.87306882085987
                    ],
                    [
                        -57.532263091017604,
                        -76.85962277694978
                    ],
                    [
                        -57.47859840726402,
                        -76.84615649486491
                    ],
                    [
                        -57.4250588417709,
                        -76.8326790811911
                    ],
                    [
                        -57.37167443994965,
                        -76.81918314316044
                    ],
                    [
                        -57.318410966623865,
                        -76.80567241158757
                    ],
                    [
                        -57.26527248569885,
                        -76.79214540115083
                    ],
                    [
                        -57.21229074040391,
                        -76.7786025468483
                    ],
                    [
                        -57.15945754765461,
                        -76.76504167322548
                    ],
                    [
                        -57.10677555431693,
                        -76.75145678352084
                    ],
                    [
                        -57.054231806337235,
                        -76.73785579150902
                    ],
                    [
                        -57.00184773979115,
                        -76.72423440735264
                    ],
                    [
                        -56.94960135619592,
                        -76.71059703904348
                    ],
                    [
                        -56.89749769491908,
                        -76.69694020033158
                    ],
                    [
                        -56.84552585591535,
                        -76.68327102711655
                    ],
                    [
                        -56.79370710749749,
                        -76.66958196845496
                    ],
                    [
                        -56.74204548528173,
                        -76.65587156913153
                    ],
                    [
                        -56.69054944111514,
                        -76.6421401343656
                    ],
                    [
                        -56.639181717520735,
                        -76.62839080846858
                    ],
                    [
                        -56.58796173105643,
                        -76.61462664102773
                    ],
                    [
                        -56.53688910127035,
                        -76.60084441723264
                    ],
                    [
                        -56.48594400375148,
                        -76.5870444631609
                    ],
                    [
                        -56.43513708017795,
                        -76.57322959228955
                    ],
                    [
                        -56.38447016134598,
                        -76.55939255297349
                    ],
                    [
                        -56.333953867748214,
                        -76.54554272043579
                    ],
                    [
                        -56.28357379252765,
                        -76.53167688030189
                    ],
                    [
                        -56.23333938785606,
                        -76.51779332556133
                    ],
                    [
                        -56.18324066966638,
                        -76.50389059901491
                    ],
                    [
                        -56.13331509735515,
                        -76.48997029214769
                    ],
                    [
                        -56.08349120303866,
                        -76.47603442994101
                    ],
                    [
                        -56.03368661568579,
                        -76.4621051153787
                    ],
                    [
                        -55.98396474089013,
                        -76.44817485764122
                    ],
                    [
                        -55.93438061888561,
                        -76.43422285774687
                    ],
                    [
                        -55.884933718318706,
                        -76.42025899173615
                    ],
                    [
                        -55.835604538468054,
                        -76.40628025374595
                    ],
                    [
                        -55.786449880938775,
                        -76.39227824607897
                    ],
                    [
                        -55.73747897951978,
                        -76.3782545792165
                    ],
                    [
                        -55.688619747485085,
                        -76.36421318126615
                    ],
                    [
                        -55.63995450776736,
                        -76.3501465122238
                    ],
                    [
                        -55.5914840692966,
                        -76.33605264969762
                    ],
                    [
                        -55.543187550374086,
                        -76.3219371576273
                    ],
                    [
                        -55.49510251537051,
                        -76.30778865670499
                    ],
                    [
                        -55.44721636562096,
                        -76.29361626728479
                    ],
                    [
                        -55.39950448611899,
                        -76.27941721909362
                    ],
                    [
                        -55.35194702769036,
                        -76.26519830923122
                    ],
                    [
                        -55.30451036529715,
                        -76.25096626093725
                    ],
                    [
                        -55.257213284933506,
                        -76.23672094928935
                    ],
                    [
                        -55.21003016560952,
                        -76.2224615578418
                    ],
                    [
                        -55.16304078359589,
                        -76.20817818529945
                    ],
                    [
                        -55.116207700766765,
                        -76.19387249700185
                    ],
                    [
                        -55.069446413988395,
                        -76.17956703363633
                    ],
                    [
                        -55.02277804281037,
                        -76.16525060210867
                    ],
                    [
                        -54.97620709315332,
                        -76.15092551378845
                    ],
                    [
                        -54.92973332162391,
                        -76.13659179827425
                    ],
                    [
                        -54.883356485332065,
                        -76.12224948506285
                    ],
                    [
                        -54.83707634189178,
                        -76.1078986035495
                    ],
                    [
                        -54.790892649422034,
                        -76.09353918302834
                    ],
                    [
                        -54.74480516654762,
                        -76.0791712526927
                    ],
                    [
                        -54.69881365239994,
                        -76.06479484163546
                    ],
                    [
                        -54.65291786661778,
                        -76.05040997884933
                    ],
                    [
                        -54.60711756934807,
                        -76.03601669322727
                    ],
                    [
                        -54.56141252124668,
                        -76.02161501356281
                    ],
                    [
                        -54.51580248347901,
                        -76.00720496855028
                    ],
                    [
                        -54.470287217720774,
                        -75.99278658678536
                    ],
                    [
                        -54.42486648615859,
                        -75.97835989676518
                    ],
                    [
                        -54.37954005149067,
                        -75.96392492688884
                    ],
                    [
                        -54.33430767692738,
                        -75.94948170545759
                    ],
                    [
                        -54.28916912619188,
                        -75.93503026067533
                    ],
                    [
                        -54.2441241635206,
                        -75.9205706206488
                    ],
                    [
                        -54.199172553663885,
                        -75.906102813388
                    ],
                    [
                        -54.15431406188644,
                        -75.89162686680648
                    ]
                ]
            }
        }
    ]
}
