{
    "type": "FeatureCollection",
    "features": [
        {
            "type": "Feature",
            "properties": {
                "name": "Abbot",
                "object": "transect",
                "component": "landice",
                "author": "Matthew Hoffman, converted from https://github.com/yuwang115/sl-ice",
                "tags": "Antarctic_Ice_Sheet;flowline;sl-ice;abbot"
            },
            "geometry": {
                "type": "LineString",
                "coordinates": [
                    [
                        -90.07323045616612,
                        -74.06423806822998
                    ],
                    [
                        -90.0077673010718,
                        -74.063507303229
                    ],
                    [
                        -89.94395387213255,
                        -74.05922518053407
                    ],
                    [
                        -89.87909709274494,
                        -74.05665017955353
                    ],
                    [
                        -89.81401777805483,
                        -74.0541081049915
                    ],
                    [
                        -89.74878950907905,
                        -74.05190596795286
                    ],
                    [
                        -89.68362782590764,
                        -74.04957058761944
                    ],
                    [
                        -89.61842626837195,
                        -74.04749207305484
                    ],
                    [
                        -89.55321532685787,
                        -74.04865064630714
                    ],
                    [
                        -89.4879758621518,
                        -74.04804886110452
                    ],
                    [
                        -89.42250952660683,
                        -74.04864557940374
                    ],
                    [
                        -89.35914492510295,
                        -74.05316705331235
                    ],
                    [
                        -89.29547051643891,
                        -74.05180607352872
                    ],
                    [
                        -89.23029020105858,
                        -74.04959522356896
                    ],
                    [
                        -89.16471566171785,
                        -74.04845369944385
                    ],
                    [
                        -89.09920792458668,
                        -74.0493363034921
                    ],
                    [
                        -89.03384191811843,
                        -74.04851945350916
                    ],
                    [
                        -88.97295105083789,
                        -74.04229324810797
                    ],
                    [
                        -88.9192344910885,
                        -74.03195850808201
                    ],
                    [
                        -88.87812753312254,
                        -74.01794150456143
                    ],
                    [
                        -88.85136389000917,
                        -74.00161480467507
                    ],
                    [
                        -88.84180862015305,
                        -73.98380982696506
                    ],
                    [
                        -88.84097873594627,
                        -73.96575228598029
                    ],
                    [
                        -88.81889763669493,
                        -73.94967469233853
                    ],
                    [
                        -88.77712448031194,
                        -73.93579842332937
                    ],
                    [
                        -88.74546352611966,
                        -73.92036389461165
                    ],
                    [
                        -88.69537514930857,
                        -73.90883591313442
                    ],
                    [
                        -88.64864558726721,
                        -73.89631683962999
                    ],
                    [
                        -88.61492151102122,
                        -73.88097539312813
                    ],
                    [
                        -88.59389548081896,
                        -73.86390736067699
                    ],
                    [
                        -88.57322647612362,
                        -73.84679578743477
                    ],
                    [
                        -88.56549375108385,
                        -73.82887546530601
                    ],
                    [
                        -88.5516096072067,
                        -73.81125538750209
                    ],
                    [
                        -88.53437598450601,
                        -73.79385211792574
                    ],
                    [
                        -88.527769205405,
                        -73.77589143638328
                    ],
                    [
                        -88.51573527983307,
                        -73.75819082624511
                    ],
                    [
                        -88.5006777724184,
                        -73.74063677784947
                    ],
                    [
                        -88.48235402864285,
                        -73.72334140622233
                    ],
                    [
                        -88.45654362617465,
                        -73.70684250085212
                    ],
                    [
                        -88.42064690735104,
                        -73.69192044856993
                    ],
                    [
                        -88.37736110821118,
                        -73.67858568909055
                    ],
                    [
                        -88.33381371657656,
                        -73.66533064363908
                    ],
                    [
                        -88.29223489505223,
                        -73.65159148883568
                    ],
                    [
                        -88.25128273965456,
                        -73.63771004743627
                    ],
                    [
                        -88.20998307516793,
                        -73.62392368997344
                    ],
                    [
                        -88.1672407209265,
                        -73.61050036254527
                    ],
                    [
                        -88.11874021925645,
                        -73.59874976230938
                    ],
                    [
                        -88.070252448043,
                        -73.58701625658287
                    ],
                    [
                        -88.02572983247126,
                        -73.57410691859646
                    ],
                    [
                        -87.9889323813728,
                        -73.55940189090207
                    ],
                    [
                        -87.9614381908702,
                        -73.54317887957113
                    ],
                    [
                        -87.94422372209746,
                        -73.52583839244997
                    ],
                    [
                        -87.93516561299079,
                        -73.50798104971918
                    ],
                    [
                        -87.92956067165794,
                        -73.49001405916255
                    ],
                    [
                        -87.92653760438594,
                        -73.47199205047336
                    ],
                    [
                        -87.92356222405581,
                        -73.45397211445528
                    ],
                    [
                        -87.91944890503875,
                        -73.4359699537927
                    ],
                    [
                        -87.91325190159333,
                        -73.41801984663164
                    ],
                    [
                        -87.9019872486653,
                        -73.40027441682655
                    ],
                    [
                        -87.88812887730784,
                        -73.38267750773794
                    ],
                    [
                        -87.87387451208723,
                        -73.36510746083115
                    ],
                    [
                        -87.85884395731979,
                        -73.34759258574428
                    ],
                    [
                        -87.84351522636774,
                        -73.3301017426312
                    ],
                    [
                        -87.82946483883819,
                        -73.31252388144958
                    ],
                    [
                        -87.8172372797732,
                        -73.29484092899733
                    ],
                    [
                        -87.8102994888825,
                        -73.27693538826004
                    ],
                    [
                        -87.81204552555013,
                        -73.25893655982203
                    ],
                    [
                        -87.8316725142573,
                        -73.24184293944444
                    ],
                    [
                        -87.85625565149655,
                        -73.22526860877454
                    ],
                    [
                        -87.8748133110589,
                        -73.20808031250792
                    ],
                    [
                        -87.88240545873437,
                        -73.19020519277434
                    ],
                    [
                        -87.88162050043512,
                        -73.17220238395288
                    ],
                    [
                        -87.8734274404651,
                        -73.15434533432646
                    ],
                    [
                        -87.85940884099242,
                        -73.13678622304737
                    ],
                    [
                        -87.84252359993559,
                        -73.11944143787959
                    ],
                    [
                        -87.82372884201735,
                        -73.10226387999457
                    ],
                    [
                        -87.80310867301881,
                        -73.0852664840143
                    ],
                    [
                        -87.78126520706557,
                        -73.06840308315101
                    ],
                    [
                        -87.7588946513551,
                        -73.05160089434793
                    ],
                    [
                        -87.73612650220304,
                        -73.03484857683365
                    ],
                    [
                        -87.71292736648928,
                        -73.01814918491888
                    ],
                    [
                        -87.68922578315653,
                        -73.00151432056559
                    ],
                    [
                        -87.66506382189243,
                        -72.98493796119901
                    ],
                    [
                        -87.64051400025066,
                        -72.96841537305038
                    ],
                    [
                        -87.61520439444435,
                        -72.95199594359359
                    ],
                    [
                        -87.5885910888781,
                        -72.93575827096626
                    ],
                    [
                        -87.56319604369989,
                        -72.91935755663187
                    ],
                    [
                        -87.53785042377648,
                        -72.90295421885905
                    ],
                    [
                        -87.51255409484756,
                        -72.88654826829428
                    ],
                    [
                        -87.48730692309765,
                        -72.87013971554762
                    ],
                    [
                        -87.46210877515446,
                        -72.8537285711929
                    ],
                    [
                        -87.43695951808733,
                        -72.83731484576784
                    ],
                    [
                        -87.41185901940557,
                        -72.82089854977416
                    ],
                    [
                        -87.38680714705679,
                        -72.80447969367782
                    ],
                    [
                        -87.3618037694255,
                        -72.78805828790914
                    ],
                    [
                        -87.33684875533132,
                        -72.77163434286292
                    ],
                    [
                        -87.31194197402748,
                        -72.75520786889868
                    ],
                    [
                        -87.28708329519917,
                        -72.73877887634067
                    ],
                    [
                        -87.26227258896208,
                        -72.72234737547815
                    ],
                    [
                        -87.23750972586073,
                        -72.70591337656549
                    ],
                    [
                        -87.21279457686693,
                        -72.68947688982232
                    ],
                    [
                        -87.18812701337818,
                        -72.67303792543366
                    ],
                    [
                        -87.16350690721622,
                        -72.65659649355014
                    ],
                    [
                        -87.13893413062536,
                        -72.640152604288
                    ],
                    [
                        -87.11440855627104,
                        -72.62370626772946
                    ],
                    [
                        -87.08993005723816,
                        -72.60725749392263
                    ]
                ]
            }
        }
    ]
}
