{
    "type": "FeatureCollection",
    "features": [
        {
            "type": "Feature",
            "properties": {
                "name": "Bailey",
                "object": "transect",
                "component": "landice",
                "author": "Matthew Hoffman, converted from https://github.com/yuwang115/sl-ice",
                "tags": "Antarctic_Ice_Sheet;flowline;sl-ice;bailey"
            },
            "geometry": {
                "type": "LineString",
                "coordinates": [
                    [
                        -10.977137916625223,
                        -77.36021651213395
                    ],
                    [
                        -11.001455005401873,
                        -77.37760657110246
                    ],
                    [
                        -11.031010972785063,
                        -77.39461457064795
                    ],
                    [
                        -11.06387333326987,
                        -77.41133395194319
                    ],
                    [
                        -11.101783308687487,
                        -77.42754305696027
                    ],
                    [
                        -11.143349324067197,
                        -77.44332960724238
                    ],
                    [
                        -11.188085591799071,
                        -77.45870572384355
                    ],
                    [
                        -11.236025993540142,
                        -77.47363338999718
                    ],
                    [
                        -11.285063477153956,
                        -77.48840080530073
                    ],
                    [
                        -11.334501214854098,
                        -77.50311379637978
                    ],
                    [
                        -11.384924650197876,
                        -77.51768081377374
                    ],
                    [
                        -11.436887308491794,
                        -77.53200200961851
                    ],
                    [
                        -11.49089462756485,
                        -77.5459754999718
                    ],
                    [
                        -11.547077413453959,
                        -77.55955817085874
                    ],
                    [
                        -11.604542476740285,
                        -77.57290062960206
                    ],
                    [
                        -11.66251738204982,
                        -77.58615533140491
                    ],
                    [
                        -11.720105355801458,
                        -77.5994995193415
                    ],
                    [
                        -11.77670033443933,
                        -77.61304985359772
                    ],
                    [
                        -11.832165388579753,
                        -77.62682710013236
                    ],
                    [
                        -11.886682872874413,
                        -77.64078842711797
                    ],
                    [
                        -11.94139156083485,
                        -77.65472757206099
                    ],
                    [
                        -11.996982343083422,
                        -77.66851540668969
                    ],
                    [
                        -12.053605216512688,
                        -77.682126003708
                    ],
                    [
                        -12.110850355578728,
                        -77.69562780006714
                    ],
                    [
                        -12.168952431671514,
                        -77.70897522805416
                    ],
                    [
                        -12.228040001242716,
                        -77.722138580879
                    ],
                    [
                        -12.287546374795712,
                        -77.73523106557991
                    ],
                    [
                        -12.347693135649733,
                        -77.7482030244189
                    ],
                    [
                        -12.41030329509239,
                        -77.76065023848136
                    ],
                    [
                        -12.475597724259302,
                        -77.77247112192795
                    ],
                    [
                        -12.543461310055902,
                        -77.78364853602356
                    ],
                    [
                        -12.612145833542856,
                        -77.7946204125274
                    ],
                    [
                        -12.680458736906477,
                        -77.80571062086399
                    ],
                    [
                        -12.748336804191931,
                        -77.81693376761031
                    ],
                    [
                        -12.816106925115148,
                        -77.8282064445455
                    ],
                    [
                        -12.883879817168271,
                        -77.83949545725305
                    ],
                    [
                        -12.95123145366966,
                        -77.85091201962996
                    ],
                    [
                        -13.017171738011498,
                        -77.86270280698953
                    ],
                    [
                        -13.082112180366035,
                        -77.87475638279633
                    ],
                    [
                        -13.146795297838429,
                        -77.88688290747861
                    ],
                    [
                        -13.212700012156926,
                        -77.89873391571201
                    ],
                    [
                        -13.27998283303486,
                        -77.91025399289043
                    ],
                    [
                        -13.349011639396737,
                        -77.92133021492899
                    ],
                    [
                        -13.4200438320538,
                        -77.93185187735263
                    ],
                    [
                        -13.492340943549648,
                        -77.94201343996549
                    ],
                    [
                        -13.56552766894318,
                        -77.95191511406246
                    ],
                    [
                        -13.639557203316148,
                        -77.96155284607524
                    ],
                    [
                        -13.714189187764005,
                        -77.97101494368755
                    ],
                    [
                        -13.789016353842783,
                        -77.98042671058805
                    ],
                    [
                        -13.863624511148245,
                        -77.98993311058875
                    ],
                    [
                        -13.938098081909105,
                        -77.99950944448298
                    ],
                    [
                        -14.012526475321778,
                        -78.00911656340625
                    ],
                    [
                        -14.086851890510266,
                        -78.01878107091702
                    ],
                    [
                        -14.160973366013947,
                        -78.02853097978512
                    ],
                    [
                        -14.234762841028116,
                        -78.03840901187425
                    ],
                    [
                        -14.30820704402406,
                        -78.04841439843422
                    ],
                    [
                        -14.38152662524425,
                        -78.05848225034502
                    ],
                    [
                        -14.454485564272307,
                        -78.06867802485966
                    ],
                    [
                        -14.52685019602353,
                        -78.07907957939739
                    ],
                    [
                        -14.599072521158988,
                        -78.08953431064015
                    ],
                    [
                        -14.671743152887027,
                        -78.09987776449722
                    ],
                    [
                        -14.74522642502852,
                        -78.10999469759693
                    ],
                    [
                        -14.819710766442713,
                        -78.11981193901055
                    ],
                    [
                        -14.895004146876436,
                        -78.12938807659987
                    ],
                    [
                        -14.970924960638264,
                        -78.13876816931938
                    ],
                    [
                        -15.046987226594108,
                        -78.14812939169398
                    ],
                    [
                        -15.122836049445844,
                        -78.15757912919105
                    ],
                    [
                        -15.198577308467348,
                        -78.16708535171527
                    ],
                    [
                        -15.274702502476934,
                        -78.17648381244442
                    ],
                    [
                        -15.351542808694436,
                        -78.18565731352673
                    ],
                    [
                        -15.429512515099114,
                        -78.19444188594159
                    ],
                    [
                        -15.508624217786268,
                        -78.20280536048715
                    ],
                    [
                        -15.58912973039653,
                        -78.21062711596218
                    ],
                    [
                        -15.670950464411954,
                        -78.21787499947328
                    ],
                    [
                        -15.753352637613787,
                        -78.2248660118527
                    ],
                    [
                        -15.835615912568343,
                        -78.23195268584301
                    ],
                    [
                        -15.917250643740116,
                        -78.2393551509038
                    ],
                    [
                        -15.998210277389267,
                        -78.2470865344129
                    ],
                    [
                        -16.078398606524505,
                        -78.25516104114605
                    ],
                    [
                        -16.15717111148328,
                        -78.26381692113769
                    ],
                    [
                        -16.234957207001916,
                        -78.2728635128411
                    ],
                    [
                        -16.311964490931746,
                        -78.28219855567781
                    ],
                    [
                        -16.388499185608556,
                        -78.29171163238979
                    ],
                    [
                        -16.464804636872252,
                        -78.30132413891887
                    ],
                    [
                        -16.54087118971844,
                        -78.31103508828384
                    ],
                    [
                        -16.61685415257797,
                        -78.32078978808879
                    ],
                    [
                        -16.693146506924556,
                        -78.33047228493105
                    ],
                    [
                        -16.76967311907514,
                        -78.34009548743883
                    ],
                    [
                        -16.84602257291152,
                        -78.34979388374977
                    ],
                    [
                        -16.921991491915215,
                        -78.35963547839827
                    ],
                    [
                        -16.997656161241334,
                        -78.36959794978527
                    ],
                    [
                        -17.073152124778847,
                        -78.37962660487139
                    ],
                    [
                        -17.148854708174024,
                        -78.3896134986511
                    ],
                    [
                        -17.22483749487912,
                        -78.39953865171852
                    ],
                    [
                        -17.30171730789055,
                        -78.40919334274892
                    ],
                    [
                        -17.380766853958164,
                        -78.4181261692863
                    ],
                    [
                        -17.462697980955806,
                        -78.42597260040276
                    ],
                    [
                        -17.54740535096561,
                        -78.43255031787376
                    ],
                    [
                        -17.63344134511737,
                        -78.43842963456852
                    ],
                    [
                        -17.719902732987293,
                        -78.44408446862717
                    ],
                    [
                        -17.80636893997931,
                        -78.44975855149494
                    ],
                    [
                        -17.892871342586677,
                        -78.4554413114727
                    ],
                    [
                        -17.979381005811145,
                        -78.46114711938033
                    ],
                    [
                        -18.06554909969119,
                        -78.4670790477786
                    ],
                    [
                        -18.151794542037017,
                        -78.47299257512442
                    ],
                    [
                        -18.238197347506013,
                        -78.47884305034776
                    ],
                    [
                        -18.324957036517684,
                        -78.48449324765807
                    ],
                    [
                        -18.411932377783163,
                        -78.4900451905709
                    ],
                    [
                        -18.498917144702073,
                        -78.49561809555946
                    ],
                    [
                        -18.585510395992767,
                        -78.50144856172693
                    ],
                    [
                        -18.671106683414976,
                        -78.5078600381551
                    ],
                    [
                        -18.7558460012539,
                        -78.51473601047813
                    ],
                    [
                        -18.83994985942997,
                        -78.52194439593545
                    ],
                    [
                        -18.92334941895926,
                        -78.52948997078241
                    ],
                    [
                        -19.006247322897558,
                        -78.53727125556009
                    ],
                    [
                        -19.088853715988467,
                        -78.54520899563754
                    ],
                    [
                        -19.171339841924773,
                        -78.55321081400217
                    ],
                    [
                        -19.254334533579684,
                        -78.56103060814695
                    ],
                    [
                        -19.337756770637355,
                        -78.56868985031446
                    ],
                    [
                        -19.421365212295207,
                        -78.57630349142204
                    ],
                    [
                        -19.504704243801186,
                        -78.58404840522586
                    ],
                    [
                        -19.587950344975923,
                        -78.59185844283772
                    ],
                    [
                        -19.67063839539476,
                        -78.59990902741126
                    ],
                    [
                        -19.75315320148696,
                        -78.6080593946616
                    ],
                    [
                        -19.835699452304997,
                        -78.61622456017054
                    ],
                    [
                        -19.918865377302694,
                        -78.62415986876286
                    ],
                    [
                        -20.002369067089887,
                        -78.63198861854819
                    ],
                    [
                        -20.09027107130494,
                        -78.63733360823738
                    ],
                    [
                        -20.182048649202113,
                        -78.63714773505595
                    ],
                    [
                        -20.272689599823124,
                        -78.63354957393483
                    ],
                    [
                        -20.361627223305362,
                        -78.62856158495244
                    ],
                    [
                        -20.449525597786916,
                        -78.62292335554372
                    ],
                    [
                        -20.536647144792937,
                        -78.61685393408311
                    ],
                    [
                        -20.62387835286719,
                        -78.61088068294683
                    ],
                    [
                        -20.712176730558586,
                        -78.60560068781825
                    ],
                    [
                        -20.802047974231947,
                        -78.60151730005248
                    ],
                    [
                        -20.893102360624408,
                        -78.59862531323878
                    ],
                    [
                        -20.984416877442275,
                        -78.59611498727782
                    ],
                    [
                        -21.075658070192958,
                        -78.59351097824043
                    ],
                    [
                        -21.166716633591335,
                        -78.59071304825629
                    ],
                    [
                        -21.257716426016533,
                        -78.58786701655822
                    ],
                    [
                        -21.34877748291283,
                        -78.58511429500702
                    ],
                    [
                        -21.43999579339339,
                        -78.58260423069368
                    ],
                    [
                        -21.53134916720034,
                        -78.58033493080185
                    ],
                    [
                        -21.622842294634356,
                        -78.5783328212427
                    ],
                    [
                        -21.714504082227883,
                        -78.57670000152547
                    ],
                    [
                        -21.80624530510612,
                        -78.57526244063301
                    ],
                    [
                        -21.897994445535115,
                        -78.57386992086496
                    ],
                    [
                        -21.98963212505076,
                        -78.57224894209814
                    ],
                    [
                        -22.080983900752855,
                        -78.57011808003493
                    ],
                    [
                        -22.171831505068305,
                        -78.56730231860861
                    ],
                    [
                        -22.262356766409447,
                        -78.56415053907027
                    ],
                    [
                        -22.353702962726164,
                        -78.56213141627639
                    ],
                    [
                        -22.445401014445174,
                        -78.56093662559746
                    ],
                    [
                        -22.537133921424246,
                        -78.55986715473388
                    ],
                    [
                        -22.628788048396455,
                        -78.55858301252917
                    ],
                    [
                        -22.720552297029627,
                        -78.55762455951086
                    ],
                    [
                        -22.81214095984219,
                        -78.55622999735711
                    ],
                    [
                        -22.903502821549782,
                        -78.5543287071862
                    ],
                    [
                        -22.99502746292859,
                        -78.55286941916094
                    ],
                    [
                        -23.08657818395878,
                        -78.55146707966112
                    ],
                    [
                        -23.177608056834263,
                        -78.54912610794435
                    ],
                    [
                        -23.267784067702,
                        -78.54572869764482
                    ],
                    [
                        -23.35767022707191,
                        -78.54206818290909
                    ],
                    [
                        -23.447947301075907,
                        -78.53883282207053
                    ],
                    [
                        -23.53887587179912,
                        -78.53646981350505
                    ],
                    [
                        -23.630461232875117,
                        -78.53579473058308
                    ],
                    [
                        -23.722100317698846,
                        -78.53640913519098
                    ],
                    [
                        -23.813666692439746,
                        -78.53745398255553
                    ],
                    [
                        -23.905217340577785,
                        -78.53850249565065
                    ],
                    [
                        -23.996901285500993,
                        -78.53914142406303
                    ],
                    [
                        -24.088617515314077,
                        -78.53940373079692
                    ],
                    [
                        -24.180308820712245,
                        -78.53995119654708
                    ],
                    [
                        -24.271878313413588,
                        -78.54098415698047
                    ],
                    [
                        -24.363384657375438,
                        -78.54233541714038
                    ],
                    [
                        -24.454866256772554,
                        -78.54375193873369
                    ],
                    [
                        -24.54636043653282,
                        -78.54517240902143
                    ],
                    [
                        -24.637862825478688,
                        -78.54658822951713
                    ],
                    [
                        -24.72943446380067,
                        -78.54783827231978
                    ],
                    [
                        -24.821050152182988,
                        -78.54900881744936
                    ],
                    [
                        -24.912671395261516,
                        -78.55018363574071
                    ],
                    [
                        -25.004341131209056,
                        -78.55121696186458
                    ],
                    [
                        -25.096089137958455,
                        -78.55198087603355
                    ],
                    [
                        -25.187862786062453,
                        -78.55262067005016
                    ],
                    [
                        -25.279615762842756,
                        -78.55344889254718
                    ],
                    [
                        -25.371318593287835,
                        -78.55447888242718
                    ],
                    [
                        -25.46297223588515,
                        -78.55564747747155
                    ],
                    [
                        -25.554586898724303,
                        -78.55701877031154
                    ],
                    [
                        -25.646025811350434,
                        -78.55879744195265
                    ],
                    [
                        -25.737115881807416,
                        -78.56118333633013
                    ],
                    [
                        -25.827816582038388,
                        -78.56413955960686
                    ],
                    [
                        -25.91833105192421,
                        -78.56733505510512
                    ],
                    [
                        -26.008726346244778,
                        -78.57069512388439
                    ],
                    [
                        -26.098974986508864,
                        -78.57423616080712
                    ],
                    [
                        -26.18898254110332,
                        -78.57802180268783
                    ],
                    [
                        -26.278703838945127,
                        -78.58211422368686
                    ],
                    [
                        -26.36813048882248,
                        -78.58646234307994
                    ],
                    [
                        -26.457469688502222,
                        -78.59091936519911
                    ],
                    [
                        -26.54673861085486,
                        -78.59545238204076
                    ],
                    [
                        -26.63536433097289,
                        -78.60047137291114
                    ],
                    [
                        -26.722093906487284,
                        -78.60664670620508
                    ],
                    [
                        -26.80675949184483,
                        -78.61390529160397
                    ],
                    [
                        -26.890590936636393,
                        -78.62155045491112
                    ],
                    [
                        -26.972030382583558,
                        -78.63016252469288
                    ],
                    [
                        -27.050704506045818,
                        -78.63974588114543
                    ],
                    [
                        -27.127374324815563,
                        -78.64996624673412
                    ],
                    [
                        -27.202746573372846,
                        -78.660574207006
                    ],
                    [
                        -27.275144380872888,
                        -78.67196478132271
                    ],
                    [
                        -27.34300496158637,
                        -78.68440627359887
                    ],
                    [
                        -27.407538123634207,
                        -78.6975298302385
                    ],
                    [
                        -27.47010843206603,
                        -78.71102929408667
                    ],
                    [
                        -27.531060579533673,
                        -78.7248245143545
                    ],
                    [
                        -27.591685993637643,
                        -78.73868894736418
                    ],
                    [
                        -27.652802980805987,
                        -78.75248154581718
                    ],
                    [
                        -27.71406262175205,
                        -78.7662625557422
                    ],
                    [
                        -27.7743124861111,
                        -78.780224312855
                    ],
                    [
                        -27.83472602533173,
                        -78.79417479043998
                    ],
                    [
                        -27.89722170347568,
                        -78.80777647037604
                    ],
                    [
                        -27.965016409370712,
                        -78.82039761131416
                    ],
                    [
                        -28.036840224929318,
                        -78.83217592512668
                    ],
                    [
                        -28.10895892760647,
                        -78.8439150265586
                    ],
                    [
                        -28.179427902827765,
                        -78.85602727228033
                    ],
                    [
                        -28.247059468333436,
                        -78.86875121663941
                    ],
                    [
                        -28.312389214926192,
                        -78.88193394346781
                    ],
                    [
                        -28.376671078472267,
                        -78.89531802280891
                    ],
                    [
                        -28.439869937405504,
                        -78.90891094791081
                    ],
                    [
                        -28.50207362962605,
                        -78.92268351198841
                    ],
                    [
                        -28.563730925896134,
                        -78.93655828471803
                    ],
                    [
                        -28.625290314867392,
                        -78.95046480388945
                    ],
                    [
                        -28.687291330713805,
                        -78.9643144428782
                    ],
                    [
                        -28.749977023614708,
                        -78.97805866292502
                    ],
                    [
                        -28.81397112717833,
                        -78.99159727521858
                    ],
                    [
                        -28.879992455941352,
                        -79.00479042968828
                    ],
                    [
                        -28.94752383262955,
                        -79.01771646998822
                    ],
                    [
                        -29.016121806872235,
                        -79.03045153734125
                    ],
                    [
                        -29.085519683056656,
                        -79.04304822776446
                    ],
                    [
                        -29.1552481370199,
                        -79.05559338755785
                    ],
                    [
                        -29.225038722325934,
                        -79.06814148985234
                    ],
                    [
                        -29.294868151640404,
                        -79.08070133910374
                    ],
                    [
                        -29.36438607652806,
                        -79.09333544634194
                    ],
                    [
                        -29.433503698504733,
                        -79.10606617605548
                    ],
                    [
                        -29.50213489579004,
                        -79.11890941181879
                    ],
                    [
                        -29.57023878155973,
                        -79.13186472958407
                    ],
                    [
                        -29.637718765617436,
                        -79.1449502802697
                    ],
                    [
                        -29.70435840720694,
                        -79.15820555958842
                    ],
                    [
                        -29.770395035000416,
                        -79.17158045862169
                    ],
                    [
                        -29.8358003446093,
                        -79.185075325242
                    ],
                    [
                        -29.90067372402552,
                        -79.19868095404512
                    ],
                    [
                        -29.96563558537271,
                        -79.21228127681015
                    ],
                    [
                        -30.031808414581576,
                        -79.22568858540488
                    ],
                    [
                        -30.099439075238845,
                        -79.23885759191515
                    ],
                    [
                        -30.167295240271113,
                        -79.25199814815511
                    ],
                    [
                        -30.235061930707193,
                        -79.26517609144811
                    ],
                    [
                        -30.301552452726003,
                        -79.27858511805678
                    ],
                    [
                        -30.367689584163816,
                        -79.29207482331663
                    ],
                    [
                        -30.43449728206674,
                        -79.30546082080997
                    ],
                    [
                        -30.503225034155456,
                        -79.31852794335602
                    ],
                    [
                        -30.57340159453801,
                        -79.33133508557869
                    ],
                    [
                        -30.644488844799923,
                        -79.34399439432985
                    ],
                    [
                        -30.71642875420726,
                        -79.35650320992836
                    ],
                    [
                        -30.789088746281795,
                        -79.36887875983997
                    ],
                    [
                        -30.86267623277638,
                        -79.3810902879892
                    ],
                    [
                        -30.937160512529946,
                        -79.39313311328614
                    ],
                    [
                        -31.01234219209702,
                        -79.40504675067753
                    ],
                    [
                        -31.088611107508083,
                        -79.4167427671238
                    ],
                    [
                        -31.167016635737255,
                        -79.42796407668351
                    ],
                    [
                        -31.24811781009178,
                        -79.43854827957684
                    ],
                    [
                        -31.33158755384187,
                        -79.448516232974
                    ],
                    [
                        -31.417460464291295,
                        -79.45779822268518
                    ],
                    [
                        -31.50520224655229,
                        -79.46649279286568
                    ],
                    [
                        -31.594559367793675,
                        -79.47465151410888
                    ],
                    [
                        -31.68552564937155,
                        -79.48222543955023
                    ],
                    [
                        -31.777632117709754,
                        -79.48934545928665
                    ],
                    [
                        -31.870576432739842,
                        -79.49612874634904
                    ],
                    [
                        -31.96410202468259,
                        -79.5026707645587
                    ],
                    [
                        -32.05799320347813,
                        -79.50905430468758
                    ],
                    [
                        -32.15228858913725,
                        -79.51527751951049
                    ],
                    [
                        -32.24687170407781,
                        -79.5213725038313
                    ],
                    [
                        -32.341694533272864,
                        -79.52738748415086
                    ],
                    [
                        -32.43656032694268,
                        -79.53339243555429
                    ],
                    [
                        -32.53132090074331,
                        -79.53949117465241
                    ],
                    [
                        -32.626031065834376,
                        -79.54563767464495
                    ],
                    [
                        -32.72079761931264,
                        -79.55178068851427
                    ],
                    [
                        -32.815761104175145,
                        -79.55786361946673
                    ],
                    [
                        -32.911098115073365,
                        -79.56377306281627
                    ],
                    [
                        -33.0068788180024,
                        -79.56946735256383
                    ],
                    [
                        -33.103459414701796,
                        -79.57474546259795
                    ],
                    [
                        -33.20070728276422,
                        -79.57962119951792
                    ],
                    [
                        -33.29865757377434,
                        -79.58404491168149
                    ],
                    [
                        -33.39737905554217,
                        -79.58789702971461
                    ],
                    [
                        -33.49659541959129,
                        -79.59135043342263
                    ],
                    [
                        -33.596251327544124,
                        -79.59438264207598
                    ],
                    [
                        -33.6965874614167,
                        -79.5966369416874
                    ],
                    [
                        -33.79730553950059,
                        -79.59823512317719
                    ],
                    [
                        -33.898262158879085,
                        -79.59925137955972
                    ],
                    [
                        -33.99939222942611,
                        -79.59942595979149
                    ],
                    [
                        -34.10046913652028,
                        -79.59892789436358
                    ],
                    [
                        -34.201319851404904,
                        -79.59759945388092
                    ],
                    [
                        -34.30165861814617,
                        -79.59537475502933
                    ],
                    [
                        -34.401476762502334,
                        -79.59249788960126
                    ],
                    [
                        -34.50060162853292,
                        -79.58896416338398
                    ],
                    [
                        -34.59863983120745,
                        -79.5845648184406
                    ],
                    [
                        -34.69571087020144,
                        -79.57954177776989
                    ],
                    [
                        -34.79180339285716,
                        -79.57396428084657
                    ],
                    [
                        -34.88652031382936,
                        -79.56769685140186
                    ],
                    [
                        -34.98019526565693,
                        -79.56095711060327
                    ],
                    [
                        -35.072772524146686,
                        -79.55376286587108
                    ],
                    [
                        -35.164031436359146,
                        -79.54606384784331
                    ],
                    [
                        -35.25399995926445,
                        -79.53790099898481
                    ],
                    [
                        -35.34254925041308,
                        -79.5292651204292
                    ],
                    [
                        -35.42922118654348,
                        -79.5200486388743
                    ],
                    [
                        -35.51448109541807,
                        -79.51042917731489
                    ],
                    [
                        -35.59831922603872,
                        -79.50042407826605
                    ],
                    [
                        -35.68021773923998,
                        -79.4899229138376
                    ],
                    [
                        -35.76052610752371,
                        -79.4790390877609
                    ],
                    [
                        -35.839125959474075,
                        -79.46776189537192
                    ],
                    [
                        -35.91619929553297,
                        -79.45616271710978
                    ],
                    [
                        -35.99209009821174,
                        -79.44432522819451
                    ],
                    [
                        -36.06665198983996,
                        -79.43222448644254
                    ],
                    [
                        -36.13957285944189,
                        -79.41980479725154
                    ],
                    [
                        -36.21021746164908,
                        -79.40697281103365
                    ],
                    [
                        -36.27809904046839,
                        -79.39365882524152
                    ],
                    [
                        -36.34252929079844,
                        -79.37979042438569
                    ],
                    [
                        -36.403969766421035,
                        -79.36547977816257
                    ],
                    [
                        -36.46246603924038,
                        -79.35076502269251
                    ],
                    [
                        -36.516516884368386,
                        -79.3354965790197
                    ],
                    [
                        -36.56621697062746,
                        -79.31973910113858
                    ],
                    [
                        -36.61105282017842,
                        -79.30349333110581
                    ],
                    [
                        -36.64984652687007,
                        -79.28672750294807
                    ],
                    [
                        -36.68398610404437,
                        -79.26961868955708
                    ],
                    [
                        -36.71417917781044,
                        -79.25225823262024
                    ],
                    [
                        -36.740219880209786,
                        -79.2346647270675
                    ],
                    [
                        -36.763272015648134,
                        -79.21693089432165
                    ],
                    [
                        -36.78416698085378,
                        -79.19910691886142
                    ],
                    [
                        -36.803216221728626,
                        -79.18120790922235
                    ],
                    [
                        -36.82139877184359,
                        -79.16327999158432
                    ],
                    [
                        -36.83878369885524,
                        -79.14532898243412
                    ],
                    [
                        -36.85514081755422,
                        -79.12734022326404
                    ],
                    [
                        -36.87104189247559,
                        -79.10933960763974
                    ],
                    [
                        -36.8866202523863,
                        -79.09133139456199
                    ],
                    [
                        -36.901437608291985,
                        -79.07330180966125
                    ],
                    [
                        -36.91553801328954,
                        -79.0552520523241
                    ],
                    [
                        -36.928944144254835,
                        -79.03718404294823
                    ],
                    [
                        -36.94156266817591,
                        -79.01909917369365
                    ],
                    [
                        -36.95314973273019,
                        -79.00098630000153
                    ],
                    [
                        -36.96353574822203,
                        -78.98285125242352
                    ],
                    [
                        -36.972751369822866,
                        -78.96469287087864
                    ],
                    [
                        -36.98096032598555,
                        -78.94651813850437
                    ],
                    [
                        -36.98858740679883,
                        -78.92833262776894
                    ],
                    [
                        -36.99527135018199,
                        -78.91013434849107
                    ],
                    [
                        -37.00101306958294,
                        -78.8919284746178
                    ],
                    [
                        -37.00578882077951,
                        -78.87371233840472
                    ],
                    [
                        -37.00935421392757,
                        -78.85548118012123
                    ],
                    [
                        -37.01205824273525,
                        -78.8372489256804
                    ],
                    [
                        -37.01374525619897,
                        -78.81901385345333
                    ],
                    [
                        -37.01444839257653,
                        -78.8007741442329
                    ],
                    [
                        -37.01418192350938,
                        -78.78253527329967
                    ],
                    [
                        -37.01306009985346,
                        -78.76429827985136
                    ],
                    [
                        -37.01097221737288,
                        -78.74606521621982
                    ],
                    [
                        -37.00821868070359,
                        -78.7278370171429
                    ],
                    [
                        -37.004814801464605,
                        -78.70961074088787
                    ],
                    [
                        -37.00076567831848,
                        -78.69139292939582
                    ],
                    [
                        -36.996119880729495,
                        -78.67318025379004
                    ],
                    [
                        -36.990838622207974,
                        -78.65497543825049
                    ],
                    [
                        -36.9847575339479,
                        -78.63678161404607
                    ],
                    [
                        -36.977951561414365,
                        -78.6185961512896
                    ],
                    [
                        -36.970252728370056,
                        -78.60042853911995
                    ],
                    [
                        -36.96105764725724,
                        -78.58228710158325
                    ],
                    [
                        -36.950485603860194,
                        -78.56417549105112
                    ],
                    [
                        -36.9386110456387,
                        -78.54609937102899
                    ],
                    [
                        -36.9252045686737,
                        -78.52806299721226
                    ],
                    [
                        -36.910543210509736,
                        -78.51006793566393
                    ],
                    [
                        -36.894721347317116,
                        -78.49211325180556
                    ],
                    [
                        -36.87721710344307,
                        -78.47422081864576
                    ],
                    [
                        -36.85825207425862,
                        -78.45639123939928
                    ],
                    [
                        -36.83784274216399,
                        -78.43862840747246
                    ],
                    [
                        -36.815752964914324,
                        -78.42094909036516
                    ],
                    [
                        -36.792359938503374,
                        -78.40333822154523
                    ],
                    [
                        -36.76777601665012,
                        -78.3857953229471
                    ],
                    [
                        -36.74174206203171,
                        -78.36834164157166
                    ],
                    [
                        -36.71449520251556,
                        -78.3509646777106
                    ],
                    [
                        -36.68615389987315,
                        -78.33366286297442
                    ],
                    [
                        -36.656459307745074,
                        -78.31646189574845
                    ],
                    [
                        -36.62580365920163,
                        -78.29932794959899
                    ],
                    [
                        -36.59426945734261,
                        -78.28226696553307
                    ],
                    [
                        -36.56192285663027,
                        -78.26527140810688
                    ],
                    [
                        -36.52884738109552,
                        -78.24834016343148
                    ],
                    [
                        -36.49671441766202,
                        -78.23133668753403
                    ],
                    [
                        -36.46467480906169,
                        -78.21433004535892
                    ],
                    [
                        -36.43272816900418,
                        -78.19732025388227
                    ],
                    [
                        -36.40087411320645,
                        -78.18030732999007
                    ],
                    [
                        -36.36911225938068,
                        -78.16329129047888
                    ],
                    [
                        -36.337442227222226,
                        -78.14627215205638
                    ],
                    [
                        -36.30586363839776,
                        -78.12924993134195
                    ],
                    [
                        -36.2743761165333,
                        -78.1122246448673
                    ],
                    [
                        -36.24297928720254,
                        -78.09519630907702
                    ],
                    [
                        -36.21167277791508,
                        -78.07816494032916
                    ],
                    [
                        -36.180456218104844,
                        -78.06113055489581
                    ],
                    [
                        -36.149329239118444,
                        -78.04409316896368
                    ],
                    [
                        -36.118291474203836,
                        -78.02705279863466
                    ],
                    [
                        -36.087342558498804,
                        -78.01000945992635
                    ],
                    [
                        -36.056482129019685,
                        -77.99296316877266
                    ],
                    [
                        -36.02570982465008,
                        -77.97591394102437
                    ],
                    [
                        -35.99502528612973,
                        -77.9588617924496
                    ],
                    [
                        -35.96442815604336,
                        -77.94180673873441
                    ],
                    [
                        -35.93391807880964,
                        -77.9247487954834
                    ],
                    [
                        -35.903494700670265,
                        -77.90768797822011
                    ]
                ]
            }
        }
    ]
}
