{
    "type": "FeatureCollection",
    "features": [
        {
            "type": "Feature",
            "properties": {
                "name": "Greenland Glacier 0224",
                "object": "transect",
                "component": "landice",
                "author": "Matthew Hoffman, converted from Felikson et al. (2020) Zenodo dataset",
                "tags": "Greenland_Ice_Sheet;flowline;zenodo_4284759;glacier_0224",
                "citation": "Felikson, Denis, Catania, Ginny, Bartholomaus, Timothy, Morlighem, Mathieu, & No\u00ebl, Brice. (2020). Inland limits to diffusion of thinning along Greenland Ice Sheet outlet glaciers (v1.0) [Data set]. Zenodo. https://doi.org/10.5281/zenodo.4284759",
                "license": "CC-BY-4.0"
            },
            "geometry": {
                "type": "LineString",
                "coordinates": [
                    [
                        -43.2149246220563,
                        62.38327252837143
                    ],
                    [
                        -43.219518901947104,
                        62.3848633166944
                    ],
                    [
                        -43.22410688679172,
                        62.38655641526154
                    ],
                    [
                        -43.228700007235666,
                        62.38818104308413
                    ],
                    [
                        -43.23284033533582,
                        62.39042267357721
                    ],
                    [
                        -43.235962719646714,
                        62.39264963100039
                    ],
                    [
                        -43.23739002901169,
                        62.39485232828271
                    ],
                    [
                        -43.23794945104778,
                        62.39704264012496
                    ],
                    [
                        -43.23812713887749,
                        62.39922752042214
                    ],
                    [
                        -43.2381939626692,
                        62.401410837760025
                    ],
                    [
                        -43.238752650324145,
                        62.40360119198739
                    ],
                    [
                        -43.239972894268796,
                        62.40580099378298
                    ],
                    [
                        -43.24109963485299,
                        62.40799946884946
                    ],
                    [
                        -43.24286516714186,
                        62.41020704161666
                    ],
                    [
                        -43.2456653323282,
                        62.41242930608526
                    ],
                    [
                        -43.24998065081616,
                        62.41467299782207
                    ],
                    [
                        -43.2537606808306,
                        62.41690898312946
                    ],
                    [
                        -43.256998604901206,
                        62.419137216717914
                    ],
                    [
                        -43.26005654628829,
                        62.42136284360004
                    ],
                    [
                        -43.26310765562307,
                        62.423588312022794
                    ],
                    [
                        -43.26579100647391,
                        62.42580855733939
                    ],
                    [
                        -43.268384923132565,
                        62.428027505238234
                    ],
                    [
                        -43.27064621410922,
                        62.430241758682385
                    ],
                    [
                        -43.27287193173155,
                        62.43245548861186
                    ],
                    [
                        -43.27453143880982,
                        62.434661290303545
                    ],
                    [
                        -43.27558227177265,
                        62.43685859594168
                    ],
                    [
                        -43.27589648180175,
                        62.4390456384651
                    ],
                    [
                        -43.27539213168995,
                        62.44122128272849
                    ],
                    [
                        -43.27427645386185,
                        62.44338841400789
                    ],
                    [
                        -43.27282108524903,
                        62.44555081243738
                    ],
                    [
                        -43.271288054154894,
                        62.447712130622044
                    ],
                    [
                        -43.2697994702825,
                        62.44987407447654
                    ],
                    [
                        -43.268458274726086,
                        62.45203808683669
                    ],
                    [
                        -43.267239972907234,
                        62.4542038288811
                    ],
                    [
                        -43.266148128592434,
                        62.4563713538271
                    ],
                    [
                        -43.26491536501653,
                        62.458536914434056
                    ],
                    [
                        -43.2633649438153,
                        62.460698025898196
                    ],
                    [
                        -43.26104299381022,
                        62.462848298327486
                    ],
                    [
                        -43.25753880804177,
                        62.46498190704573
                    ],
                    [
                        -43.25269656238393,
                        62.466910154830295
                    ],
                    [
                        -43.247898580648645,
                        62.46815774930644
                    ],
                    [
                        -43.24312813501171,
                        62.468982801698225
                    ],
                    [
                        -43.2383691689983,
                        62.46963043655374
                    ],
                    [
                        -43.23361195860107,
                        62.47024805140422
                    ],
                    [
                        -43.22885815778059,
                        62.47081113168221
                    ],
                    [
                        -43.224108414035136,
                        62.47131045183431
                    ],
                    [
                        -43.21935636207857,
                        62.471841293731906
                    ],
                    [
                        -43.21460150285186,
                        62.47241081339001
                    ],
                    [
                        -43.20984715184658,
                        62.472969601717175
                    ],
                    [
                        -43.205096804514575,
                        62.47346611914788
                    ],
                    [
                        -43.200345733230655,
                        62.47397049917923
                    ],
                    [
                        -43.19559088143501,
                        62.474527581953886
                    ],
                    [
                        -43.19083189355451,
                        62.47514215783692
                    ],
                    [
                        -43.1860703590118,
                        62.475790543540356
                    ],
                    [
                        -43.18130425888147,
                        62.476501894933776
                    ],
                    [
                        -43.1765317900868,
                        62.477301921832144
                    ],
                    [
                        -43.17175710251941,
                        62.47812975891252
                    ],
                    [
                        -43.16698732591142,
                        62.47888209515548
                    ],
                    [
                        -43.162226171209376,
                        62.47950600642947
                    ],
                    [
                        -43.15747378587649,
                        62.48000037516032
                    ],
                    [
                        -43.152728666314395,
                        62.480387779550284
                    ],
                    [
                        -43.14798928868319,
                        62.48069085204891
                    ],
                    [
                        -43.14325319305334,
                        62.480945352332384
                    ],
                    [
                        -43.13851861501866,
                        62.48117677180414
                    ],
                    [
                        -43.13378642742203,
                        62.481372891343504
                    ],
                    [
                        -43.12905476571168,
                        62.481560389925335
                    ],
                    [
                        -43.124320971201946,
                        62.4817768965055
                    ],
                    [
                        -43.11958290199849,
                        62.48205237649768
                    ],
                    [
                        -43.11484085382828,
                        62.48238222564291
                    ],
                    [
                        -43.110095687245106,
                        62.48275396548806
                    ],
                    [
                        -43.10534974741202,
                        62.4831344782513
                    ],
                    [
                        -43.10060676264249,
                        62.48347168198893
                    ],
                    [
                        -43.09586950048796,
                        62.48372738668587
                    ],
                    [
                        -43.09113926039944,
                        62.483884162177446
                    ],
                    [
                        -43.08641635443697,
                        62.483938422415314
                    ],
                    [
                        -43.08169829751407,
                        62.48392525331658
                    ],
                    [
                        -43.076984294850675,
                        62.48385610290701
                    ],
                    [
                        -43.07227141546958,
                        62.48377167086185
                    ],
                    [
                        -43.067554175368485,
                        62.48374726815718
                    ],
                    [
                        -43.06282912976334,
                        62.48382957692334
                    ],
                    [
                        -43.06282912976334,
                        62.48382957692334
                    ],
                    [
                        -43.058104054847924,
                        62.483911705433286
                    ],
                    [
                        -43.05336531310323,
                        62.484179293643685
                    ],
                    [
                        -43.04860815436578,
                        62.48469548583227
                    ],
                    [
                        -43.04383623031682,
                        62.48540899015137
                    ],
                    [
                        -43.03906026221065,
                        62.48617348529324
                    ],
                    [
                        -43.0342844137421,
                        62.48693247308744
                    ],
                    [
                        -42.99852234865639,
                        62.492508770088826
                    ],
                    [
                        -42.96274524414853,
                        62.4980748663594
                    ],
                    [
                        -42.92695311864681,
                        62.50363075465607
                    ],
                    [
                        -42.89114599064191,
                        62.509176427743334
                    ],
                    [
                        -42.85532387868688,
                        62.51471187839331
                    ],
                    [
                        -42.81948680139713,
                        62.520237099385746
                    ],
                    [
                        -42.78363477745052,
                        62.525752083508124
                    ],
                    [
                        -42.74776782558726,
                        62.53125682355564
                    ],
                    [
                        -42.71188596460999,
                        62.53675131233124
                    ],
                    [
                        -42.67598921338377,
                        62.54223554264569
                    ],
                    [
                        -42.640077590836064,
                        62.547709507317585
                    ],
                    [
                        -42.60415111595677,
                        62.553173199173386
                    ],
                    [
                        -42.5682098077982,
                        62.55862661104748
                    ],
                    [
                        -42.532253685475105,
                        62.56406973578215
                    ],
                    [
                        -42.49628276816469,
                        62.569502566227676
                    ],
                    [
                        -42.460297075106546,
                        62.57492509524239
                    ],
                    [
                        -42.42429662560276,
                        62.5803373156926
                    ],
                    [
                        -42.38828143901781,
                        62.585739220452766
                    ],
                    [
                        -42.35225153477864,
                        62.59113080240539
                    ],
                    [
                        -42.316206932374634,
                        62.596512054441185
                    ]
                ]
            }
        }
    ]
}
