{
    "type": "FeatureCollection",
    "features": [
        {
            "type": "Feature",
            "properties": {
                "name": "Greenland Glacier 0148",
                "object": "transect",
                "component": "landice",
                "author": "Matthew Hoffman, converted from Felikson et al. (2020) Zenodo dataset",
                "tags": "Greenland_Ice_Sheet;flowline;zenodo_4284759;glacier_0148",
                "citation": "Felikson, Denis, Catania, Ginny, Bartholomaus, Timothy, Morlighem, Mathieu, & No\u00ebl, Brice. (2020). Inland limits to diffusion of thinning along Greenland Ice Sheet outlet glaciers (v1.0) [Data set]. Zenodo. https://doi.org/10.5281/zenodo.4284759",
                "license": "CC-BY-4.0"
            },
            "geometry": {
                "type": "LineString",
                "coordinates": [
                    [
                        -25.831717192978136,
                        69.58525307080048
                    ],
                    [
                        -25.82517113549949,
                        69.5850105963501
                    ],
                    [
                        -25.81835528607129,
                        69.58503876621704
                    ],
                    [
                        -25.811269438099973,
                        69.58533747531943
                    ],
                    [
                        -25.803988907812727,
                        69.58583087155314
                    ],
                    [
                        -25.796598492276765,
                        69.58643371652165
                    ],
                    [
                        -25.78907052070057,
                        69.58717358422038
                    ],
                    [
                        -25.78129030136325,
                        69.58816512629758
                    ],
                    [
                        -25.773146228444894,
                        69.58951966940597
                    ],
                    [
                        -25.765520081090227,
                        69.59096161282712
                    ],
                    [
                        -25.758082042128766,
                        69.5924262566835
                    ],
                    [
                        -25.750666360343846,
                        69.5938934271581
                    ],
                    [
                        -25.743202214884498,
                        69.59535449413431
                    ],
                    [
                        -25.735850610182027,
                        69.5968290846632
                    ],
                    [
                        -25.728837843595166,
                        69.59834481698208
                    ],
                    [
                        -25.722112968765938,
                        69.59989551468442
                    ],
                    [
                        -25.71557906396889,
                        69.60146938025912
                    ],
                    [
                        -25.709276491355244,
                        69.60307136187204
                    ],
                    [
                        -25.703016244159173,
                        69.60467840158569
                    ],
                    [
                        -25.696668543650325,
                        69.60627465066963
                    ],
                    [
                        -25.690252714760163,
                        69.60786246150735
                    ],
                    [
                        -25.68375103880422,
                        69.60943966139016
                    ],
                    [
                        -25.67719068623137,
                        69.61100956314583
                    ],
                    [
                        -25.670599420839487,
                        69.61257555595178
                    ],
                    [
                        -25.66374349820484,
                        69.61410904163851
                    ],
                    [
                        -25.65655828192243,
                        69.61560208018032
                    ],
                    [
                        -25.64911127219623,
                        69.6170628948617
                    ],
                    [
                        -25.641055364973063,
                        69.6184489447664
                    ],
                    [
                        -25.63324426223221,
                        69.61944483976431
                    ],
                    [
                        -25.625850537298355,
                        69.62002592813727
                    ],
                    [
                        -25.618853155536577,
                        69.62021359626047
                    ],
                    [
                        -25.612234125365106,
                        69.62002613310464
                    ],
                    [
                        -25.605929466991224,
                        69.61952728720733
                    ],
                    [
                        -25.599875232930223,
                        69.61878065704583
                    ],
                    [
                        -25.5940181243205,
                        69.61783920503629
                    ],
                    [
                        -25.588313426154016,
                        69.61674732845668
                    ],
                    [
                        -25.58272345824384,
                        69.61554241154843
                    ],
                    [
                        -25.577205056621573,
                        69.6142672174028
                    ],
                    [
                        -25.57173552723192,
                        69.61294423051483
                    ],
                    [
                        -25.5663185231441,
                        69.61156987534123
                    ],
                    [
                        -25.560951686485186,
                        69.61014651781632
                    ],
                    [
                        -25.55560013644332,
                        69.60870864663045
                    ],
                    [
                        -25.55024529220528,
                        69.60727462128733
                    ],
                    [
                        -25.54488438135095,
                        69.60584717627745
                    ],
                    [
                        -25.539525109860524,
                        69.6044187003134
                    ],
                    [
                        -25.534170405779363,
                        69.60298630434811
                    ],
                    [
                        -25.528797187239455,
                        69.60157276459971
                    ],
                    [
                        -25.523393554523516,
                        69.60018980586166
                    ],
                    [
                        -25.51795808596216,
                        69.59883880845815
                    ],
                    [
                        -25.51249357353701,
                        69.59751699668703
                    ],
                    [
                        -25.506992528206233,
                        69.59623173125814
                    ],
                    [
                        -25.501431667013886,
                        69.59500592948626
                    ],
                    [
                        -25.495803053937248,
                        69.59384736507205
                    ],
                    [
                        -25.49010044063334,
                        69.59276214016067
                    ],
                    [
                        -25.48431662597224,
                        69.59175728704082
                    ],
                    [
                        -25.478451474681904,
                        69.59083287287282
                    ],
                    [
                        -25.472507989819746,
                        69.5899858743009
                    ],
                    [
                        -25.466490242682575,
                        69.58921221862349
                    ],
                    [
                        -25.460410105969082,
                        69.58850016345592
                    ],
                    [
                        -25.454275201181478,
                        69.58784215914338
                    ],
                    [
                        -25.448084283516437,
                        69.58723937907736
                    ],
                    [
                        -25.441835434434775,
                        69.58669365624866
                    ],
                    [
                        -25.435535937053253,
                        69.5861977818202
                    ],
                    [
                        -25.42919864951476,
                        69.58573908110591
                    ],
                    [
                        -25.42284007138349,
                        69.58530132105088
                    ],
                    [
                        -25.416474949088936,
                        69.58487001019056
                    ],
                    [
                        -25.410097184737946,
                        69.58445112386566
                    ],
                    [
                        -25.40369731158504,
                        69.58405393306296
                    ],
                    [
                        -25.39726737292099,
                        69.58368621593888
                    ],
                    [
                        -25.390794010279553,
                        69.58336103349353
                    ],
                    [
                        -25.38427031193543,
                        69.58308511295189
                    ],
                    [
                        -25.377678216002483,
                        69.58287609071904
                    ],
                    [
                        -25.37098808349082,
                        69.58276291024536
                    ],
                    [
                        -25.36419131717286,
                        69.58275387982162
                    ],
                    [
                        -25.357297936110434,
                        69.58283908186822
                    ],
                    [
                        -25.350317529063187,
                        69.5830090318016
                    ],
                    [
                        -25.343251238369785,
                        69.58326251313466
                    ],
                    [
                        -25.33609674723333,
                        69.58360168873058
                    ],
                    [
                        -25.32887512683283,
                        69.58400587486358
                    ],
                    [
                        -25.321591827609137,
                        69.58446966943654
                    ],
                    [
                        -25.314273012999422,
                        69.58496746706601
                    ],
                    [
                        -25.306956142163624,
                        69.58546268797096
                    ],
                    [
                        -25.29966188589059,
                        69.58593518230013
                    ],
                    [
                        -25.29240124438833,
                        69.58637425855969
                    ],
                    [
                        -25.285192965573646,
                        69.5867616956273
                    ],
                    [
                        -25.278046664417154,
                        69.5870881950135
                    ],
                    [
                        -25.270971252980424,
                        69.5873451565554
                    ],
                    [
                        -25.263977542408,
                        69.5875221447745
                    ],
                    [
                        -25.257093688581175,
                        69.58759186940145
                    ],
                    [
                        -25.25032719718369,
                        69.58754715561376
                    ],
                    [
                        -25.243685314951588,
                        69.58738108698658
                    ],
                    [
                        -25.237161798852057,
                        69.58709985862382
                    ],
                    [
                        -25.23074503697982,
                        69.58671486725636
                    ],
                    [
                        -25.224429872641796,
                        69.58623122336338
                    ],
                    [
                        -25.21821577048692,
                        69.58564954217432
                    ],
                    [
                        -25.21210311129784,
                        69.58496954621906
                    ],
                    [
                        -25.206087488764037,
                        69.58419559900683
                    ],
                    [
                        -25.200165038705705,
                        69.58333153036881
                    ],
                    [
                        -25.194336574578358,
                        69.58237662826834
                    ],
                    [
                        -25.18860410956133,
                        69.58132901608113
                    ],
                    [
                        -25.182957989556154,
                        69.58019812196643
                    ],
                    [
                        -25.177379904180913,
                        69.57900174783633
                    ],
                    [
                        -25.171857404882925,
                        69.57775199902484
                    ],
                    [
                        -25.166372032055808,
                        69.57646678840845
                    ],
                    [
                        -25.160915043319935,
                        69.57515460439686
                    ],
                    [
                        -25.155494876884887,
                        69.57380729933031
                    ],
                    [
                        -25.150118239588593,
                        69.57241840808143
                    ],
                    [
                        -25.144780431521767,
                        69.57099250564805
                    ],
                    [
                        -25.13947048266438,
                        69.5695402267046
                    ],
                    [
                        -25.13419800416472,
                        69.56805229508748
                    ],
                    [
                        -25.128978086496282,
                        69.56651414523199
                    ],
                    [
                        -25.123866337809435,
                        69.5648720607374
                    ],
                    [
                        -25.11900913175264,
                        69.56298465192818
                    ],
                    [
                        -25.114559762336413,
                        69.56070392850462
                    ],
                    [
                        -25.11064193577709,
                        69.55791052926057
                    ],
                    [
                        -25.108218628571795,
                        69.55522412903659
                    ],
                    [
                        -25.107386678816386,
                        69.55273897159148
                    ],
                    [
                        -25.10773535599523,
                        69.55040318741902
                    ],
                    [
                        -25.108781229808137,
                        69.54815564868798
                    ],
                    [
                        -25.11022129395976,
                        69.54595802768131
                    ],
                    [
                        -25.11194252407907,
                        69.54379602647609
                    ],
                    [
                        -25.113896279312446,
                        69.54166349110058
                    ],
                    [
                        -25.116086928780042,
                        69.53956097379353
                    ],
                    [
                        -25.118529384066388,
                        69.53749035938414
                    ],
                    [
                        -25.121195996700887,
                        69.53544814627331
                    ],
                    [
                        -25.124033661167477,
                        69.53342761163648
                    ],
                    [
                        -25.127001096682935,
                        69.5314235293217
                    ],
                    [
                        -25.130042482695377,
                        69.52942883489436
                    ],
                    [
                        -25.133157048217708,
                        69.52744342877844
                    ],
                    [
                        -25.136348500665235,
                        69.52546777771241
                    ],
                    [
                        -25.13958581409435,
                        69.52349795559337
                    ],
                    [
                        -25.1428761308612,
                        69.52153486410887
                    ],
                    [
                        -25.146224982726153,
                        69.5195792009213
                    ],
                    [
                        -25.149644037304924,
                        69.51763243912073
                    ],
                    [
                        -25.15316641808374,
                        69.51569876352835
                    ],
                    [
                        -25.156811504630177,
                        69.51378061977283
                    ],
                    [
                        -25.160548190264134,
                        69.51187407119329
                    ],
                    [
                        -25.164298613604245,
                        69.50996927410105
                    ],
                    [
                        -25.16800073212929,
                        69.50805838817773
                    ],
                    [
                        -25.16800073212929,
                        69.50805838817773
                    ],
                    [
                        -25.171702145898113,
                        69.50614742954826
                    ],
                    [
                        -25.175385517572575,
                        69.50423420796271
                    ],
                    [
                        -25.179070783263462,
                        69.50232124244417
                    ],
                    [
                        -25.182752146742505,
                        69.50040780080361
                    ],
                    [
                        -25.186376979973147,
                        69.49848723681257
                    ],
                    [
                        -25.189875570441462,
                        69.49655074970626
                    ],
                    [
                        -25.19318383501174,
                        69.49459025280609
                    ],
                    [
                        -25.196298191080437,
                        69.49260530021581
                    ],
                    [
                        -25.199201620071126,
                        69.49059374907132
                    ],
                    [
                        -25.20180756718293,
                        69.48854467774763
                    ],
                    [
                        -25.204059996675266,
                        69.48645101766502
                    ],
                    [
                        -25.20595318209151,
                        69.48431204933468
                    ],
                    [
                        -25.207457240355012,
                        69.48212400080861
                    ],
                    [
                        -25.20849861154311,
                        69.4798775824926
                    ],
                    [
                        -25.20892371672497,
                        69.47755339561729
                    ],
                    [
                        -25.208538527434346,
                        69.47512691961536
                    ],
                    [
                        -25.20713019507401,
                        69.47257123081302
                    ],
                    [
                        -25.204286315592313,
                        69.46983415265491
                    ],
                    [
                        -25.19997058215162,
                        69.46743676095485
                    ],
                    [
                        -25.195165408324748,
                        69.46551742015394
                    ],
                    [
                        -25.190231109617507,
                        69.46372469811273
                    ],
                    [
                        -25.18527169560608,
                        69.46195716828004
                    ],
                    [
                        -25.180288418942027,
                        69.46021359572995
                    ],
                    [
                        -25.17531465108775,
                        69.45846145890717
                    ],
                    [
                        -25.17040746264301,
                        69.45664517949778
                    ],
                    [
                        -25.165570121381364,
                        69.45476161059901
                    ],
                    [
                        -25.160807859254486,
                        69.45280569383179
                    ],
                    [
                        -25.156148314338616,
                        69.45075056155234
                    ],
                    [
                        -25.15161857555789,
                        69.44856989508597
                    ],
                    [
                        -25.147203985937196,
                        69.44627801288414
                    ],
                    [
                        -25.142889548606913,
                        69.44388955223454
                    ],
                    [
                        -25.138731926045914,
                        69.44134941948163
                    ],
                    [
                        -25.134785580875896,
                        69.43860467934043
                    ],
                    [
                        -25.131380128747573,
                        69.43579342653375
                    ],
                    [
                        -25.12858936462441,
                        69.43306011988967
                    ],
                    [
                        -25.126261069298298,
                        69.43038547663029
                    ],
                    [
                        -25.124244547001922,
                        69.42775038200806
                    ],
                    [
                        -25.122487307201023,
                        69.42514818870097
                    ],
                    [
                        -25.120991916574845,
                        69.42257924463759
                    ],
                    [
                        -25.119737621995228,
                        69.42004092980794
                    ],
                    [
                        -25.11868024832061,
                        69.41752764065598
                    ],
                    [
                        -25.117778748146385,
                        69.4150341666873
                    ],
                    [
                        -25.116956156724964,
                        69.41255072176648
                    ],
                    [
                        -25.116163930962248,
                        69.41007113124363
                    ],
                    [
                        -25.115387294889004,
                        69.40759351569491
                    ],
                    [
                        -25.114589446277392,
                        69.40511318968937
                    ],
                    [
                        -25.113771953467854,
                        69.4026303516836
                    ],
                    [
                        -25.112990075153427,
                        69.40015203933905
                    ],
                    [
                        -25.112285554329198,
                        69.39768357284895
                    ],
                    [
                        -25.11163597083097,
                        69.39522210000112
                    ],
                    [
                        -25.111037056105612,
                        69.39276707997183
                    ],
                    [
                        -25.110502151306118,
                        69.3903202160107
                    ],
                    [
                        -25.110094327035345,
                        69.38788955141624
                    ],
                    [
                        -25.109809231606217,
                        69.38547453796959
                    ],
                    [
                        -25.109660465214283,
                        69.38307691575501
                    ],
                    [
                        -25.10973484274606,
                        69.38070776148066
                    ],
                    [
                        -25.11007403641716,
                        69.37837239863332
                    ],
                    [
                        -25.11071828520517,
                        69.37607596835325
                    ],
                    [
                        -25.111641536306717,
                        69.37381515607754
                    ],
                    [
                        -25.11279871476185,
                        69.37158421831093
                    ],
                    [
                        -25.1141736260725,
                        69.36938109300192
                    ],
                    [
                        -25.115779809080465,
                        69.36720750937789
                    ],
                    [
                        -25.11759310659842,
                        69.36506038722176
                    ],
                    [
                        -25.119598365958055,
                        69.36293779379587
                    ],
                    [
                        -25.121778416287505,
                        69.3608375381187
                    ],
                    [
                        -25.12408277357797,
                        69.35875317961934
                    ],
                    [
                        -25.126480550013298,
                        69.35668077736743
                    ],
                    [
                        -25.12896134927213,
                        69.35461900417936
                    ],
                    [
                        -25.13151170923565,
                        69.35256614191725
                    ],
                    [
                        -25.13411261496914,
                        69.35051976448308
                    ],
                    [
                        -25.136760807349393,
                        69.34847945534734
                    ],
                    [
                        -25.139456188909406,
                        69.34644520116309
                    ],
                    [
                        -25.142193179777856,
                        69.34441628949041
                    ],
                    [
                        -25.144966261645628,
                        69.34239201585146
                    ],
                    [
                        -25.14777895626538,
                        69.34037282842924
                    ],
                    [
                        -25.150628666798433,
                        69.33835839524319
                    ],
                    [
                        -25.153496733112696,
                        69.33634633668379
                    ],
                    [
                        -25.15634633135402,
                        69.33433195844303
                    ],
                    [
                        -25.159137875508637,
                        69.33231021531111
                    ],
                    [
                        -25.161873943319726,
                        69.33028143712103
                    ],
                    [
                        -25.164583158939262,
                        69.32824927307907
                    ],
                    [
                        -25.16721154602659,
                        69.32620684499325
                    ],
                    [
                        -25.16964782291498,
                        69.32413997321567
                    ],
                    [
                        -25.171755742421123,
                        69.32203129818065
                    ],
                    [
                        -25.17335595629252,
                        69.31985796703998
                    ],
                    [
                        -25.174348047119217,
                        69.31760717998539
                    ],
                    [
                        -25.17478229037796,
                        69.3152853330996
                    ],
                    [
                        -25.174816792359405,
                        69.31291256169771
                    ],
                    [
                        -25.17467956598485,
                        69.31051791667929
                    ],
                    [
                        -25.17451356202222,
                        69.30811961597571
                    ],
                    [
                        -25.17431777001925,
                        69.30571752942294
                    ],
                    [
                        -25.174304259321563,
                        69.3033387000537
                    ],
                    [
                        -25.174660945175592,
                        69.30100710183505
                    ],
                    [
                        -25.175459355702753,
                        69.29873187033115
                    ],
                    [
                        -25.176633383327477,
                        69.29650458397558
                    ],
                    [
                        -25.178056531919072,
                        69.2943091134974
                    ],
                    [
                        -25.179528977789722,
                        69.292119972751
                    ],
                    [
                        -25.180888267937096,
                        69.2899164399253
                    ],
                    [
                        -25.182080482506667,
                        69.28769163562893
                    ],
                    [
                        -25.183148611219586,
                        69.28545104162838
                    ],
                    [
                        -25.18410569388491,
                        69.28319631934424
                    ],
                    [
                        -25.192539813479097,
                        69.2655594771653
                    ],
                    [
                        -25.200959292131504,
                        69.24792315184732
                    ],
                    [
                        -25.20936416756961,
                        69.2302873453366
                    ],
                    [
                        -25.217754477392667,
                        69.2126520595751
                    ],
                    [
                        -25.226130259072196,
                        69.19501729650052
                    ],
                    [
                        -25.234491549952573,
                        69.17738305804622
                    ],
                    [
                        -25.242838387251506,
                        69.15974934614138
                    ],
                    [
                        -25.25117080806063,
                        69.14211616271089
                    ],
                    [
                        -25.259488849345978,
                        69.12448350967541
                    ],
                    [
                        -25.26779254794854,
                        69.10685138895145
                    ],
                    [
                        -25.276081940584785,
                        69.08921980245124
                    ],
                    [
                        -25.28435706384715,
                        69.07158875208293
                    ],
                    [
                        -25.292617954204605,
                        69.05395823975043
                    ],
                    [
                        -25.300864648003124,
                        69.03632826735355
                    ],
                    [
                        -25.30909718146623,
                        69.01869883678798
                    ],
                    [
                        -25.317315590695504,
                        69.00106994994529
                    ],
                    [
                        -25.325519911671048,
                        68.98344160871294
                    ],
                    [
                        -25.333710180252066,
                        68.96581381497434
                    ],
                    [
                        -25.341886432177287,
                        68.9481865706088
                    ],
                    [
                        -25.35004870306553,
                        68.93055987749166
                    ]
                ]
            }
        }
    ]
}
