{
    "type": "FeatureCollection",
    "features": [
        {
            "type": "Feature",
            "properties": {
                "name": "Nivl",
                "object": "transect",
                "component": "landice",
                "author": "Matthew Hoffman, converted from https://github.com/yuwang115/sl-ice",
                "tags": "Antarctic_Ice_Sheet;flowline;sl-ice;nivl"
            },
            "geometry": {
                "type": "LineString",
                "coordinates": [
                    [
                        11.436923875987873,
                        -73.01683093296688
                    ],
                    [
                        11.402281820841399,
                        -73.00192475768205
                    ],
                    [
                        11.36818931687775,
                        -72.98691905009026
                    ],
                    [
                        11.33620087523969,
                        -72.9715297624201
                    ],
                    [
                        11.30619420145609,
                        -72.95580442361619
                    ],
                    [
                        11.275897437754987,
                        -72.9401321149565
                    ],
                    [
                        11.244591417956405,
                        -72.92463646910814
                    ],
                    [
                        11.212339229033235,
                        -72.9093152307494
                    ],
                    [
                        11.180044681408146,
                        -72.89400614792329
                    ],
                    [
                        11.147502305931056,
                        -72.87875140997751
                    ],
                    [
                        11.114474712618495,
                        -72.86359126253613
                    ],
                    [
                        11.082063870181095,
                        -72.84832411925362
                    ],
                    [
                        11.051491493732302,
                        -72.83273660008285
                    ],
                    [
                        11.023764531021945,
                        -72.81669526442074
                    ],
                    [
                        10.997812068501815,
                        -72.80040207186696
                    ],
                    [
                        10.973918556470604,
                        -72.78383935987812
                    ],
                    [
                        10.953866956602868,
                        -72.76684114420854
                    ],
                    [
                        10.937002736969289,
                        -72.74954376145176
                    ],
                    [
                        10.922301715791273,
                        -72.73207230748741
                    ],
                    [
                        10.90816931653334,
                        -72.71456049233628
                    ],
                    [
                        10.89334197731328,
                        -72.6971008930157
                    ],
                    [
                        10.877167586751982,
                        -72.67975278582777
                    ],
                    [
                        10.858345052883408,
                        -72.6626427017942
                    ],
                    [
                        10.83864901024329,
                        -72.64562392619956
                    ],
                    [
                        10.818715354957535,
                        -72.62863159150518
                    ],
                    [
                        10.801358203406652,
                        -72.61139699224361
                    ],
                    [
                        10.788629756984973,
                        -72.5938134930113
                    ],
                    [
                        10.78011240170495,
                        -72.57599674275232
                    ],
                    [
                        10.772966399578035,
                        -72.5581233414086
                    ],
                    [
                        10.765061699992577,
                        -72.54028182581823
                    ],
                    [
                        10.755941242856082,
                        -72.52249282592813
                    ],
                    [
                        10.747461849591918,
                        -72.50467692406416
                    ],
                    [
                        10.742407221678597,
                        -72.48675111794314
                    ],
                    [
                        10.741628317985205,
                        -72.46876168715224
                    ],
                    [
                        10.743871860566994,
                        -72.45077876654366
                    ],
                    [
                        10.74802380397487,
                        -72.43282986141818
                    ],
                    [
                        10.754768686234536,
                        -72.41495303938426
                    ],
                    [
                        10.763373717023606,
                        -72.39715033445056
                    ],
                    [
                        10.7751186202284,
                        -72.379523220276
                    ],
                    [
                        10.791512652643139,
                        -72.36223792633375
                    ],
                    [
                        10.810455389217347,
                        -72.34518888935895
                    ],
                    [
                        10.828226247146173,
                        -72.32803155955074
                    ],
                    [
                        10.841447615067871,
                        -72.31050617606601
                    ],
                    [
                        10.846757320966132,
                        -72.29259629722397
                    ],
                    [
                        10.848586307260582,
                        -72.27461865661428
                    ],
                    [
                        10.849198870382693,
                        -72.25663305392168
                    ],
                    [
                        10.84974719307399,
                        -72.23864831875764
                    ],
                    [
                        10.852081569421436,
                        -72.22068061874297
                    ],
                    [
                        10.858014109755876,
                        -72.20279265210331
                    ],
                    [
                        10.87021260522867,
                        -72.18520657803163
                    ],
                    [
                        10.886321890521385,
                        -72.16792061187991
                    ],
                    [
                        10.90491276933304,
                        -72.1508664473326
                    ],
                    [
                        10.925679249148148,
                        -72.13405556399057
                    ],
                    [
                        10.94635390232076,
                        -72.11724072650402
                    ],
                    [
                        10.965365256753904,
                        -72.10023817285543
                    ],
                    [
                        10.989423274644256,
                        -72.0838939740511
                    ],
                    [
                        11.022074935103873,
                        -72.06902924517911
                    ],
                    [
                        11.058586310550767,
                        -72.05501156480454
                    ],
                    [
                        11.090452337436655,
                        -72.04004199002677
                    ],
                    [
                        11.108937867151822,
                        -72.0230952858524
                    ],
                    [
                        11.115373861896265,
                        -72.005268278369
                    ],
                    [
                        11.112677784261145,
                        -71.98732594893387
                    ],
                    [
                        11.103532597359804,
                        -71.9695946514402
                    ],
                    [
                        11.088136032785808,
                        -71.95228139322674
                    ],
                    [
                        11.066382641059304,
                        -71.93563004933452
                    ],
                    [
                        11.042100720853602,
                        -71.91931662221764
                    ],
                    [
                        11.021297844322328,
                        -71.90256489756192
                    ],
                    [
                        11.007861281936144,
                        -71.88509462226232
                    ],
                    [
                        10.997525144015256,
                        -71.86741711811328
                    ],
                    [
                        10.985226042584728,
                        -71.84986904577787
                    ],
                    [
                        10.969691086894475,
                        -71.83256848555642
                    ],
                    [
                        10.955153533932442,
                        -71.81518790009054
                    ],
                    [
                        10.943106282376998,
                        -71.79762342789738
                    ],
                    [
                        10.93368591063082,
                        -71.77990441539218
                    ],
                    [
                        10.926840675423124,
                        -71.7620732947725
                    ],
                    [
                        10.922804078274492,
                        -71.74415694969379
                    ],
                    [
                        10.922724354121073,
                        -71.7261971354178
                    ],
                    [
                        10.923088970061842,
                        -71.70823596432126
                    ],
                    [
                        10.920673170629138,
                        -71.69029704601296
                    ],
                    [
                        10.917569702530017,
                        -71.67236716116608
                    ],
                    [
                        10.917882177578509,
                        -71.65442117380633
                    ],
                    [
                        10.924361184498524,
                        -71.6365956027751
                    ],
                    [
                        10.937151599269557,
                        -71.61910386422366
                    ],
                    [
                        10.952996852664626,
                        -71.60186094032402
                    ],
                    [
                        10.97244833954426,
                        -71.58499996137964
                    ],
                    [
                        11.000615690055593,
                        -71.56945050554503
                    ],
                    [
                        11.03673128620549,
                        -71.55565805127583
                    ],
                    [
                        11.07706285342984,
                        -71.54304744006846
                    ],
                    [
                        11.117880559164204,
                        -71.53061861973356
                    ],
                    [
                        11.152940811048152,
                        -71.51657538360959
                    ],
                    [
                        11.1780503311763,
                        -71.50055704872032
                    ],
                    [
                        11.186681665919432,
                        -71.48289719285324
                    ],
                    [
                        11.181560314253193,
                        -71.4650838409865
                    ],
                    [
                        11.166277870918156,
                        -71.44783939857604
                    ],
                    [
                        11.141907463113878,
                        -71.43166443513309
                    ],
                    [
                        11.114978502772848,
                        -71.415904142419
                    ],
                    [
                        11.089067695868666,
                        -71.39997822627055
                    ],
                    [
                        11.067574818510703,
                        -71.38340400496541
                    ],
                    [
                        11.050547662199588,
                        -71.36631941733613
                    ],
                    [
                        11.039499983014823,
                        -71.34874394732614
                    ],
                    [
                        11.037506949813913,
                        -71.33084026414883
                    ],
                    [
                        11.045081935308293,
                        -71.3131160140227
                    ],
                    [
                        11.063438126123094,
                        -71.29621782199239
                    ],
                    [
                        11.089377775812972,
                        -71.28034733945658
                    ],
                    [
                        11.121158777641481,
                        -71.26562119975746
                    ],
                    [
                        11.157392522242818,
                        -71.25199115460434
                    ],
                    [
                        11.195456910922221,
                        -71.2388915973381
                    ],
                    [
                        11.234382496615416,
                        -71.22605775003078
                    ],
                    [
                        11.273337941130604,
                        -71.21324612314783
                    ],
                    [
                        11.314180433704419,
                        -71.2010684952184
                    ],
                    [
                        11.355371676087193,
                        -71.18902319620703
                    ],
                    [
                        11.397853159400496,
                        -71.17746947124024
                    ],
                    [
                        11.44031536721565,
                        -71.16591015703636
                    ],
                    [
                        11.482290033218318,
                        -71.15418111112835
                    ],
                    [
                        11.523494150895987,
                        -71.1421796234295
                    ],
                    [
                        11.564425427013285,
                        -71.1300901545497
                    ],
                    [
                        11.605953700746626,
                        -71.11822388468165
                    ],
                    [
                        11.647844638195558,
                        -71.10650449255425
                    ],
                    [
                        11.690965236153785,
                        -71.09528093805221
                    ],
                    [
                        11.737223886407735,
                        -71.08551605950525
                    ],
                    [
                        11.788663577582199,
                        -71.07916367352747
                    ],
                    [
                        11.842878711415912,
                        -71.07572760204503
                    ],
                    [
                        11.897439756479848,
                        -71.07293881712185
                    ],
                    [
                        11.95206393837831,
                        -71.07027250377695
                    ],
                    [
                        12.006311646309111,
                        -71.06693510871202
                    ],
                    [
                        12.060224043583776,
                        -71.06306674351883
                    ],
                    [
                        12.113595189355621,
                        -71.05849933063833
                    ],
                    [
                        12.166510418974546,
                        -71.05342141367042
                    ],
                    [
                        12.219311103264344,
                        -71.04822458454517
                    ],
                    [
                        12.271852931983629,
                        -71.04277047405324
                    ],
                    [
                        12.323901152312956,
                        -71.03686391323288
                    ],
                    [
                        12.375386529249962,
                        -71.03045774978526
                    ],
                    [
                        12.425978836872737,
                        -71.02336573465271
                    ],
                    [
                        12.475084114824416,
                        -71.01525658400597
                    ],
                    [
                        12.52259092124395,
                        -71.00621267011124
                    ],
                    [
                        12.56830983074474,
                        -70.99624141101785
                    ],
                    [
                        12.611874220753197,
                        -70.9853082714891
                    ],
                    [
                        12.653781377992198,
                        -70.97371629773576
                    ],
                    [
                        12.693795140816896,
                        -70.96144448921463
                    ],
                    [
                        12.73136143755111,
                        -70.94838528917111
                    ],
                    [
                        12.765108417109648,
                        -70.93427995975779
                    ],
                    [
                        12.79264947071536,
                        -70.91881214262465
                    ],
                    [
                        12.80937200442324,
                        -70.90178325406079
                    ],
                    [
                        12.817089588079833,
                        -70.88408046543839
                    ],
                    [
                        12.817060303429502,
                        -70.86617901461086
                    ],
                    [
                        12.807569155065645,
                        -70.84855679108573
                    ],
                    [
                        12.790932374878226,
                        -70.83151632186457
                    ],
                    [
                        12.768230905357173,
                        -70.8152444605547
                    ],
                    [
                        12.73933971399603,
                        -70.80007409275855
                    ],
                    [
                        12.705678327560136,
                        -70.7860166879884
                    ],
                    [
                        12.668201731578268,
                        -70.7730494344109
                    ],
                    [
                        12.627861685512727,
                        -70.76105270996239
                    ],
                    [
                        12.585493111268171,
                        -70.74985364412743
                    ],
                    [
                        12.541360248360405,
                        -70.73943295875091
                    ],
                    [
                        12.49376824172544,
                        -70.73085605753609
                    ],
                    [
                        12.444382386264973,
                        -70.72346411170133
                    ],
                    [
                        12.394331545848225,
                        -70.71658983415345
                    ],
                    [
                        12.34368673160992,
                        -70.71022355036432
                    ],
                    [
                        12.292515060070642,
                        -70.70435410735051
                    ],
                    [
                        12.240821192001752,
                        -70.69901889288347
                    ],
                    [
                        12.188671658164361,
                        -70.69421511053056
                    ],
                    [
                        12.136430767211458,
                        -70.68952956788036
                    ],
                    [
                        12.08427075283565,
                        -70.68475941533664
                    ],
                    [
                        12.0325868989598,
                        -70.67947401552907
                    ],
                    [
                        11.981257188833311,
                        -70.67383551562921
                    ],
                    [
                        11.930314596407745,
                        -70.66783569657906
                    ],
                    [
                        11.879953581690941,
                        -70.66133799849425
                    ],
                    [
                        11.83039891674005,
                        -70.65420864033
                    ],
                    [
                        11.781995535607361,
                        -70.64627567061171
                    ],
                    [
                        11.73567327626108,
                        -70.6370940878666
                    ],
                    [
                        11.69223523952456,
                        -70.62650392400268
                    ],
                    [
                        11.65319210431894,
                        -70.61418035273931
                    ],
                    [
                        11.620011122648709,
                        -70.6000903608441
                    ],
                    [
                        11.591719485760994,
                        -70.58487572380301
                    ],
                    [
                        11.567810529128215,
                        -70.5688462594755
                    ],
                    [
                        11.547916454325813,
                        -70.55221751228036
                    ],
                    [
                        11.531024434243243,
                        -70.5352301070295
                    ],
                    [
                        11.517153267686096,
                        -70.51794076462916
                    ],
                    [
                        11.506789647021844,
                        -70.5003805845394
                    ],
                    [
                        11.499079333143575,
                        -70.48266982382559
                    ],
                    [
                        11.493538469420288,
                        -70.46486869543045
                    ],
                    [
                        11.489593523312328,
                        -70.44702154387477
                    ],
                    [
                        11.486847132678072,
                        -70.4291497772261
                    ],
                    [
                        11.485139694320353,
                        -70.41126502420451
                    ],
                    [
                        11.484211297708173,
                        -70.39337389839282
                    ],
                    [
                        11.483553428763546,
                        -70.37547903635755
                    ],
                    [
                        11.48256564003033,
                        -70.35758947321837
                    ],
                    [
                        11.482356078143093,
                        -70.33970250605361
                    ],
                    [
                        11.485675212619613,
                        -70.3218551382343
                    ],
                    [
                        11.492071175073951,
                        -70.30409938245143
                    ],
                    [
                        11.500188571119594,
                        -70.286420605962
                    ],
                    [
                        11.50901890635494,
                        -70.26878447532447
                    ],
                    [
                        11.518390543120654,
                        -70.25117792665095
                    ],
                    [
                        11.528803613171632,
                        -70.23364108262811
                    ],
                    [
                        11.540263800761455,
                        -70.21618319882487
                    ],
                    [
                        11.552763838075247,
                        -70.19880984322141
                    ],
                    [
                        11.566446566952784,
                        -70.18153896291096
                    ],
                    [
                        11.581174271273442,
                        -70.16436959318236
                    ],
                    [
                        11.597669036009082,
                        -70.14738963289255
                    ],
                    [
                        11.61679492852424,
                        -70.13073862391906
                    ],
                    [
                        11.639068685242714,
                        -70.1145524046214
                    ],
                    [
                        11.664702506071377,
                        -70.09895577428223
                    ],
                    [
                        11.692490446088565,
                        -70.08379171308293
                    ],
                    [
                        11.720465559483028,
                        -70.06867682346233
                    ],
                    [
                        11.747525904813688,
                        -70.05337029708684
                    ],
                    [
                        11.774543929675662,
                        -70.03806010632437
                    ],
                    [
                        11.801519721283258,
                        -70.02274626246134
                    ],
                    [
                        11.828453366653216,
                        -70.00742877675421
                    ],
                    [
                        11.855344952605114,
                        -69.99210766042954
                    ],
                    [
                        11.882194565761687,
                        -69.97678292468407
                    ],
                    [
                        11.909002292549236,
                        -69.9614545806848
                    ],
                    [
                        11.935768219197945,
                        -69.94612263956913
                    ],
                    [
                        11.962492431742302,
                        -69.93078711244488
                    ],
                    [
                        11.989175016021424,
                        -69.91544801039039
                    ],
                    [
                        12.01581605767945,
                        -69.90010534445476
                    ],
                    [
                        12.042415642165876,
                        -69.88475912565771
                    ],
                    [
                        12.068973854735969,
                        -69.86940936498982
                    ],
                    [
                        12.09549078045109,
                        -69.8540560734126
                    ],
                    [
                        12.1219665041791,
                        -69.83869926185855
                    ],
                    [
                        12.14840111059469,
                        -69.82333894123124
                    ],
                    [
                        12.174794684179796,
                        -69.80797512240547
                    ],
                    [
                        12.201147309223924,
                        -69.79260781622729
                    ],
                    [
                        12.227459069824553,
                        -69.7772370335141
                    ],
                    [
                        12.253730049887476,
                        -69.76186278505473
                    ]
                ]
            }
        }
    ]
}
