{
    "type": "FeatureCollection",
    "features": [
        {
            "type": "Feature",
            "properties": {
                "name": "Foundation",
                "object": "transect",
                "component": "landice",
                "author": "Matthew Hoffman, converted from https://github.com/yuwang115/sl-ice",
                "tags": "Antarctic_Ice_Sheet;flowline;sl-ice;foundation"
            },
            "geometry": {
                "type": "LineString",
                "coordinates": [
                    [
                        -100.25880936112625,
                        -85.28546247788678
                    ],
                    [
                        -100.3313219393224,
                        -85.26808315091505
                    ],
                    [
                        -100.39566049238299,
                        -85.25049596432734
                    ],
                    [
                        -100.43543431895021,
                        -85.232442550685
                    ],
                    [
                        -100.41928634611614,
                        -85.21415427961355
                    ],
                    [
                        -100.36615479372058,
                        -85.19635597142025
                    ],
                    [
                        -100.28284641967905,
                        -85.17938482479927
                    ],
                    [
                        -100.1779721029546,
                        -85.16327627780521
                    ],
                    [
                        -100.06113172302695,
                        -85.14778247786867
                    ],
                    [
                        -99.9305084694838,
                        -85.13312282038811
                    ],
                    [
                        -99.78009136385405,
                        -85.11993935834901
                    ],
                    [
                        -99.61383011399624,
                        -85.10825875350343
                    ],
                    [
                        -99.44167420234146,
                        -85.09723222077132
                    ],
                    [
                        -99.27200039455323,
                        -85.08597405394944
                    ],
                    [
                        -99.10786631261585,
                        -85.07416470325416
                    ],
                    [
                        -98.94799821036051,
                        -85.06197238005443
                    ],
                    [
                        -98.78890600133352,
                        -85.04974027998271
                    ],
                    [
                        -98.62649752789613,
                        -85.03788103476082
                    ],
                    [
                        -98.4590046900007,
                        -85.02660586223304
                    ],
                    [
                        -98.28740472577371,
                        -85.0158459075434
                    ],
                    [
                        -98.11541358068706,
                        -85.00517628204832
                    ],
                    [
                        -97.94347738818365,
                        -84.99454818409149
                    ],
                    [
                        -97.77117081005724,
                        -84.9840053107089
                    ],
                    [
                        -97.59779865243664,
                        -84.9736514991932
                    ],
                    [
                        -97.42227476704183,
                        -84.96362385995741
                    ],
                    [
                        -97.23913924151498,
                        -84.954762707381
                    ],
                    [
                        -97.05484947038431,
                        -84.94613281819355
                    ],
                    [
                        -96.87170864846571,
                        -84.93736956038587
                    ],
                    [
                        -96.6865836579237,
                        -84.92899362761831
                    ],
                    [
                        -96.49875849761537,
                        -84.92115506950455
                    ],
                    [
                        -96.30842437805521,
                        -84.9138683082495
                    ],
                    [
                        -96.1090708029663,
                        -84.90888754291755
                    ],
                    [
                        -95.93385133943578,
                        -84.89999420402225
                    ],
                    [
                        -95.78565339287489,
                        -84.88721016054724
                    ],
                    [
                        -95.67483518752064,
                        -84.87177405307698
                    ],
                    [
                        -95.50832139309546,
                        -84.86359645990187
                    ],
                    [
                        -95.30435420678731,
                        -84.86161396977569
                    ],
                    [
                        -95.10478634632344,
                        -84.85758295106118
                    ],
                    [
                        -94.90046598097537,
                        -84.85675742708062
                    ],
                    [
                        -94.69601840078569,
                        -84.85791970733153
                    ],
                    [
                        -94.49151725619895,
                        -84.85881176026085
                    ],
                    [
                        -94.28849276876844,
                        -84.8567060565085
                    ],
                    [
                        -94.09203301150734,
                        -84.8515866009687
                    ],
                    [
                        -93.90754048263356,
                        -84.84366030852959
                    ],
                    [
                        -93.72073161888343,
                        -84.83623070843849
                    ],
                    [
                        -93.53310456888607,
                        -84.82903013923433
                    ],
                    [
                        -93.3438539695781,
                        -84.82223565951772
                    ],
                    [
                        -93.15476119209225,
                        -84.81546024163613
                    ],
                    [
                        -92.96389470489066,
                        -84.80917364508294
                    ],
                    [
                        -92.77005862281233,
                        -84.80373678780803
                    ],
                    [
                        -92.57462935478394,
                        -84.79884742404217
                    ],
                    [
                        -92.37832868076491,
                        -84.79432901285442
                    ],
                    [
                        -92.18053737888536,
                        -84.79044544883767
                    ],
                    [
                        -91.98156630565144,
                        -84.78716270248346
                    ],
                    [
                        -91.7821805143851,
                        -84.7841398766267
                    ],
                    [
                        -91.58159397792956,
                        -84.78198573001184
                    ],
                    [
                        -91.38040344528035,
                        -84.78039792520018
                    ],
                    [
                        -91.1796106613693,
                        -84.77847894654609
                    ],
                    [
                        -90.9813072796184,
                        -84.7751997686428
                    ],
                    [
                        -90.78896182150412,
                        -84.76972903869212
                    ],
                    [
                        -90.60189911974342,
                        -84.76294383472016
                    ],
                    [
                        -90.41868159571594,
                        -84.75537242452697
                    ],
                    [
                        -90.238650774813,
                        -84.7472414632073
                    ],
                    [
                        -90.06219763146692,
                        -84.73851946680693
                    ],
                    [
                        -89.88766557487746,
                        -84.72952674276912
                    ],
                    [
                        -89.7131261251269,
                        -84.72058616653443
                    ],
                    [
                        -89.53651904251329,
                        -84.7120459061053
                    ],
                    [
                        -89.3571053901251,
                        -84.7040740518948
                    ],
                    [
                        -89.1774957339181,
                        -84.69619470108344
                    ],
                    [
                        -88.99684489079321,
                        -84.68857236060477
                    ],
                    [
                        -88.81510527732635,
                        -84.68122512292827
                    ],
                    [
                        -88.63274961891193,
                        -84.67406194115247
                    ],
                    [
                        -88.4500507046251,
                        -84.66703315812236
                    ],
                    [
                        -88.26710992075445,
                        -84.66011651873583
                    ],
                    [
                        -88.08412309007595,
                        -84.65325342451924
                    ],
                    [
                        -87.90076904039233,
                        -84.64654088551103
                    ],
                    [
                        -87.71663902188138,
                        -84.64006881064512
                    ],
                    [
                        -87.5320557209431,
                        -84.63376689868221
                    ],
                    [
                        -87.34704983054867,
                        -84.62763566334995
                    ],
                    [
                        -87.16099039481742,
                        -84.6218316722591
                    ],
                    [
                        -86.97360794507532,
                        -84.61649605853492
                    ],
                    [
                        -86.78464272522648,
                        -84.61173758667786
                    ],
                    [
                        -86.59415988988815,
                        -84.60759117091992
                    ],
                    [
                        -86.40347572033718,
                        -84.60358669856659
                    ],
                    [
                        -86.21388653289559,
                        -84.59920554089246
                    ],
                    [
                        -86.02510719113663,
                        -84.59459103871772
                    ],
                    [
                        -85.83550656235707,
                        -84.59035219017235
                    ],
                    [
                        -85.64434832225488,
                        -84.58684319196298
                    ],
                    [
                        -85.45164169733638,
                        -84.58428508961934
                    ],
                    [
                        -85.25818527522684,
                        -84.58232944373955
                    ],
                    [
                        -85.06448184252471,
                        -84.5806629723285
                    ],
                    [
                        -84.87090162206242,
                        -84.57893286025086
                    ],
                    [
                        -84.67805389970076,
                        -84.57667408733262
                    ],
                    [
                        -84.486329206949,
                        -84.57370031541883
                    ],
                    [
                        -84.29619040131249,
                        -84.5699931722983
                    ],
                    [
                        -84.10735816790077,
                        -84.5657777603104
                    ],
                    [
                        -83.9192762833908,
                        -84.56133263007774
                    ],
                    [
                        -83.73016076335514,
                        -84.557366660157
                    ],
                    [
                        -83.53874919110295,
                        -84.55474002228509
                    ],
                    [
                        -83.34548685502205,
                        -84.5540439750362
                    ],
                    [
                        -83.15270470066284,
                        -84.55547388619951
                    ],
                    [
                        -82.96233749364943,
                        -84.55877047899833
                    ],
                    [
                        -82.77411242158192,
                        -84.56311862975113
                    ],
                    [
                        -82.58501738892686,
                        -84.5671825180206
                    ],
                    [
                        -82.39381668888039,
                        -84.57028027895238
                    ],
                    [
                        -82.20143558101076,
                        -84.57275820827675
                    ],
                    [
                        -82.00874330668067,
                        -84.57506929683707
                    ],
                    [
                        -81.81645534304228,
                        -84.57769511933155
                    ],
                    [
                        -81.62454898954987,
                        -84.58063445109705
                    ],
                    [
                        -81.4311195300542,
                        -84.58256273942534
                    ],
                    [
                        -81.23701698793795,
                        -84.58379985135441
                    ],
                    [
                        -81.04254310903575,
                        -84.58446113535207
                    ],
                    [
                        -80.84795929761502,
                        -84.58465911919879
                    ],
                    [
                        -80.6533440393984,
                        -84.58478325824387
                    ],
                    [
                        -80.45872207263234,
                        -84.58495582824283
                    ],
                    [
                        -80.26409388600726,
                        -84.58498779559815
                    ],
                    [
                        -80.0694685757633,
                        -84.58488655710603
                    ],
                    [
                        -79.8748582808705,
                        -84.58462599606534
                    ],
                    [
                        -79.68029678824335,
                        -84.58431940180564
                    ],
                    [
                        -79.48572923041058,
                        -84.58392563786455
                    ],
                    [
                        -79.29123790345504,
                        -84.58338247189414
                    ],
                    [
                        -79.09693988794186,
                        -84.58246457059774
                    ],
                    [
                        -78.9031602087275,
                        -84.58090507923471
                    ],
                    [
                        -78.71041614497322,
                        -84.57851444279477
                    ],
                    [
                        -78.52016729266323,
                        -84.57477834062458
                    ],
                    [
                        -78.33230781810472,
                        -84.57013606723088
                    ],
                    [
                        -78.14631956059368,
                        -84.56492494202682
                    ],
                    [
                        -77.96208447552745,
                        -84.55921732098045
                    ],
                    [
                        -77.77803787278124,
                        -84.55351533300966
                    ],
                    [
                        -77.59408193395491,
                        -84.54784708216063
                    ],
                    [
                        -77.40911488755516,
                        -84.54255711340915
                    ],
                    [
                        -77.22152483174655,
                        -84.53825536931241
                    ],
                    [
                        -77.0307533783844,
                        -84.53562081713528
                    ],
                    [
                        -76.83831575727778,
                        -84.53443885071503
                    ],
                    [
                        -76.6456195928739,
                        -84.53386621521364
                    ],
                    [
                        -76.45311996750682,
                        -84.53288870735955
                    ],
                    [
                        -76.26166329827116,
                        -84.53081339246003
                    ],
                    [
                        -76.07098672049106,
                        -84.5281745480234
                    ],
                    [
                        -75.8811814281718,
                        -84.52509492161789
                    ],
                    [
                        -75.69268816564143,
                        -84.52139636256844
                    ],
                    [
                        -75.50584170470843,
                        -84.51707354854844
                    ],
                    [
                        -75.32045704367624,
                        -84.51225283580172
                    ],
                    [
                        -75.13610972393458,
                        -84.50712971614035
                    ],
                    [
                        -74.95308321517643,
                        -84.50165554108224
                    ],
                    [
                        -74.77178489491531,
                        -84.49572608703399
                    ],
                    [
                        -74.5928292086721,
                        -84.48922468305365
                    ],
                    [
                        -74.4174064553071,
                        -84.48194658726808
                    ],
                    [
                        -74.24656969652747,
                        -84.47376148065912
                    ],
                    [
                        -74.08182785536815,
                        -84.46454201454355
                    ],
                    [
                        -73.9229765210542,
                        -84.4544481677628
                    ],
                    [
                        -73.76854745028277,
                        -84.44376327160721
                    ],
                    [
                        -73.61683723146837,
                        -84.4327639054768
                    ],
                    [
                        -73.4652962785104,
                        -84.4217766015624
                    ],
                    [
                        -73.31363269407127,
                        -84.41084075613502
                    ],
                    [
                        -73.15981951722337,
                        -84.40024360714925
                    ],
                    [
                        -73.00180255311551,
                        -84.3902987319294
                    ],
                    [
                        -72.84064476363234,
                        -84.38088187514718
                    ],
                    [
                        -72.67565338722056,
                        -84.37217674661981
                    ],
                    [
                        -72.5081102415155,
                        -84.36400433007225
                    ],
                    [
                        -72.33766067722843,
                        -84.35648428771371
                    ],
                    [
                        -72.16507228403891,
                        -84.34949887536011
                    ],
                    [
                        -71.99049007895687,
                        -84.34307225943137
                    ],
                    [
                        -71.81297928152007,
                        -84.33754573820444
                    ],
                    [
                        -71.63188804835102,
                        -84.3333465138558
                    ],
                    [
                        -71.44887709088188,
                        -84.33014851526043
                    ],
                    [
                        -71.26447111660379,
                        -84.32788621584507
                    ],
                    [
                        -71.07908924872505,
                        -84.32673368774707
                    ],
                    [
                        -70.89354485038162,
                        -84.32593540188911
                    ],
                    [
                        -70.70793586583623,
                        -84.3252613663731
                    ],
                    [
                        -70.52242070761828,
                        -84.32447598961161
                    ],
                    [
                        -70.33699398561683,
                        -84.32356420894146
                    ],
                    [
                        -70.15167356906043,
                        -84.32247266159654
                    ],
                    [
                        -69.96643179382752,
                        -84.32134450693964
                    ],
                    [
                        -69.78127385513291,
                        -84.32011240093374
                    ],
                    [
                        -69.59631199977838,
                        -84.3187302588731
                    ],
                    [
                        -69.41149599522355,
                        -84.31717823976624
                    ],
                    [
                        -69.22686010661806,
                        -84.31550824916319
                    ],
                    [
                        -69.04232205380052,
                        -84.31377494304743
                    ],
                    [
                        -68.85817363193235,
                        -84.31174425902219
                    ],
                    [
                        -68.67450208805293,
                        -84.30936071416642
                    ],
                    [
                        -68.49188870833622,
                        -84.30635110805237
                    ],
                    [
                        -68.3119886292342,
                        -84.30208879243452
                    ],
                    [
                        -68.13630064085321,
                        -84.2964050405718
                    ],
                    [
                        -67.96625923330414,
                        -84.289263568744
                    ],
                    [
                        -67.80235873006043,
                        -84.2808615156135
                    ],
                    [
                        -67.64258782350308,
                        -84.2717356462443
                    ],
                    [
                        -67.48624988126524,
                        -84.26207638441716
                    ],
                    [
                        -67.33260426288649,
                        -84.25204137802497
                    ],
                    [
                        -67.17996470624514,
                        -84.24189148127873
                    ],
                    [
                        -67.02691163569533,
                        -84.23184690528123
                    ],
                    [
                        -66.87304929255524,
                        -84.22196127517901
                    ],
                    [
                        -66.71852705458441,
                        -84.21223361617818
                    ],
                    [
                        -66.56274979892015,
                        -84.20274863845792
                    ],
                    [
                        -66.40635297033688,
                        -84.19340957856355
                    ],
                    [
                        -66.25024844506987,
                        -84.18406723655671
                    ],
                    [
                        -66.0946548707196,
                        -84.17468237868216
                    ],
                    [
                        -65.93969633008027,
                        -84.1652246670209
                    ],
                    [
                        -65.78513857092558,
                        -84.15575005791216
                    ],
                    [
                        -65.63038212089867,
                        -84.14635099287689
                    ],
                    [
                        -65.47478786052075,
                        -84.13713785975195
                    ],
                    [
                        -65.31877823066885,
                        -84.12803722114111
                    ],
                    [
                        -65.1632044721945,
                        -84.11890415751269
                    ],
                    [
                        -65.0090260627229,
                        -84.1095730714072
                    ],
                    [
                        -64.85676846026549,
                        -84.09995530652154
                    ],
                    [
                        -64.70712771299716,
                        -84.08995253381089
                    ],
                    [
                        -64.56138444221023,
                        -84.07939903682252
                    ],
                    [
                        -64.42017252992034,
                        -84.0682456911257
                    ],
                    [
                        -64.2849283422092,
                        -84.05636179966054
                    ],
                    [
                        -64.15879757798288,
                        -84.04348470275136
                    ],
                    [
                        -64.04241277251836,
                        -84.02967686091206
                    ],
                    [
                        -63.93727626049751,
                        -84.01494907819152
                    ],
                    [
                        -63.84564100058503,
                        -83.99928913999307
                    ],
                    [
                        -63.765547099451396,
                        -83.98296390203583
                    ],
                    [
                        -63.69499067124384,
                        -83.96617057605393
                    ],
                    [
                        -63.63285271367101,
                        -83.94901744725126
                    ],
                    [
                        -63.576940263144735,
                        -83.93163721438631
                    ],
                    [
                        -63.52409519178258,
                        -83.91415255110434
                    ],
                    [
                        -63.47354504992108,
                        -83.89659638523642
                    ],
                    [
                        -63.42458657637861,
                        -83.87899640088769
                    ],
                    [
                        -63.37755262498541,
                        -83.86134071822116
                    ],
                    [
                        -63.33124086177504,
                        -83.84366446926063
                    ],
                    [
                        -63.28521761436053,
                        -83.82598780019066
                    ],
                    [
                        -63.2399757197881,
                        -83.80829041150602
                    ],
                    [
                        -63.19359420954969,
                        -83.79063234732621
                    ],
                    [
                        -63.14487305353448,
                        -83.77305283470636
                    ],
                    [
                        -63.09436311729105,
                        -83.7555342951527
                    ],
                    [
                        -63.04014998572285,
                        -83.73815968748798
                    ],
                    [
                        -62.98290032699076,
                        -83.72090374493831
                    ],
                    [
                        -62.92323937591565,
                        -83.70375287827336
                    ],
                    [
                        -62.86092869668468,
                        -83.68672069958967
                    ],
                    [
                        -62.79641497071274,
                        -83.66979851617046
                    ],
                    [
                        -62.73046222101378,
                        -83.6529528077995
                    ],
                    [
                        -62.66343335987138,
                        -83.63616501721776
                    ],
                    [
                        -62.59546041343203,
                        -83.61943568179302
                    ],
                    [
                        -62.52638198513781,
                        -83.60277227057169
                    ],
                    [
                        -62.45563431662305,
                        -83.58620313722801
                    ],
                    [
                        -62.38360272659489,
                        -83.56971638417185
                    ],
                    [
                        -62.31108458280889,
                        -83.55326470078606
                    ],
                    [
                        -62.237617654563486,
                        -83.5368762585733
                    ],
                    [
                        -62.163206089958955,
                        -83.52055466753717
                    ],
                    [
                        -62.08815610797896,
                        -83.50428011905471
                    ],
                    [
                        -62.012880673173825,
                        -83.48803123493525
                    ],
                    [
                        -61.93817118438413,
                        -83.47176010376545
                    ],
                    [
                        -61.865111745545555,
                        -83.45540626093394
                    ],
                    [
                        -61.793879492367005,
                        -83.4389557718681
                    ],
                    [
                        -61.72574897864587,
                        -83.4223447751671
                    ],
                    [
                        -61.66144243227099,
                        -83.40554426686249
                    ],
                    [
                        -61.59975166799056,
                        -83.38862272384286
                    ],
                    [
                        -61.54000996517003,
                        -83.37161552588096
                    ],
                    [
                        -61.48102684972468,
                        -83.35458394570635
                    ],
                    [
                        -61.422154193753414,
                        -83.33754815836966
                    ],
                    [
                        -61.363918060339024,
                        -83.32049353506963
                    ],
                    [
                        -61.306757495714436,
                        -83.30339836041716
                    ],
                    [
                        -61.25133592014356,
                        -83.28623064343348
                    ],
                    [
                        -61.19697939435913,
                        -83.2690236119512
                    ],
                    [
                        -61.143517838275926,
                        -83.25178378980816
                    ],
                    [
                        -61.09210111756549,
                        -83.23446403770866
                    ],
                    [
                        -61.0428510740658,
                        -83.21706440243625
                    ],
                    [
                        -60.99595354748482,
                        -83.19957666613894
                    ],
                    [
                        -60.95204800223897,
                        -83.18198596958088
                    ],
                    [
                        -60.91062889927501,
                        -83.16431560548256
                    ],
                    [
                        -60.87265210812762,
                        -83.14653854321001
                    ],
                    [
                        -60.83914269145232,
                        -83.12863746126202
                    ],
                    [
                        -60.809760372354575,
                        -83.11063787132915
                    ],
                    [
                        -60.784871112452805,
                        -83.09253780669044
                    ],
                    [
                        -60.76504826992413,
                        -83.07435164658257
                    ],
                    [
                        -60.74868310983605,
                        -83.05611669660021
                    ],
                    [
                        -60.7364790458055,
                        -83.03783666437339
                    ],
                    [
                        -60.72958486400937,
                        -83.01951455175063
                    ],
                    [
                        -60.727039287208996,
                        -83.00117608776833
                    ],
                    [
                        -60.72798321828534,
                        -82.98283423473099
                    ],
                    [
                        -60.73259253644867,
                        -82.9645008228076
                    ],
                    [
                        -60.739952060448644,
                        -82.94618622132697
                    ],
                    [
                        -60.74933034175976,
                        -82.927881272494
                    ],
                    [
                        -60.76216561950028,
                        -82.9096106560599
                    ],
                    [
                        -60.776765031277925,
                        -82.89135958497145
                    ],
                    [
                        -60.791803283141235,
                        -82.87311462993651
                    ],
                    [
                        -60.80766350036107,
                        -82.85488369816854
                    ],
                    [
                        -60.82383694367078,
                        -82.83665481259426
                    ],
                    [
                        -60.84063025882358,
                        -82.81843584452953
                    ],
                    [
                        -60.858216334258586,
                        -82.80023388015377
                    ],
                    [
                        -60.874659139687864,
                        -82.78201130331551
                    ],
                    [
                        -60.8913101246549,
                        -82.7637942214822
                    ],
                    [
                        -60.906577102556376,
                        -82.7455589652376
                    ],
                    [
                        -60.919947117557165,
                        -82.727300299639
                    ],
                    [
                        -60.93156761546433,
                        -82.70902569723627
                    ],
                    [
                        -60.941182945503215,
                        -82.69072887837407
                    ],
                    [
                        -60.94904822188032,
                        -82.6724227919261
                    ],
                    [
                        -60.954838109132794,
                        -82.65410237264666
                    ],
                    [
                        -60.95808050558399,
                        -82.63577074328023
                    ],
                    [
                        -60.95941940544157,
                        -82.6174400504193
                    ],
                    [
                        -60.9586256983773,
                        -82.59910444288273
                    ],
                    [
                        -60.95508374629162,
                        -82.58078048522766
                    ],
                    [
                        -60.948714177425416,
                        -82.56246303791369
                    ],
                    [
                        -60.93965517027682,
                        -82.54416987616197
                    ],
                    [
                        -60.927568511420475,
                        -82.52590535952984
                    ],
                    [
                        -60.912934329102384,
                        -82.50767309906429
                    ],
                    [
                        -60.89563342074049,
                        -82.48948065556115
                    ],
                    [
                        -60.87543542282629,
                        -82.47134306965899
                    ],
                    [
                        -60.852730945818685,
                        -82.45325556036343
                    ],
                    [
                        -60.82766323266794,
                        -82.43522381496989
                    ],
                    [
                        -60.799223388738326,
                        -82.41728098645952
                    ],
                    [
                        -60.767727672613084,
                        -82.39943025671474
                    ],
                    [
                        -60.73297980986703,
                        -82.38168846005497
                    ],
                    [
                        -60.694003285243156,
                        -82.36410752924255
                    ],
                    [
                        -60.65190947949028,
                        -82.34665187078136
                    ],
                    [
                        -60.60687089350479,
                        -82.3293383728773
                    ],
                    [
                        -60.55919087241028,
                        -82.31215609452951
                    ],
                    [
                        -60.51009073947096,
                        -82.29504713297216
                    ],
                    [
                        -60.460014590096,
                        -82.27799676976285
                    ],
                    [
                        -60.40878650678383,
                        -82.26101605197908
                    ],
                    [
                        -60.356783720714745,
                        -82.24408136013962
                    ],
                    [
                        -60.30422122989045,
                        -82.22718859186146
                    ],
                    [
                        -60.25098190285917,
                        -82.21034192644821
                    ],
                    [
                        -60.197231550717206,
                        -82.19352835705365
                    ],
                    [
                        -60.14314894747048,
                        -82.17674450820252
                    ],
                    [
                        -60.088779833511765,
                        -82.15998522348706
                    ],
                    [
                        -60.034391148221815,
                        -82.14323321214816
                    ],
                    [
                        -59.979923761016266,
                        -82.12649326930482
                    ],
                    [
                        -59.92514716814479,
                        -82.1097797961647
                    ],
                    [
                        -59.870249976707726,
                        -82.0930810929702
                    ],
                    [
                        -59.81515564148863,
                        -82.07640255278187
                    ],
                    [
                        -59.760293513845575,
                        -82.05971706229943
                    ],
                    [
                        -59.70577180769471,
                        -82.04301867769247
                    ],
                    [
                        -59.65162237588579,
                        -82.02630492484559
                    ],
                    [
                        -59.5977800212134,
                        -82.00957819204464
                    ],
                    [
                        -59.54411169070674,
                        -81.9928479879791
                    ],
                    [
                        -59.490551411966855,
                        -81.97612069340747
                    ],
                    [
                        -59.43721112844765,
                        -81.95938221482164
                    ],
                    [
                        -59.384157129267166,
                        -81.94263819372458
                    ],
                    [
                        -59.331192176341446,
                        -81.92589371040881
                    ],
                    [
                        -59.278411517490916,
                        -81.90914398754455
                    ],
                    [
                        -59.22595650140734,
                        -81.89238396168683
                    ],
                    [
                        -59.17391286509198,
                        -81.87560190681138
                    ],
                    [
                        -59.122505720228475,
                        -81.8587905101889
                    ],
                    [
                        -59.07169842390457,
                        -81.84194715100061
                    ],
                    [
                        -59.02152757748318,
                        -81.82507327582108
                    ],
                    [
                        -58.971931337276764,
                        -81.80817048955831
                    ],
                    [
                        -58.92279542626016,
                        -81.7912475757249
                    ],
                    [
                        -58.874228355309526,
                        -81.77429607390293
                    ],
                    [
                        -58.82637834260529,
                        -81.75731215216031
                    ],
                    [
                        -58.77935001010917,
                        -81.74028620963331
                    ],
                    [
                        -58.7330952708564,
                        -81.72322004213333
                    ],
                    [
                        -58.6875715720001,
                        -81.70612123599322
                    ],
                    [
                        -58.6426443205943,
                        -81.6889945938735
                    ],
                    [
                        -58.59838635194602,
                        -81.6718362897684
                    ],
                    [
                        -58.55510861870696,
                        -81.65463151277392
                    ],
                    [
                        -58.51261619064489,
                        -81.6373905141539
                    ],
                    [
                        -58.47090473757474,
                        -81.62011352169768
                    ],
                    [
                        -58.43019208989573,
                        -81.602791679646
                    ],
                    [
                        -58.39022719215994,
                        -81.58543649078304
                    ],
                    [
                        -58.35094901393254,
                        -81.56804947438904
                    ],
                    [
                        -58.311948586760515,
                        -81.55065754318377
                    ],
                    [
                        -58.27313261351804,
                        -81.53325994926674
                    ],
                    [
                        -58.23463266793176,
                        -81.5158494613685
                    ],
                    [
                        -58.1969472232193,
                        -81.49840415227908
                    ],
                    [
                        -58.1599795484904,
                        -81.48093407983528
                    ],
                    [
                        -58.12359149732814,
                        -81.46343675736726
                    ],
                    [
                        -58.087904422237585,
                        -81.44591200834392
                    ],
                    [
                        -58.052913054196786,
                        -81.42836204701985
                    ],
                    [
                        -58.01843542787198,
                        -81.41078987055857
                    ],
                    [
                        -57.98449327405986,
                        -81.39320006423904
                    ],
                    [
                        -57.951038881710204,
                        -81.37558964338385
                    ],
                    [
                        -57.918093985106395,
                        -81.35796318797652
                    ],
                    [
                        -57.88569693392288,
                        -81.34031607158498
                    ],
                    [
                        -57.85370623531093,
                        -81.32265583832867
                    ],
                    [
                        -57.822131114870196,
                        -81.30498151373452
                    ],
                    [
                        -57.79109793900028,
                        -81.28729141290381
                    ],
                    [
                        -57.760615879009954,
                        -81.26957925957326
                    ],
                    [
                        -57.73065422789428,
                        -81.25185010247866
                    ],
                    [
                        -57.70129469146076,
                        -81.23410246965386
                    ],
                    [
                        -57.672659983013276,
                        -81.21632485974409
                    ],
                    [
                        -57.64489922667515,
                        -81.19852145119148
                    ],
                    [
                        -57.618049392629885,
                        -81.18068567959915
                    ],
                    [
                        -57.591786485212694,
                        -81.16282999836164
                    ],
                    [
                        -57.56608527114704,
                        -81.14496322711048
                    ],
                    [
                        -57.540985187230675,
                        -81.12707339965341
                    ],
                    [
                        -57.516477325511694,
                        -81.10916877045429
                    ],
                    [
                        -57.492559590357175,
                        -81.09124741349542
                    ],
                    [
                        -57.46935700882429,
                        -81.07330370152792
                    ],
                    [
                        -57.44671421290671,
                        -81.05534229030404
                    ],
                    [
                        -57.42454273368792,
                        -81.03737216442482
                    ],
                    [
                        -57.402968901649984,
                        -81.01938565723293
                    ],
                    [
                        -57.381790421069596,
                        -81.00138903365708
                    ],
                    [
                        -57.361029176374856,
                        -80.98338152528059
                    ],
                    [
                        -57.34079716617873,
                        -80.96536059004616
                    ],
                    [
                        -57.321033698106916,
                        -80.94733027741633
                    ],
                    [
                        -57.30188310187696,
                        -80.92928162884157
                    ],
                    [
                        -57.28315989560642,
                        -80.91122562956303
                    ],
                    [
                        -57.264653591890216,
                        -80.89316618867011
                    ],
                    [
                        -57.2463913416475,
                        -80.8750997086328
                    ],
                    [
                        -57.22829563029072,
                        -80.85703149088383
                    ],
                    [
                        -57.210435547766124,
                        -80.83896112690208
                    ],
                    [
                        -57.19281839190838,
                        -80.82087974569566
                    ],
                    [
                        -57.17532197462433,
                        -80.8028021330737
                    ],
                    [
                        -57.15787219873685,
                        -80.78472289449887
                    ],
                    [
                        -57.14042800334648,
                        -80.76664542578325
                    ],
                    [
                        -57.12300478502576,
                        -80.7485658828058
                    ],
                    [
                        -57.10544600346105,
                        -80.73049628426841
                    ],
                    [
                        -57.08776723574558,
                        -80.7124261717979
                    ],
                    [
                        -57.06984460305232,
                        -80.69436644485064
                    ],
                    [
                        -57.05160728824811,
                        -80.67631492979226
                    ],
                    [
                        -57.03311020899227,
                        -80.65827171768134
                    ],
                    [
                        -57.01408124049498,
                        -80.64024821651226
                    ],
                    [
                        -56.99460048072219,
                        -80.62223505244863
                    ],
                    [
                        -56.97477307373561,
                        -80.60423321833456
                    ],
                    [
                        -56.954523610969744,
                        -80.5862453278337
                    ],
                    [
                        -56.93386704169901,
                        -80.56827482930548
                    ],
                    [
                        -56.91275285178088,
                        -80.55031818391997
                    ],
                    [
                        -56.890980560260935,
                        -80.53238299481826
                    ],
                    [
                        -56.86859396244285,
                        -80.51447236273255
                    ],
                    [
                        -56.84570044350866,
                        -80.4965799133119
                    ],
                    [
                        -56.82246195739274,
                        -80.47870200529397
                    ],
                    [
                        -56.79866654527399,
                        -80.4608459629894
                    ],
                    [
                        -56.77447883070563,
                        -80.44300738702643
                    ],
                    [
                        -56.749833988584214,
                        -80.42518982055242
                    ],
                    [
                        -56.72474028976008,
                        -80.40738833049473
                    ],
                    [
                        -56.69946403219578,
                        -80.38959566295135
                    ],
                    [
                        -56.67406995993114,
                        -80.37181550283049
                    ],
                    [
                        -56.6484948402781,
                        -80.35404077761221
                    ],
                    [
                        -56.62279707722523,
                        -80.33627341218504
                    ],
                    [
                        -56.596862915243626,
                        -80.3185192958591
                    ],
                    [
                        -56.570520697717484,
                        -80.30078432710856
                    ],
                    [
                        -56.54388198078037,
                        -80.28306198643384
                    ],
                    [
                        -56.51694690017091,
                        -80.26535751701725
                    ],
                    [
                        -56.48979460764432,
                        -80.24766420400206
                    ],
                    [
                        -56.462387465782015,
                        -80.22998859147589
                    ],
                    [
                        -56.4345329077449,
                        -80.21233067664278
                    ],
                    [
                        -56.40649657090618,
                        -80.19468721870918
                    ],
                    [
                        -56.37827630081497,
                        -80.1770523302847
                    ],
                    [
                        -56.34996642983161,
                        -80.15942670172441
                    ],
                    [
                        -56.32163691385385,
                        -80.14180395881795
                    ],
                    [
                        -56.29332033693417,
                        -80.12418231174742
                    ],
                    [
                        -56.26482778869712,
                        -80.10657414475199
                    ],
                    [
                        -56.23620136691783,
                        -80.08897205911477
                    ],
                    [
                        -56.20715493397892,
                        -80.07139898100175
                    ],
                    [
                        -56.17799738960136,
                        -80.05382981905396
                    ],
                    [
                        -56.14905600199185,
                        -80.03625404635768
                    ],
                    [
                        -56.12031067554271,
                        -80.01867169637175
                    ],
                    [
                        -56.0915383800572,
                        -80.00109431780797
                    ],
                    [
                        -56.06266045700874,
                        -79.98352588601334
                    ],
                    [
                        -56.03373861921434,
                        -79.96596033005707
                    ],
                    [
                        -56.00489364747476,
                        -79.94839419022917
                    ],
                    [
                        -55.97622527295974,
                        -79.93082276200036
                    ],
                    [
                        -55.9476065948772,
                        -79.91325100751575
                    ],
                    [
                        -55.91894172534506,
                        -79.89568742750589
                    ],
                    [
                        -55.89017767407093,
                        -79.8781278745595
                    ],
                    [
                        -55.8614602608103,
                        -79.86057200336148
                    ],
                    [
                        -55.83266569997554,
                        -79.84301937870814
                    ],
                    [
                        -55.80400810926412,
                        -79.8254680208433
                    ],
                    [
                        -55.77557912703618,
                        -79.80790366553101
                    ],
                    [
                        -55.747332819019,
                        -79.7903364170009
                    ],
                    [
                        -55.71887385597561,
                        -79.77277825538776
                    ],
                    [
                        -55.690602804287444,
                        -79.7552156940798
                    ],
                    [
                        -55.662300383740906,
                        -79.7376620102446
                    ],
                    [
                        -55.634024224736564,
                        -79.72010539829363
                    ],
                    [
                        -55.60574270170448,
                        -79.70255085029221
                    ],
                    [
                        -55.57785589808819,
                        -79.68498103058798
                    ],
                    [
                        -55.55021461112124,
                        -79.66740226699277
                    ],
                    [
                        -55.52265645628818,
                        -79.64982130650425
                    ],
                    [
                        -55.49544359469501,
                        -79.63222743345452
                    ],
                    [
                        -55.46836855209376,
                        -79.61462955251314
                    ],
                    [
                        -55.441150694042825,
                        -79.59703831903266
                    ],
                    [
                        -55.413946140770264,
                        -79.57945311150061
                    ],
                    [
                        -55.386749928903285,
                        -79.56186554975318
                    ],
                    [
                        -55.35978565349447,
                        -79.54427148631382
                    ],
                    [
                        -55.332640958230556,
                        -79.52668919582109
                    ],
                    [
                        -55.305240885234184,
                        -79.50912572218448
                    ],
                    [
                        -55.27792911239479,
                        -79.4915565337463
                    ],
                    [
                        -55.25076052828832,
                        -79.47398309578367
                    ],
                    [
                        -55.22358832216736,
                        -79.45641353776527
                    ],
                    [
                        -55.19642634158208,
                        -79.43884739031395
                    ],
                    [
                        -55.1694356197745,
                        -79.42127409163365
                    ],
                    [
                        -55.14264138787756,
                        -79.40369478620583
                    ],
                    [
                        -55.11574042504309,
                        -79.38612076147253
                    ],
                    [
                        -55.08869519418877,
                        -79.36856043839171
                    ],
                    [
                        -55.06155521594671,
                        -79.35100560829986
                    ],
                    [
                        -55.03448690361021,
                        -79.33345210819793
                    ],
                    [
                        -55.00756045320393,
                        -79.31589239392754
                    ],
                    [
                        -54.98052397725695,
                        -79.29834060137729
                    ],
                    [
                        -54.9533240707322,
                        -79.28080303583774
                    ],
                    [
                        -54.92597430592874,
                        -79.26327463604707
                    ],
                    [
                        -54.89875907586123,
                        -79.24574348909522
                    ],
                    [
                        -54.87176984969252,
                        -79.22819941841631
                    ],
                    [
                        -54.84474974800655,
                        -79.21066454099324
                    ],
                    [
                        -54.817791169079975,
                        -79.19312536334432
                    ],
                    [
                        -54.790826383199956,
                        -79.17559193524085
                    ],
                    [
                        -54.76343418490477,
                        -79.1580831175202
                    ],
                    [
                        -54.73602352291374,
                        -79.14058038358368
                    ],
                    [
                        -54.70866443871316,
                        -79.12307294700382
                    ],
                    [
                        -54.68127957786897,
                        -79.10557507941215
                    ],
                    [
                        -54.65398077208154,
                        -79.08807269084974
                    ],
                    [
                        -54.6265514613726,
                        -79.07058256267287
                    ],
                    [
                        -54.59880464963161,
                        -79.05311067123351
                    ],
                    [
                        -54.570752919542784,
                        -79.03566179055998
                    ],
                    [
                        -54.54269850259569,
                        -79.01821506199961
                    ],
                    [
                        -54.51477249927045,
                        -79.00076366299729
                    ],
                    [
                        -54.48670252078181,
                        -78.9833254556216
                    ],
                    [
                        -54.458326296856676,
                        -78.96590950404756
                    ],
                    [
                        -54.42967665211056,
                        -78.94850881851045
                    ],
                    [
                        -54.40083095116985,
                        -78.93112480725267
                    ],
                    [
                        -54.37187491925657,
                        -78.91375339631766
                    ],
                    [
                        -54.342831055919746,
                        -78.89638861127642
                    ],
                    [
                        -54.31359848706339,
                        -78.87903884472946
                    ],
                    [
                        -54.284140604765255,
                        -78.86170782145909
                    ],
                    [
                        -54.25440186347551,
                        -78.84439658654132
                    ],
                    [
                        -54.22455694158177,
                        -78.82709892527075
                    ],
                    [
                        -54.19469716993079,
                        -78.80980278788967
                    ],
                    [
                        -54.16446473033254,
                        -78.7925344040549
                    ],
                    [
                        -54.13389382131304,
                        -78.77529261979375
                    ],
                    [
                        -54.10312252006278,
                        -78.75806847030243
                    ],
                    [
                        -54.07218864266593,
                        -78.74085811026558
                    ],
                    [
                        -54.04105308741962,
                        -78.72366597387457
                    ],
                    [
                        -54.00979258286493,
                        -78.7064870105531
                    ],
                    [
                        -53.97795347521993,
                        -78.68935221080152
                    ],
                    [
                        -53.94578678357101,
                        -78.67224845251019
                    ],
                    [
                        -53.91340384731989,
                        -78.65515981238988
                    ],
                    [
                        -53.88081874470087,
                        -78.63809036162296
                    ],
                    [
                        -53.84802504853024,
                        -78.6210434973584
                    ],
                    [
                        -53.815093132064696,
                        -78.60401112583848
                    ],
                    [
                        -53.78199402095473,
                        -78.58699343140283
                    ],
                    [
                        -53.748642543545614,
                        -78.57000273908575
                    ],
                    [
                        -53.71502281253193,
                        -78.55303423646612
                    ],
                    [
                        -53.681215460784315,
                        -78.53608474198938
                    ],
                    [
                        -53.647296015904466,
                        -78.51914929654137
                    ],
                    [
                        -53.613129054757074,
                        -78.50223846204139
                    ],
                    [
                        -53.57866263229594,
                        -78.4853556772783
                    ],
                    [
                        -53.54389781165353,
                        -78.46850081461925
                    ],
                    [
                        -53.50887845297548,
                        -78.45167441793336
                    ],
                    [
                        -53.473494629493345,
                        -78.43488033450473
                    ],
                    [
                        -53.43792256268463,
                        -78.41810928778067
                    ],
                    [
                        -53.40228215732194,
                        -78.40134722034938
                    ],
                    [
                        -53.36650323126167,
                        -78.38460398790771
                    ],
                    [
                        -53.330602392915814,
                        -78.36787513217624
                    ],
                    [
                        -53.29461791227943,
                        -78.35115947132466
                    ],
                    [
                        -53.25830425374897,
                        -78.33447784100514
                    ],
                    [
                        -53.22176231567204,
                        -78.31782131264698
                    ],
                    [
                        -53.18500271824122,
                        -78.30119013877295
                    ],
                    [
                        -53.14802165534936,
                        -78.2845823905622
                    ],
                    [
                        -53.1106298649607,
                        -78.2680190843048
                    ],
                    [
                        -53.072943225154766,
                        -78.25149021588007
                    ],
                    [
                        -53.03507262744215,
                        -78.234984018699
                    ],
                    [
                        -52.997021303409255,
                        -78.2184996680661
                    ],
                    [
                        -52.958704996064085,
                        -78.20204794815436
                    ],
                    [
                        -52.919900801228536,
                        -78.18565005816932
                    ],
                    [
                        -52.880719738203226,
                        -78.16929420621493
                    ],
                    [
                        -52.841222413502,
                        -78.15297917664829
                    ],
                    [
                        -52.80114950390481,
                        -78.1367270936398
                    ],
                    [
                        -52.76063136116311,
                        -78.12052692063635
                    ],
                    [
                        -52.71983406394485,
                        -78.10436537973335
                    ],
                    [
                        -52.67860074199982,
                        -78.08825645652283
                    ],
                    [
                        -52.63693076365979,
                        -78.07220192882093
                    ],
                    [
                        -52.59475438541372,
                        -78.05621327435948
                    ],
                    [
                        -52.55192732362653,
                        -78.04030267812723
                    ],
                    [
                        -52.50870428997925,
                        -78.02444924465436
                    ],
                    [
                        -52.465104362805825,
                        -78.00864187139486
                    ],
                    [
                        -52.42101856090616,
                        -77.99290411028018
                    ],
                    [
                        -52.376444840564304,
                        -77.97723058629572
                    ],
                    [
                        -52.33144639439589,
                        -77.96162066333642
                    ],
                    [
                        -52.285921430307184,
                        -77.94608398336752
                    ],
                    [
                        -52.2399588779436,
                        -77.93061142786428
                    ],
                    [
                        -52.19350061790039,
                        -77.91521273997375
                    ],
                    [
                        -52.14670836144946,
                        -77.89986653589617
                    ],
                    [
                        -52.09960709487242,
                        -77.8845719732811
                    ],
                    [
                        -52.052221336324386,
                        -77.86932239576666
                    ],
                    [
                        -52.00432129670151,
                        -77.85415600840956
                    ],
                    [
                        -51.95588481861132,
                        -77.83906985268014
                    ],
                    [
                        -51.90699893067234,
                        -77.82405816346058
                    ],
                    [
                        -51.85758087800287,
                        -77.80913574900926
                    ],
                    [
                        -51.80771568199856,
                        -77.79428848424395
                    ],
                    [
                        -51.75739215092052,
                        -77.77952221528918
                    ],
                    [
                        -51.706541377677794,
                        -77.76484356519002
                    ],
                    [
                        -51.655187686552246,
                        -77.75025614885318
                    ],
                    [
                        -51.6033056593967,
                        -77.73576222211781
                    ],
                    [
                        -51.550824702095014,
                        -77.72137613601512
                    ],
                    [
                        -51.497834142545955,
                        -77.70708692530548
                    ],
                    [
                        -51.44442967775908,
                        -77.69287899838223
                    ],
                    [
                        -51.39041932645491,
                        -77.67878451152028
                    ],
                    [
                        -51.33588678842099,
                        -77.6647939576917
                    ],
                    [
                        -51.2807133876956,
                        -77.65092855197119
                    ],
                    [
                        -51.22463418982207,
                        -77.63724842900595
                    ],
                    [
                        -51.16780990621887,
                        -77.6237175369203
                    ],
                    [
                        -51.110408797763434,
                        -77.610315312273
                    ],
                    [
                        -51.05234064245303,
                        -77.59705374365751
                    ],
                    [
                        -50.993801345840645,
                        -77.58390204261354
                    ],
                    [
                        -50.93495413481895,
                        -77.57083096351634
                    ],
                    [
                        -50.87577357793575,
                        -77.55784404857633
                    ],
                    [
                        -50.816185090638044,
                        -77.54495495101413
                    ],
                    [
                        -50.755933455516434,
                        -77.53222645471445
                    ],
                    [
                        -50.694441518354985,
                        -77.51978881721797
                    ],
                    [
                        -50.63245672492259,
                        -77.50747968273079
                    ],
                    [
                        -50.57011599674557,
                        -77.49527247861077
                    ],
                    [
                        -50.50745557926725,
                        -77.48315579236588
                    ],
                    [
                        -50.44450448384105,
                        -77.47112873686876
                    ],
                    [
                        -50.38120436355583,
                        -77.45920192946674
                    ],
                    [
                        -50.31742635874625,
                        -77.44740867736733
                    ],
                    [
                        -50.25308206097992,
                        -77.43578005192094
                    ],
                    [
                        -50.18801745106758,
                        -77.42436124119371
                    ],
                    [
                        -50.12224023139516,
                        -77.41315212166512
                    ],
                    [
                        -50.05740912987851,
                        -77.40170041334578
                    ],
                    [
                        -49.99269677954206,
                        -77.39023297196259
                    ],
                    [
                        -49.928103019056046,
                        -77.37874984263047
                    ],
                    [
                        -49.863627686475624,
                        -77.36725107036386
                    ],
                    [
                        -49.79927061924953,
                        -77.35573670007655
                    ],
                    [
                        -49.73503165422855,
                        -77.34420677658163
                    ],
                    [
                        -49.670910627674026,
                        -77.3326613445914
                    ],
                    [
                        -49.60690737526633,
                        -77.32110044871723
                    ],
                    [
                        -49.54302173211315,
                        -77.30952413346955
                    ],
                    [
                        -49.47925353275788,
                        -77.29793244325772
                    ],
                    [
                        -49.41560261118788,
                        -77.28632542238991
                    ],
                    [
                        -49.35206880084268,
                        -77.27470311507312
                    ],
                    [
                        -49.28865193462215,
                        -77.26306556541306
                    ],
                    [
                        -49.22535184489462,
                        -77.25141281741405
                    ],
                    [
                        -49.162168363504904,
                        -77.239744914979
                    ],
                    [
                        -49.09910132178238,
                        -77.22806190190936
                    ],
                    [
                        -49.03615055054889,
                        -77.216363821905
                    ],
                    [
                        -48.97331588012663,
                        -77.20465071856427
                    ],
                    [
                        -48.91059714034605,
                        -77.1929226353838
                    ],
                    [
                        -48.84799416055364,
                        -77.18117961575857
                    ]
                ]
            }
        }
    ]
}
