{
    "type": "FeatureCollection",
    "features": [
        {
            "type": "Feature",
            "properties": {
                "name": "Moscow",
                "object": "transect",
                "component": "landice",
                "author": "Matthew Hoffman, converted from https://github.com/yuwang115/sl-ice",
                "tags": "Antarctic_Ice_Sheet;flowline;sl-ice;moscow"
            },
            "geometry": {
                "type": "LineString",
                "coordinates": [
                    [
                        123.131092834073,
                        -70.622998683754
                    ],
                    [
                        123.09827546590249,
                        -70.60879456222244
                    ],
                    [
                        123.06442236864238,
                        -70.5948676437837
                    ],
                    [
                        123.03017437991554,
                        -70.58105212302766
                    ],
                    [
                        122.99600587638035,
                        -70.5672292286197
                    ],
                    [
                        122.96233892845262,
                        -70.55327043310498
                    ],
                    [
                        122.92998894918135,
                        -70.53897854110623
                    ],
                    [
                        122.89868702419673,
                        -70.52443874211572
                    ],
                    [
                        122.86738765685064,
                        -70.50990356992321
                    ],
                    [
                        122.83616958109437,
                        -70.49535602766856
                    ],
                    [
                        122.80571953713249,
                        -70.48063213295396
                    ],
                    [
                        122.77582620856762,
                        -70.4657882754109
                    ],
                    [
                        122.74582180745347,
                        -70.45097372724257
                    ],
                    [
                        122.71571366434438,
                        -70.43619217898797
                    ],
                    [
                        122.68593658207956,
                        -70.42133938685593
                    ],
                    [
                        122.65687170770552,
                        -70.40633344407533
                    ],
                    [
                        122.62843550271646,
                        -70.391197787103
                    ],
                    [
                        122.60040280461116,
                        -70.37598093908211
                    ],
                    [
                        122.57289939791522,
                        -70.36066655626001
                    ],
                    [
                        122.54583172727318,
                        -70.34526420096297
                    ],
                    [
                        122.518885632104,
                        -70.32984140750752
                    ],
                    [
                        122.4920008886352,
                        -70.31441641451933
                    ],
                    [
                        122.4653491950992,
                        -70.29894705729075
                    ],
                    [
                        122.43899317254397,
                        -70.28342522200666
                    ],
                    [
                        122.41270885687621,
                        -70.26789898454523
                    ],
                    [
                        122.38625148958556,
                        -70.25240494448589
                    ],
                    [
                        122.35978767418607,
                        -70.2369232255711
                    ],
                    [
                        122.33341481214737,
                        -70.22142234311696
                    ],
                    [
                        122.30686104652595,
                        -70.20596585220295
                    ],
                    [
                        122.28009729395743,
                        -70.19055464782952
                    ],
                    [
                        122.2536280628559,
                        -70.17509119865127
                    ],
                    [
                        122.22786069567607,
                        -70.15949359675126
                    ],
                    [
                        122.20258260714577,
                        -70.14380743650653
                    ],
                    [
                        122.17784031923853,
                        -70.12803336681122
                    ],
                    [
                        122.15376625344427,
                        -70.11214308148465
                    ],
                    [
                        122.1299091355428,
                        -70.09621206738308
                    ],
                    [
                        122.10599099750172,
                        -70.08029980157146
                    ],
                    [
                        122.08201191814011,
                        -70.06440624771243
                    ],
                    [
                        122.05810921535077,
                        -70.04849674492148
                    ],
                    [
                        122.03435899303133,
                        -70.0325708335342
                    ],
                    [
                        122.01079832740723,
                        -70.01661530897033
                    ],
                    [
                        121.98708500610375,
                        -70.00068752253837
                    ],
                    [
                        121.96299796558324,
                        -69.98483470488756
                    ],
                    [
                        121.93875904826538,
                        -69.96900940413624
                    ],
                    [
                        121.91436851772826,
                        -69.95321154256328
                    ],
                    [
                        121.88976304293581,
                        -69.9374651496683
                    ],
                    [
                        121.86519006936572,
                        -69.92171207758376
                    ],
                    [
                        121.8409129192334,
                        -69.9059118710404
                    ],
                    [
                        121.81679183750728,
                        -69.89008912217878
                    ],
                    [
                        121.79260757729297,
                        -69.8742748636915
                    ],
                    [
                        121.76808058309213,
                        -69.85853399681675
                    ],
                    [
                        121.74302155717636,
                        -69.84289635173968
                    ],
                    [
                        121.71776420078221,
                        -69.82730117200013
                    ],
                    [
                        121.69252465157301,
                        -69.81170757492104
                    ],
                    [
                        121.6674348161796,
                        -69.79608742678194
                    ],
                    [
                        121.64251220270629,
                        -69.78044224978885
                    ],
                    [
                        121.61755623888477,
                        -69.76480430511425
                    ],
                    [
                        121.5925078514023,
                        -69.7491914065118
                    ],
                    [
                        121.56783056150918,
                        -69.73351527638211
                    ],
                    [
                        121.54359376570089,
                        -69.71775592696716
                    ],
                    [
                        121.51950075259165,
                        -69.70197657292397
                    ],
                    [
                        121.4955950747531,
                        -69.68616794323889
                    ],
                    [
                        121.47200778899956,
                        -69.67030214897893
                    ],
                    [
                        121.44903870455053,
                        -69.65433633662347
                    ],
                    [
                        121.42659249707184,
                        -69.63828558179812
                    ],
                    [
                        121.40415809870598,
                        -69.62222725369985
                    ],
                    [
                        121.3816571702486,
                        -69.60619369941301
                    ],
                    [
                        121.35927302311862,
                        -69.59013545409493
                    ],
                    [
                        121.33699265385847,
                        -69.57407096023553
                    ],
                    [
                        121.31460387664114,
                        -69.55802443323948
                    ],
                    [
                        121.29219644687915,
                        -69.5419872217411
                    ],
                    [
                        121.27001239428681,
                        -69.52591829926027
                    ],
                    [
                        121.24787903060343,
                        -69.50983871454771
                    ],
                    [
                        121.22561786911989,
                        -69.4937916186363
                    ],
                    [
                        121.20334644482428,
                        -69.47774157988235
                    ],
                    [
                        121.18124328282515,
                        -69.46167151808935
                    ],
                    [
                        121.15961450281213,
                        -69.44552681133597
                    ],
                    [
                        121.13845920405397,
                        -69.42930765292184
                    ],
                    [
                        121.11752465600819,
                        -69.41305730881098
                    ],
                    [
                        121.09672142768999,
                        -69.39678434993064
                    ],
                    [
                        121.07597562908501,
                        -69.38051488163103
                    ],
                    [
                        121.05528920620858,
                        -69.36423285639094
                    ],
                    [
                        121.03457545000119,
                        -69.34795668660145
                    ],
                    [
                        121.01398375109753,
                        -69.3316702486237
                    ],
                    [
                        120.99347923009339,
                        -69.31537053217137
                    ],
                    [
                        120.97299687858144,
                        -69.29907133514509
                    ],
                    [
                        120.95238976397826,
                        -69.28279864879262
                    ],
                    [
                        120.93145953336648,
                        -69.26657378603946
                    ],
                    [
                        120.9103728866426,
                        -69.25038213633614
                    ],
                    [
                        120.88948366441403,
                        -69.2341641554271
                    ],
                    [
                        120.86892077530861,
                        -69.21789247143748
                    ],
                    [
                        120.84876107463553,
                        -69.20156115089627
                    ],
                    [
                        120.82884667639425,
                        -69.18519850131248
                    ],
                    [
                        120.8088825314462,
                        -69.16884637209371
                    ],
                    [
                        120.78873767452963,
                        -69.15252217577752
                    ],
                    [
                        120.76859279177188,
                        -69.13620312422715
                    ],
                    [
                        120.74868176514018,
                        -69.1198551316327
                    ],
                    [
                        120.72943738360745,
                        -69.10340707746887
                    ],
                    [
                        120.71104901020031,
                        -69.08683429317385
                    ],
                    [
                        120.6935061928057,
                        -69.07014929971284
                    ],
                    [
                        120.67654176773067,
                        -69.0533931754174
                    ],
                    [
                        120.65951744109286,
                        -69.03664436742322
                    ],
                    [
                        120.64260843501472,
                        -69.01988639431093
                    ],
                    [
                        120.62638889155963,
                        -69.00303875421416
                    ],
                    [
                        120.6111642612658,
                        -68.98607789844138
                    ],
                    [
                        120.59650385597418,
                        -68.96905890818225
                    ],
                    [
                        120.5821595870941,
                        -68.95199816061502
                    ],
                    [
                        120.56826447950708,
                        -68.93489836892662
                    ],
                    [
                        120.55434350758269,
                        -68.91780350143893
                    ],
                    [
                        120.5393875096688,
                        -68.90082466218217
                    ],
                    [
                        120.52355154453252,
                        -68.88394974176951
                    ],
                    [
                        120.50713655074944,
                        -68.86715106102311
                    ],
                    [
                        120.49025189860151,
                        -68.85041576563741
                    ],
                    [
                        120.4735619429514,
                        -68.83365945455394
                    ],
                    [
                        120.45733966407742,
                        -68.81683953844822
                    ],
                    [
                        120.44067588031638,
                        -68.80008220970585
                    ],
                    [
                        120.42343188455945,
                        -68.78340669025664
                    ],
                    [
                        120.40587112732638,
                        -68.7667724720247
                    ],
                    [
                        120.38783548737523,
                        -68.7502132151086
                    ],
                    [
                        120.3692394549103,
                        -68.73373681296069
                    ],
                    [
                        120.35028244408143,
                        -68.71731634070832
                    ],
                    [
                        120.33147334698744,
                        -68.7008796517646
                    ],
                    [
                        120.3127634444319,
                        -68.68443193986444
                    ],
                    [
                        120.29415691973374,
                        -68.6679671501159
                    ],
                    [
                        120.27618800309111,
                        -68.65141285966583
                    ],
                    [
                        120.25862615007723,
                        -68.63480261118086
                    ],
                    [
                        120.24145560500646,
                        -68.61814487176426
                    ],
                    [
                        120.22465889006864,
                        -68.60143816869153
                    ],
                    [
                        120.20853939533507,
                        -68.58464364900993
                    ],
                    [
                        120.19330501993828,
                        -68.56774272298478
                    ],
                    [
                        120.17877792303166,
                        -68.55075767037862
                    ],
                    [
                        120.16476146292699,
                        -68.53372508716066
                    ],
                    [
                        120.15107102437413,
                        -68.51665331695924
                    ],
                    [
                        120.13743428157485,
                        -68.49957457925751
                    ],
                    [
                        120.12366082074489,
                        -68.48251913913136
                    ],
                    [
                        120.10943008443904,
                        -68.465514183355
                    ],
                    [
                        120.09441973709608,
                        -68.44860277558115
                    ],
                    [
                        120.07914173112042,
                        -68.43172731788273
                    ],
                    [
                        120.06369674423316,
                        -68.41487152309081
                    ],
                    [
                        120.0478685577794,
                        -68.39806609090526
                    ],
                    [
                        120.03172826747014,
                        -68.3813113149897
                    ],
                    [
                        120.01563882393792,
                        -68.3645452441412
                    ],
                    [
                        119.99996543963788,
                        -68.34772593590182
                    ],
                    [
                        119.98383289517109,
                        -68.3309783836962
                    ],
                    [
                        119.96816793186254,
                        -68.31416656571942
                    ],
                    [
                        119.95419560751814,
                        -68.29715224806567
                    ],
                    [
                        119.94130285827255,
                        -68.28002490243618
                    ],
                    [
                        119.92799858563842,
                        -68.2629486592128
                    ],
                    [
                        119.91336021518057,
                        -68.24602308368061
                    ],
                    [
                        119.89869169663082,
                        -68.22909820378527
                    ],
                    [
                        119.88274945572721,
                        -68.21234213185807
                    ],
                    [
                        119.86506509558399,
                        -68.19582425560489
                    ],
                    [
                        119.84752361354877,
                        -68.17929083044993
                    ],
                    [
                        119.830642469522,
                        -68.16266721917553
                    ],
                    [
                        119.81497028478331,
                        -68.14588231363977
                    ],
                    [
                        119.79909225864337,
                        -68.12912546243084
                    ],
                    [
                        119.78319779110878,
                        -68.11237671121408
                    ],
                    [
                        119.76697707796109,
                        -68.09566639861183
                    ],
                    [
                        119.75049567023524,
                        -68.07900102068463
                    ],
                    [
                        119.73346677656235,
                        -68.0624162706746
                    ],
                    [
                        119.71645834288806,
                        -68.04582666974615
                    ],
                    [
                        119.69990878569983,
                        -68.0291794699185
                    ],
                    [
                        119.68312906059109,
                        -68.01256047716339
                    ],
                    [
                        119.66683372151965,
                        -67.99588350030159
                    ],
                    [
                        119.65096450956752,
                        -67.97915582493916
                    ],
                    [
                        119.63441714305564,
                        -67.96251117193025
                    ],
                    [
                        119.6175536414672,
                        -67.94591821571676
                    ],
                    [
                        119.60089781801071,
                        -67.92930079180908
                    ],
                    [
                        119.58437162552417,
                        -67.91267045038524
                    ],
                    [
                        119.56853830771193,
                        -67.89594254194347
                    ],
                    [
                        119.55358498954256,
                        -67.87910762243612
                    ],
                    [
                        119.53935933984619,
                        -67.86218282978626
                    ],
                    [
                        119.52542468381495,
                        -67.8452206022259
                    ],
                    [
                        119.51207210228407,
                        -67.82819945223433
                    ],
                    [
                        119.49976685276789,
                        -67.81107075507613
                    ],
                    [
                        119.48739225176115,
                        -67.79394572951404
                    ],
                    [
                        119.47479406582993,
                        -67.77684719766103
                    ],
                    [
                        119.46258812548948,
                        -67.75970965299041
                    ],
                    [
                        119.45098133013065,
                        -67.74251929087987
                    ],
                    [
                        119.43999714695268,
                        -67.72526585114694
                    ],
                    [
                        119.42996192767676,
                        -67.70793530608805
                    ],
                    [
                        119.4235752188663,
                        -67.69036141223297
                    ],
                    [
                        119.41923452510851,
                        -67.67269804903376
                    ],
                    [
                        119.41514399748809,
                        -67.65501907297558
                    ],
                    [
                        119.41107153592941,
                        -67.63734875094745
                    ],
                    [
                        119.40848001914314,
                        -67.61963755322496
                    ],
                    [
                        119.4069934745888,
                        -67.60190453013243
                    ],
                    [
                        119.40569225441386,
                        -67.58417900279699
                    ],
                    [
                        119.40683529600317,
                        -67.566447934119
                    ],
                    [
                        119.40920925339775,
                        -67.54873222034347
                    ],
                    [
                        119.40953823292803,
                        -67.53100471033379
                    ],
                    [
                        119.40799502479769,
                        -67.51328009640861
                    ],
                    [
                        119.40538910889104,
                        -67.49557279810296
                    ],
                    [
                        119.40092075240597,
                        -67.47792380186041
                    ],
                    [
                        119.39549743111158,
                        -67.4603158029888
                    ],
                    [
                        119.3897174744818,
                        -67.44272152163587
                    ],
                    [
                        119.38455932873026,
                        -67.42511249356119
                    ],
                    [
                        119.38197827859908,
                        -67.40741605386391
                    ],
                    [
                        119.38158870242,
                        -67.38968914510167
                    ],
                    [
                        119.39023540455125,
                        -67.37231765061175
                    ],
                    [
                        119.4087833344081,
                        -67.35622147119572
                    ],
                    [
                        119.43830557856914,
                        -67.34274657740357
                    ],
                    [
                        119.47314811991356,
                        -67.3312031589606
                    ],
                    [
                        119.5100296239706,
                        -67.32064452801377
                    ],
                    [
                        119.54774559425447,
                        -67.31054373672472
                    ],
                    [
                        119.58545974848667,
                        -67.30044693579308
                    ],
                    [
                        119.6228843049253,
                        -67.29020331363867
                    ],
                    [
                        119.65987427730263,
                        -67.27973278493806
                    ],
                    [
                        119.6965312883685,
                        -67.26910495167076
                    ],
                    [
                        119.73301971407362,
                        -67.25839590110931
                    ],
                    [
                        119.76944591927779,
                        -67.24766891953502
                    ],
                    [
                        119.8059633036701,
                        -67.23699210438897
                    ],
                    [
                        119.8427496349351,
                        -67.22645864718665
                    ],
                    [
                        119.87991488101106,
                        -67.21615117260609
                    ],
                    [
                        119.91765155360699,
                        -67.20615428236053
                    ],
                    [
                        119.95574304116043,
                        -67.1963832080618
                    ],
                    [
                        119.9940873744285,
                        -67.18676859980827
                    ],
                    [
                        120.03278363611705,
                        -67.17738529357322
                    ],
                    [
                        120.07178690001845,
                        -67.16820231903563
                    ],
                    [
                        120.11104225808388,
                        -67.15919097731174
                    ],
                    [
                        120.15066063609646,
                        -67.15043367202466
                    ],
                    [
                        120.19058159617929,
                        -67.14189785558172
                    ],
                    [
                        120.23071019381678,
                        -67.13352809425918
                    ],
                    [
                        120.27098072376354,
                        -67.12526236764614
                    ],
                    [
                        120.31128785746051,
                        -67.11704767247942
                    ],
                    [
                        120.35160382975214,
                        -67.10883904401538
                    ],
                    [
                        120.3917176142384,
                        -67.10050503817862
                    ],
                    [
                        120.43150278621974,
                        -67.09193602448326
                    ],
                    [
                        120.47088707405844,
                        -67.08310242735521
                    ],
                    [
                        120.50983848273066,
                        -67.07400144780208
                    ],
                    [
                        120.54852567187557,
                        -67.06472806432683
                    ],
                    [
                        120.58718253317855,
                        -67.05545466681967
                    ],
                    [
                        120.62614633449974,
                        -67.04638625613904
                    ],
                    [
                        120.6654253823381,
                        -67.03753623592488
                    ],
                    [
                        120.70490659168316,
                        -67.02883807731558
                    ],
                    [
                        120.7444844850043,
                        -67.0202132469567
                    ],
                    [
                        120.78402795046834,
                        -67.01158406270245
                    ],
                    [
                        120.82343468608249,
                        -67.00286618979781
                    ],
                    [
                        120.86252450688288,
                        -66.99394196357201
                    ],
                    [
                        120.90130444856996,
                        -66.98482530959146
                    ],
                    [
                        120.93974485136702,
                        -66.97549750112286
                    ],
                    [
                        120.97767062844571,
                        -66.96587079384906
                    ],
                    [
                        121.01521282085251,
                        -66.95602296782008
                    ],
                    [
                        121.05238445979602,
                        -66.94597177459053
                    ],
                    [
                        121.08907832967702,
                        -66.93566523580976
                    ],
                    [
                        121.12540643332213,
                        -66.92515975519845
                    ],
                    [
                        121.16131225031616,
                        -66.91445341433965
                    ],
                    [
                        121.19658560613057,
                        -66.90343608781464
                    ],
                    [
                        121.23120088269899,
                        -66.89210906215776
                    ],
                    [
                        121.26504323375026,
                        -66.88043285417133
                    ],
                    [
                        121.29783501479004,
                        -66.86831383152106
                    ],
                    [
                        121.3296812249368,
                        -66.85582076257627
                    ],
                    [
                        121.36061694682597,
                        -66.84297696783271
                    ],
                    [
                        121.39066033676333,
                        -66.82982018185318
                    ],
                    [
                        121.42016280366967,
                        -66.81648415443438
                    ],
                    [
                        121.44959160356296,
                        -66.80312620297418
                    ],
                    [
                        121.47950893696081,
                        -66.78994764960183
                    ],
                    [
                        121.50998647156209,
                        -66.77697746807391
                    ],
                    [
                        121.54110175360928,
                        -66.76424832967326
                    ],
                    [
                        121.57307449544848,
                        -66.75186731204894
                    ],
                    [
                        121.60609162622036,
                        -66.73992852168311
                    ],
                    [
                        121.64022823559503,
                        -66.7284960489177
                    ],
                    [
                        121.67530180897569,
                        -66.71753580480545
                    ],
                    [
                        121.71057097677152,
                        -66.70667247102462
                    ],
                    [
                        121.74580861673815,
                        -66.69581080631009
                    ],
                    [
                        121.78098674928292,
                        -66.68491609907545
                    ],
                    [
                        121.81597333169255,
                        -66.6739376012711
                    ],
                    [
                        121.85022649663601,
                        -66.66261339315791
                    ],
                    [
                        121.88258154338284,
                        -66.65046087732534
                    ],
                    [
                        121.91201813112119,
                        -66.63720760115682
                    ],
                    [
                        121.93769982252567,
                        -66.62278154219639
                    ],
                    [
                        121.95835919487627,
                        -66.60713527120423
                    ],
                    [
                        121.97518283896028,
                        -66.59078062336775
                    ],
                    [
                        121.98836680160304,
                        -66.57390645992085
                    ],
                    [
                        122.0052624769396,
                        -66.55755949392328
                    ],
                    [
                        122.02213396064799,
                        -66.54121147886451
                    ],
                    [
                        122.0389813017287,
                        -66.52486241990313
                    ],
                    [
                        122.0558045490588,
                        -66.50851232218531
                    ],
                    [
                        122.07260375139234,
                        -66.49216119084494
                    ],
                    [
                        122.08937895736052,
                        -66.47580903100359
                    ],
                    [
                        122.1061302154723,
                        -66.45945584777064
                    ],
                    [
                        122.12285757411453,
                        -66.44310164624318
                    ],
                    [
                        122.1395610815524,
                        -66.42674643150619
                    ],
                    [
                        122.1562407859298,
                        -66.41039020863246
                    ],
                    [
                        122.17289673526962,
                        -66.39403298268275
                    ],
                    [
                        122.18952897747411,
                        -66.37767475870572
                    ],
                    [
                        122.20613756032526,
                        -66.36131554173801
                    ],
                    [
                        122.22272253148512,
                        -66.34495533680432
                    ],
                    [
                        122.23928393849611,
                        -66.32859414891736
                    ],
                    [
                        122.25582182878145,
                        -66.31223198307796
                    ],
                    [
                        122.27233624964543,
                        -66.29586884427508
                    ],
                    [
                        122.28882724827373,
                        -66.27950473748585
                    ],
                    [
                        122.3052948717339,
                        -66.2631396676756
                    ],
                    [
                        122.32173916697549,
                        -66.2467736397979
                    ]
                ]
            }
        }
    ]
}
