{
    "type": "FeatureCollection",
    "features": [
        {
            "type": "Feature",
            "properties": {
                "name": "Greenland Glacier 0152",
                "object": "transect",
                "component": "landice",
                "author": "Matthew Hoffman, converted from Felikson et al. (2020) Zenodo dataset",
                "tags": "Greenland_Ice_Sheet;flowline;zenodo_4284759;glacier_0152",
                "citation": "Felikson, Denis, Catania, Ginny, Bartholomaus, Timothy, Morlighem, Mathieu, & No\u00ebl, Brice. (2020). Inland limits to diffusion of thinning along Greenland Ice Sheet outlet glaciers (v1.0) [Data set]. Zenodo. https://doi.org/10.5281/zenodo.4284759",
                "license": "CC-BY-4.0"
            },
            "geometry": {
                "type": "LineString",
                "coordinates": [
                    [
                        -30.489018140876087,
                        69.98594052604403
                    ],
                    [
                        -30.48706667764683,
                        69.98808219003541
                    ],
                    [
                        -30.484729278216548,
                        69.99018966553903
                    ],
                    [
                        -30.481708359573613,
                        69.99223655876685
                    ],
                    [
                        -30.477814837007905,
                        69.99420607862666
                    ],
                    [
                        -30.474003744641482,
                        69.99618290064703
                    ],
                    [
                        -30.471420482228396,
                        69.99826864358434
                    ],
                    [
                        -30.46845960796841,
                        70.0003209063398
                    ],
                    [
                        -30.46480181440029,
                        70.00231134351012
                    ],
                    [
                        -30.458275170786166,
                        70.00404713580924
                    ],
                    [
                        -30.450757842143215,
                        70.00503919278205
                    ],
                    [
                        -30.443071681381358,
                        70.00625239154918
                    ],
                    [
                        -30.435145101349466,
                        70.00786319377073
                    ],
                    [
                        -30.428048987794938,
                        70.00954760834695
                    ],
                    [
                        -30.4219362559279,
                        70.01131933528842
                    ],
                    [
                        -30.416661020035814,
                        70.01316548391347
                    ],
                    [
                        -30.412047466380567,
                        70.01507046835013
                    ],
                    [
                        -30.40771272596672,
                        70.01700024149599
                    ],
                    [
                        -30.40234315265065,
                        70.01883782656515
                    ],
                    [
                        -30.395797446152425,
                        70.02057055220136
                    ],
                    [
                        -30.38860500211884,
                        70.02224548722116
                    ],
                    [
                        -30.38144916520997,
                        70.02392349590782
                    ],
                    [
                        -30.374182737539606,
                        70.02559145039895
                    ],
                    [
                        -30.367522019008494,
                        70.02731326911965
                    ],
                    [
                        -30.36206072546188,
                        70.0291420220435
                    ],
                    [
                        -30.35854448985317,
                        70.03114438604881
                    ],
                    [
                        -30.35888252440856,
                        70.03349090528474
                    ],
                    [
                        -30.360774505813726,
                        70.03597613947568
                    ],
                    [
                        -30.360864661582834,
                        70.03830053468933
                    ],
                    [
                        -30.35912954228115,
                        70.04046205521344
                    ],
                    [
                        -30.355910844583008,
                        70.0424911911312
                    ],
                    [
                        -30.35119084192316,
                        70.04438630738521
                    ],
                    [
                        -30.345010040453083,
                        70.0461509230042
                    ],
                    [
                        -30.337388538013947,
                        70.04778669460528
                    ],
                    [
                        -30.329620021068486,
                        70.0490712089478
                    ],
                    [
                        -30.32204251611869,
                        70.05010503228756
                    ],
                    [
                        -30.314451374227037,
                        70.05115524040282
                    ],
                    [
                        -30.30657559913242,
                        70.05257465944956
                    ],
                    [
                        -30.300461081162858,
                        70.05434420167013
                    ],
                    [
                        -30.29617742967053,
                        70.05627764910372
                    ],
                    [
                        -30.29314056901763,
                        70.05832277953189
                    ],
                    [
                        -30.2909961727986,
                        70.06044788697497
                    ],
                    [
                        -30.289463819243597,
                        70.06262785932545
                    ],
                    [
                        -30.288234455083813,
                        70.06483500845236
                    ],
                    [
                        -30.287046145331328,
                        70.06704586595045
                    ],
                    [
                        -30.285755636127927,
                        70.06924759753585
                    ],
                    [
                        -30.28430827631837,
                        70.07143530743502
                    ],
                    [
                        -30.282648841119453,
                        70.07360404813338
                    ],
                    [
                        -30.2807953389129,
                        70.07575543231137
                    ],
                    [
                        -30.278824729540613,
                        70.07789635388987
                    ],
                    [
                        -30.276688786451686,
                        70.08002249057557
                    ],
                    [
                        -30.274369338876312,
                        70.08213221197138
                    ],
                    [
                        -30.271961909519693,
                        70.08423407509052
                    ],
                    [
                        -30.269516649565286,
                        70.08633257283117
                    ],
                    [
                        -30.267012970550923,
                        70.08842585920203
                    ],
                    [
                        -30.264394191760143,
                        70.09050885250296
                    ],
                    [
                        -30.261630953905787,
                        70.09257891826717
                    ],
                    [
                        -30.258718059707338,
                        70.09463558682717
                    ],
                    [
                        -30.25565296308666,
                        70.09667862558994
                    ],
                    [
                        -30.252436055915478,
                        70.09870806485274
                    ],
                    [
                        -30.249065342360282,
                        70.10072372032032
                    ],
                    [
                        -30.245526798625633,
                        70.10272432820429
                    ],
                    [
                        -30.24178226469487,
                        70.1047064579944
                    ],
                    [
                        -30.23781518233569,
                        70.10666861449441
                    ],
                    [
                        -30.23360436020089,
                        70.10860888462358
                    ],
                    [
                        -30.229088246537568,
                        70.11052172939678
                    ],
                    [
                        -30.224247671374627,
                        70.11240540880382
                    ],
                    [
                        -30.219102706135423,
                        70.11426170368858
                    ],
                    [
                        -30.213636559247526,
                        70.11608908294075
                    ],
                    [
                        -30.20780035133887,
                        70.11788312775096
                    ],
                    [
                        -30.201576093128907,
                        70.11964218828633
                    ],
                    [
                        -30.19500922758865,
                        70.12137031465888
                    ],
                    [
                        -30.188141789695656,
                        70.12307125396671
                    ],
                    [
                        -30.180984415355383,
                        70.12474593099383
                    ],
                    [
                        -30.17351906451641,
                        70.12639268797568
                    ],
                    [
                        -30.165667240040424,
                        70.12800441530534
                    ],
                    [
                        -30.157645979458096,
                        70.1295501704112
                    ],
                    [
                        -30.14966110340913,
                        70.1310472446902
                    ],
                    [
                        -30.14163293923386,
                        70.13259786868505
                    ],
                    [
                        -30.133733585714104,
                        70.13420431151546
                    ],
                    [
                        -30.126091477236738,
                        70.13583374271305
                    ],
                    [
                        -30.11867426412314,
                        70.13748327134441
                    ],
                    [
                        -30.11153173309757,
                        70.1391574248405
                    ],
                    [
                        -30.104709222255615,
                        70.14086033455735
                    ],
                    [
                        -30.098237320573606,
                        70.14259480220686
                    ],
                    [
                        -30.092103743921964,
                        70.14435975146226
                    ],
                    [
                        -30.086255269226637,
                        70.14615039612738
                    ],
                    [
                        -30.08065412617129,
                        70.14796334116235
                    ],
                    [
                        -30.07527200489262,
                        70.14979604287839
                    ],
                    [
                        -30.070027908666514,
                        70.15164117998006
                    ],
                    [
                        -30.064866984107656,
                        70.1534937917285
                    ],
                    [
                        -30.059770941624887,
                        70.15535222633221
                    ],
                    [
                        -30.05472850615383,
                        70.15721546617071
                    ],
                    [
                        -30.04974251871072,
                        70.15908377279708
                    ],
                    [
                        -30.044761412890942,
                        70.16095247199436
                    ],
                    [
                        -30.039785384334593,
                        70.16282158189885
                    ],
                    [
                        -30.03483652154245,
                        70.16469310786319
                    ],
                    [
                        -30.029856429372597,
                        70.1665617499827
                    ],
                    [
                        -30.024846492336753,
                        70.1684276318406
                    ],
                    [
                        -30.019798814699264,
                        70.17029003411517
                    ],
                    [
                        -30.01467434548312,
                        70.17214540580794
                    ],
                    [
                        -30.00935852170948,
                        70.17398332875607
                    ],
                    [
                        -30.003847145359924,
                        70.17580340660588
                    ],
                    [
                        -29.998168026195785,
                        70.17760815274718
                    ],
                    [
                        -29.99236844884226,
                        70.17940185476965
                    ],
                    [
                        -29.986474907212994,
                        70.18118691332032
                    ],
                    [
                        -29.980468347510374,
                        70.1829615855849
                    ],
                    [
                        -29.974264625472824,
                        70.18471819873098
                    ],
                    [
                        -29.967713411513405,
                        70.18644303924489
                    ],
                    [
                        -29.96076892821816,
                        70.18813189981437
                    ],
                    [
                        -29.95332357812878,
                        70.18977492703398
                    ],
                    [
                        -29.945400048245617,
                        70.19137413037463
                    ],
                    [
                        -29.937358047308518,
                        70.19288082792502
                    ],
                    [
                        -29.929363017890285,
                        70.19432642762374
                    ],
                    [
                        -29.92136148313885,
                        70.19577834490026
                    ],
                    [
                        -29.913360116091646,
                        70.19722817431693
                    ],
                    [
                        -29.905417107714463,
                        70.19860277637088
                    ],
                    [
                        -29.897588247859623,
                        70.19983220741291
                    ],
                    [
                        -29.88988096093309,
                        70.20090740825499
                    ],
                    [
                        -29.88227579509554,
                        70.20185305658012
                    ],
                    [
                        -29.87474720954473,
                        70.20270140345575
                    ],
                    [
                        -29.867258167536566,
                        70.20349903197733
                    ],
                    [
                        -29.859791446412153,
                        70.2042676002349
                    ],
                    [
                        -29.852353114573443,
                        70.20499955886267
                    ],
                    [
                        -29.844955066855324,
                        70.20568008437087
                    ],
                    [
                        -29.83758773105626,
                        70.20632123130683
                    ],
                    [
                        -29.8302286900031,
                        70.20695108270124
                    ],
                    [
                        -29.822863478884447,
                        70.20758772650558
                    ],
                    [
                        -29.81549233851875,
                        70.20823085074659
                    ],
                    [
                        -29.808122186032577,
                        70.20887181282204
                    ],
                    [
                        -29.800745172902342,
                        70.20952040471819
                    ],
                    [
                        -29.79334521562492,
                        70.21019666246242
                    ],
                    [
                        -29.785902102930393,
                        70.21092572099441
                    ],
                    [
                        -29.77840778603559,
                        70.21171751520124
                    ],
                    [
                        -29.77087175103762,
                        70.21256013526187
                    ],
                    [
                        -29.76331379398695,
                        70.21342887386659
                    ],
                    [
                        -29.755758458459987,
                        70.21429317732583
                    ],
                    [
                        -29.748230729313775,
                        70.21512201225175
                    ],
                    [
                        -29.740747756264145,
                        70.2158941430325
                    ],
                    [
                        -29.733286794590928,
                        70.21663788951054
                    ],
                    [
                        -29.725808292543086,
                        70.21740235509344
                    ],
                    [
                        -29.71827363901249,
                        70.21823536885321
                    ],
                    [
                        -29.71064714246941,
                        70.2191810350247
                    ],
                    [
                        -29.702947908323146,
                        70.22021550445481
                    ],
                    [
                        -29.69520033424498,
                        70.22130843097771
                    ],
                    [
                        -29.68742720696036,
                        70.2224315300493
                    ],
                    [
                        -29.679645159818058,
                        70.22356418870179
                    ],
                    [
                        -29.671867735659653,
                        70.22468966001193
                    ],
                    [
                        -29.664086314804646,
                        70.22581859779702
                    ],
                    [
                        -29.65628596159618,
                        70.22696942384006
                    ],
                    [
                        -29.648458010270872,
                        70.22815278486101
                    ],
                    [
                        -29.640589215245686,
                        70.22938494615278
                    ],
                    [
                        -29.632638442238317,
                        70.23071648227129
                    ],
                    [
                        -29.624554934722212,
                        70.23220968620139
                    ],
                    [
                        -29.616760276811057,
                        70.23380976651671
                    ],
                    [
                        -29.609457647227046,
                        70.23545545105594
                    ],
                    [
                        -29.602586980935836,
                        70.23714119984731
                    ],
                    [
                        -29.596166741925686,
                        70.23886878091658
                    ],
                    [
                        -29.590148871106752,
                        70.24063375714054
                    ],
                    [
                        -29.58445665648317,
                        70.24242900919478
                    ],
                    [
                        -29.57896940960569,
                        70.24424330321789
                    ],
                    [
                        -29.573590288711685,
                        70.24606761693374
                    ],
                    [
                        -29.568231080336126,
                        70.24789372313624
                    ],
                    [
                        -29.562862649581515,
                        70.24971890260333
                    ],
                    [
                        -29.55750399301392,
                        70.25154492917947
                    ],
                    [
                        -29.552190326503112,
                        70.25337509415822
                    ],
                    [
                        -29.546887402100786,
                        70.25520620010124
                    ],
                    [
                        -29.541592456016957,
                        70.25703798948715
                    ],
                    [
                        -29.536267250824817,
                        70.25886688724103
                    ],
                    [
                        -29.530874533602418,
                        70.2606894064668
                    ],
                    [
                        -29.525383271960887,
                        70.26250263836839
                    ],
                    [
                        -29.51976874593787,
                        70.26430426149065
                    ],
                    [
                        -29.514089027879326,
                        70.26609970257805
                    ],
                    [
                        -29.508283793489,
                        70.26788330684107
                    ],
                    [
                        -29.50236268425586,
                        70.2696559667274
                    ],
                    [
                        -29.49628547353251,
                        70.27141390237608
                    ],
                    [
                        -29.490025050313793,
                        70.27315455808207
                    ],
                    [
                        -29.483553813227235,
                        70.27487532809121
                    ],
                    [
                        -29.476842020356088,
                        70.27657340135062
                    ],
                    [
                        -29.469866532763174,
                        70.27824658125076
                    ],
                    [
                        -29.46266041292505,
                        70.27989794295517
                    ],
                    [
                        -29.45526914016592,
                        70.28153173174017
                    ],
                    [
                        -29.447732398843545,
                        70.28315165471223
                    ],
                    [
                        -29.440083197421036,
                        70.28476079730342
                    ],
                    [
                        -29.43236334490596,
                        70.28636307774505
                    ],
                    [
                        -29.424665408250235,
                        70.28796719688143
                    ],
                    [
                        -29.417069168867165,
                        70.28958066738191
                    ],
                    [
                        -29.4095569156955,
                        70.29120183391092
                    ],
                    [
                        -29.40212660796704,
                        70.29283051441685
                    ],
                    [
                        -29.394872951958217,
                        70.29447564470031
                    ],
                    [
                        -29.387928650206867,
                        70.29614975715693
                    ],
                    [
                        -29.38143974404998,
                        70.2978666600758
                    ],
                    [
                        -29.375486482029707,
                        70.29963397031615
                    ],
                    [
                        -29.370015432555093,
                        70.3014466930192
                    ],
                    [
                        -29.364921828700208,
                        70.30329497661779
                    ],
                    [
                        -29.360109072625704,
                        70.30516972737033
                    ],
                    [
                        -29.35549348748632,
                        70.30706306129466
                    ],
                    [
                        -29.350966230376745,
                        70.3089647092555
                    ],
                    [
                        -29.346458619668468,
                        70.31086818751726
                    ],
                    [
                        -29.34190919423504,
                        70.31276768918043
                    ],
                    [
                        -29.337233064262193,
                        70.3146551878619
                    ],
                    [
                        -29.332336911474233,
                        70.31652185297331
                    ],
                    [
                        -29.32716897557536,
                        70.31836277485982
                    ],
                    [
                        -29.32165986428535,
                        70.3201713696186
                    ],
                    [
                        -29.31559267914073,
                        70.32192708614768
                    ],
                    [
                        -29.308509952735196,
                        70.32358656930636
                    ],
                    [
                        -29.300382785327987,
                        70.32504048439954
                    ],
                    [
                        -29.292485598225543,
                        70.3262170305693
                    ],
                    [
                        -29.284668558015248,
                        70.32729609862683
                    ],
                    [
                        -29.276878681249087,
                        70.32834125970153
                    ],
                    [
                        -29.26905978787312,
                        70.32941976135469
                    ],
                    [
                        -29.26114054917965,
                        70.33061680273329
                    ],
                    [
                        -29.25302907060629,
                        70.33204194626714
                    ],
                    [
                        -29.245266952911365,
                        70.33363518202809
                    ],
                    [
                        -29.23813185124064,
                        70.33528779506088
                    ],
                    [
                        -29.23141890476055,
                        70.33698037615748
                    ],
                    [
                        -29.225112711381847,
                        70.3387115042907
                    ],
                    [
                        -29.219400678865856,
                        70.34049905039623
                    ],
                    [
                        -29.21424477002862,
                        70.3423394441684
                    ],
                    [
                        -29.20944268200377,
                        70.34421346777292
                    ],
                    [
                        -29.204781493182537,
                        70.34610087089708
                    ],
                    [
                        -29.200167754134746,
                        70.34799276258141
                    ],
                    [
                        -29.19550738926347,
                        70.3498801844064
                    ],
                    [
                        -29.190609017412164,
                        70.35174489887348
                    ],
                    [
                        -29.18521426073212,
                        70.35356226543374
                    ],
                    [
                        -29.179243833396615,
                        70.3553246870888
                    ],
                    [
                        -29.172862296901215,
                        70.35704780661568
                    ],
                    [
                        -29.16627439325995,
                        70.3587511168927
                    ],
                    [
                        -29.15953546648688,
                        70.36043987887115
                    ],
                    [
                        -29.152709546822162,
                        70.36212018991223
                    ],
                    [
                        -29.146010341839954,
                        70.36381245140483
                    ],
                    [
                        -29.139676487741752,
                        70.3655394756679
                    ],
                    [
                        -29.133679003005966,
                        70.36729852822344
                    ],
                    [
                        -29.127955192181016,
                        70.36908364576954
                    ],
                    [
                        -29.122593339126496,
                        70.37090329316945
                    ],
                    [
                        -29.11760708543277,
                        70.37275880288094
                    ],
                    [
                        -29.112922964366703,
                        70.3746431725692
                    ],
                    [
                        -29.108277524186164,
                        70.37653121277204
                    ],
                    [
                        -29.108277524186164,
                        70.37653121277204
                    ],
                    [
                        -29.103631173011433,
                        70.37841913671592
                    ],
                    [
                        -29.098822685632435,
                        70.38029151064733
                    ],
                    [
                        -29.09388588512703,
                        70.38215156264198
                    ],
                    [
                        -29.088919984747548,
                        70.38400878610213
                    ],
                    [
                        -29.05350153835365,
                        70.39744821520554
                    ],
                    [
                        -29.01803358147773,
                        70.4108808067497
                    ],
                    [
                        -28.98251603747298,
                        70.42430654410403
                    ],
                    [
                        -28.946948829630518,
                        70.43772541060247
                    ],
                    [
                        -28.91133188117993,
                        70.45113738954315
                    ],
                    [
                        -28.87566511528968,
                        70.46454246418855
                    ],
                    [
                        -28.839948455067585,
                        70.47794061776521
                    ],
                    [
                        -28.80418182356131,
                        70.49133183346386
                    ],
                    [
                        -28.768365143758796,
                        70.50471609443923
                    ],
                    [
                        -28.732498338588808,
                        70.51809338381004
                    ],
                    [
                        -28.696581330921347,
                        70.53146368465897
                    ],
                    [
                        -28.660614043568163,
                        70.54482698003254
                    ],
                    [
                        -28.6245963992833,
                        70.55818325294106
                    ],
                    [
                        -28.588528320763494,
                        70.5715324863586
                    ],
                    [
                        -28.552409730648762,
                        70.58487466322289
                    ],
                    [
                        -28.516240551522866,
                        70.59820976643528
                    ],
                    [
                        -28.48002070591382,
                        70.61153777886067
                    ],
                    [
                        -28.443750116294435,
                        70.62485868332745
                    ],
                    [
                        -28.407428705082804,
                        70.63817246262747
                    ],
                    [
                        -28.37105639464286,
                        70.65147909951591
                    ]
                ]
            }
        }
    ]
}
