{
    "type": "FeatureCollection",
    "features": [
        {
            "type": "Feature",
            "properties": {
                "name": "Greenland Glacier 0063",
                "object": "transect",
                "component": "landice",
                "author": "Matthew Hoffman, converted from Felikson et al. (2020) Zenodo dataset",
                "tags": "Greenland_Ice_Sheet;flowline;zenodo_4284759;glacier_0063",
                "citation": "Felikson, Denis, Catania, Ginny, Bartholomaus, Timothy, Morlighem, Mathieu, & No\u00ebl, Brice. (2020). Inland limits to diffusion of thinning along Greenland Ice Sheet outlet glaciers (v1.0) [Data set]. Zenodo. https://doi.org/10.5281/zenodo.4284759",
                "license": "CC-BY-4.0"
            },
            "geometry": {
                "type": "LineString",
                "coordinates": [
                    [
                        -63.92247386309234,
                        76.60196892303446
                    ],
                    [
                        -63.91152272588912,
                        76.60158727689749
                    ],
                    [
                        -63.92093174039097,
                        76.6009261127587
                    ],
                    [
                        -63.912262292201966,
                        76.60208764952174
                    ],
                    [
                        -63.91493588897604,
                        76.59946763996639
                    ],
                    [
                        -63.91556915360652,
                        76.60182500112859
                    ],
                    [
                        -63.90931443571036,
                        76.59991415412364
                    ],
                    [
                        -63.90144476458057,
                        76.60161698505878
                    ],
                    [
                        -63.89050361602377,
                        76.60007778155743
                    ],
                    [
                        -63.88157033586115,
                        76.5983790858482
                    ],
                    [
                        -63.87192248356832,
                        76.59673689647313
                    ],
                    [
                        -63.85983225026572,
                        76.59557581587688
                    ],
                    [
                        -63.84805667264924,
                        76.5941016311724
                    ],
                    [
                        -63.83571933823277,
                        76.59276832029326
                    ],
                    [
                        -63.823575567236915,
                        76.5913225195817
                    ],
                    [
                        -63.81123052606672,
                        76.58989224158412
                    ],
                    [
                        -63.79987920965492,
                        76.58922397082887
                    ],
                    [
                        -63.7889692746279,
                        76.58885542459159
                    ],
                    [
                        -63.7787965190822,
                        76.5889890391062
                    ],
                    [
                        -63.768819686866024,
                        76.58925614312514
                    ],
                    [
                        -63.758803446318616,
                        76.58949619671408
                    ],
                    [
                        -63.74812907362202,
                        76.58928623154786
                    ],
                    [
                        -63.736114681472586,
                        76.58782695511206
                    ],
                    [
                        -63.72775264836754,
                        76.58607998561749
                    ],
                    [
                        -63.72039040161439,
                        76.58425427770676
                    ],
                    [
                        -63.71384251548194,
                        76.58236448044836
                    ],
                    [
                        -63.70737402604165,
                        76.58046842098415
                    ],
                    [
                        -63.70116307771119,
                        76.57855210163835
                    ],
                    [
                        -63.6953200595655,
                        76.57660686069325
                    ],
                    [
                        -63.68975077441228,
                        76.57464011599274
                    ],
                    [
                        -63.68434292478541,
                        76.57266070066404
                    ],
                    [
                        -63.67911595113155,
                        76.57066709402187
                    ],
                    [
                        -63.6740037903673,
                        76.56866449078778
                    ],
                    [
                        -63.66875376042357,
                        76.56667273596676
                    ],
                    [
                        -63.66416357691946,
                        76.56462919559233
                    ],
                    [
                        -63.65983772636776,
                        76.56256493743993
                    ],
                    [
                        -63.655632167311694,
                        76.56049127451007
                    ],
                    [
                        -63.65158055678622,
                        76.55840556755949
                    ],
                    [
                        -63.647678977195504,
                        76.55630812696123
                    ],
                    [
                        -63.644289791243594,
                        76.55417051645412
                    ],
                    [
                        -63.64138624484871,
                        76.5519948404363
                    ],
                    [
                        -63.63873266060501,
                        76.54979959648634
                    ],
                    [
                        -63.636300966201354,
                        76.54758698738091
                    ],
                    [
                        -63.63420476403094,
                        76.54534809567328
                    ],
                    [
                        -63.63260219341707,
                        76.54307050520032
                    ],
                    [
                        -63.631472027460646,
                        76.54075587370863
                    ],
                    [
                        -63.631113334114914,
                        76.53838070907842
                    ],
                    [
                        -63.6311041983108,
                        76.53597811572807
                    ],
                    [
                        -63.6310181142703,
                        76.53358157761511
                    ],
                    [
                        -63.63087578761756,
                        76.53118947132542
                    ],
                    [
                        -63.6305578620349,
                        76.52881117639416
                    ],
                    [
                        -63.63013108809714,
                        76.52644145417995
                    ],
                    [
                        -63.62973944457862,
                        76.52406899338852
                    ],
                    [
                        -63.62921067341526,
                        76.52170733235711
                    ],
                    [
                        -63.628692183591745,
                        76.51934488770551
                    ],
                    [
                        -63.62784665473935,
                        76.51700817979342
                    ],
                    [
                        -63.62664908583404,
                        76.51469918378919
                    ],
                    [
                        -63.62505723847297,
                        76.51242122932177
                    ],
                    [
                        -63.62292483640461,
                        76.51018582614721
                    ],
                    [
                        -63.61991910239251,
                        76.5080191480059
                    ],
                    [
                        -63.616120339743134,
                        76.50591487732876
                    ],
                    [
                        -63.61174855839794,
                        76.50385570398929
                    ],
                    [
                        -63.60713883376009,
                        76.5018152728025
                    ],
                    [
                        -63.60225172584722,
                        76.49979667724425
                    ],
                    [
                        -63.597120623361185,
                        76.49779728435797
                    ],
                    [
                        -63.59170792077476,
                        76.4958200403929
                    ],
                    [
                        -63.58615553252663,
                        76.49385378474432
                    ],
                    [
                        -63.580742463785946,
                        76.49187659558199
                    ],
                    [
                        -63.57569345045417,
                        76.48987082788872
                    ],
                    [
                        -63.57108167387669,
                        76.48783074720698
                    ],
                    [
                        -63.56679588531181,
                        76.48576510123978
                    ],
                    [
                        -63.56311422619117,
                        76.48365205857925
                    ],
                    [
                        -63.55991582733509,
                        76.4815011177939
                    ],
                    [
                        -63.557144108043005,
                        76.47931672459703
                    ],
                    [
                        -63.55471311177056,
                        76.4771056282078
                    ],
                    [
                        -63.55241847229929,
                        76.47488387380075
                    ],
                    [
                        -63.550301401890025,
                        76.4726482243657
                    ],
                    [
                        -63.548137319894415,
                        76.47041631361104
                    ],
                    [
                        -63.545808706135766,
                        76.46819737051548
                    ],
                    [
                        -63.54309996965514,
                        76.46600832602158
                    ],
                    [
                        -63.539830360972964,
                        76.46386337370735
                    ],
                    [
                        -63.5363001900369,
                        76.46173892871724
                    ],
                    [
                        -63.532682544451255,
                        76.45962139777626
                    ],
                    [
                        -63.5288975783425,
                        76.45751704852321
                    ],
                    [
                        -63.52491386372574,
                        76.45542834556096
                    ],
                    [
                        -63.52055774727636,
                        76.45336891647844
                    ],
                    [
                        -63.51565651441979,
                        76.45135230797172
                    ],
                    [
                        -63.51026797119894,
                        76.4493739660974
                    ],
                    [
                        -63.504339902477255,
                        76.44743796805841
                    ],
                    [
                        -63.4979352645764,
                        76.44553934975895
                    ],
                    [
                        -63.49125113714046,
                        76.44366263023453
                    ],
                    [
                        -63.48439665320858,
                        76.44179923704021
                    ],
                    [
                        -63.47775695875287,
                        76.4399189727013
                    ],
                    [
                        -63.47136861347532,
                        76.43801898490278
                    ],
                    [
                        -63.46499453467606,
                        76.43611786107546
                    ],
                    [
                        -63.45838986112818,
                        76.43423478028794
                    ],
                    [
                        -63.45148532323919,
                        76.43237515300656
                    ],
                    [
                        -63.444174602999674,
                        76.43054728285192
                    ],
                    [
                        -63.43675983081103,
                        76.4287274986594
                    ],
                    [
                        -63.429428627958224,
                        76.4269011150274
                    ],
                    [
                        -63.42220747714783,
                        76.42506606643133
                    ],
                    [
                        -63.41515195154979,
                        76.42321801504427
                    ],
                    [
                        -63.40830051432476,
                        76.42135396497723
                    ],
                    [
                        -63.40830051432476,
                        76.42135396497723
                    ],
                    [
                        -63.40145097505482,
                        76.41948972947617
                    ],
                    [
                        -63.394581346238944,
                        76.41762702638006
                    ],
                    [
                        -63.387425118722724,
                        76.41578666998075
                    ],
                    [
                        -63.37962573505555,
                        76.41399648094774
                    ],
                    [
                        -63.37167196381917,
                        76.41221826115704
                    ],
                    [
                        -63.36404406484865,
                        76.41041452529515
                    ],
                    [
                        -63.30869899518675,
                        76.39767234832611
                    ],
                    [
                        -63.253458508862316,
                        76.38491794250186
                    ],
                    [
                        -63.19832241212103,
                        76.37215134464174
                    ],
                    [
                        -63.14329051116685,
                        76.35937259146462
                    ],
                    [
                        -63.08836261216649,
                        76.34658171958897
                    ],
                    [
                        -63.03353852125396,
                        76.33377876553298
                    ],
                    [
                        -62.978818044534975,
                        76.32096376571481
                    ],
                    [
                        -62.92420098809136,
                        76.30813675645258
                    ],
                    [
                        -62.86968715798547,
                        76.29529777396466
                    ],
                    [
                        -62.815276360264455,
                        76.28244685436975
                    ],
                    [
                        -62.7609684009646,
                        76.26958403368701
                    ],
                    [
                        -62.70676308611557,
                        76.25670934783629
                    ],
                    [
                        -62.65266022174454,
                        76.2438228326382
                    ],
                    [
                        -62.598659613880464,
                        76.23092452381431
                    ],
                    [
                        -62.54476106855817,
                        76.2180144569873
                    ],
                    [
                        -62.4909643918224,
                        76.2050926676811
                    ],
                    [
                        -62.43726938973197,
                        76.19215919132108
                    ],
                    [
                        -62.38367586836367,
                        76.17921406323417
                    ],
                    [
                        -62.33018363381628,
                        76.16625731864906
                    ],
                    [
                        -62.27679249221455,
                        76.1532889926963
                    ]
                ]
            }
        }
    ]
}
