{
    "type": "FeatureCollection",
    "features": [
        {
            "type": "Feature",
            "properties": {
                "name": "Scott",
                "object": "transect",
                "component": "landice",
                "author": "Matthew Hoffman, converted from https://github.com/yuwang115/sl-ice",
                "tags": "Antarctic_Ice_Sheet;flowline;sl-ice;scott"
            },
            "geometry": {
                "type": "LineString",
                "coordinates": [
                    [
                        -157.95012801251147,
                        -87.2804948009558
                    ],
                    [
                        -157.5973229917616,
                        -87.27291759575655
                    ],
                    [
                        -157.24712823891878,
                        -87.26516467404416
                    ],
                    [
                        -156.8977602635888,
                        -87.25743642065208
                    ],
                    [
                        -156.54145088283778,
                        -87.2505953568703
                    ],
                    [
                        -156.1731799191562,
                        -87.24562125702985
                    ],
                    [
                        -155.7952078360796,
                        -87.2428766666566
                    ],
                    [
                        -155.4140208668535,
                        -87.24144197312967
                    ],
                    [
                        -155.03382039226594,
                        -87.23968005523555
                    ],
                    [
                        -154.6583648503887,
                        -87.2363893436199
                    ],
                    [
                        -154.2910890720748,
                        -87.23146887838557
                    ],
                    [
                        -153.9368800294267,
                        -87.22483319584241
                    ],
                    [
                        -153.60471479071825,
                        -87.21598100068294
                    ],
                    [
                        -153.29226509050926,
                        -87.20562224131687
                    ],
                    [
                        -152.98782713201632,
                        -87.19479656787725
                    ],
                    [
                        -152.69359295786217,
                        -87.18338562776032
                    ],
                    [
                        -152.43068353421447,
                        -87.1703787121742
                    ],
                    [
                        -152.20965413382524,
                        -87.15559603221
                    ],
                    [
                        -152.00454439132915,
                        -87.14028826409817
                    ],
                    [
                        -151.80678183328263,
                        -87.12478670067523
                    ],
                    [
                        -151.6442196587047,
                        -87.10835331986424
                    ],
                    [
                        -151.55433339988727,
                        -87.0905928400497
                    ],
                    [
                        -151.52652937242516,
                        -87.07226247241648
                    ],
                    [
                        -151.5334324053394,
                        -87.05388207669183
                    ],
                    [
                        -151.55322058221296,
                        -87.03551484528478
                    ],
                    [
                        -151.54686785845064,
                        -87.01712880703897
                    ],
                    [
                        -151.53736341760145,
                        -86.99875374456242
                    ],
                    [
                        -151.55831362315956,
                        -86.98039861411695
                    ],
                    [
                        -151.59653881406217,
                        -86.96211599291865
                    ],
                    [
                        -151.64191159938426,
                        -86.94388070729973
                    ],
                    [
                        -151.68955884004052,
                        -86.9256622695625
                    ],
                    [
                        -151.71498569068257,
                        -86.90734076313777
                    ],
                    [
                        -151.7096324791132,
                        -86.88895090215536
                    ],
                    [
                        -151.69728171168424,
                        -86.87057089601761
                    ],
                    [
                        -151.65635999654378,
                        -86.85232298014
                    ],
                    [
                        -151.58828513112755,
                        -86.83432356595782
                    ],
                    [
                        -151.50745599661244,
                        -86.81648152983908
                    ],
                    [
                        -151.43719716628257,
                        -86.79851480524559
                    ],
                    [
                        -151.38534283031504,
                        -86.78035433282514
                    ],
                    [
                        -151.34379960935385,
                        -86.76211027737564
                    ],
                    [
                        -151.28205099547202,
                        -86.74407100534575
                    ],
                    [
                        -151.18647570024908,
                        -86.72651277907181
                    ],
                    [
                        -151.06988409071832,
                        -86.70937940279079
                    ],
                    [
                        -150.95540384586727,
                        -86.69220901114679
                    ],
                    [
                        -150.8526777364108,
                        -86.67480433773582
                    ],
                    [
                        -150.7489977594622,
                        -86.65743063971101
                    ],
                    [
                        -150.650726607255,
                        -86.63996022353419
                    ],
                    [
                        -150.55813281579287,
                        -86.62239227951754
                    ],
                    [
                        -150.45166818086847,
                        -86.60511396762453
                    ],
                    [
                        -150.34663307749142,
                        -86.58781174179799
                    ],
                    [
                        -150.23954679094643,
                        -86.5705645433533
                    ],
                    [
                        -150.1398853549017,
                        -86.55317606166267
                    ],
                    [
                        -150.05872992611555,
                        -86.53545191650743
                    ],
                    [
                        -149.99766896309657,
                        -86.51744136676109
                    ],
                    [
                        -149.95246927700353,
                        -86.49926090747807
                    ],
                    [
                        -149.92287762290252,
                        -86.48096010953364
                    ],
                    [
                        -149.90111054365315,
                        -86.4626192516957
                    ],
                    [
                        -149.88019555550125,
                        -86.44427512419033
                    ],
                    [
                        -149.86211107045767,
                        -86.42591905122408
                    ],
                    [
                        -149.8508063497797,
                        -86.40754338769273
                    ],
                    [
                        -149.8349322103798,
                        -86.3891813506401
                    ],
                    [
                        -149.82838081911163,
                        -86.37080225591741
                    ],
                    [
                        -149.83621202565055,
                        -86.35241888993174
                    ],
                    [
                        -149.86131179766923,
                        -86.33410672519133
                    ],
                    [
                        -149.9158297784,
                        -86.31605843937696
                    ],
                    [
                        -149.98845825367275,
                        -86.29827991822617
                    ],
                    [
                        -150.07659220039704,
                        -86.28080051872405
                    ],
                    [
                        -150.1901856466593,
                        -86.26397018740822
                    ],
                    [
                        -150.32611974774636,
                        -86.24788168040068
                    ],
                    [
                        -150.48345135478934,
                        -86.23267339070802
                    ],
                    [
                        -150.65857070980013,
                        -86.21834748254814
                    ],
                    [
                        -150.82559443163083,
                        -86.20365426057339
                    ],
                    [
                        -150.96332561910373,
                        -86.1877249385739
                    ],
                    [
                        -151.05755311903656,
                        -86.17044853594808
                    ],
                    [
                        -151.137531113666,
                        -86.15285655109106
                    ],
                    [
                        -151.2160297095166,
                        -86.13524630582823
                    ],
                    [
                        -151.30392960815135,
                        -86.11784467721003
                    ],
                    [
                        -151.3998955964031,
                        -86.1006514362097
                    ],
                    [
                        -151.50272151351754,
                        -86.08365372467297
                    ],
                    [
                        -151.62066636929677,
                        -86.06714096968503
                    ],
                    [
                        -151.7568700303736,
                        -86.05132834067547
                    ],
                    [
                        -151.90999374371648,
                        -86.03629081380521
                    ],
                    [
                        -152.06678551565201,
                        -86.02145707369037
                    ],
                    [
                        -152.20348940017564,
                        -86.00574255023261
                    ],
                    [
                        -152.3070430596393,
                        -85.98886625379339
                    ],
                    [
                        -152.37995892989522,
                        -85.97121344007074
                    ],
                    [
                        -152.42493572146773,
                        -85.95312940419954
                    ],
                    [
                        -152.42560001678146,
                        -85.9347855022183
                    ],
                    [
                        -152.33674396505197,
                        -85.91755152414324
                    ],
                    [
                        -152.22380158633553,
                        -85.90102824893165
                    ],
                    [
                        -152.12389382468916,
                        -85.88410227512635
                    ],
                    [
                        -152.0995685034054,
                        -85.86584659926599
                    ],
                    [
                        -152.1232211663299,
                        -85.84758385350439
                    ],
                    [
                        -152.1839442894666,
                        -85.8297573346528
                    ],
                    [
                        -152.27123461101007,
                        -85.81251385817357
                    ],
                    [
                        -152.36649967010788,
                        -85.79550228249855
                    ],
                    [
                        -152.45885454416407,
                        -85.77841789138785
                    ],
                    [
                        -152.52244695579066,
                        -85.76068353136519
                    ],
                    [
                        -152.5297954468475,
                        -85.74243275384764
                    ],
                    [
                        -152.48273428130898,
                        -85.72442255011688
                    ],
                    [
                        -152.40836413257162,
                        -85.7069004813002
                    ],
                    [
                        -152.3434595515555,
                        -85.68917779764874
                    ],
                    [
                        -152.2947815366625,
                        -85.67117304169555
                    ],
                    [
                        -152.25406720365794,
                        -85.65304938673667
                    ],
                    [
                        -152.22269389489844,
                        -85.63483183988083
                    ],
                    [
                        -152.20048090631613,
                        -85.61652719465332
                    ],
                    [
                        -152.18488965481544,
                        -85.59818975271389
                    ],
                    [
                        -152.1871336886778,
                        -85.57982622852693
                    ],
                    [
                        -152.19644571116422,
                        -85.56146124020358
                    ],
                    [
                        -152.18690044769235,
                        -85.5430997412515
                    ],
                    [
                        -152.16466651145615,
                        -85.52480063494569
                    ],
                    [
                        -152.12794547559795,
                        -85.5066554792762
                    ],
                    [
                        -152.06397230481056,
                        -85.48897454178503
                    ],
                    [
                        -152.00857141222062,
                        -85.47113271922812
                    ],
                    [
                        -151.97841663164309,
                        -85.45292664782161
                    ],
                    [
                        -151.9600420642661,
                        -85.43460392473324
                    ],
                    [
                        -151.95173154458203,
                        -85.41625139568502
                    ],
                    [
                        -151.9676350362826,
                        -85.39792848155851
                    ],
                    [
                        -151.99019866598772,
                        -85.37964022809648
                    ],
                    [
                        -152.00011950951625,
                        -85.36129017482295
                    ],
                    [
                        -152.0036413086101,
                        -85.34291508482322
                    ],
                    [
                        -152.02431794121134,
                        -85.32461848147629
                    ],
                    [
                        -152.05871607756356,
                        -85.30646238610403
                    ],
                    [
                        -152.12358814080926,
                        -85.2889124711169
                    ],
                    [
                        -152.22863112382305,
                        -85.27270434571898
                    ],
                    [
                        -152.344840729456,
                        -85.25703004284726
                    ],
                    [
                        -152.45847395643486,
                        -85.24124686521972
                    ],
                    [
                        -152.57835208017698,
                        -85.22584896520877
                    ],
                    [
                        -152.73088452523717,
                        -85.21267112800132
                    ],
                    [
                        -152.9141539929287,
                        -85.2026231007051
                    ],
                    [
                        -153.0859803556072,
                        -85.19118918743116
                    ],
                    [
                        -153.25934153137925,
                        -85.1799673312252
                    ],
                    [
                        -153.44142901164923,
                        -85.16983862423946
                    ],
                    [
                        -153.64372708363345,
                        -85.1629955383599
                    ],
                    [
                        -153.85141016927224,
                        -85.15749409160918
                    ],
                    [
                        -154.06487178705117,
                        -85.15406518543828
                    ],
                    [
                        -154.27624370914086,
                        -85.1497540614608
                    ],
                    [
                        -154.48819010185684,
                        -85.145741406726
                    ],
                    [
                        -154.70148318225867,
                        -85.14233830123732
                    ],
                    [
                        -154.91768215424088,
                        -85.1407797055803
                    ],
                    [
                        -155.13364857811683,
                        -85.13910089264776
                    ],
                    [
                        -155.35004972474314,
                        -85.13810383075051
                    ],
                    [
                        -155.56682629639405,
                        -85.13786990912422
                    ],
                    [
                        -155.78326904796432,
                        -85.13692602664266
                    ],
                    [
                        -155.9986488939074,
                        -85.13493766390724
                    ],
                    [
                        -156.21116477671038,
                        -85.13140669715452
                    ],
                    [
                        -156.42029275753688,
                        -85.1267034405671
                    ],
                    [
                        -156.6230659669553,
                        -85.12038261362815
                    ],
                    [
                        -156.81297817372862,
                        -85.11167002245543
                    ],
                    [
                        -156.99069176197952,
                        -85.10132761594473
                    ],
                    [
                        -157.15173599683746,
                        -85.08918619901232
                    ],
                    [
                        -157.29493044780304,
                        -85.07551778231775
                    ],
                    [
                        -157.42723406051354,
                        -85.0610975497297
                    ],
                    [
                        -157.54788557784747,
                        -85.04595402197823
                    ],
                    [
                        -157.66075347998958,
                        -85.03038905864419
                    ],
                    [
                        -157.76936241446796,
                        -85.01461840588678
                    ],
                    [
                        -157.8792902854458,
                        -84.99893195645402
                    ],
                    [
                        -157.98944041146137,
                        -84.9832754736175
                    ],
                    [
                        -158.1015031115635,
                        -84.9677429208014
                    ],
                    [
                        -158.21860701637712,
                        -84.95252359524919
                    ],
                    [
                        -158.3509534493841,
                        -84.93833453957406
                    ],
                    [
                        -158.49264413341663,
                        -84.9248911691254
                    ],
                    [
                        -158.6382994899096,
                        -84.91181052697851
                    ],
                    [
                        -158.78827823331594,
                        -84.89916013929496
                    ],
                    [
                        -158.94575963728096,
                        -84.88729657695917
                    ],
                    [
                        -159.1097994604623,
                        -84.87619783631541
                    ],
                    [
                        -159.27842483973336,
                        -84.86569938244341
                    ],
                    [
                        -159.4496378647246,
                        -84.85558680803986
                    ],
                    [
                        -159.62329230414042,
                        -84.84586478192698
                    ],
                    [
                        -159.79994198690568,
                        -84.83663361983706
                    ],
                    [
                        -159.97742271839957,
                        -84.82758167489987
                    ],
                    [
                        -160.15519361384946,
                        -84.8186253862585
                    ],
                    [
                        -160.33440550938792,
                        -84.80996403060557
                    ],
                    [
                        -160.51487447024294,
                        -84.8015670067456
                    ],
                    [
                        -160.69657728288024,
                        -84.79344220672749
                    ],
                    [
                        -160.87964472058445,
                        -84.78563054174562
                    ],
                    [
                        -161.06359637220248,
                        -84.77804766589108
                    ],
                    [
                        -161.2482082290797,
                        -84.77065292870698
                    ],
                    [
                        -161.43304350167023,
                        -84.76334723488813
                    ],
                    [
                        -161.61845690254782,
                        -84.75623933714304
                    ],
                    [
                        -161.80383006621832,
                        -84.74916810590048
                    ],
                    [
                        -161.98898838244952,
                        -84.74209513264441
                    ],
                    [
                        -162.17469994639168,
                        -84.73520699320004
                    ],
                    [
                        -162.36091692707222,
                        -84.72849811309301
                    ],
                    [
                        -162.54652816607674,
                        -84.72169827515776
                    ],
                    [
                        -162.73196193202955,
                        -84.71491448636921
                    ],
                    [
                        -162.91753689071976,
                        -84.70821805724424
                    ],
                    [
                        -163.10306062725812,
                        -84.70155975383435
                    ],
                    [
                        -163.2885525621163,
                        -84.69495128606655
                    ],
                    [
                        -163.47394743394258,
                        -84.6883828138792
                    ],
                    [
                        -163.65846367884825,
                        -84.68165285727017
                    ],
                    [
                        -163.84222122438678,
                        -84.67480569791533
                    ],
                    [
                        -164.0257971661054,
                        -84.66796912931073
                    ],
                    [
                        -164.20994874139532,
                        -84.66132041771262
                    ],
                    [
                        -164.39309964892806,
                        -84.65449308761549
                    ],
                    [
                        -164.57578079903504,
                        -84.64761138867682
                    ],
                    [
                        -164.75791349873498,
                        -84.64065644248113
                    ],
                    [
                        -164.93922430500982,
                        -84.63357037574738
                    ],
                    [
                        -165.1200215726077,
                        -84.62642810875752
                    ],
                    [
                        -165.30123022401423,
                        -84.61941979490113
                    ],
                    [
                        -165.48105935876373,
                        -84.61216607590599
                    ],
                    [
                        -165.6590935926974,
                        -84.60458824743503
                    ],
                    [
                        -165.8345497242373,
                        -84.59653983643327
                    ],
                    [
                        -166.00895884763327,
                        -84.5883464013605
                    ],
                    [
                        -166.18268832745807,
                        -84.5800684047249
                    ],
                    [
                        -166.35575902086578,
                        -84.57171621284134
                    ],
                    [
                        -166.52849258584808,
                        -84.56335512731783
                    ],
                    [
                        -166.70150244757204,
                        -84.5550951717112
                    ],
                    [
                        -166.875166923635,
                        -84.5470081638529
                    ],
                    [
                        -167.04900941596006,
                        -84.53900998348185
                    ],
                    [
                        -167.2229233313884,
                        -84.53107420375028
                    ],
                    [
                        -167.39704700255027,
                        -84.52322874469603
                    ],
                    [
                        -167.57147463304563,
                        -84.5155003797979
                    ],
                    [
                        -167.74596933985956,
                        -84.50783365221099
                    ],
                    [
                        -167.92093003483342,
                        -84.50031614625031
                    ],
                    [
                        -168.09610813072027,
                        -84.49289312040547
                    ],
                    [
                        -168.2715470790547,
                        -84.48558922723996
                    ],
                    [
                        -168.44692383532978,
                        -84.47831870064753
                    ],
                    [
                        -168.6216637414747,
                        -84.47095399431669
                    ],
                    [
                        -168.79622889210918,
                        -84.46360362138981
                    ],
                    [
                        -168.9709962963142,
                        -84.45635127721
                    ],
                    [
                        -169.14548634338186,
                        -84.44908276904393
                    ],
                    [
                        -169.31958911361002,
                        -84.44178583064408
                    ],
                    [
                        -169.49354974247157,
                        -84.43450889838401
                    ],
                    [
                        -169.66695073596256,
                        -84.42715388936249
                    ],
                    [
                        -169.8397736240603,
                        -84.41972923247215
                    ],
                    [
                        -170.0120299588503,
                        -84.41221683037568
                    ],
                    [
                        -170.1836494557527,
                        -84.40463264067698
                    ],
                    [
                        -170.35484688595793,
                        -84.39700018412638
                    ],
                    [
                        -170.52572754146524,
                        -84.38935208539152
                    ],
                    [
                        -170.69662925381132,
                        -84.38175429487106
                    ],
                    [
                        -170.86725767665988,
                        -84.37415256264488
                    ],
                    [
                        -171.0377741208,
                        -84.36657169732914
                    ],
                    [
                        -171.2077137614514,
                        -84.35891898656547
                    ],
                    [
                        -171.3771245260346,
                        -84.35120477726906
                    ],
                    [
                        -171.54678702259034,
                        -84.34359117882263
                    ],
                    [
                        -171.7161454838839,
                        -84.33596386231444
                    ],
                    [
                        -171.8847044573434,
                        -84.32821201133913
                    ],
                    [
                        -172.05220548401678,
                        -84.32028906944785
                    ],
                    [
                        -172.21900417474026,
                        -84.31227020466044
                    ],
                    [
                        -172.38549478621408,
                        -84.30423429150497
                    ],
                    [
                        -172.55130316465477,
                        -84.296112621508
                    ],
                    [
                        -172.716697072876,
                        -84.28795531085854
                    ],
                    [
                        -172.8816617025616,
                        -84.27975215010866
                    ],
                    [
                        -173.04593620272226,
                        -84.27146591553715
                    ],
                    [
                        -173.20925244507893,
                        -84.26304021029534
                    ],
                    [
                        -173.37189943443107,
                        -84.25452345703329
                    ],
                    [
                        -173.53352889121658,
                        -84.24587052388594
                    ],
                    [
                        -173.69409471912633,
                        -84.23706037727418
                    ],
                    [
                        -173.85343382455176,
                        -84.22806801330614
                    ],
                    [
                        -174.0113176463549,
                        -84.21887715932878
                    ],
                    [
                        -174.16870214246552,
                        -84.20962981005538
                    ],
                    [
                        -174.3251393687776,
                        -84.20027001794918
                    ],
                    [
                        -174.48059306673906,
                        -84.19078512605883
                    ],
                    [
                        -174.63518872639182,
                        -84.18120279261986
                    ],
                    [
                        -174.78914732324006,
                        -84.17154770972937
                    ],
                    [
                        -174.94226856396088,
                        -84.16180918538265
                    ],
                    [
                        -175.09484071054325,
                        -84.15201971418836
                    ],
                    [
                        -175.24654531694563,
                        -84.14212708823551
                    ],
                    [
                        -175.39707533987897,
                        -84.13209522183782
                    ],
                    [
                        -175.5467601369773,
                        -84.12197171392702
                    ],
                    [
                        -175.69542885891195,
                        -84.1117308742464
                    ],
                    [
                        -175.8428508561425,
                        -84.10134123246209
                    ],
                    [
                        -175.98910276933856,
                        -84.09081703892508
                    ],
                    [
                        -176.13414163055398,
                        -84.08015229365671
                    ],
                    [
                        -176.27790428600392,
                        -84.06934458079998
                    ],
                    [
                        -176.42062496865967,
                        -84.05842933853972
                    ],
                    [
                        -176.56211634369535,
                        -84.0473765839925
                    ],
                    [
                        -176.7021924596434,
                        -84.03616757275445
                    ],
                    [
                        -176.84139481497675,
                        -84.02487710160456
                    ],
                    [
                        -176.9797049924252,
                        -84.01350737219583
                    ],
                    [
                        -177.1169625134901,
                        -84.00202768413153
                    ],
                    [
                        -177.2535346941831,
                        -83.99049745964992
                    ],
                    [
                        -177.38919240447575,
                        -83.9788828342571
                    ],
                    [
                        -177.52335580734984,
                        -83.96710723773144
                    ],
                    [
                        -177.65623547972174,
                        -83.9552101632073
                    ],
                    [
                        -177.78778292412878,
                        -83.94318297763672
                    ],
                    [
                        -177.91818317555118,
                        -83.93104462451134
                    ],
                    [
                        -178.04686527104676,
                        -83.91873949582825
                    ],
                    [
                        -178.17432579774837,
                        -83.90631623194254
                    ],
                    [
                        -178.30054590392368,
                        -83.89378371964771
                    ],
                    [
                        -178.4253515335771,
                        -83.8811219364058
                    ],
                    [
                        -178.548886920841,
                        -83.8683458488099
                    ],
                    [
                        -178.67130360177777,
                        -83.85547672903223
                    ],
                    [
                        -178.79188255740846,
                        -83.84243918000466
                    ],
                    [
                        -178.9107766876747,
                        -83.8292520265169
                    ],
                    [
                        -179.0280054220185,
                        -83.8159180957812
                    ],
                    [
                        -179.14370489308334,
                        -83.8024587335947
                    ],
                    [
                        -179.25880160283228,
                        -83.78895867772115
                    ],
                    [
                        -179.37222402845384,
                        -83.77532143096927
                    ],
                    [
                        -179.48400983455662,
                        -83.76154886502182
                    ],
                    [
                        -179.5944306234309,
                        -83.74767327698251
                    ],
                    [
                        -179.7037417005019,
                        -83.73371570604102
                    ],
                    [
                        -179.8124318298975,
                        -83.7197200016329
                    ],
                    [
                        -179.9204031430977,
                        -83.70568546692031
                    ],
                    [
                        179.9730680413854,
                        -83.69153626802738
                    ],
                    [
                        179.86851982155923,
                        -83.67723565741076
                    ],
                    [
                        179.76583770346696,
                        -83.66278831144083
                    ],
                    [
                        179.66475686268546,
                        -83.64822807036818
                    ],
                    [
                        179.56636171048146,
                        -83.63346305227836
                    ],
                    [
                        179.46985265297835,
                        -83.61856451385951
                    ],
                    [
                        179.3744835522771,
                        -83.60359122335248
                    ],
                    [
                        179.2803567027954,
                        -83.58854017175943
                    ],
                    [
                        179.1870944334428,
                        -83.57343702666785
                    ],
                    [
                        179.0957253674602,
                        -83.5582087208972
                    ],
                    [
                        179.00568826923305,
                        -83.5428963746413
                    ],
                    [
                        178.91818776416284,
                        -83.5274159785995
                    ],
                    [
                        178.83340110439377,
                        -83.51175724220337
                    ],
                    [
                        178.750115195125,
                        -83.4960120722831
                    ],
                    [
                        178.6690355395438,
                        -83.48013160000345
                    ],
                    [
                        178.5910483103478,
                        -83.46406791448005
                    ],
                    [
                        178.5153213247053,
                        -83.44787318695882
                    ],
                    [
                        178.44143331999504,
                        -83.43158104414725
                    ],
                    [
                        178.37010348319876,
                        -83.41515421809423
                    ],
                    [
                        178.300386421215,
                        -83.39864195619965
                    ],
                    [
                        178.2321891506248,
                        -83.38205925266396
                    ],
                    [
                        178.16602805599177,
                        -83.3653728119653
                    ],
                    [
                        178.1008819697793,
                        -83.34864743518308
                    ],
                    [
                        178.03685180727248,
                        -83.33186736473127
                    ],
                    [
                        177.97525679269347,
                        -83.31497601404372
                    ],
                    [
                        177.9156504746437,
                        -83.2979944413549
                    ],
                    [
                        177.85753223474163,
                        -83.28095239375415
                    ],
                    [
                        177.80202044129118,
                        -83.26379851512594
                    ],
                    [
                        177.74824178633534,
                        -83.24657283643059
                    ],
                    [
                        177.69631651600403,
                        -83.22927743124497
                    ],
                    [
                        177.64516905141312,
                        -83.2119545070954
                    ],
                    [
                        177.59495161157793,
                        -83.19459679165958
                    ],
                    [
                        177.54639981738768,
                        -83.1771826077881
                    ],
                    [
                        177.5002239594646,
                        -83.15967761673996
                    ],
                    [
                        177.45499288100982,
                        -83.14214474024597
                    ],
                    [
                        177.41043585069613,
                        -83.12459288361258
                    ],
                    [
                        177.36716890057008,
                        -83.10699900506593
                    ],
                    [
                        177.32471209540145,
                        -83.08937730638407
                    ],
                    [
                        177.28283302417023,
                        -83.07174320568255
                    ],
                    [
                        177.24219018046134,
                        -83.0540722256943
                    ],
                    [
                        177.20260855809804,
                        -83.03636367452319
                    ],
                    [
                        177.16373189873917,
                        -83.01863956827961
                    ],
                    [
                        177.12545737474628,
                        -83.00089945986556
                    ],
                    [
                        177.0875602087629,
                        -82.98314944933797
                    ],
                    [
                        177.04985992867182,
                        -82.9654022576861
                    ],
                    [
                        177.01204842437426,
                        -82.94765778171013
                    ],
                    [
                        176.97570641969372,
                        -82.92986747951721
                    ],
                    [
                        176.94058556244346,
                        -82.91204847211787
                    ],
                    [
                        176.90543985781758,
                        -82.89422947692151
                    ],
                    [
                        176.87079928670218,
                        -82.87640120494943
                    ],
                    [
                        176.83654480643875,
                        -82.85855744822716
                    ],
                    [
                        176.8026663523951,
                        -82.84071475392527
                    ],
                    [
                        176.76937781161223,
                        -82.82284900116588
                    ],
                    [
                        176.73739627323516,
                        -82.80495443148057
                    ],
                    [
                        176.7065892791066,
                        -82.78702857730619
                    ],
                    [
                        176.6759952831291,
                        -82.76909775686862
                    ],
                    [
                        176.6448222389352,
                        -82.75118737694896
                    ],
                    [
                        176.61423696231833,
                        -82.73326375912586
                    ],
                    [
                        176.5845516140074,
                        -82.71531654449903
                    ],
                    [
                        176.55528281235166,
                        -82.69736153472999
                    ],
                    [
                        176.52634815012334,
                        -82.67939910190584
                    ],
                    [
                        176.49748256453142,
                        -82.66143734701073
                    ],
                    [
                        176.46900477410787,
                        -82.64346868992476
                    ],
                    [
                        176.44114452571534,
                        -82.62548586382147
                    ],
                    [
                        176.41353483519416,
                        -82.6075007440754
                    ],
                    [
                        176.38636412049974,
                        -82.58950297466112
                    ],
                    [
                        176.3594762448919,
                        -82.57150055103807
                    ],
                    [
                        176.33327826372792,
                        -82.55348313385088
                    ],
                    [
                        176.30781460552322,
                        -82.53545124882095
                    ],
                    [
                        176.28320176560493,
                        -82.51740145034438
                    ],
                    [
                        176.259091982252,
                        -82.49934197770763
                    ],
                    [
                        176.23549615023168,
                        -82.48127211104621
                    ],
                    [
                        176.2126713851892,
                        -82.46318867817253
                    ],
                    [
                        176.1903971196986,
                        -82.44508899026634
                    ],
                    [
                        176.16892578068,
                        -82.42697630530854
                    ],
                    [
                        176.14843905412087,
                        -82.40885148355541
                    ],
                    [
                        176.12842501774696,
                        -82.3907119703233
                    ],
                    [
                        176.10887023846738,
                        -82.37256416426567
                    ],
                    [
                        176.08995608751465,
                        -82.35441163849801
                    ],
                    [
                        176.07150901747733,
                        -82.33624833134817
                    ],
                    [
                        176.0537523962957,
                        -82.31807455142868
                    ],
                    [
                        176.03651577322324,
                        -82.29989251706655
                    ],
                    [
                        176.01984458053988,
                        -82.28169999009958
                    ],
                    [
                        176.0037800425932,
                        -82.26350205104731
                    ],
                    [
                        175.98836092709854,
                        -82.24529457945508
                    ],
                    [
                        175.97346691436053,
                        -82.2270783771443
                    ],
                    [
                        175.9591598718791,
                        -82.20885779872798
                    ],
                    [
                        175.94579306432908,
                        -82.19062164641895
                    ],
                    [
                        175.93311556699976,
                        -82.17237315253034
                    ],
                    [
                        175.92095289017,
                        -82.15412817824341
                    ],
                    [
                        175.90918981145975,
                        -82.1358691400629
                    ],
                    [
                        175.89803535716769,
                        -82.11761376913245
                    ],
                    [
                        175.88755370894526,
                        -82.09934625525204
                    ],
                    [
                        175.87790603945675,
                        -82.0810682952005
                    ],
                    [
                        175.8688899563841,
                        -82.06278717043921
                    ],
                    [
                        175.86044829606928,
                        -82.04450239266686
                    ],
                    [
                        175.85262979349767,
                        -82.02621452685298
                    ],
                    [
                        175.8453250382884,
                        -82.00792254642417
                    ],
                    [
                        175.83835351445495,
                        -81.98962468397394
                    ],
                    [
                        175.83194186775512,
                        -81.9713232872006
                    ],
                    [
                        175.82608389445772,
                        -81.95302295062676
                    ],
                    [
                        175.82064560103126,
                        -81.93472236307491
                    ],
                    [
                        175.81562888170095,
                        -81.91641240631772
                    ],
                    [
                        175.8111404245219,
                        -81.89810800392348
                    ],
                    [
                        175.80730897694298,
                        -81.87979217616682
                    ],
                    [
                        175.80412063943007,
                        -81.8614832122433
                    ],
                    [
                        175.80135928668628,
                        -81.8431651461139
                    ],
                    [
                        175.79901497250273,
                        -81.8248516891268
                    ],
                    [
                        175.7971921278457,
                        -81.80653478904958
                    ],
                    [
                        175.79580178458974,
                        -81.78821814806645
                    ],
                    [
                        175.7948259412501,
                        -81.76990620396496
                    ],
                    [
                        175.79435562205921,
                        -81.7515907673162
                    ],
                    [
                        175.79426043289746,
                        -81.7332704978361
                    ],
                    [
                        175.79460292547714,
                        -81.71495526863181
                    ],
                    [
                        175.79555324183272,
                        -81.69664232555496
                    ],
                    [
                        175.79688653678738,
                        -81.67832931604367
                    ],
                    [
                        175.7986065740247,
                        -81.66001630421984
                    ],
                    [
                        175.80084899390607,
                        -81.6417047610151
                    ],
                    [
                        175.80340749505717,
                        -81.62339710012031
                    ],
                    [
                        175.80641363203122,
                        -81.60509015615013
                    ],
                    [
                        175.81000176072425,
                        -81.58678539136437
                    ],
                    [
                        175.81405599763997,
                        -81.56848158742073
                    ],
                    [
                        175.81856481955018,
                        -81.55018322935554
                    ],
                    [
                        175.82361433915005,
                        -81.53188666956136
                    ],
                    [
                        175.82909980990917,
                        -81.51359538756803
                    ],
                    [
                        175.83487250976322,
                        -81.49530320373265
                    ],
                    [
                        175.84100841979117,
                        -81.4770155342133
                    ],
                    [
                        175.8475666752881,
                        -81.45873302465672
                    ],
                    [
                        175.85457132871682,
                        -81.4404513529028
                    ],
                    [
                        175.86218646523858,
                        -81.42218147462577
                    ],
                    [
                        175.87030268175107,
                        -81.40391303594603
                    ],
                    [
                        175.87884754491523,
                        -81.38564984633146
                    ],
                    [
                        175.88784266611304,
                        -81.36739213906132
                    ],
                    [
                        175.89723664827184,
                        -81.34913935770871
                    ],
                    [
                        175.90695430278967,
                        -81.3308906879992
                    ],
                    [
                        175.91718698892896,
                        -81.31264818966793
                    ],
                    [
                        175.92797757840637,
                        -81.29441690472153
                    ],
                    [
                        175.93907196568037,
                        -81.27618949685753
                    ],
                    [
                        175.95051630389216,
                        -81.25796645505801
                    ],
                    [
                        175.9624162983668,
                        -81.23974890594666
                    ],
                    [
                        175.97478496149412,
                        -81.22154156201192
                    ],
                    [
                        175.98771491334415,
                        -81.20334539932422
                    ],
                    [
                        176.001065714779,
                        -81.18515888948912
                    ],
                    [
                        176.01474770618717,
                        -81.16697646628327
                    ],
                    [
                        176.02902374114,
                        -81.1488055072947
                    ],
                    [
                        176.04381712175638,
                        -81.13064974807472
                    ],
                    [
                        176.05908745438967,
                        -81.11249955405682
                    ],
                    [
                        176.07491623371774,
                        -81.09436493168272
                    ],
                    [
                        176.09116881001222,
                        -81.07623524168945
                    ],
                    [
                        176.10777403140574,
                        -81.05811887017744
                    ],
                    [
                        176.12470250637844,
                        -81.040010891439
                    ],
                    [
                        176.14186071078348,
                        -81.02190570715688
                    ],
                    [
                        176.1593775998451,
                        -81.00381381937068
                    ],
                    [
                        176.17749574832877,
                        -80.98573773348991
                    ],
                    [
                        176.1960061946805,
                        -80.96766604106465
                    ],
                    [
                        176.2148815213785,
                        -80.94961675376602
                    ],
                    [
                        176.2341292097011,
                        -80.93156698675084
                    ],
                    [
                        176.253687444628,
                        -80.91353439529149
                    ],
                    [
                        176.27355247265214,
                        -80.89550973456802
                    ],
                    [
                        176.29377246559548,
                        -80.87749804459479
                    ],
                    [
                        176.31433576186743,
                        -80.85949457728977
                    ],
                    [
                        176.33526148462042,
                        -80.841504065665
                    ],
                    [
                        176.35645991242015,
                        -80.82353013187317
                    ],
                    [
                        176.37782825656885,
                        -80.80555336490636
                    ],
                    [
                        176.39950084896512,
                        -80.78759342135827
                    ],
                    [
                        176.42143406334273,
                        -80.76964065275146
                    ],
                    [
                        176.4436644155687,
                        -80.75169996515162
                    ],
                    [
                        176.46631320970283,
                        -80.73377709956529
                    ],
                    [
                        176.4893685638745,
                        -80.71586729121537
                    ],
                    [
                        176.5126661879648,
                        -80.69796427484994
                    ],
                    [
                        176.53615230354532,
                        -80.68007206137744
                    ],
                    [
                        176.55996090744,
                        -80.66219192144499
                    ],
                    [
                        176.58401724786,
                        -80.6443230724027
                    ],
                    [
                        176.60814627025871,
                        -80.62646377709585
                    ],
                    [
                        176.63234533099575,
                        -80.60860482889069
                    ],
                    [
                        176.6566068195753,
                        -80.5907507156263
                    ],
                    [
                        176.6810195748606,
                        -80.57290226230472
                    ],
                    [
                        176.70561455093062,
                        -80.55506430768229
                    ],
                    [
                        176.7303574870431,
                        -80.53723649069275
                    ],
                    [
                        176.7552175201616,
                        -80.51940933087334
                    ],
                    [
                        176.78002495812987,
                        -80.50159038194413
                    ],
                    [
                        176.80489763604797,
                        -80.48377615117396
                    ],
                    [
                        176.8299689987961,
                        -80.46596326408164
                    ],
                    [
                        176.85514540631013,
                        -80.44816455861485
                    ],
                    [
                        176.88038695154268,
                        -80.4303659103734
                    ],
                    [
                        176.90571770902295,
                        -80.412576670934
                    ],
                    [
                        176.93115659900855,
                        -80.39478782856676
                    ],
                    [
                        176.95659638420435,
                        -80.3770075560798
                    ],
                    [
                        176.98203455263373,
                        -80.3592266662326
                    ],
                    [
                        177.00749144743028,
                        -80.34144990492744
                    ],
                    [
                        177.03307962141923,
                        -80.32368281584043
                    ],
                    [
                        177.0588066326997,
                        -80.30591627734852
                    ],
                    [
                        177.08467299907696,
                        -80.2881639873793
                    ],
                    [
                        177.11062002734045,
                        -80.27042083204817
                    ],
                    [
                        177.13662309241423,
                        -80.25267742535975
                    ],
                    [
                        177.16268593462476,
                        -80.23493835379712
                    ],
                    [
                        177.18868604172,
                        -80.21719799787569
                    ],
                    [
                        177.21470823021443,
                        -80.19946163680174
                    ],
                    [
                        177.24085816542117,
                        -80.18173469906951
                    ],
                    [
                        177.26690143513542,
                        -80.1640106625326
                    ],
                    [
                        177.2928624960923,
                        -80.1462805859384
                    ],
                    [
                        177.31878716532105,
                        -80.1285539917062
                    ],
                    [
                        177.344672819166,
                        -80.11082170741359
                    ],
                    [
                        177.37052127533636,
                        -80.09309746669021
                    ],
                    [
                        177.39625698387562,
                        -80.07536695274025
                    ],
                    [
                        177.42203669591058,
                        -80.05764054330537
                    ],
                    [
                        177.4479381790767,
                        -80.03992339219731
                    ],
                    [
                        177.47368518516728,
                        -80.02219963387766
                    ],
                    [
                        177.49932351434435,
                        -80.00447878160045
                    ],
                    [
                        177.5249651246298,
                        -79.98675711520721
                    ],
                    [
                        177.5505680790563,
                        -79.96903431182204
                    ],
                    [
                        177.57599136177336,
                        -79.95130932750908
                    ],
                    [
                        177.6012578890678,
                        -79.93357778352235
                    ],
                    [
                        177.62640797839057,
                        -79.91584913724486
                    ],
                    [
                        177.6516254326956,
                        -79.89812015220507
                    ],
                    [
                        177.676764471332,
                        -79.88038976659841
                    ],
                    [
                        177.7016398914221,
                        -79.86265210680325
                    ],
                    [
                        177.72643832457592,
                        -79.84491309265124
                    ],
                    [
                        177.75114983350647,
                        -79.827172661
                    ],
                    [
                        177.7756974997209,
                        -79.80943029095152
                    ],
                    [
                        177.80007384930263,
                        -79.79167681375438
                    ],
                    [
                        177.82429830709734,
                        -79.77392152571424
                    ],
                    [
                        177.84834600007287,
                        -79.7561642809342
                    ],
                    [
                        177.87223927787304,
                        -79.73840068276942
                    ],
                    [
                        177.89599424149506,
                        -79.72063085819696
                    ],
                    [
                        177.9196046094318,
                        -79.70286392332488
                    ],
                    [
                        177.94318509060588,
                        -79.68509149628181
                    ],
                    [
                        177.9666331592278,
                        -79.66731749102212
                    ],
                    [
                        177.98982431521418,
                        -79.64953200174602
                    ],
                    [
                        178.01272344388485,
                        -79.63173941871409
                    ],
                    [
                        178.0354382876867,
                        -79.61394045502252
                    ],
                    [
                        178.058014370291,
                        -79.59613998440888
                    ],
                    [
                        178.08036245532313,
                        -79.57833291571865
                    ],
                    [
                        178.1024098147322,
                        -79.5605097113019
                    ],
                    [
                        178.12410515708984,
                        -79.54268381731934
                    ],
                    [
                        178.1456433942295,
                        -79.52484273438398
                    ],
                    [
                        178.1671372499887,
                        -79.50700541098834
                    ],
                    [
                        178.18876542971995,
                        -79.48918201301566
                    ],
                    [
                        178.2102766127112,
                        -79.47134823882429
                    ],
                    [
                        178.23166403965357,
                        -79.45351776542546
                    ],
                    [
                        178.2529256615437,
                        -79.43567689661157
                    ],
                    [
                        178.27404565631875,
                        -79.41783469421848
                    ],
                    [
                        178.29512317682168,
                        -79.39999628588954
                    ],
                    [
                        178.31606090290202,
                        -79.38215201299083
                    ],
                    [
                        178.33688916133374,
                        -79.36430205681685
                    ],
                    [
                        178.35747947803455,
                        -79.34645031526134
                    ],
                    [
                        178.37757476424173,
                        -79.32857721300745
                    ],
                    [
                        178.39733269448652,
                        -79.31069734428311
                    ],
                    [
                        178.41696112410082,
                        -79.29281182769736
                    ],
                    [
                        178.43623655638845,
                        -79.27491041428756
                    ],
                    [
                        178.45488177815074,
                        -79.25699176374765
                    ],
                    [
                        178.47304575906725,
                        -79.23906127798291
                    ],
                    [
                        178.49099483826325,
                        -79.22111577520926
                    ],
                    [
                        178.50918386362895,
                        -79.2031848890353
                    ],
                    [
                        178.5278492497408,
                        -79.18527428089443
                    ],
                    [
                        178.54674247818417,
                        -79.16737355499693
                    ],
                    [
                        178.5656020765313,
                        -79.14947230817458
                    ],
                    [
                        178.58441853555402,
                        -79.13157049666675
                    ],
                    [
                        178.6031051519962,
                        -79.11366772322347
                    ],
                    [
                        178.62182646404253,
                        -79.09576475314297
                    ],
                    [
                        178.6404240505945,
                        -79.07785630030696
                    ],
                    [
                        178.6587874211276,
                        -79.05994645244638
                    ],
                    [
                        178.6770712251332,
                        -79.04203592168588
                    ],
                    [
                        178.6951428463219,
                        -79.02411501578753
                    ],
                    [
                        178.71323594767267,
                        -79.00619845358595
                    ],
                    [
                        178.73119822144918,
                        -78.98828101996133
                    ],
                    [
                        178.74889790467026,
                        -78.97035305648672
                    ],
                    [
                        178.7663642671426,
                        -78.95241928389724
                    ],
                    [
                        178.78362217276072,
                        -78.93447983615249
                    ],
                    [
                        178.80079591798784,
                        -78.91653524213127
                    ],
                    [
                        178.8178569909058,
                        -78.89858995943905
                    ],
                    [
                        178.83466460150385,
                        -78.88063888769821
                    ],
                    [
                        178.8512765900338,
                        -78.86268228596191
                    ],
                    [
                        178.86780650167796,
                        -78.844725175547
                    ],
                    [
                        178.88428295733507,
                        -78.82676767313862
                    ],
                    [
                        178.900757877588,
                        -78.80880997655149
                    ],
                    [
                        178.9171801297477,
                        -78.79084733404387
                    ],
                    [
                        178.93350693857374,
                        -78.77288871604323
                    ],
                    [
                        178.94980889379008,
                        -78.75493438523452
                    ],
                    [
                        178.96598006143455,
                        -78.73697028780626
                    ],
                    [
                        178.98200622123412,
                        -78.71900551102563
                    ],
                    [
                        178.99799970929138,
                        -78.70104045804378
                    ],
                    [
                        179.01400247980024,
                        -78.68307527211674
                    ],
                    [
                        179.02993101998436,
                        -78.66510967056938
                    ],
                    [
                        179.04583159292145,
                        -78.64714837207613
                    ],
                    [
                        179.0615987923036,
                        -78.62918191844163
                    ],
                    [
                        179.07716862047246,
                        -78.61121012301346
                    ],
                    [
                        179.0926111090082,
                        -78.59323323141068
                    ],
                    [
                        179.10794488459555,
                        -78.57525587562722
                    ],
                    [
                        179.12318423950487,
                        -78.55727811180691
                    ],
                    [
                        179.13836240958844,
                        -78.53929093338564
                    ],
                    [
                        179.15359733982402,
                        -78.52131292662546
                    ],
                    [
                        179.16876602905523,
                        -78.50333460772403
                    ],
                    [
                        179.1837093589058,
                        -78.4853509729225
                    ],
                    [
                        179.19856020962987,
                        -78.46736698153025
                    ],
                    [
                        179.21335996449528,
                        -78.44938275778733
                    ],
                    [
                        179.22817700642895,
                        -78.43139849105918
                    ],
                    [
                        179.24300218125208,
                        -78.4134141518569
                    ],
                    [
                        179.25777204539244,
                        -78.39542957092091
                    ],
                    [
                        179.2725046554581,
                        -78.37744935658928
                    ],
                    [
                        179.28719624767112,
                        -78.35946438813981
                    ],
                    [
                        179.30184221142738,
                        -78.34147921449346
                    ],
                    [
                        179.31641575204532,
                        -78.32349377484803
                    ],
                    [
                        179.3309711303326,
                        -78.30550820544872
                    ],
                    [
                        179.34539625521998,
                        -78.28752224627888
                    ],
                    [
                        179.35974125797853,
                        -78.26953147134851
                    ],
                    [
                        179.37402389407876,
                        -78.25154504116173
                    ],
                    [
                        179.38828960576996,
                        -78.23355394929797
                    ],
                    [
                        179.40250677196292,
                        -78.21556723982019
                    ],
                    [
                        179.41667140498316,
                        -78.19758035307859
                    ],
                    [
                        179.43081508571504,
                        -78.17958880321784
                    ],
                    [
                        179.4449507792382,
                        -78.1616017271508
                    ],
                    [
                        179.45891939607242,
                        -78.1436097046438
                    ],
                    [
                        179.47284539129674,
                        -78.12561754791669
                    ],
                    [
                        179.48672895804938,
                        -78.10762526105142
                    ],
                    [
                        179.50054381624395,
                        -78.08963280047192
                    ],
                    [
                        179.51436938622624,
                        -78.071644867091
                    ],
                    [
                        179.52818858264106,
                        -78.05364776515918
                    ],
                    [
                        179.54191742675803,
                        -78.03565501695942
                    ],
                    [
                        179.55552581491045,
                        -78.017662030284
                    ],
                    [
                        179.5691151665892,
                        -77.9996644248887
                    ],
                    [
                        179.58275939988442,
                        -77.98167597444868
                    ],
                    [
                        179.59638875534307,
                        -77.96368745885913
                    ],
                    [
                        179.60997729284452,
                        -77.9456942879676
                    ],
                    [
                        179.62362050501164,
                        -77.92771025632373
                    ],
                    [
                        179.6372967212991,
                        -77.90972621845295
                    ],
                    [
                        179.65085838217652,
                        -77.89173742602996
                    ],
                    [
                        179.66440478457463,
                        -77.87375054222515
                    ],
                    [
                        179.67791077089944,
                        -77.85576356359356
                    ],
                    [
                        179.691376520261,
                        -77.8377764940239
                    ],
                    [
                        179.70480221072154,
                        -77.81978933738682
                    ],
                    [
                        179.71818801930306,
                        -77.80180209753506
                    ],
                    [
                        179.7315341219948,
                        -77.78381477830348
                    ],
                    [
                        179.74484069376072,
                        -77.76582738350929
                    ],
                    [
                        179.7581079085469,
                        -77.74783991695213
                    ],
                    [
                        179.77133593928878,
                        -77.72985238241421
                    ],
                    [
                        179.7845249579187,
                        -77.7118647836604
                    ],
                    [
                        179.79767513537269,
                        -77.69387712443844
                    ],
                    [
                        179.81078664159793,
                        -77.67588940847898
                    ],
                    [
                        179.82385964555976,
                        -77.65790163949572
                    ],
                    [
                        179.83689431524857,
                        -77.63991382118556
                    ],
                    [
                        179.8498908176869,
                        -77.62192595722873
                    ],
                    [
                        179.86284931893638,
                        -77.60393805128882
                    ],
                    [
                        179.8757699841044,
                        -77.585950107013
                    ],
                    [
                        179.88865297735103,
                        -77.56796212803211
                    ],
                    [
                        179.9014984618957,
                        -77.54997411796073
                    ],
                    [
                        179.91430660002385,
                        -77.53198608039735
                    ]
                ]
            }
        }
    ]
}
