{
    "type": "FeatureCollection",
    "features": [
        {
            "type": "Feature",
            "properties": {
                "name": "Jutulstraumen",
                "object": "transect",
                "component": "landice",
                "author": "Matthew Hoffman, converted from https://github.com/yuwang115/sl-ice",
                "tags": "Antarctic_Ice_Sheet;flowline;sl-ice;jutulstraumen"
            },
            "geometry": {
                "type": "LineString",
                "coordinates": [
                    [
                        5.222913831664092,
                        -74.58521971928427
                    ],
                    [
                        5.159372978896844,
                        -74.57877501762526
                    ],
                    [
                        5.095926420277583,
                        -74.57227984525325
                    ],
                    [
                        5.032603061301574,
                        -74.56571725389368
                    ],
                    [
                        4.96941453548822,
                        -74.5590897995576
                    ],
                    [
                        4.906590960563214,
                        -74.55223256984102
                    ],
                    [
                        4.844289111685376,
                        -74.54506432518646
                    ],
                    [
                        4.782236259082275,
                        -74.53775864753264
                    ],
                    [
                        4.720135350771664,
                        -74.53050560727021
                    ],
                    [
                        4.657901588186945,
                        -74.52335233138234
                    ],
                    [
                        4.595547217425312,
                        -74.51628659306813
                    ],
                    [
                        4.5331996443355775,
                        -74.50923750199193
                    ],
                    [
                        4.470972383815141,
                        -74.50213009540404
                    ],
                    [
                        4.408987997307535,
                        -74.49489391641876
                    ],
                    [
                        4.3469866207727526,
                        -74.48768409977983
                    ],
                    [
                        4.285141726017006,
                        -74.48039555778614
                    ],
                    [
                        4.223513355330696,
                        -74.47299821619822
                    ],
                    [
                        4.1619794449668674,
                        -74.46556263591673
                    ],
                    [
                        4.100508533805199,
                        -74.45809673650172
                    ],
                    [
                        4.03916234573187,
                        -74.45059031876028
                    ],
                    [
                        3.9778504080635866,
                        -74.44307144323646
                    ],
                    [
                        3.9165842116565597,
                        -74.4355453412926
                    ],
                    [
                        3.8554439811969283,
                        -74.42796888933574
                    ],
                    [
                        3.794286278080352,
                        -74.4204154113282
                    ],
                    [
                        3.73320569482316,
                        -74.41283155678961
                    ],
                    [
                        3.6723284435941315,
                        -74.40515268174222
                    ],
                    [
                        3.611773313398039,
                        -74.39730808872233
                    ],
                    [
                        3.551794096816675,
                        -74.38916700663972
                    ],
                    [
                        3.4923896392879197,
                        -74.3807435588627
                    ],
                    [
                        3.433433490573108,
                        -74.37210912744011
                    ],
                    [
                        3.374956185688564,
                        -74.3632581775992
                    ],
                    [
                        3.3167709236952136,
                        -74.35428277566244
                    ],
                    [
                        3.2587753505397465,
                        -74.34523452685468
                    ],
                    [
                        3.201019055244095,
                        -74.33609199776083
                    ],
                    [
                        3.14379714422166,
                        -74.32672243907443
                    ],
                    [
                        3.087214581247923,
                        -74.31709126841135
                    ],
                    [
                        3.0312026261998826,
                        -74.30723258163391
                    ],
                    [
                        2.9758133383022,
                        -74.29713252896177
                    ],
                    [
                        2.920832682275964,
                        -74.28688959272814
                    ],
                    [
                        2.866091865568449,
                        -74.27656248113969
                    ],
                    [
                        2.811499111795309,
                        -74.26619511599158
                    ],
                    [
                        2.757434877000975,
                        -74.25563965138171
                    ],
                    [
                        2.703618968318371,
                        -74.2450041324401
                    ],
                    [
                        2.6482288088157073,
                        -74.23499832158774
                    ],
                    [
                        2.5921228293670175,
                        -74.2253054271666
                    ],
                    [
                        2.5363914668875336,
                        -74.2154693201797
                    ],
                    [
                        2.4807461357230007,
                        -74.20561309115104
                    ],
                    [
                        2.425227525481229,
                        -74.19572093655118
                    ],
                    [
                        2.369846918200602,
                        -74.1857792392043
                    ],
                    [
                        2.3148405560458953,
                        -74.17570318548088
                    ],
                    [
                        2.2599772641584783,
                        -74.16558507387683
                    ],
                    [
                        2.2052942771679493,
                        -74.15540651673028
                    ],
                    [
                        2.1512159306551157,
                        -74.14500414169578
                    ],
                    [
                        2.0976021154822733,
                        -74.13443497183084
                    ],
                    [
                        2.044612616626903,
                        -74.1236525908583
                    ],
                    [
                        1.992633260334511,
                        -74.11251818997613
                    ],
                    [
                        1.941639274090103,
                        -74.1010616919605
                    ],
                    [
                        1.891353638590848,
                        -74.08938395793396
                    ],
                    [
                        1.8418410665472695,
                        -74.07747136611484
                    ],
                    [
                        1.792460803307918,
                        -74.06553062003525
                    ],
                    [
                        1.743123402407034,
                        -74.05358603529831
                    ],
                    [
                        1.6937624583920508,
                        -74.04166255615847
                    ],
                    [
                        1.6442215899250743,
                        -74.02980474839578
                    ],
                    [
                        1.5949973596787586,
                        -74.01786496498072
                    ],
                    [
                        1.5466972240810615,
                        -74.00565365701554
                    ],
                    [
                        1.499628306524934,
                        -73.99309154679706
                    ],
                    [
                        1.453230587941083,
                        -73.98035054676505
                    ],
                    [
                        1.4068023130707918,
                        -73.96762919733794
                    ],
                    [
                        1.360777156694228,
                        -73.95480535406594
                    ],
                    [
                        1.3155514475310968,
                        -73.94177918911129
                    ],
                    [
                        1.2726344493763355,
                        -73.9281797118287
                    ],
                    [
                        1.231121951275361,
                        -73.9142558464584
                    ],
                    [
                        1.1895220597384808,
                        -73.90035936261792
                    ],
                    [
                        1.1504157447014,
                        -73.88592938581395
                    ],
                    [
                        1.1134694086186072,
                        -73.87107030526805
                    ],
                    [
                        1.0780187618409127,
                        -73.85594210215102
                    ],
                    [
                        1.0430518594483271,
                        -73.84073038636294
                    ],
                    [
                        1.008238180901428,
                        -73.82549932134691
                    ],
                    [
                        0.9753680842995931,
                        -73.80994249664793
                    ],
                    [
                        0.9448174834549724,
                        -73.79402751576951
                    ],
                    [
                        0.9154199750094424,
                        -73.7779484300948
                    ],
                    [
                        0.8863055826785091,
                        -73.76183408903785
                    ],
                    [
                        0.8579664550134921,
                        -73.74561663535238
                    ],
                    [
                        0.8307015699283803,
                        -73.72925905907303
                    ],
                    [
                        0.8042113530369976,
                        -73.71280539278902
                    ],
                    [
                        0.7772899145672969,
                        -73.69641308135265
                    ],
                    [
                        0.7483878781653488,
                        -73.68029524067043
                    ],
                    [
                        0.7175361234926214,
                        -73.66446804196619
                    ],
                    [
                        0.6853190840957825,
                        -73.64886451864015
                    ],
                    [
                        0.6519560037298096,
                        -73.63345801847333
                    ],
                    [
                        0.618119516774554,
                        -73.6181376043339
                    ],
                    [
                        0.5844107376148413,
                        -73.60280472644668
                    ],
                    [
                        0.5510956649134482,
                        -73.58740546951289
                    ],
                    [
                        0.5177995630460854,
                        -73.5720113599101
                    ],
                    [
                        0.4847377784278988,
                        -73.55658217351831
                    ],
                    [
                        0.4519225803176715,
                        -73.54111798567915
                    ],
                    [
                        0.41905266086666476,
                        -73.52566825084854
                    ],
                    [
                        0.38578957192176194,
                        -73.5102922165507
                    ],
                    [
                        0.3521972467609299,
                        -73.49498053315942
                    ],
                    [
                        0.3184404856746895,
                        -73.47970208190593
                    ],
                    [
                        0.2846522358361334,
                        -73.4644367274962
                    ],
                    [
                        0.25090825728919486,
                        -73.44917171395657
                    ],
                    [
                        0.2173534529098424,
                        -73.4338762226888
                    ],
                    [
                        0.18435954921778155,
                        -73.4184904643497
                    ],
                    [
                        0.15186245162130887,
                        -73.4030219740053
                    ],
                    [
                        0.11919683399208283,
                        -73.38758953464513
                    ],
                    [
                        0.086019924227755,
                        -73.37225452062029
                    ],
                    [
                        0.05297103330590087,
                        -73.35689924468556
                    ],
                    [
                        0.01921691440089003,
                        -73.34168075395678
                    ],
                    [
                        -0.016077049707520934,
                        -73.32675640554208
                    ],
                    [
                        -0.05101496395264897,
                        -73.3117705421893
                    ],
                    [
                        -0.08584537568729002,
                        -73.29677102524624
                    ],
                    [
                        -0.11794931890449215,
                        -73.28128698788855
                    ],
                    [
                        -0.1469340729181374,
                        -73.2653065584992
                    ],
                    [
                        -0.1737083673567285,
                        -73.24900797521401
                    ],
                    [
                        -0.19822446740413258,
                        -73.23242286463797
                    ],
                    [
                        -0.2211757212133144,
                        -73.21565590073872
                    ],
                    [
                        -0.2424476929521468,
                        -73.19870868765815
                    ],
                    [
                        -0.26173007772748064,
                        -73.1815650705775
                    ],
                    [
                        -0.27935890105898536,
                        -73.16427476138696
                    ],
                    [
                        -0.29479465816294176,
                        -73.14681469193707
                    ],
                    [
                        -0.30899819556767916,
                        -73.12926502330542
                    ],
                    [
                        -0.32378657477096234,
                        -73.1117573548454
                    ],
                    [
                        -0.33926982814124806,
                        -73.09430397230074
                    ],
                    [
                        -0.35363602914916675,
                        -73.07677187786472
                    ],
                    [
                        -0.367018606038091,
                        -73.05917459859121
                    ],
                    [
                        -0.3792104039436843,
                        -73.04150643944759
                    ],
                    [
                        -0.39098726525570665,
                        -73.02381475197811
                    ],
                    [
                        -0.4034551389521356,
                        -73.00616582273078
                    ],
                    [
                        -0.41728412616588806,
                        -72.98860673695832
                    ],
                    [
                        -0.4341588990469264,
                        -72.97128031372397
                    ],
                    [
                        -0.45487624436866647,
                        -72.95432530976856
                    ],
                    [
                        -0.4799332431517906,
                        -72.93788245289554
                    ],
                    [
                        -0.5090058536469898,
                        -72.92202199244015
                    ],
                    [
                        -0.5403486075892449,
                        -72.9065405804055
                    ],
                    [
                        -0.5728438053701639,
                        -72.89126918573366
                    ],
                    [
                        -0.6049910405278067,
                        -72.87594432014282
                    ],
                    [
                        -0.6348015277370631,
                        -72.86022135376818
                    ],
                    [
                        -0.6612161782470997,
                        -72.84398612269297
                    ],
                    [
                        -0.6840949635725045,
                        -72.82728922301382
                    ],
                    [
                        -0.7052514491827554,
                        -72.81039649776874
                    ],
                    [
                        -0.7258675755062096,
                        -72.79345002129831
                    ],
                    [
                        -0.7460637711161123,
                        -72.77646031526876
                    ],
                    [
                        -0.7665369689559125,
                        -72.75950400200448
                    ],
                    [
                        -0.7889394622338085,
                        -72.74276875070831
                    ],
                    [
                        -0.8149239674691906,
                        -72.72649990100214
                    ],
                    [
                        -0.8440107429578797,
                        -72.7107115139064
                    ],
                    [
                        -0.8760654186212737,
                        -72.69543871863559
                    ],
                    [
                        -0.9110658166812375,
                        -72.68075567758446
                    ],
                    [
                        -0.9466447819652263,
                        -72.66620234671622
                    ],
                    [
                        -0.981866797469348,
                        -72.65157967112314
                    ],
                    [
                        -1.0174714979695765,
                        -72.63704688450053
                    ],
                    [
                        -1.0534890394684533,
                        -72.62261078235555
                    ],
                    [
                        -1.0890795849338195,
                        -72.60808861504255
                    ],
                    [
                        -1.1265649441936705,
                        -72.5940197404336
                    ],
                    [
                        -1.1678189210516765,
                        -72.58093439917556
                    ],
                    [
                        -1.2113839787721439,
                        -72.56854128459132
                    ],
                    [
                        -1.2556360286324497,
                        -72.55637858836276
                    ],
                    [
                        -1.2992626715745337,
                        -72.5440217203492
                    ],
                    [
                        -1.3420591778662165,
                        -72.53142213450757
                    ],
                    [
                        -1.3848509260628086,
                        -72.51882555304482
                    ],
                    [
                        -1.4282499458082027,
                        -72.50642991236711
                    ],
                    [
                        -1.4722999980398852,
                        -72.49425422435556
                    ],
                    [
                        -1.5136656967213618,
                        -72.48127317657513
                    ],
                    [
                        -1.5486819057527141,
                        -72.46677496522618
                    ],
                    [
                        -1.5732789860213938,
                        -72.45042352529755
                    ],
                    [
                        -1.5855715849066556,
                        -72.43287723815968
                    ],
                    [
                        -1.584893690804843,
                        -72.41493835342615
                    ],
                    [
                        -1.5754130870150649,
                        -72.39718987905394
                    ],
                    [
                        -1.5609929321948468,
                        -72.37973743305137
                    ],
                    [
                        -1.5435527951201187,
                        -72.36254449057755
                    ],
                    [
                        -1.5227674928743762,
                        -72.34569745413711
                    ],
                    [
                        -1.499509807982768,
                        -72.32915230726442
                    ],
                    [
                        -1.4766943522098752,
                        -72.31255240696416
                    ],
                    [
                        -1.455333214741318,
                        -72.29577941976291
                    ],
                    [
                        -1.4370698451947137,
                        -72.27867553388272
                    ],
                    [
                        -1.4215076729224996,
                        -72.26132649442715
                    ],
                    [
                        -1.408062216512775,
                        -72.24381469399982
                    ],
                    [
                        -1.3979346823116379,
                        -72.22610102853771
                    ],
                    [
                        -1.3912136537053068,
                        -72.20823840108415
                    ],
                    [
                        -1.3880169489844303,
                        -72.19028561165132
                    ],
                    [
                        -1.3859144197853028,
                        -72.17231386535572
                    ],
                    [
                        -1.3836609837531386,
                        -72.1543458941771
                    ],
                    [
                        -1.3807155390974857,
                        -72.13638749897191
                    ],
                    [
                        -1.375593614119295,
                        -72.11847929588535
                    ],
                    [
                        -1.3669720013952626,
                        -72.10070369944317
                    ],
                    [
                        -1.353776280722057,
                        -72.08319758073254
                    ],
                    [
                        -1.334036670350977,
                        -72.06628885877949
                    ],
                    [
                        -1.3094826146974279,
                        -72.04999297248695
                    ],
                    [
                        -1.2819774512017588,
                        -72.03414770221072
                    ],
                    [
                        -1.2526096086756642,
                        -72.0186283938972
                    ],
                    [
                        -1.2221016285390116,
                        -72.00332329599823
                    ],
                    [
                        -1.1910672395303357,
                        -71.98812899522875
                    ],
                    [
                        -1.1597677720113104,
                        -71.97299053632923
                    ],
                    [
                        -1.1287507408246544,
                        -71.95780106410162
                    ],
                    [
                        -1.0979471100587204,
                        -71.94257640021105
                    ],
                    [
                        -1.0666012052198108,
                        -71.92746659891192
                    ],
                    [
                        -1.034002170013634,
                        -71.91262003221794
                    ],
                    [
                        -0.9995990651175315,
                        -71.898180071577
                    ],
                    [
                        -0.9646326914312208,
                        -71.88387587984036
                    ],
                    [
                        -0.9306490891108928,
                        -71.86935246467365
                    ],
                    [
                        -0.8980125727842885,
                        -71.85453941307786
                    ],
                    [
                        -0.8669189570921317,
                        -71.83941317054595
                    ],
                    [
                        -0.8371614615402103,
                        -71.82403297468579
                    ],
                    [
                        -0.8084817442879184,
                        -71.80845811768026
                    ],
                    [
                        -0.7805761344517015,
                        -71.79275238647426
                    ],
                    [
                        -0.7532581236802434,
                        -71.77695193386585
                    ],
                    [
                        -0.7265579496143482,
                        -71.76105240879197
                    ],
                    [
                        -0.7002295973106365,
                        -71.74509544010621
                    ],
                    [
                        -0.6743123330303542,
                        -71.72907924222012
                    ],
                    [
                        -0.6488477897355757,
                        -71.71299216225252
                    ],
                    [
                        -0.6238893420016279,
                        -71.6968342040424
                    ],
                    [
                        -0.5994501051845902,
                        -71.68060283520165
                    ],
                    [
                        -0.5755317689722885,
                        -71.6642964611223
                    ],
                    [
                        -0.5522894543737996,
                        -71.64789865213497
                    ],
                    [
                        -0.5296819977107826,
                        -71.63141607255595
                    ],
                    [
                        -0.507625843432982,
                        -71.61486176257772
                    ],
                    [
                        -0.4861850305263763,
                        -71.59823305751151
                    ],
                    [
                        -0.4653439548196878,
                        -71.58153111317718
                    ],
                    [
                        -0.44501356215184884,
                        -71.56476802568523
                    ],
                    [
                        -0.4253001243758529,
                        -71.54793474041445
                    ],
                    [
                        -0.4061230970249228,
                        -71.53104151447265
                    ],
                    [
                        -0.38742200054013554,
                        -71.51409941938424
                    ],
                    [
                        -0.3692181924263223,
                        -71.49710496870695
                    ],
                    [
                        -0.35147381946710365,
                        -71.48006287440472
                    ],
                    [
                        -0.33417653162112604,
                        -71.46297778239901
                    ],
                    [
                        -0.31729989452815427,
                        -71.44585345759988
                    ],
                    [
                        -0.30071068128848266,
                        -71.42870100923767
                    ],
                    [
                        -0.28446720288802346,
                        -71.41151862909695
                    ],
                    [
                        -0.26864995754063214,
                        -71.39429911183258
                    ],
                    [
                        -0.25313723670367416,
                        -71.37705171452693
                    ],
                    [
                        -0.2379142740273768,
                        -71.35978012430984
                    ],
                    [
                        -0.22304471103453222,
                        -71.34247984966274
                    ],
                    [
                        -0.20849406389674066,
                        -71.32515460739067
                    ],
                    [
                        -0.1942055879690786,
                        -71.30780812518539
                    ],
                    [
                        -0.18023444482468992,
                        -71.29043682211906
                    ],
                    [
                        -0.1666830238631777,
                        -71.27303350182768
                    ],
                    [
                        -0.15350004061436967,
                        -71.25560279011533
                    ],
                    [
                        -0.14075970412710626,
                        -71.23813933004105
                    ],
                    [
                        -0.1284413649870397,
                        -71.22064682080845
                    ],
                    [
                        -0.11653276456310228,
                        -71.20312625666008
                    ],
                    [
                        -0.10517445953337648,
                        -71.1855704647965
                    ],
                    [
                        -0.09428447095598332,
                        -71.16798408081483
                    ],
                    [
                        -0.0838421233520733,
                        -71.15037079000486
                    ],
                    [
                        -0.07392098440044406,
                        -71.13272795342169
                    ],
                    [
                        -0.06434250071011599,
                        -71.11506648530501
                    ],
                    [
                        -0.05513614128346815,
                        -71.09738553736845
                    ],
                    [
                        -0.046400324347955595,
                        -71.07968155809282
                    ],
                    [
                        -0.03811718154758952,
                        -71.06195552025085
                    ],
                    [
                        -0.030409531815482973,
                        -71.04420388368173
                    ],
                    [
                        -0.02325097357613661,
                        -71.02642941975093
                    ],
                    [
                        -0.016425299077918176,
                        -71.00864118178933
                    ],
                    [
                        -0.010085549091510904,
                        -70.99083561694249
                    ],
                    [
                        -0.004307268451985437,
                        -70.97301009007883
                    ],
                    [
                        0.0010922567484081566,
                        -70.95517362033955
                    ],
                    [
                        0.006031845208900213,
                        -70.93732355923683
                    ],
                    [
                        0.010496365676230898,
                        -70.91946174124051
                    ],
                    [
                        0.014536424850289525,
                        -70.90158999291455
                    ],
                    [
                        0.018084880532357968,
                        -70.88370924880192
                    ],
                    [
                        0.021173173651532855,
                        -70.8658186412864
                    ],
                    [
                        0.0238435482100692,
                        -70.84792267078883
                    ],
                    [
                        0.026048119193725756,
                        -70.8300186779098
                    ],
                    [
                        0.027731023408850773,
                        -70.81211117039344
                    ],
                    [
                        0.028972652849387683,
                        -70.79420015161942
                    ],
                    [
                        0.029771551203607204,
                        -70.77629011138866
                    ],
                    [
                        0.030023054372140874,
                        -70.75837659663331
                    ],
                    [
                        0.029905083630407857,
                        -70.74046405890543
                    ],
                    [
                        0.029302129816991925,
                        -70.72255251795546
                    ],
                    [
                        0.028277860976820328,
                        -70.70464643690799
                    ],
                    [
                        0.026871340848056435,
                        -70.68674132515673
                    ],
                    [
                        0.02516474643265448,
                        -70.66884163946885
                    ],
                    [
                        0.02294018949940213,
                        -70.65094740019155
                    ],
                    [
                        0.020234209983796263,
                        -70.63306485056339
                    ],
                    [
                        0.017147883803931382,
                        -70.6151885854011
                    ],
                    [
                        0.013693051077912919,
                        -70.59731947850356
                    ],
                    [
                        0.009873436200176429,
                        -70.57946019279193
                    ],
                    [
                        0.005719623690575733,
                        -70.56161070221933
                    ],
                    [
                        0.0011009660981448383,
                        -70.54377545814137
                    ],
                    [
                        -0.0037961319951530996,
                        -70.52594726528083
                    ],
                    [
                        -0.008930694479619443,
                        -70.50812968142517
                    ],
                    [
                        -0.01440650078817099,
                        -70.49032357035624
                    ],
                    [
                        -0.020112919727606156,
                        -70.47252712116669
                    ],
                    [
                        -0.026054663003518174,
                        -70.45474030892012
                    ],
                    [
                        -0.03229784796133628,
                        -70.43696577986773
                    ],
                    [
                        -0.038689567668849366,
                        -70.41919727048257
                    ],
                    [
                        -0.04520010241067647,
                        -70.40143745539255
                    ],
                    [
                        -0.051940970631697954,
                        -70.38368449649309
                    ],
                    [
                        -0.058837069779440296,
                        -70.36594554847957
                    ],
                    [
                        -0.06595174841339334,
                        -70.34821161985988
                    ],
                    [
                        -0.07321007524453906,
                        -70.3304889764291
                    ],
                    [
                        -0.08055592756321533,
                        -70.3127722575387
                    ],
                    [
                        -0.0879466342126618,
                        -70.29505610620588
                    ],
                    [
                        -0.09535295783350797,
                        -70.27734411051205
                    ],
                    [
                        -0.10276160145490237,
                        -70.25963090962523
                    ],
                    [
                        -0.11022810507196655,
                        -70.24192272751547
                    ],
                    [
                        -0.11769946664313254,
                        -70.22421512115977
                    ],
                    [
                        -0.12521791996440318,
                        -70.20651252965986
                    ],
                    [
                        -0.13289409449656894,
                        -70.18881932974524
                    ],
                    [
                        -0.1407750118048636,
                        -70.17113992953477
                    ],
                    [
                        -0.1488048007343302,
                        -70.15346540609004
                    ],
                    [
                        -0.15696995183442408,
                        -70.1358002196921
                    ],
                    [
                        -0.1652517211093716,
                        -70.11814436710195
                    ],
                    [
                        -0.1736576361615072,
                        -70.10049335162701
                    ],
                    [
                        -0.18217432265067426,
                        -70.08285431904561
                    ],
                    [
                        -0.1907070682839739,
                        -70.06521484365659
                    ],
                    [
                        -0.19924539556425966,
                        -70.04757851042898
                    ],
                    [
                        -0.20793053306631945,
                        -70.02994871765131
                    ],
                    [
                        -0.21672294418690174,
                        -70.01232906672655
                    ],
                    [
                        -0.22555178556309205,
                        -69.99471159090747
                    ],
                    [
                        -0.23448484973719716,
                        -69.97710333754631
                    ],
                    [
                        -0.24358963280922882,
                        -69.95950597648886
                    ],
                    [
                        -0.2528787496360632,
                        -69.94192303190061
                    ],
                    [
                        -0.2622917993999488,
                        -69.92434652314672
                    ],
                    [
                        -0.2718025104775844,
                        -69.9067791503766
                    ],
                    [
                        -0.2813586464517196,
                        -69.88921651575941
                    ],
                    [
                        -0.29091333622867377,
                        -69.87165422516256
                    ],
                    [
                        -0.3006481967542298,
                        -69.8541053493768
                    ],
                    [
                        -0.3104720723910137,
                        -69.83656555731795
                    ],
                    [
                        -0.32044941305751495,
                        -69.8190347062374
                    ],
                    [
                        -0.33061349891113573,
                        -69.80151716506418
                    ],
                    [
                        -0.3408527343990034,
                        -69.78400865968767
                    ],
                    [
                        -0.3512599280707911,
                        -69.76651522818462
                    ],
                    [
                        -0.36177781583730484,
                        -69.74902981580026
                    ],
                    [
                        -0.37230816191686883,
                        -69.731548155078
                    ],
                    [
                        -0.3828096452143945,
                        -69.71406408730978
                    ],
                    [
                        -0.39323089864378247,
                        -69.6965768471871
                    ],
                    [
                        -0.40364924484960263,
                        -69.67908893923989
                    ],
                    [
                        -0.41397227635522604,
                        -69.6615997027388
                    ],
                    [
                        -0.42399466359094334,
                        -69.64408915133997
                    ],
                    [
                        -0.43421358701379653,
                        -69.62659334386382
                    ],
                    [
                        -0.4444146143654792,
                        -69.60909782643932
                    ],
                    [
                        -0.454597791971057,
                        -69.591602601548
                    ],
                    [
                        -0.4647631659981287,
                        -69.57410767166526
                    ],
                    [
                        -0.4749107824574848,
                        -69.55661303926027
                    ],
                    [
                        -0.48504068720376214,
                        -69.53911870679617
                    ],
                    [
                        -0.4951529259360975,
                        -69.52162467672991
                    ],
                    [
                        -0.5052475441987738,
                        -69.50413095151242
                    ],
                    [
                        -0.5153245873818683,
                        -69.48663753358855
                    ],
                    [
                        -0.5253841007218918,
                        -69.46914442539708
                    ],
                    [
                        -0.5354261293024315,
                        -69.45165162937087
                    ],
                    [
                        -0.5454507180547838,
                        -69.43415914793677
                    ],
                    [
                        -0.5554579117585889,
                        -69.41666698351561
                    ],
                    [
                        -0.5654477550424604,
                        -69.39917513852237
                    ],
                    [
                        -0.5754202923846117,
                        -69.38168361536609
                    ],
                    [
                        -0.5853755681134798,
                        -69.3641924164499
                    ],
                    [
                        -0.5953136264083456,
                        -69.3467015441711
                    ],
                    [
                        -0.605234511299953,
                        -69.32921100092113
                    ],
                    [
                        -0.6151382666711208,
                        -69.31172078908568
                    ],
                    [
                        -0.6250249362573564,
                        -69.29423091104454
                    ]
                ]
            }
        }
    ]
}
