{
    "type": "FeatureCollection",
    "features": [
        {
            "type": "Feature",
            "properties": {
                "name": "Greenland Glacier 0154",
                "object": "transect",
                "component": "landice",
                "author": "Matthew Hoffman, converted from Felikson et al. (2020) Zenodo dataset",
                "tags": "Greenland_Ice_Sheet;flowline;zenodo_4284759;glacier_0154",
                "citation": "Felikson, Denis, Catania, Ginny, Bartholomaus, Timothy, Morlighem, Mathieu, & No\u00ebl, Brice. (2020). Inland limits to diffusion of thinning along Greenland Ice Sheet outlet glaciers (v1.0) [Data set]. Zenodo. https://doi.org/10.5281/zenodo.4284759",
                "license": "CC-BY-4.0"
            },
            "geometry": {
                "type": "LineString",
                "coordinates": [
                    [
                        -28.226287621036118,
                        69.9275860994314
                    ],
                    [
                        -28.221308714253443,
                        69.92941059390853
                    ],
                    [
                        -28.216079266276832,
                        69.93120909455654
                    ],
                    [
                        -28.210671158065427,
                        69.9329890297398
                    ],
                    [
                        -28.204498646593894,
                        69.93468968121849
                    ],
                    [
                        -28.197828186100633,
                        69.93633860032061
                    ],
                    [
                        -28.19058922159866,
                        69.93792841672034
                    ],
                    [
                        -28.182461195875096,
                        69.93941689406726
                    ],
                    [
                        -28.1746862058934,
                        69.94050284741407
                    ],
                    [
                        -28.16696725071924,
                        69.94152389468196
                    ],
                    [
                        -28.159133714992965,
                        69.94267360489947
                    ],
                    [
                        -28.15104688628881,
                        69.94410896478041
                    ],
                    [
                        -28.143693750322452,
                        69.9456856067926
                    ],
                    [
                        -28.13678432548458,
                        69.94730820963592
                    ],
                    [
                        -28.129941917640714,
                        69.94893762644466
                    ],
                    [
                        -28.122623704924706,
                        69.95051736078301
                    ],
                    [
                        -28.114606851459822,
                        69.95202414976832
                    ],
                    [
                        -28.106940015218242,
                        69.95297494587963
                    ],
                    [
                        -28.09995013638344,
                        69.95316020666749
                    ],
                    [
                        -28.09343782102777,
                        69.95280601707788
                    ],
                    [
                        -28.087016413110362,
                        69.95234927149775
                    ],
                    [
                        -28.080409728767112,
                        69.95210157574844
                    ],
                    [
                        -28.073471966141316,
                        69.9522270437233
                    ],
                    [
                        -28.066044032649963,
                        69.95290444213963
                    ],
                    [
                        -28.057931538136845,
                        69.9543518532079
                    ],
                    [
                        -28.051742537557168,
                        69.95604731268158
                    ],
                    [
                        -28.046784481380723,
                        69.95787136855888
                    ],
                    [
                        -28.04269822168949,
                        69.9597865508608
                    ],
                    [
                        -28.039034945105247,
                        69.96174596585608
                    ],
                    [
                        -28.03534984378603,
                        69.96370310548639
                    ],
                    [
                        -28.03147321078519,
                        69.96564021500545
                    ],
                    [
                        -28.027398000816696,
                        69.96755654828648
                    ],
                    [
                        -28.023375298254486,
                        69.96947837114983
                    ],
                    [
                        -28.01962966231145,
                        69.97142918962172
                    ],
                    [
                        -28.016138081257598,
                        69.9734066071646
                    ],
                    [
                        -28.01276572521606,
                        69.97539651854547
                    ],
                    [
                        -28.00943860266663,
                        69.9773911811781
                    ],
                    [
                        -28.006124982819216,
                        69.97938727408422
                    ],
                    [
                        -28.00278509140044,
                        69.9813806324461
                    ],
                    [
                        -27.999388177173017,
                        69.98336803459213
                    ],
                    [
                        -27.995921625341953,
                        69.98534815706897
                    ],
                    [
                        -27.992380298348785,
                        69.98732045902254
                    ],
                    [
                        -27.98877111672323,
                        69.98928566261068
                    ],
                    [
                        -27.985094345544987,
                        69.99124379284392
                    ],
                    [
                        -27.981339238804445,
                        69.99319372063927
                    ],
                    [
                        -27.9774918716681,
                        69.99513398295883
                    ],
                    [
                        -27.9774918716681,
                        69.99513398295883
                    ],
                    [
                        -27.973643743381626,
                        69.99707416796261
                    ],
                    [
                        -27.969695468639294,
                        69.99900385497828
                    ],
                    [
                        -27.96563436511213,
                        70.00092170922572
                    ],
                    [
                        -27.961423145897246,
                        70.00282381413922
                    ],
                    [
                        -27.957043872534832,
                        70.00470827983114
                    ],
                    [
                        -27.925341942659223,
                        70.01898389374439
                    ],
                    [
                        -27.89359379337996,
                        70.03325410312385
                    ],
                    [
                        -27.861799343084314,
                        70.04751889367272
                    ],
                    [
                        -27.829958510035393,
                        70.06177825106043
                    ],
                    [
                        -27.798071212372253,
                        70.07603216092254
                    ],
                    [
                        -27.766137368109998,
                        70.09028060886055
                    ],
                    [
                        -27.734156895139876,
                        70.10452358044198
                    ],
                    [
                        -27.702129711229386,
                        70.11876106120016
                    ],
                    [
                        -27.670055734022405,
                        70.13299303663423
                    ],
                    [
                        -27.637934881039282,
                        70.14721949220903
                    ],
                    [
                        -27.605767069676986,
                        70.16144041335498
                    ],
                    [
                        -27.57355221720917,
                        70.17565578546807
                    ],
                    [
                        -27.541290240786353,
                        70.18986559390974
                    ],
                    [
                        -27.508981057436003,
                        70.20406982400681
                    ],
                    [
                        -27.476624584062705,
                        70.21826846105132
                    ],
                    [
                        -27.444220737448244,
                        70.23246149030064
                    ],
                    [
                        -27.411769434251784,
                        70.24664889697719
                    ],
                    [
                        -27.379270591009973,
                        70.26083066626843
                    ],
                    [
                        -27.346724124137122,
                        70.27500678332683
                    ],
                    [
                        -27.314129949925295,
                        70.28917723326968
                    ]
                ]
            }
        }
    ]
}
