{
    "type": "FeatureCollection",
    "features": [
        {
            "type": "Feature",
            "properties": {
                "name": "Totten",
                "object": "transect",
                "component": "landice",
                "author": "Matthew Hoffman, converted from https://github.com/yuwang115/sl-ice",
                "tags": "Antarctic_Ice_Sheet;flowline;sl-ice;totten"
            },
            "geometry": {
                "type": "LineString",
                "coordinates": [
                    [
                        102.7767491896915,
                        -74.26416215063672
                    ],
                    [
                        102.83278078297529,
                        -74.25439389351241
                    ],
                    [
                        102.88844538035174,
                        -74.24448573610447
                    ],
                    [
                        102.94398436296544,
                        -74.23453873516675
                    ],
                    [
                        102.9992885192157,
                        -74.22450880334452
                    ],
                    [
                        103.05449509463685,
                        -74.21446163152336
                    ],
                    [
                        103.10979361910456,
                        -74.20445948056708
                    ],
                    [
                        103.16517530344392,
                        -74.19450746966943
                    ],
                    [
                        103.22093983676835,
                        -74.1847394888496
                    ],
                    [
                        103.27700742493296,
                        -74.17510470812702
                    ],
                    [
                        103.33321927545875,
                        -74.16554817832355
                    ],
                    [
                        103.38942264055058,
                        -74.15601470650954
                    ],
                    [
                        103.44560763597993,
                        -74.14647706660155
                    ],
                    [
                        103.50192854084803,
                        -74.13701803900454
                    ],
                    [
                        103.55856613299528,
                        -74.1277185360834
                    ],
                    [
                        103.61529623569379,
                        -74.11847700796686
                    ],
                    [
                        103.6717544715185,
                        -74.10912705219503
                    ],
                    [
                        103.72802414574984,
                        -74.0997097495419
                    ],
                    [
                        103.78403369265048,
                        -74.0901835117303
                    ],
                    [
                        103.83974411590081,
                        -74.08055112151973
                    ],
                    [
                        103.89534735654622,
                        -74.07088348015239
                    ],
                    [
                        103.95080509825841,
                        -74.06116463869485
                    ],
                    [
                        104.00592758148522,
                        -74.05132389486866
                    ],
                    [
                        104.06081938246622,
                        -74.04139149886402
                    ],
                    [
                        104.11517784292619,
                        -74.03126278621447
                    ],
                    [
                        104.1694967645786,
                        -74.02112734849254
                    ],
                    [
                        104.22379548379982,
                        -74.01100247940586
                    ],
                    [
                        104.27814200335035,
                        -74.00090670880593
                    ],
                    [
                        104.3327520400129,
                        -73.99094130870465
                    ],
                    [
                        104.38737871178066,
                        -73.9809883799818
                    ],
                    [
                        104.44150399504423,
                        -73.97084692365588
                    ],
                    [
                        104.49466463197669,
                        -73.96034047059861
                    ],
                    [
                        104.54712856616467,
                        -73.94958103318162
                    ],
                    [
                        104.59917720837954,
                        -73.93867942174631
                    ],
                    [
                        104.65107909675463,
                        -73.92774246506359
                    ],
                    [
                        104.703506564063,
                        -73.91701077547033
                    ],
                    [
                        104.75655030920589,
                        -73.90652871909727
                    ],
                    [
                        104.80961396903942,
                        -73.89606408781168
                    ],
                    [
                        104.862573275468,
                        -73.88557462565831
                    ],
                    [
                        104.91542090776295,
                        -73.87505625780436
                    ],
                    [
                        104.9681851091328,
                        -73.86452096416919
                    ],
                    [
                        105.02108694606977,
                        -73.85405511689905
                    ],
                    [
                        105.07426095272191,
                        -73.84369995395632
                    ],
                    [
                        105.12762199874854,
                        -73.83344298134213
                    ],
                    [
                        105.18097317791937,
                        -73.82319137994858
                    ],
                    [
                        105.23419712372814,
                        -73.81290726864313
                    ],
                    [
                        105.28707714718234,
                        -73.80249961756827
                    ],
                    [
                        105.3400218633028,
                        -73.79212924212429
                    ],
                    [
                        105.39345811020762,
                        -73.7819739268819
                    ],
                    [
                        105.44713101440855,
                        -73.77192659683229
                    ],
                    [
                        105.50039291901895,
                        -73.76172819430434
                    ],
                    [
                        105.5530405366878,
                        -73.75129642542198
                    ],
                    [
                        105.60503498233406,
                        -73.7406206572421
                    ],
                    [
                        105.6568275049187,
                        -73.72988614633769
                    ],
                    [
                        105.70848932762794,
                        -73.71911083755778
                    ],
                    [
                        105.75962355898766,
                        -73.70815273308995
                    ],
                    [
                        105.80991348847104,
                        -73.69691071660465
                    ],
                    [
                        105.8595682828706,
                        -73.68545777660587
                    ],
                    [
                        105.90868999752084,
                        -73.67383306711494
                    ],
                    [
                        105.9576514239177,
                        -73.66217119936451
                    ],
                    [
                        106.00667997140238,
                        -73.65053839618507
                    ],
                    [
                        106.05585564670807,
                        -73.63897036306953
                    ],
                    [
                        106.10492604861344,
                        -73.62737952175868
                    ],
                    [
                        106.15367635248663,
                        -73.61568954076832
                    ],
                    [
                        106.20213481359943,
                        -73.60392179393867
                    ],
                    [
                        106.25019708974644,
                        -73.59203337026348
                    ],
                    [
                        106.2977263798286,
                        -73.57998883009009
                    ],
                    [
                        106.34497580693856,
                        -73.56786624643732
                    ],
                    [
                        106.39220009912013,
                        -73.55574802778145
                    ],
                    [
                        106.43943281307936,
                        -73.54364077783461
                    ],
                    [
                        106.48669674533878,
                        -73.53155667411154
                    ],
                    [
                        106.53390407447642,
                        -73.51946543723456
                    ],
                    [
                        106.58083329292462,
                        -73.50730110680291
                    ],
                    [
                        106.62727192292265,
                        -73.49499716135274
                    ],
                    [
                        106.67312275592325,
                        -73.48252453740766
                    ],
                    [
                        106.71858918421047,
                        -73.4699510040248
                    ],
                    [
                        106.76368797295525,
                        -73.45728008534026
                    ],
                    [
                        106.80847841478106,
                        -73.44453047161511
                    ],
                    [
                        106.85315037808135,
                        -73.43175663781211
                    ],
                    [
                        106.89769187569657,
                        -73.41895969091722
                    ],
                    [
                        106.94184945377711,
                        -73.40606276971775
                    ],
                    [
                        106.98562784137908,
                        -73.39307042740916
                    ],
                    [
                        107.02892398913036,
                        -73.37995421582274
                    ],
                    [
                        107.07182323550461,
                        -73.36674468625866
                    ],
                    [
                        107.11444567842402,
                        -73.35347396633667
                    ],
                    [
                        107.1567959080049,
                        -73.34013711085304
                    ],
                    [
                        107.19876056485698,
                        -73.32671132646598
                    ],
                    [
                        107.24008668821935,
                        -73.31312972620643
                    ],
                    [
                        107.28068719922886,
                        -73.29938164205068
                    ],
                    [
                        107.32077457799599,
                        -73.28551461535228
                    ],
                    [
                        107.36047366854783,
                        -73.27156498197337
                    ],
                    [
                        107.39960338180227,
                        -73.25749266508922
                    ],
                    [
                        107.43803271605714,
                        -73.24326739280303
                    ],
                    [
                        107.47586375572327,
                        -73.22891343962128
                    ],
                    [
                        107.51317170447939,
                        -73.21445743543671
                    ],
                    [
                        107.55024395813452,
                        -73.19995854111785
                    ],
                    [
                        107.58708679749952,
                        -73.18541633094326
                    ],
                    [
                        107.62348980421704,
                        -73.17079356459836
                    ],
                    [
                        107.65906735256452,
                        -73.15600315337149
                    ],
                    [
                        107.6936271760889,
                        -73.14102087342415
                    ],
                    [
                        107.72710936899674,
                        -73.12583877721826
                    ],
                    [
                        107.7598393926989,
                        -73.11052665235123
                    ],
                    [
                        107.79165504072962,
                        -73.0950575474443
                    ],
                    [
                        107.82259868979051,
                        -73.07944229651488
                    ],
                    [
                        107.8528795915083,
                        -73.06372809843617
                    ],
                    [
                        107.88238945478014,
                        -73.04789243612143
                    ],
                    [
                        107.91128886711513,
                        -73.0319680001198
                    ],
                    [
                        107.93968316737991,
                        -73.01596415539717
                    ],
                    [
                        107.96750419612516,
                        -72.99988294894004
                    ],
                    [
                        107.99436440601245,
                        -72.98367160577237
                    ],
                    [
                        108.02036683014428,
                        -72.9673398581301
                    ],
                    [
                        108.04566317986496,
                        -72.95092111589973
                    ],
                    [
                        108.07025728266052,
                        -72.93440597247994
                    ],
                    [
                        108.09441524725008,
                        -72.91784985580684
                    ],
                    [
                        108.11803898145355,
                        -72.90122456140564
                    ],
                    [
                        108.14064209682931,
                        -72.88448254609335
                    ],
                    [
                        108.16202645366732,
                        -72.86760566101576
                    ],
                    [
                        108.1831907839726,
                        -72.85070641075332
                    ],
                    [
                        108.20490024943004,
                        -72.83387178679212
                    ],
                    [
                        108.2269706568379,
                        -72.81708145928363
                    ],
                    [
                        108.24924344592812,
                        -72.80031748450457
                    ],
                    [
                        108.27161921283606,
                        -72.78356574482726
                    ],
                    [
                        108.29405255445916,
                        -72.76682587842326
                    ],
                    [
                        108.31650976918829,
                        -72.75009641243057
                    ],
                    [
                        108.33936742447014,
                        -72.73341140158028
                    ],
                    [
                        108.36242727235296,
                        -72.71675694969714
                    ],
                    [
                        108.38547458088829,
                        -72.70010672404494
                    ],
                    [
                        108.40829627839376,
                        -72.6834296588323
                    ],
                    [
                        108.4309903251229,
                        -72.6667446222677
                    ],
                    [
                        108.45369064030918,
                        -72.65005733402776
                    ],
                    [
                        108.47636766854087,
                        -72.63337547751716
                    ],
                    [
                        108.49899003554916,
                        -72.61668796203342
                    ],
                    [
                        108.52156265726312,
                        -72.59999906807336
                    ],
                    [
                        108.54417317248796,
                        -72.58331900320634
                    ],
                    [
                        108.56653258931432,
                        -72.56661037488784
                    ],
                    [
                        108.58840039904635,
                        -72.549850123812
                    ],
                    [
                        108.609574735966,
                        -72.53300672977271
                    ],
                    [
                        108.63030582138663,
                        -72.51612172288924
                    ],
                    [
                        108.65087409802038,
                        -72.49921911933639
                    ],
                    [
                        108.67245531685825,
                        -72.48243580141158
                    ],
                    [
                        108.69500260508242,
                        -72.4657711792328
                    ],
                    [
                        108.71765853693985,
                        -72.44912230585855
                    ],
                    [
                        108.74009434948235,
                        -72.43245153551324
                    ],
                    [
                        108.7627529490318,
                        -72.41580853659171
                    ],
                    [
                        108.78546517005358,
                        -72.39917731420249
                    ],
                    [
                        108.80785227157106,
                        -72.38251136156417
                    ],
                    [
                        108.82891191471586,
                        -72.36569112773003
                    ],
                    [
                        108.8486277522592,
                        -72.34871910412875
                    ],
                    [
                        108.8672892110798,
                        -72.33164684150938
                    ],
                    [
                        108.88455486357134,
                        -72.31444390906483
                    ],
                    [
                        108.89960965945679,
                        -72.29704389327821
                    ],
                    [
                        108.91280603703858,
                        -72.27951103116193
                    ],
                    [
                        108.92580210917562,
                        -72.26196769622017
                    ],
                    [
                        108.93928189455924,
                        -72.24445646041697
                    ],
                    [
                        108.95359140159867,
                        -72.2270120851841
                    ],
                    [
                        108.96840470911752,
                        -72.20960656957537
                    ],
                    [
                        108.98357504221707,
                        -72.19222656328404
                    ],
                    [
                        108.99894274502626,
                        -72.17487444224987
                    ],
                    [
                        109.01439423006697,
                        -72.1575240589202
                    ],
                    [
                        109.02985800859167,
                        -72.14017817527163
                    ],
                    [
                        109.04520505146465,
                        -72.12282668739698
                    ],
                    [
                        109.06046809756494,
                        -72.10547093460282
                    ],
                    [
                        109.07573071637034,
                        -72.08811633406404
                    ],
                    [
                        109.09086150438625,
                        -72.07075311254782
                    ],
                    [
                        109.10571375201788,
                        -72.0533684713391
                    ],
                    [
                        109.1201728379761,
                        -72.03595579715324
                    ],
                    [
                        109.13415553881455,
                        -72.01850043651922
                    ],
                    [
                        109.1478473950222,
                        -72.00103504587837
                    ],
                    [
                        109.16133701355986,
                        -71.98355024972508
                    ],
                    [
                        109.17453322055175,
                        -71.96604645965733
                    ],
                    [
                        109.18744981321441,
                        -71.9485270964569
                    ],
                    [
                        109.2000746199345,
                        -71.93098886266758
                    ],
                    [
                        109.21229929631009,
                        -71.91342460683448
                    ],
                    [
                        109.22408817389791,
                        -71.89582888514626
                    ],
                    [
                        109.23550986102035,
                        -71.8782182550637
                    ],
                    [
                        109.24664367694457,
                        -71.86058903079581
                    ],
                    [
                        109.25771066414899,
                        -71.84295533775756
                    ],
                    [
                        109.26878027872003,
                        -71.82531914565702
                    ],
                    [
                        109.27979551374708,
                        -71.80768668160935
                    ],
                    [
                        109.29070434593152,
                        -71.79004939133762
                    ],
                    [
                        109.30155989668255,
                        -71.77241102021016
                    ],
                    [
                        109.31242320404812,
                        -71.75477440918206
                    ],
                    [
                        109.32337332464688,
                        -71.73714513576896
                    ],
                    [
                        109.3344525484966,
                        -71.71952325670225
                    ],
                    [
                        109.34580823987949,
                        -71.70191624474444
                    ],
                    [
                        109.35743022144533,
                        -71.68433460041902
                    ],
                    [
                        109.36928538312485,
                        -71.66676281508687
                    ],
                    [
                        109.38135767567235,
                        -71.64921682289636
                    ],
                    [
                        109.39360880864382,
                        -71.63168172473388
                    ],
                    [
                        109.40598858891813,
                        -71.61415348806051
                    ],
                    [
                        109.41836456169796,
                        -71.59663251647105
                    ],
                    [
                        109.43073329441799,
                        -71.57910491500202
                    ],
                    [
                        109.44315379227048,
                        -71.56158313174181
                    ],
                    [
                        109.4557892360648,
                        -71.54408695614178
                    ],
                    [
                        109.46863887010662,
                        -71.52659731876531
                    ],
                    [
                        109.48171766985593,
                        -71.50913622285391
                    ],
                    [
                        109.4951309578115,
                        -71.49169646134968
                    ],
                    [
                        109.5088712820986,
                        -71.47428821212112
                    ],
                    [
                        109.52293837986917,
                        -71.45690656500217
                    ],
                    [
                        109.53730542676477,
                        -71.43954960973602
                    ],
                    [
                        109.55179749139596,
                        -71.42220841764086
                    ],
                    [
                        109.56631593438361,
                        -71.4048750594605
                    ],
                    [
                        109.58074834305562,
                        -71.38752895900753
                    ],
                    [
                        109.59508319081635,
                        -71.37018099575069
                    ],
                    [
                        109.60941996374312,
                        -71.35282940506886
                    ],
                    [
                        109.62380120971238,
                        -71.33548837293824
                    ],
                    [
                        109.63828161038491,
                        -71.31815638089441
                    ],
                    [
                        109.65293500820485,
                        -71.3008439609322
                    ],
                    [
                        109.66794116855839,
                        -71.28356372173809
                    ],
                    [
                        109.68331964201711,
                        -71.26631797709724
                    ],
                    [
                        109.69919741280258,
                        -71.24912046659277
                    ],
                    [
                        109.71573666543907,
                        -71.23199029514423
                    ],
                    [
                        109.7324546220626,
                        -71.21488283816606
                    ],
                    [
                        109.74892978861591,
                        -71.19775151444229
                    ],
                    [
                        109.76515701532135,
                        -71.18060182375224
                    ],
                    [
                        109.78127063197117,
                        -71.16343735626518
                    ],
                    [
                        109.79735178571877,
                        -71.14627255162482
                    ],
                    [
                        109.81341047196298,
                        -71.1291110251918
                    ],
                    [
                        109.82943946314761,
                        -71.1119488665597
                    ],
                    [
                        109.84547214104545,
                        -71.09478694912217
                    ],
                    [
                        109.86154126362175,
                        -71.07763095882314
                    ],
                    [
                        109.87762128885272,
                        -71.06047910493221
                    ],
                    [
                        109.89375577992924,
                        -71.04333101981587
                    ],
                    [
                        109.90988551141244,
                        -71.02618888094568
                    ],
                    [
                        109.9259042604847,
                        -71.00904139447294
                    ],
                    [
                        109.94166882428706,
                        -70.9918674207983
                    ],
                    [
                        109.95689117288275,
                        -70.9746440158423
                    ],
                    [
                        109.97133491728796,
                        -70.95735186171343
                    ],
                    [
                        109.98487296739567,
                        -70.93998266108801
                    ],
                    [
                        109.99731737939926,
                        -70.92253067678898
                    ],
                    [
                        110.00918086521254,
                        -70.90503550136684
                    ],
                    [
                        110.02106500267156,
                        -70.88754481832986
                    ],
                    [
                        110.03338854011326,
                        -70.8700848328162
                    ],
                    [
                        110.04620748526135,
                        -70.85266767181773
                    ],
                    [
                        110.0596109765946,
                        -70.83530144467755
                    ],
                    [
                        110.07370832666062,
                        -70.8179917663064
                    ],
                    [
                        110.08836146265435,
                        -70.80073578533244
                    ],
                    [
                        110.1034332524221,
                        -70.78352586906152
                    ],
                    [
                        110.11884827423657,
                        -70.76634703556299
                    ],
                    [
                        110.13436525587643,
                        -70.74918057213038
                    ],
                    [
                        110.1500043174379,
                        -70.73202397861843
                    ],
                    [
                        110.16575414382851,
                        -70.7148880938287
                    ],
                    [
                        110.18116660246537,
                        -70.6977176200291
                    ],
                    [
                        110.19537976224866,
                        -70.68043644055471
                    ],
                    [
                        110.2073481948432,
                        -70.66297714751347
                    ],
                    [
                        110.21789420931582,
                        -70.64541225447036
                    ],
                    [
                        110.22754852484677,
                        -70.62779208217809
                    ],
                    [
                        110.23702513793634,
                        -70.61016798337637
                    ],
                    [
                        110.24702698061256,
                        -70.59257310165137
                    ],
                    [
                        110.25805376901154,
                        -70.57505074713576
                    ],
                    [
                        110.27057867988981,
                        -70.55764236159564
                    ],
                    [
                        110.28445331005065,
                        -70.54034632361724
                    ],
                    [
                        110.29957398670341,
                        -70.52316989030888
                    ],
                    [
                        110.31588737094425,
                        -70.50611892737811
                    ],
                    [
                        110.33310377950117,
                        -70.48917133198135
                    ],
                    [
                        110.35127518287217,
                        -70.47233441966603
                    ],
                    [
                        110.37071078524102,
                        -70.45565983962595
                    ],
                    [
                        110.39147039320213,
                        -70.43917274832997
                    ],
                    [
                        110.413467570118,
                        -70.42286397430823
                    ],
                    [
                        110.43679095443362,
                        -70.406774123399
                    ],
                    [
                        110.46107351116653,
                        -70.39084324701963
                    ],
                    [
                        110.48620008057851,
                        -70.37506604298598
                    ],
                    [
                        110.51202978439875,
                        -70.3594214455858
                    ],
                    [
                        110.53809528223405,
                        -70.34382938084536
                    ],
                    [
                        110.5642821489359,
                        -70.32826114728863
                    ],
                    [
                        110.59049980385636,
                        -70.31270423635345
                    ],
                    [
                        110.61654859563814,
                        -70.29712184387985
                    ],
                    [
                        110.64254083874201,
                        -70.28153324670326
                    ],
                    [
                        110.66873463868062,
                        -70.26598204733048
                    ],
                    [
                        110.69518216756306,
                        -70.25049489186462
                    ],
                    [
                        110.72191327739652,
                        -70.23505821625577
                    ],
                    [
                        110.7490162513668,
                        -70.21970829712463
                    ],
                    [
                        110.77628521563096,
                        -70.20439004578083
                    ],
                    [
                        110.80347939762956,
                        -70.1890674045198
                    ],
                    [
                        110.83058220544166,
                        -70.17373299716384
                    ],
                    [
                        110.85738601534736,
                        -70.15833720931583
                    ],
                    [
                        110.88298811568836,
                        -70.14271503072538
                    ],
                    [
                        110.90714052728025,
                        -70.12683731155342
                    ],
                    [
                        110.9310095720177,
                        -70.11090730060263
                    ],
                    [
                        110.95494110346368,
                        -70.09499492384559
                    ],
                    [
                        110.97887220580353,
                        -70.07908921237875
                    ],
                    [
                        111.00265101455444,
                        -70.06315739730402
                    ],
                    [
                        111.02627066989469,
                        -70.04719568857283
                    ],
                    [
                        111.04991642062261,
                        -70.0312564337422
                    ],
                    [
                        111.07376989779479,
                        -70.015349196706
                    ],
                    [
                        111.09782079814867,
                        -69.99947997570897
                    ],
                    [
                        111.1216689973636,
                        -69.983581827667
                    ],
                    [
                        111.14537517868452,
                        -69.96766121237795
                    ],
                    [
                        111.1689755737336,
                        -69.95172778055881
                    ],
                    [
                        111.19265786473386,
                        -69.93581411392383
                    ],
                    [
                        111.21643162176284,
                        -69.91991887398353
                    ],
                    [
                        111.24051743091589,
                        -69.90408439887172
                    ],
                    [
                        111.26497459338427,
                        -69.88832649080129
                    ],
                    [
                        111.28946724361377,
                        -69.87257011250787
                    ],
                    [
                        111.31404771451822,
                        -69.856836959167
                    ],
                    [
                        111.338809290752,
                        -69.84114316508844
                    ],
                    [
                        111.3635554521525,
                        -69.82545278766521
                    ],
                    [
                        111.38810226199442,
                        -69.80972356941434
                    ],
                    [
                        111.41223710624725,
                        -69.79392690108553
                    ],
                    [
                        111.43536581984891,
                        -69.77795666998045
                    ],
                    [
                        111.45731812363744,
                        -69.76179355405868
                    ],
                    [
                        111.47879547451265,
                        -69.74555863903431
                    ],
                    [
                        111.50080552456772,
                        -69.72940733257344
                    ],
                    [
                        111.52276784409445,
                        -69.713255520572
                    ],
                    [
                        111.5448326556121,
                        -69.69712583271041
                    ],
                    [
                        111.56727836090192,
                        -69.681061555129
                    ],
                    [
                        111.59002335997884,
                        -69.66504964684326
                    ],
                    [
                        111.61290775027791,
                        -69.64906873321016
                    ],
                    [
                        111.63577923304875,
                        -69.63309173674908
                    ],
                    [
                        111.6587803827988,
                        -69.61713734446215
                    ],
                    [
                        111.68269887538519,
                        -69.60135076690094
                    ],
                    [
                        111.70703263010097,
                        -69.58564741728709
                    ],
                    [
                        111.73047479546328,
                        -69.56978621046372
                    ],
                    [
                        111.7529321674266,
                        -69.55375193697346
                    ],
                    [
                        111.77514998546492,
                        -69.53768136437208
                    ],
                    [
                        111.7967571963723,
                        -69.5215208871583
                    ],
                    [
                        111.81757761666687,
                        -69.50522835073696
                    ],
                    [
                        111.83725359151025,
                        -69.48877283136682
                    ],
                    [
                        111.85536474851061,
                        -69.47209409343807
                    ],
                    [
                        111.87197346263355,
                        -69.45522761983361
                    ],
                    [
                        111.88831623794489,
                        -69.43833626316776
                    ],
                    [
                        111.90547983602146,
                        -69.42155012245115
                    ],
                    [
                        111.92339180963303,
                        -69.40485489092066
                    ],
                    [
                        111.94172122679412,
                        -69.38822010914203
                    ],
                    [
                        111.96062244819899,
                        -69.37167164160135
                    ],
                    [
                        111.98051728910065,
                        -69.35526926066291
                    ],
                    [
                        112.00092476701117,
                        -69.33895105546426
                    ],
                    [
                        112.02081584753277,
                        -69.32255590646957
                    ],
                    [
                        112.04043081162298,
                        -69.3061219122241
                    ],
                    [
                        112.06063750811786,
                        -69.28978457179134
                    ],
                    [
                        112.08185877039861,
                        -69.27360782109771
                    ],
                    [
                        112.10309785772186,
                        -69.25744572241373
                    ],
                    [
                        112.12421640304186,
                        -69.24125565320476
                    ],
                    [
                        112.14517048974297,
                        -69.22504884593667
                    ],
                    [
                        112.1655281019218,
                        -69.2087531608024
                    ],
                    [
                        112.18615884840608,
                        -69.1924932414088
                    ],
                    [
                        112.20731935498132,
                        -69.17633272038321
                    ],
                    [
                        112.22733850562847,
                        -69.15999438727306
                    ],
                    [
                        112.24578757429276,
                        -69.14342111842242
                    ],
                    [
                        112.2645931927061,
                        -69.12690092088812
                    ],
                    [
                        112.28320344241018,
                        -69.11036496963116
                    ],
                    [
                        112.29930780434012,
                        -69.09349199545196
                    ],
                    [
                        112.3136584545523,
                        -69.07642853462008
                    ],
                    [
                        112.3276973629517,
                        -69.0593250964133
                    ],
                    [
                        112.34280457921005,
                        -69.04234010250072
                    ],
                    [
                        112.35804437588584,
                        -69.0253747168062
                    ],
                    [
                        112.37258318360739,
                        -69.00833508127687
                    ],
                    [
                        112.38680413327079,
                        -68.99126136112633
                    ],
                    [
                        112.40136654486106,
                        -68.97422479188245
                    ],
                    [
                        112.41648004378307,
                        -68.95725672029421
                    ],
                    [
                        112.43189410478028,
                        -68.94032653184605
                    ],
                    [
                        112.44797704576318,
                        -68.92347564141245
                    ],
                    [
                        112.46433112875548,
                        -68.90666164884752
                    ],
                    [
                        112.48087980715984,
                        -68.88987651611166
                    ],
                    [
                        112.49736935318099,
                        -68.87308572480495
                    ],
                    [
                        112.51336280002353,
                        -68.85623419372166
                    ],
                    [
                        112.52897395407447,
                        -68.83933892667221
                    ],
                    [
                        112.54416009059722,
                        -68.8223969371388
                    ],
                    [
                        112.55874996269287,
                        -68.80538602474641
                    ],
                    [
                        112.57185615674189,
                        -68.78822801600096
                    ],
                    [
                        112.58244098407079,
                        -68.77083916141825
                    ],
                    [
                        112.59161856472319,
                        -68.75335169334325
                    ],
                    [
                        112.60053831662398,
                        -68.73583860509964
                    ],
                    [
                        112.61065503961572,
                        -68.71842226476176
                    ],
                    [
                        112.62246309162826,
                        -68.70114281667286
                    ],
                    [
                        112.63483780425972,
                        -68.68392396840892
                    ],
                    [
                        112.64722122325381,
                        -68.66669583915117
                    ],
                    [
                        112.66031331445498,
                        -68.64954964333266
                    ],
                    [
                        112.67446736396195,
                        -68.63251792546107
                    ],
                    [
                        112.68943519256223,
                        -68.6155703677709
                    ],
                    [
                        112.70531638133303,
                        -68.59874910529297
                    ],
                    [
                        112.72139689301463,
                        -68.58195060466308
                    ],
                    [
                        112.73806956111495,
                        -68.56523028219674
                    ],
                    [
                        112.75514045512496,
                        -68.54856927908658
                    ],
                    [
                        112.77313987746084,
                        -68.53204015844518
                    ],
                    [
                        112.79086148113086,
                        -68.51547589735321
                    ],
                    [
                        112.80747202078305,
                        -68.49876879455756
                    ],
                    [
                        112.82180565806149,
                        -68.48177157361293
                    ],
                    [
                        112.83457073140517,
                        -68.46461735967148
                    ],
                    [
                        112.84593565233688,
                        -68.44732445286004
                    ],
                    [
                        112.85630582514496,
                        -68.42994661726637
                    ],
                    [
                        112.86633264308377,
                        -68.41254734288614
                    ],
                    [
                        112.87713722372885,
                        -68.3952130925927
                    ],
                    [
                        112.88868443451005,
                        -68.37794888048522
                    ],
                    [
                        112.90090943849248,
                        -68.3607450668584
                    ],
                    [
                        112.91366062837213,
                        -68.34359595104762
                    ],
                    [
                        112.92677751417781,
                        -68.32648768808339
                    ],
                    [
                        112.94046572252796,
                        -68.3094409495819
                    ],
                    [
                        112.95523398888609,
                        -68.292525245034
                    ],
                    [
                        112.9698843549046,
                        -68.2755949092649
                    ],
                    [
                        112.984269269148,
                        -68.25863459758469
                    ],
                    [
                        112.99857308990538,
                        -68.24166855016068
                    ],
                    [
                        113.01291219666503,
                        -68.22470743121247
                    ],
                    [
                        113.02676565826599,
                        -68.20769346680947
                    ],
                    [
                        113.04041827975745,
                        -68.19065917553273
                    ],
                    [
                        113.05406474948019,
                        -68.17362696431152
                    ],
                    [
                        113.06712276743554,
                        -68.15652982988024
                    ],
                    [
                        113.07883485085928,
                        -68.13930492284612
                    ],
                    [
                        113.08996529038863,
                        -68.12202952550585
                    ],
                    [
                        113.10224460337557,
                        -68.10485827098246
                    ],
                    [
                        113.11503332245195,
                        -68.08774269257309
                    ],
                    [
                        113.12782186435976,
                        -68.07063342748872
                    ],
                    [
                        113.13956449850636,
                        -68.0534175180786
                    ],
                    [
                        113.15018254938639,
                        -68.03610335972245
                    ],
                    [
                        113.16185100815478,
                        -68.01888883463937
                    ],
                    [
                        113.17482252694842,
                        -68.0018052114414
                    ],
                    [
                        113.18674010805051,
                        -67.98461699830214
                    ],
                    [
                        113.19825823512484,
                        -67.96738859334843
                    ],
                    [
                        113.21012254319669,
                        -67.95019815883363
                    ],
                    [
                        113.22249970290196,
                        -67.93305723928842
                    ],
                    [
                        113.23529407934149,
                        -67.91596164233644
                    ],
                    [
                        113.24959316225552,
                        -67.89904437539539
                    ],
                    [
                        113.264833707634,
                        -67.88224111299654
                    ],
                    [
                        113.2799624275505,
                        -67.86542739181078
                    ],
                    [
                        113.29546007736792,
                        -67.84866529776338
                    ],
                    [
                        113.31240369782564,
                        -67.8321030901272
                    ],
                    [
                        113.32963004628951,
                        -67.81558624858194
                    ],
                    [
                        113.34537285246498,
                        -67.7988664068209
                    ],
                    [
                        113.36110214721498,
                        -67.78214409392544
                    ],
                    [
                        113.37825642737126,
                        -67.76562852579112
                    ],
                    [
                        113.39597561236141,
                        -67.74919387631405
                    ],
                    [
                        113.41238983018015,
                        -67.73257634798718
                    ],
                    [
                        113.42865133979832,
                        -67.7159354275206
                    ],
                    [
                        113.44597869691395,
                        -67.69945732433246
                    ],
                    [
                        113.4640414043745,
                        -67.68309911607805
                    ],
                    [
                        113.48225181921133,
                        -67.66675910827885
                    ],
                    [
                        113.50093491367292,
                        -67.65049948909626
                    ],
                    [
                        113.52082125733646,
                        -67.63446002200418
                    ],
                    [
                        113.54277493253164,
                        -67.61882048976113
                    ],
                    [
                        113.56587697515118,
                        -67.60342260039782
                    ],
                    [
                        113.58936015910952,
                        -67.58811753962392
                    ],
                    [
                        113.61239234612263,
                        -67.57271001034364
                    ],
                    [
                        113.63477549660959,
                        -67.5571705299375
                    ],
                    [
                        113.65637909447437,
                        -67.5414730222992
                    ],
                    [
                        113.67813362927153,
                        -67.5258104870108
                    ],
                    [
                        113.70094650561884,
                        -67.51037890328789
                    ],
                    [
                        113.72851027822497,
                        -67.49613920326424
                    ],
                    [
                        113.7597095876283,
                        -67.4830677253153
                    ],
                    [
                        113.79397249989557,
                        -67.47117128936318
                    ],
                    [
                        113.83060215141988,
                        -67.46035745544381
                    ],
                    [
                        113.8682603011842,
                        -67.45008613730026
                    ],
                    [
                        113.90675391777874,
                        -67.44029745848007
                    ],
                    [
                        113.94514186810633,
                        -67.43044831673758
                    ],
                    [
                        113.98271410789651,
                        -67.42016537145396
                    ],
                    [
                        114.019130979655,
                        -67.40929865074403
                    ],
                    [
                        114.05412308846124,
                        -67.39775922166393
                    ],
                    [
                        114.08792777234977,
                        -67.3857207397941
                    ],
                    [
                        114.12094205088513,
                        -67.37336316818882
                    ],
                    [
                        114.15387954962455,
                        -67.36098624593903
                    ],
                    [
                        114.18724413372873,
                        -67.3487845147737
                    ],
                    [
                        114.22125533887903,
                        -67.3368701947321
                    ],
                    [
                        114.25677778784441,
                        -67.32562707959259
                    ],
                    [
                        114.29344165805504,
                        -67.31496305069598
                    ],
                    [
                        114.3308797180927,
                        -67.30471300700381
                    ],
                    [
                        114.36883243366597,
                        -67.29476141240926
                    ],
                    [
                        114.4073139021451,
                        -67.28512983019004
                    ],
                    [
                        114.44656596107605,
                        -67.27597984981863
                    ],
                    [
                        114.48660550147297,
                        -67.26736652250078
                    ],
                    [
                        114.52706041324772,
                        -67.25906792882725
                    ],
                    [
                        114.56787011746867,
                        -67.25103131731589
                    ],
                    [
                        114.608989327183,
                        -67.24325971164929
                    ],
                    [
                        114.65023882043715,
                        -67.23558994374895
                    ],
                    [
                        114.69152187057804,
                        -67.22796119639492
                    ],
                    [
                        114.73284825445555,
                        -67.2203814721366
                    ],
                    [
                        114.77426609268143,
                        -67.21289093319682
                    ],
                    [
                        114.81576622569764,
                        -67.20548144411237
                    ],
                    [
                        114.85733464874069,
                        -67.1981408621137
                    ],
                    [
                        114.89893251999256,
                        -67.19084687488841
                    ],
                    [
                        114.94062408040666,
                        -67.18363184816793
                    ],
                    [
                        114.98244201302805,
                        -67.17654358158937
                    ],
                    [
                        115.02433870320637,
                        -67.16954182016053
                    ],
                    [
                        115.06630559488386,
                        -67.16260855825344
                    ],
                    [
                        115.10831272525795,
                        -67.15573945838797
                    ],
                    [
                        115.1502564520613,
                        -67.14880669445452
                    ],
                    [
                        115.1920910422007,
                        -67.14180394803275
                    ],
                    [
                        115.23382285326909,
                        -67.13470561635025
                    ],
                    [
                        115.27536286105588,
                        -67.12745950944411
                    ],
                    [
                        115.31660884238985,
                        -67.11997184069794
                    ],
                    [
                        115.3575007939135,
                        -67.11220475117813
                    ],
                    [
                        115.39804628605316,
                        -67.10418634163608
                    ],
                    [
                        115.4380632363207,
                        -67.0957788772529
                    ],
                    [
                        115.47720378767218,
                        -67.08679212566541
                    ],
                    [
                        115.5155193079775,
                        -67.07728067318946
                    ],
                    [
                        115.55290222512987,
                        -67.0672306136144
                    ],
                    [
                        115.58905684619937,
                        -67.05652590825007
                    ],
                    [
                        115.6240389503811,
                        -67.04525500459216
                    ],
                    [
                        115.65774141378651,
                        -67.0334141773716
                    ],
                    [
                        115.68989768102594,
                        -67.02094140817691
                    ],
                    [
                        115.72071015237026,
                        -67.0079715812534
                    ],
                    [
                        115.75007303115629,
                        -66.99450104988078
                    ],
                    [
                        115.77784548416597,
                        -66.98052800419829
                    ],
                    [
                        115.80451764529963,
                        -66.96623606569104
                    ],
                    [
                        115.83008491619508,
                        -66.95164167878514
                    ],
                    [
                        115.8544576595897,
                        -66.93674303939844
                    ],
                    [
                        115.87799705019776,
                        -66.92164933810385
                    ],
                    [
                        115.90086950780956,
                        -66.90639341415921
                    ],
                    [
                        115.92295521075923,
                        -66.89096913225995
                    ],
                    [
                        115.94424023952654,
                        -66.87537482732739
                    ],
                    [
                        115.96446036540947,
                        -66.85956822962306
                    ],
                    [
                        115.98361207898981,
                        -66.84355572585274
                    ],
                    [
                        116.00199152149652,
                        -66.82741407877532
                    ],
                    [
                        116.019245293866,
                        -66.8110789672298
                    ],
                    [
                        116.03511999379191,
                        -66.79453604310378
                    ],
                    [
                        116.05003760530332,
                        -66.77785254854169
                    ],
                    [
                        116.06397963266656,
                        -66.76104257384804
                    ],
                    [
                        116.07687788563817,
                        -66.74411013886137
                    ],
                    [
                        116.08889922188987,
                        -66.72706794813477
                    ],
                    [
                        116.10028417537218,
                        -66.7099684163083
                    ],
                    [
                        116.11083993198727,
                        -66.69278538835326
                    ],
                    [
                        116.12055313766064,
                        -66.67552692161028
                    ],
                    [
                        116.12951019392577,
                        -66.65820136170474
                    ],
                    [
                        116.13773237304919,
                        -66.64082473406376
                    ],
                    [
                        116.14522638797435,
                        -66.62339125759009
                    ],
                    [
                        116.15224685587945,
                        -66.60593538381282
                    ],
                    [
                        116.15980296228285,
                        -66.58851380576778
                    ],
                    [
                        116.1673475251844,
                        -66.57109288931827
                    ],
                    [
                        116.17488057075546,
                        -66.5536726361292
                    ],
                    [
                        116.18240212508915,
                        -66.53625304786232
                    ],
                    [
                        116.18991221420067,
                        -66.51883412617624
                    ],
                    [
                        116.19741086402746,
                        -66.50141587272653
                    ],
                    [
                        116.20489810042966,
                        -66.48399828916558
                    ],
                    [
                        116.21237394919022,
                        -66.46658137714276
                    ],
                    [
                        116.2198384360154,
                        -66.44916513830432
                    ],
                    [
                        116.22729158653476,
                        -66.4317495742935
                    ],
                    [
                        116.23473342630176,
                        -66.41433468675041
                    ],
                    [
                        116.24216398079378,
                        -66.39692047731218
                    ],
                    [
                        116.24958327541255,
                        -66.37950694761285
                    ],
                    [
                        116.2569913354844,
                        -66.36209409928351
                    ],
                    [
                        116.26438818626048,
                        -66.34468193395216
                    ],
                    [
                        116.2717738529171,
                        -66.32727045324383
                    ],
                    [
                        116.27914836055595,
                        -66.30985965878055
                    ],
                    [
                        116.28651173420447,
                        -66.29244955218141
                    ],
                    [
                        116.293863998816,
                        -66.27504013506243
                    ],
                    [
                        116.3012051792701,
                        -66.25763140903675
                    ]
                ]
            }
        }
    ]
}
