{
    "type": "FeatureCollection",
    "features": [
        {
            "type": "Feature",
            "properties": {
                "name": "Coats Coast",
                "object": "transect",
                "component": "landice",
                "author": "Matthew Hoffman, converted from https://github.com/yuwang115/sl-ice",
                "tags": "Antarctic_Ice_Sheet;flowline;sl-ice;coats_coast"
            },
            "geometry": {
                "type": "LineString",
                "coordinates": [
                    [
                        -25.899789541792117,
                        -76.47811024017055
                    ],
                    [
                        -25.91144476482018,
                        -76.46015611086537
                    ],
                    [
                        -25.92071388614571,
                        -76.44212520544403
                    ],
                    [
                        -25.933378340475574,
                        -76.42421799678189
                    ],
                    [
                        -25.95428992806026,
                        -76.40674668870318
                    ],
                    [
                        -25.96846924301182,
                        -76.38890382903884
                    ],
                    [
                        -25.981861727645256,
                        -76.37102162872682
                    ],
                    [
                        -26.002604638831944,
                        -76.35354067203605
                    ],
                    [
                        -26.02905092621153,
                        -76.3365066137416
                    ],
                    [
                        -26.05836931081218,
                        -76.31972652844973
                    ],
                    [
                        -26.087529789827286,
                        -76.30293518059884
                    ],
                    [
                        -26.11905106430689,
                        -76.2863897958912
                    ],
                    [
                        -26.151726039488924,
                        -76.2699745030564
                    ],
                    [
                        -26.18804974908248,
                        -76.25400165252523
                    ],
                    [
                        -26.225808299739946,
                        -76.23822409836382
                    ],
                    [
                        -26.266728561046083,
                        -76.22291443398403
                    ],
                    [
                        -26.312764223903883,
                        -76.20847164666903
                    ],
                    [
                        -26.366308167640717,
                        -76.19563382613954
                    ],
                    [
                        -26.42575486280171,
                        -76.18433276685498
                    ],
                    [
                        -26.48835532965734,
                        -76.17405654224693
                    ],
                    [
                        -26.550654968146706,
                        -76.16369357335611
                    ],
                    [
                        -26.60832652337205,
                        -76.15193397364277
                    ],
                    [
                        -26.658574102047503,
                        -76.138349227221
                    ],
                    [
                        -26.704744405476855,
                        -76.12400832090817
                    ],
                    [
                        -26.74773188374517,
                        -76.10907733379949
                    ],
                    [
                        -26.794088857425532,
                        -76.09474940787435
                    ],
                    [
                        -26.840349463609797,
                        -76.08041290382984
                    ],
                    [
                        -26.886513942354636,
                        -76.0660678509086
                    ],
                    [
                        -26.932582533219335,
                        -76.05171427825306
                    ],
                    [
                        -26.978555475264965,
                        -76.03735221490572
                    ],
                    [
                        -27.024433007053588,
                        -76.0229816898095
                    ],
                    [
                        -27.070215366647464,
                        -76.00860273180811
                    ],
                    [
                        -27.115902791608292,
                        -75.99421536964635
                    ],
                    [
                        -27.161495518996492,
                        -75.9798196319705
                    ],
                    [
                        -27.20699378537047,
                        -75.96541554732852
                    ],
                    [
                        -27.252397826785973,
                        -75.95100314417054
                    ],
                    [
                        -27.29770787879539,
                        -75.93658245084907
                    ],
                    [
                        -27.34292417644714,
                        -75.92215349561943
                    ],
                    [
                        -27.38804695428507,
                        -75.90771630663995
                    ],
                    [
                        -27.43307644634784,
                        -75.89327091197251
                    ],
                    [
                        -27.47801288616838,
                        -75.8788173395826
                    ],
                    [
                        -27.522856506773316,
                        -75.86435561733988
                    ],
                    [
                        -27.5676075406825,
                        -75.84988577301837
                    ],
                    [
                        -27.612266219908477,
                        -75.83540783429684
                    ],
                    [
                        -27.656832775956012,
                        -75.82092182875911
                    ]
                ]
            }
        }
    ]
}
