{
    "type": "FeatureCollection",
    "features": [
        {
            "type": "Feature",
            "properties": {
                "name": "Ninnis",
                "object": "transect",
                "component": "landice",
                "author": "Matthew Hoffman, converted from https://github.com/yuwang115/sl-ice",
                "tags": "Antarctic_Ice_Sheet;flowline;sl-ice;ninnis"
            },
            "geometry": {
                "type": "LineString",
                "coordinates": [
                    [
                        134.62916169780422,
                        -72.56656666072472
                    ],
                    [
                        134.6846776265722,
                        -72.55971643738604
                    ],
                    [
                        134.740212413781,
                        -72.55288212305595
                    ],
                    [
                        134.7958814696,
                        -72.54618153878033
                    ],
                    [
                        134.85170718284778,
                        -72.53961455722354
                    ],
                    [
                        134.90750081288087,
                        -72.53303455615729
                    ],
                    [
                        134.96322002861686,
                        -72.52640971928513
                    ],
                    [
                        135.01893870212112,
                        -72.51980054185681
                    ],
                    [
                        135.07478449265406,
                        -72.51331513336949
                    ],
                    [
                        135.13076906537603,
                        -72.50695016802175
                    ],
                    [
                        135.1863283365509,
                        -72.50027016904875
                    ],
                    [
                        135.24164185818702,
                        -72.4934439002483
                    ],
                    [
                        135.2972751765644,
                        -72.48685564751435
                    ],
                    [
                        135.35310184192744,
                        -72.48042261795227
                    ],
                    [
                        135.40859689626433,
                        -72.47376715048917
                    ],
                    [
                        135.46359699948223,
                        -72.46676584699782
                    ],
                    [
                        135.51863839951886,
                        -72.45979943651953
                    ],
                    [
                        135.57375464704623,
                        -72.45291548230763
                    ],
                    [
                        135.62871808536244,
                        -72.44592058907986
                    ],
                    [
                        135.6838433676586,
                        -72.43906506559206
                    ],
                    [
                        135.73922986616674,
                        -72.4324278943192
                    ],
                    [
                        135.79462896252804,
                        -72.42582853105499
                    ],
                    [
                        135.8499842223051,
                        -72.41918130403083
                    ],
                    [
                        135.9053860918536,
                        -72.41261305338887
                    ],
                    [
                        135.96093190365283,
                        -72.40615821972963
                    ],
                    [
                        136.01667873810985,
                        -72.39987679540836
                    ],
                    [
                        136.0725623012632,
                        -72.39372441072337
                    ],
                    [
                        136.12854007668207,
                        -72.38767573042466
                    ],
                    [
                        136.1845461151233,
                        -72.38167380363421
                    ],
                    [
                        136.24082589655757,
                        -72.37591422076991
                    ],
                    [
                        136.2971033287193,
                        -72.37018546745173
                    ],
                    [
                        136.35317361954992,
                        -72.36427902576014
                    ],
                    [
                        136.40905937766547,
                        -72.35823306927045
                    ],
                    [
                        136.46445535899795,
                        -72.35179877767287
                    ],
                    [
                        136.51905864727553,
                        -72.34478492929479
                    ],
                    [
                        136.57307110475972,
                        -72.3373877573756
                    ],
                    [
                        136.6262233218531,
                        -72.32944463503509
                    ],
                    [
                        136.67851642822714,
                        -72.32100716465317
                    ],
                    [
                        136.72947653971227,
                        -72.31186723453561
                    ],
                    [
                        136.7787650102187,
                        -72.30192412770641
                    ],
                    [
                        136.82678048968285,
                        -72.29142981106384
                    ],
                    [
                        136.87461758221133,
                        -72.2808706669087
                    ],
                    [
                        136.92246285557974,
                        -72.27033080540467
                    ],
                    [
                        136.97028270679579,
                        -72.2597882805334
                    ],
                    [
                        137.0182325571369,
                        -72.24932413912492
                    ],
                    [
                        137.06660629996975,
                        -72.23904001139272
                    ],
                    [
                        137.11542087871163,
                        -72.22898307368582
                    ],
                    [
                        137.16449775193357,
                        -72.21904684458802
                    ],
                    [
                        137.21386151580265,
                        -72.20925625582473
                    ],
                    [
                        137.2634813887191,
                        -72.19960824759762
                    ],
                    [
                        137.31332328261902,
                        -72.19007438058767
                    ],
                    [
                        137.36346773091537,
                        -72.18070752592219
                    ],
                    [
                        137.41425295202038,
                        -72.17169395331251
                    ],
                    [
                        137.46583683148225,
                        -72.16310740008015
                    ],
                    [
                        137.51811035275338,
                        -72.15496456908109
                    ],
                    [
                        137.57090222645326,
                        -72.14713677555056
                    ],
                    [
                        137.62410737974076,
                        -72.13959959277996
                    ],
                    [
                        137.67789306251765,
                        -72.132483904542
                    ],
                    [
                        137.73257269955567,
                        -72.12605191634829
                    ],
                    [
                        137.78794179762826,
                        -72.12022000829485
                    ],
                    [
                        137.8435791039987,
                        -72.11465670030468
                    ],
                    [
                        137.89900840553682,
                        -72.1089077205256
                    ],
                    [
                        137.95425524200755,
                        -72.1030110089673
                    ],
                    [
                        138.00967356062503,
                        -72.09728878947907
                    ],
                    [
                        138.06481311563718,
                        -72.0913441160589
                    ],
                    [
                        138.11946260584878,
                        -72.0849865907428
                    ],
                    [
                        138.17370003694336,
                        -72.07832348417182
                    ],
                    [
                        138.22773989503557,
                        -72.07152327740032
                    ],
                    [
                        138.28173925800317,
                        -72.0647138512546
                    ],
                    [
                        138.3356461694045,
                        -72.05783885717271
                    ],
                    [
                        138.38930877930227,
                        -72.05080880646196
                    ],
                    [
                        138.44288010182038,
                        -72.0437260991659
                    ],
                    [
                        138.49647052681988,
                        -72.03668103798172
                    ],
                    [
                        138.55011187638573,
                        -72.0296761669652
                    ],
                    [
                        138.603616921297,
                        -72.02260044821105
                    ],
                    [
                        138.6569690607147,
                        -72.01542564808486
                    ],
                    [
                        138.70966358507368,
                        -72.00781172724994
                    ],
                    [
                        138.76114059056493,
                        -71.99946488322959
                    ],
                    [
                        138.81176979808194,
                        -71.99064275129048
                    ],
                    [
                        138.86258109450736,
                        -71.98192952216692
                    ],
                    [
                        138.91360406100873,
                        -71.97336262165958
                    ],
                    [
                        138.96439945878384,
                        -71.96467422145581
                    ],
                    [
                        139.01468676831718,
                        -71.95571771078576
                    ],
                    [
                        139.06459508451798,
                        -71.94657025141272
                    ],
                    [
                        139.11416508024973,
                        -71.93727899117775
                    ],
                    [
                        139.16346831250394,
                        -71.92784574660153
                    ],
                    [
                        139.21251157426147,
                        -71.91830240328837
                    ],
                    [
                        139.26128345398308,
                        -71.90864622442504
                    ],
                    [
                        139.30966165121072,
                        -71.89879744275979
                    ],
                    [
                        139.35756382647497,
                        -71.88875829372053
                    ],
                    [
                        139.40505190423872,
                        -71.87853401355315
                    ],
                    [
                        139.45227714317326,
                        -71.86820088034052
                    ],
                    [
                        139.49947280629945,
                        -71.85787442643053
                    ],
                    [
                        139.54657774832847,
                        -71.84751475197234
                    ],
                    [
                        139.59336281090154,
                        -71.83702568825767
                    ],
                    [
                        139.63979467346022,
                        -71.82639874395593
                    ],
                    [
                        139.68601116930716,
                        -71.81569437006485
                    ],
                    [
                        139.732285401268,
                        -71.80502036609909
                    ],
                    [
                        139.77876100211444,
                        -71.794455771428
                    ],
                    [
                        139.82553722463686,
                        -71.78402647767251
                    ],
                    [
                        139.8726527159767,
                        -71.77375988952292
                    ],
                    [
                        139.91978705115827,
                        -71.76352413180804
                    ],
                    [
                        139.96671266030424,
                        -71.75319468983345
                    ],
                    [
                        140.01330847321705,
                        -71.74273996966167
                    ],
                    [
                        140.0594901466396,
                        -71.73211473187105
                    ],
                    [
                        140.10511820766817,
                        -71.72125942568351
                    ],
                    [
                        140.1502229661378,
                        -71.71021184200644
                    ],
                    [
                        140.19505461990877,
                        -71.69906722046011
                    ],
                    [
                        140.2394647336877,
                        -71.68776945111121
                    ],
                    [
                        140.28321316971312,
                        -71.6762269778087
                    ],
                    [
                        140.32634896849103,
                        -71.66447071038574
                    ],
                    [
                        140.3686594870047,
                        -71.65243403572562
                    ],
                    [
                        140.40999794332714,
                        -71.64006770445644
                    ],
                    [
                        140.45078735671825,
                        -71.62753503294019
                    ],
                    [
                        140.49127494929363,
                        -71.61491817532978
                    ],
                    [
                        140.53177189764935,
                        -71.60230985313537
                    ],
                    [
                        140.5722363237637,
                        -71.58970495550838
                    ],
                    [
                        140.61246303195145,
                        -71.57702694857042
                    ],
                    [
                        140.65236825848885,
                        -71.56426584730212
                    ],
                    [
                        140.6922941008579,
                        -71.55151630946516
                    ],
                    [
                        140.73233033009728,
                        -71.53880734249027
                    ],
                    [
                        140.7723235061815,
                        -71.52609911675918
                    ],
                    [
                        140.81204841859335,
                        -71.51331598836757
                    ],
                    [
                        140.85150312109707,
                        -71.50045181074218
                    ],
                    [
                        140.89084725119105,
                        -71.48756531839813
                    ],
                    [
                        140.93045075733878,
                        -71.47477514448344
                    ],
                    [
                        140.97074517311336,
                        -71.46220391061404
                    ],
                    [
                        141.01208893437513,
                        -71.44999541971102
                    ],
                    [
                        141.05435726365718,
                        -71.4381339795084
                    ],
                    [
                        141.09750274041332,
                        -71.42659499657849
                    ],
                    [
                        141.14141189306252,
                        -71.41536575157535
                    ],
                    [
                        141.18563905373503,
                        -71.40427919758743
                    ],
                    [
                        141.22993955641977,
                        -71.39323192371116
                    ],
                    [
                        141.27420630146472,
                        -71.38217336915213
                    ],
                    [
                        141.3184611683041,
                        -71.37113787174401
                    ],
                    [
                        141.36311195161514,
                        -71.36026407888268
                    ],
                    [
                        141.40997066667774,
                        -71.35042174264645
                    ],
                    [
                        141.459495289009,
                        -71.34204585475584
                    ],
                    [
                        141.51081425185464,
                        -71.33484700646541
                    ],
                    [
                        141.56288511698008,
                        -71.32823014127409
                    ],
                    [
                        141.61512444512775,
                        -71.32178216217385
                    ],
                    [
                        141.66714073440062,
                        -71.31516317661341
                    ],
                    [
                        141.71789716509255,
                        -71.30761414368367
                    ],
                    [
                        141.76762522022227,
                        -71.29940178906865
                    ],
                    [
                        141.8167325022561,
                        -71.29083059979155
                    ],
                    [
                        141.86513542719572,
                        -71.28186911536358
                    ],
                    [
                        141.91312743538782,
                        -71.27269488016644
                    ],
                    [
                        141.9607610275216,
                        -71.26334445877467
                    ],
                    [
                        142.0080841850116,
                        -71.25384176421291
                    ],
                    [
                        142.05522310066377,
                        -71.24425866815817
                    ],
                    [
                        142.10215305584552,
                        -71.23458350211268
                    ],
                    [
                        142.14865622763057,
                        -71.2247165544054
                    ],
                    [
                        142.19455578465747,
                        -71.21456305315532
                    ],
                    [
                        142.239691736442,
                        -71.20407244948268
                    ],
                    [
                        142.2839505042074,
                        -71.19321161668393
                    ],
                    [
                        142.32750747018213,
                        -71.18207618785138
                    ],
                    [
                        142.3703864930937,
                        -71.17067844908713
                    ],
                    [
                        142.41253459076881,
                        -71.15901151198673
                    ],
                    [
                        142.4542413980857,
                        -71.14718192536407
                    ],
                    [
                        142.49562937626158,
                        -71.13524872075581
                    ],
                    [
                        142.53674756452227,
                        -71.12323559035808
                    ],
                    [
                        142.5777853710669,
                        -71.11119530535468
                    ],
                    [
                        142.61886563550482,
                        -71.09918653713939
                    ],
                    [
                        142.66019408563378,
                        -71.08727702009963
                    ],
                    [
                        142.7016641962424,
                        -71.07542326187584
                    ],
                    [
                        142.74315525009317,
                        -71.06359529110622
                    ],
                    [
                        142.78455532929502,
                        -71.05173727508684
                    ],
                    [
                        142.8257875434746,
                        -71.03983030591895
                    ],
                    [
                        142.86681896197652,
                        -71.02786637172645
                    ],
                    [
                        142.9077238027439,
                        -71.01585824248603
                    ],
                    [
                        142.9484581185781,
                        -71.00379519214049
                    ],
                    [
                        142.9889697082915,
                        -70.99167011484263
                    ],
                    [
                        143.0291736375176,
                        -70.97944546321835
                    ],
                    [
                        143.06917411778343,
                        -70.96715822053488
                    ],
                    [
                        143.10901506247262,
                        -70.9548192736861
                    ],
                    [
                        143.14863613530255,
                        -70.94242514101568
                    ],
                    [
                        143.18796057303913,
                        -70.92993476519368
                    ],
                    [
                        143.22688965675906,
                        -70.91732419976262
                    ],
                    [
                        143.26520672853934,
                        -70.9045239814694
                    ],
                    [
                        143.3028104174541,
                        -70.89150415230374
                    ],
                    [
                        143.33977508671947,
                        -70.87830003345361
                    ],
                    [
                        143.37614766200946,
                        -70.86492899158992
                    ],
                    [
                        143.41210658657772,
                        -70.85144038621245
                    ],
                    [
                        143.44758107449533,
                        -70.83782832893112
                    ],
                    [
                        143.48294951647816,
                        -70.82419626614578
                    ],
                    [
                        143.5187104233359,
                        -70.81067661313016
                    ],
                    [
                        143.555400957999,
                        -70.79744425548267
                    ],
                    [
                        143.5938571098751,
                        -70.78477401152544
                    ],
                    [
                        143.63413527638173,
                        -70.77274508445734
                    ],
                    [
                        143.6756883467313,
                        -70.7612010983508
                    ],
                    [
                        143.7177375773354,
                        -70.74986336602689
                    ],
                    [
                        143.76015727922572,
                        -70.73868985133873
                    ],
                    [
                        143.80301142416482,
                        -70.72771224521773
                    ],
                    [
                        143.84615459204724,
                        -70.71686720347488
                    ],
                    [
                        143.88936957970353,
                        -70.70606318714833
                    ],
                    [
                        143.93247166927,
                        -70.69521679294776
                    ],
                    [
                        143.9754170306386,
                        -70.68431755790454
                    ],
                    [
                        144.0181309739987,
                        -70.67333104244696
                    ],
                    [
                        144.06048398546807,
                        -70.66220974601444
                    ],
                    [
                        144.1023264426379,
                        -70.65088491989361
                    ],
                    [
                        144.14367190431486,
                        -70.63936580976639
                    ],
                    [
                        144.18441856254665,
                        -70.62762294803159
                    ],
                    [
                        144.22437411662168,
                        -70.61559977777776
                    ],
                    [
                        144.26361004621282,
                        -70.60332504241997
                    ],
                    [
                        144.3021214282505,
                        -70.59080912478792
                    ],
                    [
                        144.33965071699225,
                        -70.57798001230282
                    ],
                    [
                        144.37642896547553,
                        -70.5649154849744
                    ],
                    [
                        144.4124766116084,
                        -70.55163737217727
                    ],
                    [
                        144.44764109814614,
                        -70.53810971113576
                    ],
                    [
                        144.4821584437532,
                        -70.52440014153443
                    ],
                    [
                        144.5162676579272,
                        -70.51058233613753
                    ],
                    [
                        144.5499316984697,
                        -70.49665863666573
                    ],
                    [
                        144.5832319414892,
                        -70.48263756955504
                    ],
                    [
                        144.61613139156108,
                        -70.468521458894
                    ],
                    [
                        144.64858685381088,
                        -70.45430017834586
                    ],
                    [
                        144.6807263654775,
                        -70.43999878264523
                    ],
                    [
                        144.71252711225765,
                        -70.42562840252333
                    ],
                    [
                        144.7439037274756,
                        -70.41115243897602
                    ],
                    [
                        144.77489570910953,
                        -70.39659133686791
                    ],
                    [
                        144.80549264544328,
                        -70.38194272578694
                    ],
                    [
                        144.83565152460145,
                        -70.36719651237416
                    ],
                    [
                        144.86548483235873,
                        -70.35238490425347
                    ],
                    [
                        144.8950332596062,
                        -70.33751212672007
                    ],
                    [
                        144.92442753621125,
                        -70.32260916743121
                    ],
                    [
                        144.95383399503928,
                        -70.30772085238138
                    ],
                    [
                        144.9833764220722,
                        -70.29286549912005
                    ],
                    [
                        145.0130329617927,
                        -70.27803789267277
                    ],
                    [
                        145.0425605840636,
                        -70.26319148162187
                    ],
                    [
                        145.07229985090842,
                        -70.24839579888182
                    ],
                    [
                        145.1017802905055,
                        -70.23355060515404
                    ],
                    [
                        145.13082569060103,
                        -70.21860890601624
                    ],
                    [
                        145.15941072834184,
                        -70.20357571191667
                    ],
                    [
                        145.18761935188118,
                        -70.18846545355429
                    ],
                    [
                        145.21466485481204,
                        -70.17311447014032
                    ],
                    [
                        145.2403817342262,
                        -70.15751112138082
                    ],
                    [
                        145.26450779777466,
                        -70.14162091918024
                    ],
                    [
                        145.2872685105636,
                        -70.12550792889023
                    ],
                    [
                        145.30876029989457,
                        -70.10918940506356
                    ],
                    [
                        145.32893011373432,
                        -70.09268536979276
                    ],
                    [
                        145.34870850329835,
                        -70.0761280870475
                    ],
                    [
                        145.36881794434308,
                        -70.05961720174183
                    ],
                    [
                        145.3895384655507,
                        -70.04320246921294
                    ],
                    [
                        145.41046917331403,
                        -70.02682200011752
                    ],
                    [
                        145.43156662895368,
                        -70.01046556338177
                    ],
                    [
                        145.45315367392013,
                        -69.99419299487748
                    ],
                    [
                        145.47476268696497,
                        -69.97792119808926
                    ],
                    [
                        145.49714721538717,
                        -69.96177899488781
                    ],
                    [
                        145.5201978308286,
                        -69.94575686340555
                    ],
                    [
                        145.54422899812138,
                        -69.92990180219658
                    ],
                    [
                        145.56782360432678,
                        -69.91398278471462
                    ],
                    [
                        145.59029220531883,
                        -69.89786444023241
                    ],
                    [
                        145.61139226207078,
                        -69.8815437412585
                    ],
                    [
                        145.6305109275368,
                        -69.86493571088053
                    ],
                    [
                        145.64867444872877,
                        -69.84820618817758
                    ],
                    [
                        145.667254316336,
                        -69.83152680082024
                    ],
                    [
                        145.68649919534403,
                        -69.81494540597194
                    ],
                    [
                        145.70640770036783,
                        -69.79846175313327
                    ],
                    [
                        145.72635097221368,
                        -69.78198172014692
                    ],
                    [
                        145.7461113654254,
                        -69.76548101609083
                    ],
                    [
                        145.7663623851653,
                        -69.74905356242768
                    ],
                    [
                        145.78765428981575,
                        -69.73279130737076
                    ],
                    [
                        145.80963297753078,
                        -69.71664322026021
                    ],
                    [
                        145.83165425769096,
                        -69.70050065281887
                    ],
                    [
                        145.8537533651705,
                        -69.68437729847574
                    ],
                    [
                        145.87596925792363,
                        -69.66827693396336
                    ],
                    [
                        145.89938643120527,
                        -69.65239039510718
                    ],
                    [
                        145.92343231095117,
                        -69.63662046728174
                    ],
                    [
                        145.94782965782946,
                        -69.6209179634278
                    ],
                    [
                        145.9731508662228,
                        -69.60540148309684
                    ],
                    [
                        145.99923178125795,
                        -69.59004302527536
                    ],
                    [
                        146.02543874015336,
                        -69.57471485108596
                    ],
                    [
                        146.05132654232267,
                        -69.5593283095069
                    ],
                    [
                        146.07765115424053,
                        -69.54403437702094
                    ],
                    [
                        146.10471169916968,
                        -69.52890868917498
                    ],
                    [
                        146.13176680252755,
                        -69.5137767922359
                    ],
                    [
                        146.15840749787395,
                        -69.49856405442824
                    ],
                    [
                        146.18465554298498,
                        -69.48327564582942
                    ],
                    [
                        146.21018052776822,
                        -69.46784473895526
                    ],
                    [
                        146.23578606246028,
                        -69.45242794759841
                    ],
                    [
                        146.26153179077156,
                        -69.43704998534699
                    ],
                    [
                        146.28740348514373,
                        -69.42170210959391
                    ],
                    [
                        146.31333420308286,
                        -69.40636321804007
                    ],
                    [
                        146.33863190131035,
                        -69.39090845461158
                    ],
                    [
                        146.3634169446705,
                        -69.37535540084544
                    ],
                    [
                        146.3878655989843,
                        -69.35974008364718
                    ],
                    [
                        146.4111788744665,
                        -69.3439073112575
                    ],
                    [
                        146.43315208565213,
                        -69.3278466226036
                    ],
                    [
                        146.45459667041078,
                        -69.31170009456307
                    ],
                    [
                        146.47566765062828,
                        -69.29549870294099
                    ],
                    [
                        146.4958830860427,
                        -69.27916153377588
                    ],
                    [
                        146.5148848143947,
                        -69.26264733566104
                    ],
                    [
                        146.53347156292767,
                        -69.24607910860695
                    ],
                    [
                        146.55191630006425,
                        -69.22948873921946
                    ],
                    [
                        146.57016714878284,
                        -69.2128800683833
                    ],
                    [
                        146.58796997200608,
                        -69.19620414688319
                    ],
                    [
                        146.60442768814104,
                        -69.17936263701885
                    ],
                    [
                        146.61961997057875,
                        -69.16237931292858
                    ],
                    [
                        146.63412652858383,
                        -69.14531519643575
                    ],
                    [
                        146.64849428276037,
                        -69.12823979065287
                    ],
                    [
                        146.66315376526057,
                        -69.1111954463153
                    ],
                    [
                        146.67804204563626,
                        -69.09418345500914
                    ],
                    [
                        146.69316546917221,
                        -69.07720002137656
                    ],
                    [
                        146.70821176663398,
                        -69.06020382949698
                    ],
                    [
                        146.7228803124119,
                        -69.04317219744719
                    ],
                    [
                        146.7362940185228,
                        -69.02601613415979
                    ],
                    [
                        146.7488908379042,
                        -69.00877431823578
                    ],
                    [
                        146.76043847547342,
                        -68.99144514447076
                    ],
                    [
                        146.76969539498592,
                        -68.97393854531954
                    ],
                    [
                        146.77697108242188,
                        -68.9563158286734
                    ],
                    [
                        146.78237766925847,
                        -68.93860785064493
                    ],
                    [
                        146.7871704159253,
                        -68.9208753062572
                    ],
                    [
                        146.79208186796714,
                        -68.90314692161165
                    ],
                    [
                        146.79770849020952,
                        -68.88545173374942
                    ],
                    [
                        146.80462408792943,
                        -68.8678138062546
                    ],
                    [
                        146.81235665562025,
                        -68.85022333161321
                    ],
                    [
                        146.82117463761847,
                        -68.83270153983388
                    ],
                    [
                        146.83117483637156,
                        -68.81526643448278
                    ],
                    [
                        146.84026257684303,
                        -68.79775809845194
                    ],
                    [
                        146.84846463233922,
                        -68.78020378130587
                    ],
                    [
                        146.85769324688806,
                        -68.76271554923726
                    ],
                    [
                        146.8678507493289,
                        -68.74529725146311
                    ],
                    [
                        146.8771565076196,
                        -68.72781436029004
                    ],
                    [
                        146.885949770417,
                        -68.71029913604106
                    ],
                    [
                        146.89555807361992,
                        -68.69284302975096
                    ],
                    [
                        146.9069212942341,
                        -68.67553118702365
                    ],
                    [
                        146.91984220904394,
                        -68.6583651867269
                    ],
                    [
                        146.9322563403153,
                        -68.64115284800192
                    ],
                    [
                        146.94389338868424,
                        -68.62386700692983
                    ],
                    [
                        146.95893288508057,
                        -68.60693737035659
                    ],
                    [
                        146.97698038453527,
                        -68.59040897373441
                    ],
                    [
                        146.99685491315535,
                        -68.57416617080301
                    ],
                    [
                        147.01884273761436,
                        -68.55829821753827
                    ],
                    [
                        147.0424867534206,
                        -68.54274952719184
                    ],
                    [
                        147.06635708485064,
                        -68.52725476517845
                    ],
                    [
                        147.09071763038207,
                        -68.51186060951525
                    ],
                    [
                        147.1147987810042,
                        -68.49642149410887
                    ],
                    [
                        147.13720526027882,
                        -68.48064887447293
                    ],
                    [
                        147.1584853390355,
                        -68.46466760799699
                    ],
                    [
                        147.1803111955827,
                        -68.44878958270873
                    ],
                    [
                        147.20287134039557,
                        -68.43305416672851
                    ],
                    [
                        147.22587440909086,
                        -68.417413383901
                    ],
                    [
                        147.2486606899821,
                        -68.40172669079982
                    ],
                    [
                        147.27113342347286,
                        -68.38599231669092
                    ],
                    [
                        147.29400434608368,
                        -68.37033661987726
                    ],
                    [
                        147.31785340891528,
                        -68.35488635767003
                    ],
                    [
                        147.3429462055532,
                        -68.33970955386071
                    ],
                    [
                        147.369714448914,
                        -68.32493453829021
                    ],
                    [
                        147.39765447220375,
                        -68.31046278914098
                    ],
                    [
                        147.42646879885174,
                        -68.29623410657192
                    ],
                    [
                        147.4561032876265,
                        -68.2822458885495
                    ],
                    [
                        147.48604712126155,
                        -68.26835601537485
                    ],
                    [
                        147.51611079117492,
                        -68.25450904777787
                    ],
                    [
                        147.5458339136673,
                        -68.24055940793009
                    ],
                    [
                        147.57508266149912,
                        -68.22648620397074
                    ],
                    [
                        147.60400527412293,
                        -68.2123192909095
                    ],
                    [
                        147.63262321252043,
                        -68.19807962930426
                    ],
                    [
                        147.66112855535417,
                        -68.18381254870286
                    ],
                    [
                        147.68942053475254,
                        -68.16949435649302
                    ],
                    [
                        147.7178175420978,
                        -68.1552094631637
                    ],
                    [
                        147.74617654988444,
                        -68.14091999705973
                    ],
                    [
                        147.77449762046817,
                        -68.12662596979578
                    ],
                    [
                        147.80278081611218,
                        -68.11232739296138
                    ],
                    [
                        147.83102619898708,
                        -68.09802427812089
                    ],
                    [
                        147.85923383117083,
                        -68.08371663681359
                    ],
                    [
                        147.88740377464882,
                        -68.06940448055376
                    ],
                    [
                        147.91553609131373,
                        -68.05508782083068
                    ],
                    [
                        147.9436308429656,
                        -68.04076666910872
                    ],
                    [
                        147.97168809131182,
                        -68.02644103682744
                    ],
                    [
                        147.99970789796708,
                        -68.01211093540155
                    ],
                    [
                        148.02769032445337,
                        -67.99777637622105
                    ],
                    [
                        148.05563543219995,
                        -67.98343737065125
                    ],
                    [
                        148.08354328254333,
                        -67.96909393003277
                    ],
                    [
                        148.11141393672742,
                        -67.95474606568177
                    ],
                    [
                        148.13924745590322,
                        -67.9403937888898
                    ],
                    [
                        148.16704390112915,
                        -67.926037110924
                    ],
                    [
                        148.19480333337074,
                        -67.91167604302706
                    ],
                    [
                        148.22252581350094,
                        -67.89731059641733
                    ],
                    [
                        148.25021140229978,
                        -67.8829407822889
                    ]
                ]
            }
        }
    ]
}
