{
    "type": "FeatureCollection",
    "features": [
        {
            "type": "Feature",
            "properties": {
                "name": "Greenland Glacier 0230",
                "object": "transect",
                "component": "landice",
                "author": "Matthew Hoffman, converted from Felikson et al. (2020) Zenodo dataset",
                "tags": "Greenland_Ice_Sheet;flowline;zenodo_4284759;glacier_0230",
                "citation": "Felikson, Denis, Catania, Ginny, Bartholomaus, Timothy, Morlighem, Mathieu, & No\u00ebl, Brice. (2020). Inland limits to diffusion of thinning along Greenland Ice Sheet outlet glaciers (v1.0) [Data set]. Zenodo. https://doi.org/10.5281/zenodo.4284759",
                "license": "CC-BY-4.0"
            },
            "geometry": {
                "type": "LineString",
                "coordinates": [
                    [
                        -43.33453603963448,
                        61.931881004529224
                    ],
                    [
                        -43.33057170065687,
                        61.93400462937828
                    ],
                    [
                        -43.33124212223324,
                        61.93619185984808
                    ],
                    [
                        -43.333075228381354,
                        61.93839505168259
                    ],
                    [
                        -43.33629253702949,
                        61.940617180015224
                    ],
                    [
                        -43.34083939879736,
                        61.941863354033536
                    ],
                    [
                        -43.34554270410007,
                        61.94056487389717
                    ],
                    [
                        -43.35024728831837,
                        61.939237897587454
                    ],
                    [
                        -43.35487049779002,
                        61.93923801522565
                    ],
                    [
                        -43.35949413313016,
                        61.93923095204187
                    ],
                    [
                        -43.359124095300736,
                        61.94140400131225
                    ],
                    [
                        -43.36156458977906,
                        61.93925887022748
                    ],
                    [
                        -43.36119095669945,
                        61.94143187535438
                    ],
                    [
                        -43.36247987213029,
                        61.93927120070778
                    ],
                    [
                        -43.36210447271444,
                        61.941444183976
                    ],
                    [
                        -43.36300165238669,
                        61.939278226927904
                    ],
                    [
                        -43.36262519128813,
                        61.941451197010075
                    ],
                    [
                        -43.363329807973344,
                        61.93928264467682
                    ],
                    [
                        -43.36295265748791,
                        61.941455606178955
                    ],
                    [
                        -43.36354682442353,
                        61.939285565743425
                    ],
                    [
                        -43.363169208473145,
                        61.94145852144482
                    ],
                    [
                        -43.36301031130662,
                        61.943634441189865
                    ],
                    [
                        -43.36437875305719,
                        61.94147479754764
                    ],
                    [
                        -43.365282325852654,
                        61.943665005149704
                    ],
                    [
                        -43.366163775578876,
                        61.94149879549756
                    ],
                    [
                        -43.36684420924968,
                        61.93932990121075
                    ],
                    [
                        -43.36767368893776,
                        61.93716302559637
                    ],
                    [
                        -43.36625021296873,
                        61.93496590957198
                    ],
                    [
                        -43.36396303403735,
                        61.932757172858985
                    ],
                    [
                        -43.36197481077605,
                        61.93055243772591
                    ],
                    [
                        -43.35972463907145,
                        61.92834415132042
                    ],
                    [
                        -43.355873030359824,
                        61.92611418480595
                    ],
                    [
                        -43.351291512708585,
                        61.92546821402093
                    ],
                    [
                        -43.34670183820768,
                        61.924958850837946
                    ],
                    [
                        -43.342117303335435,
                        61.92436843803847
                    ],
                    [
                        -43.3375250378508,
                        61.92390665531473
                    ],
                    [
                        -43.3329439226798,
                        61.923266658152365
                    ],
                    [
                        -43.328382851850286,
                        61.922306245384554
                    ],
                    [
                        -43.32382824175887,
                        61.92124681791267
                    ],
                    [
                        -43.31924744307087,
                        61.92061369177114
                    ],
                    [
                        -43.3146502267958,
                        61.92024687050659
                    ],
                    [
                        -43.31006017781995,
                        61.91976735235048
                    ],
                    [
                        -43.30548141519115,
                        61.919110409978686
                    ],
                    [
                        -43.30088231447844,
                        61.91878005834959
                    ],
                    [
                        -43.29626840524881,
                        61.91868602204436
                    ],
                    [
                        -43.29166037114223,
                        61.91849945380163
                    ],
                    [
                        -43.28705436436872,
                        61.91828175584339
                    ],
                    [
                        -43.282446925371495,
                        61.91808756857416
                    ],
                    [
                        -43.27783542468299,
                        61.91795793288028
                    ],
                    [
                        -43.273218822164615,
                        61.91790859725726
                    ],
                    [
                        -43.268593301728295,
                        61.917998435070864
                    ],
                    [
                        -43.26396093992833,
                        61.91819403209541
                    ],
                    [
                        -43.25932215089503,
                        61.91848811665919
                    ],
                    [
                        -43.25467335277125,
                        61.91893531518231
                    ],
                    [
                        -43.25002192743629,
                        61.91942049925415
                    ],
                    [
                        -43.24537599042896,
                        61.91981847733843
                    ],
                    [
                        -43.24073440305077,
                        61.92014742019145
                    ],
                    [
                        -43.2360934922406,
                        61.92046409963509
                    ],
                    [
                        -43.23145007538439,
                        61.920817200927296
                    ],
                    [
                        -43.2268046114886,
                        61.921199446795846
                    ],
                    [
                        -43.2221596490063,
                        61.9215719044024
                    ],
                    [
                        -43.217518362692715,
                        61.92188656220956
                    ],
                    [
                        -43.21288032301523,
                        61.92215036126264
                    ],
                    [
                        -43.208241880868826,
                        61.92241868332791
                    ],
                    [
                        -43.2035989187433,
                        61.92275337541353
                    ],
                    [
                        -43.19894957809068,
                        61.923181781017924
                    ],
                    [
                        -43.19429220755541,
                        61.92372786094297
                    ],
                    [
                        -43.189620774605416,
                        61.92448065783691
                    ],
                    [
                        -43.184931242817086,
                        61.92549859284734
                    ],
                    [
                        -43.18022137255893,
                        61.926812810023186
                    ],
                    [
                        -43.175491812385374,
                        61.92841137866229
                    ],
                    [
                        -43.170745226317784,
                        61.930252736762036
                    ],
                    [
                        -43.16600920114352,
                        61.93192897820896
                    ],
                    [
                        -43.16128877641445,
                        61.93336743466055
                    ],
                    [
                        -43.15657804753244,
                        61.934656408184196
                    ],
                    [
                        -43.15187271732301,
                        61.935859807173074
                    ],
                    [
                        -43.147173798117606,
                        61.93696354889675
                    ],
                    [
                        -43.14247811021469,
                        61.93801459133898
                    ],
                    [
                        -43.137791742669044,
                        61.93892510781568
                    ],
                    [
                        -43.133118148146494,
                        61.939646266498706
                    ],
                    [
                        -43.12845904782992,
                        61.9401546851634
                    ],
                    [
                        -43.123816221350324,
                        61.940426366493405
                    ],
                    [
                        -43.1191891343232,
                        61.940470736899485
                    ],
                    [
                        -43.114576097977064,
                        61.940313639328174
                    ],
                    [
                        -43.10997446357106,
                        61.9399943601132
                    ],
                    [
                        -43.10538279698199,
                        61.93953450058585
                    ],
                    [
                        -43.10080055749452,
                        61.93894275652388
                    ],
                    [
                        -43.09622506077267,
                        61.938258119704194
                    ],
                    [
                        -43.09165432870868,
                        61.93750922252406
                    ],
                    [
                        -43.08708809316195,
                        61.93670030315164
                    ],
                    [
                        -43.08252733420088,
                        61.93581799228659
                    ],
                    [
                        -43.07797255752231,
                        61.93485570541085
                    ],
                    [
                        -43.07342049562589,
                        61.933859772425194
                    ],
                    [
                        -43.06886884446226,
                        61.93286262695581
                    ],
                    [
                        -43.06432061772523,
                        61.93182225719851
                    ],
                    [
                        -43.05977490445084,
                        61.930751634164686
                    ],
                    [
                        -43.05523445263437,
                        61.929612827642906
                    ],
                    [
                        -43.05070353016708,
                        61.92834720873313
                    ],
                    [
                        -43.04618139047882,
                        61.92696595777197
                    ],
                    [
                        -43.04166933616699,
                        61.92545190412398
                    ],
                    [
                        -43.03717510478755,
                        61.92369952491045
                    ],
                    [
                        -43.03270598126828,
                        61.92161043990997
                    ],
                    [
                        -43.02838828572165,
                        61.91936219562069
                    ],
                    [
                        -43.02403898663156,
                        61.91711329353011
                    ],
                    [
                        -43.01957393066936,
                        61.91499703172089
                    ],
                    [
                        -43.01509508771255,
                        61.91307771780951
                    ],
                    [
                        -43.01060864336095,
                        61.91127008458843
                    ],
                    [
                        -43.006111383214275,
                        61.909616935694864
                    ],
                    [
                        -43.00160183443433,
                        61.9081371567068
                    ],
                    [
                        -42.99707518997226,
                        61.90689442446
                    ],
                    [
                        -42.99253183231197,
                        61.90588201539399
                    ],
                    [
                        -42.98797229268825,
                        61.90509125802343
                    ],
                    [
                        -42.98340343789733,
                        61.90442868386263
                    ],
                    [
                        -42.97882665114812,
                        61.90387494426934
                    ],
                    [
                        -42.97424068872849,
                        61.90344589096054
                    ],
                    [
                        -42.96964189918132,
                        61.903189264554705
                    ],
                    [
                        -42.96502623229956,
                        61.90315766340985
                    ],
                    [
                        -42.96039209963294,
                        61.903370596576806
                    ],
                    [
                        -42.95574440665228,
                        61.903761573993016
                    ],
                    [
                        -42.951084915061315,
                        61.904306150214325
                    ],
                    [
                        -42.946419047524515,
                        61.90493194424211
                    ],
                    [
                        -42.94175439490027,
                        61.905538781522864
                    ],
                    [
                        -42.93709471382645,
                        61.9060776045017
                    ],
                    [
                        -42.93244540952033,
                        61.90647826458814
                    ],
                    [
                        -42.92781075946125,
                        61.906685943429046
                    ],
                    [
                        -42.92319456837316,
                        61.906652455880874
                    ],
                    [
                        -42.918595501744186,
                        61.90639672434515
                    ],
                    [
                        -42.91401145700146,
                        61.90594743901987
                    ],
                    [
                        -42.90943775081685,
                        61.9053663752236
                    ],
                    [
                        -42.90487239925775,
                        61.904679966357996
                    ],
                    [
                        -42.9003128011677,
                        61.903922355600365
                    ],
                    [
                        -42.895758196533556,
                        61.90310375673748
                    ],
                    [
                        -42.891207295113595,
                        61.902241087482196
                    ],
                    [
                        -42.8866596738938,
                        61.9013400356118
                    ],
                    [
                        -42.88211722838569,
                        61.90037666630514
                    ],
                    [
                        -42.877584136202,
                        61.899298197938755
                    ],
                    [
                        -42.87306751270364,
                        61.898014973804905
                    ],
                    [
                        -42.868586923780086,
                        61.89628025151361
                    ],
                    [
                        -42.864605149386776,
                        61.894032025699474
                    ],
                    [
                        -42.861624421268175,
                        61.89180131971619
                    ],
                    [
                        -42.85913460549523,
                        61.88957921355574
                    ],
                    [
                        -42.85695686097087,
                        61.887362581277316
                    ],
                    [
                        -42.854984177597245,
                        61.88514954934376
                    ],
                    [
                        -42.8531638721304,
                        61.88293919643066
                    ],
                    [
                        -42.851423625939816,
                        61.880730249335336
                    ],
                    [
                        -42.84986502813877,
                        61.878524512299926
                    ],
                    [
                        -42.84853629230408,
                        61.876322848107655
                    ],
                    [
                        -42.847448407619865,
                        61.87412546020555
                    ],
                    [
                        -42.84664567571882,
                        61.87193314250671
                    ],
                    [
                        -42.84664567571882,
                        61.87193314250671
                    ],
                    [
                        -42.84584307391396,
                        61.869740839777535
                    ],
                    [
                        -42.84521159241533,
                        61.86755159023098
                    ],
                    [
                        -42.84463178882382,
                        61.86536327432506
                    ],
                    [
                        -42.84405888037986,
                        61.86317509678497
                    ],
                    [
                        -42.8435727792565,
                        61.86098847899723
                    ],
                    [
                        -42.84321233638489,
                        61.8588041134729
                    ],
                    [
                        -42.84292808717729,
                        61.85662112170926
                    ],
                    [
                        -42.842644895963666,
                        61.8544381674103
                    ],
                    [
                        -42.8423570474515,
                        61.852255148856045
                    ],
                    [
                        -42.84193828935816,
                        61.85006981816353
                    ],
                    [
                        -42.84124618671909,
                        61.84787963653497
                    ],
                    [
                        -42.83995407893849,
                        61.84567877635681
                    ],
                    [
                        -42.83754241850262,
                        61.84345794590999
                    ],
                    [
                        -42.83398364376441,
                        61.84121658124968
                    ],
                    [
                        -42.82954980613711,
                        61.839046202796304
                    ],
                    [
                        -42.82509040204795,
                        61.83720274325703
                    ],
                    [
                        -42.820612309749336,
                        61.83559881280082
                    ],
                    [
                        -42.81611287974539,
                        61.83426581699756
                    ],
                    [
                        -42.81159184834344,
                        61.8332053794433
                    ],
                    [
                        -42.80705311831084,
                        61.832367656840205
                    ],
                    [
                        -42.80250046345195,
                        61.831704789886295
                    ],
                    [
                        -42.7979381883243,
                        61.83116277811521
                    ],
                    [
                        -42.793369830379014,
                        61.830697472663964
                    ],
                    [
                        -42.78880434362256,
                        61.83019876078162
                    ],
                    [
                        -42.78425179740977,
                        61.82954380100269
                    ],
                    [
                        -42.77971757220347,
                        61.82866792881811
                    ],
                    [
                        -42.77519845651503,
                        61.827611563532066
                    ],
                    [
                        -42.77070889989316,
                        61.826200267965774
                    ],
                    [
                        -42.766224856979264,
                        61.82472764177164
                    ],
                    [
                        -42.734915546061124,
                        61.81557440567746
                    ],
                    [
                        -42.70362738520038,
                        61.80641343667625
                    ],
                    [
                        -42.67236037161501,
                        61.79724474399684
                    ],
                    [
                        -42.64111450247636,
                        61.78806833686424
                    ],
                    [
                        -42.6098897749093,
                        61.778884224499635
                    ],
                    [
                        -42.57868618599238,
                        61.76969241612032
                    ],
                    [
                        -42.5475037327579,
                        61.76049292093972
                    ],
                    [
                        -42.51634241219215,
                        61.751285748167355
                    ],
                    [
                        -42.48520222123546,
                        61.74207090700881
                    ],
                    [
                        -42.45408315678238,
                        61.73284840666575
                    ],
                    [
                        -42.42298521568183,
                        61.72361825633585
                    ],
                    [
                        -42.391908394737214,
                        61.71438046521279
                    ],
                    [
                        -42.36085269070657,
                        61.705135042486326
                    ],
                    [
                        -42.32981810030272,
                        61.695881997342106
                    ],
                    [
                        -42.29880462019338,
                        61.68662133896175
                    ],
                    [
                        -42.26781224700133,
                        61.6773530765229
                    ],
                    [
                        -42.236840977304524,
                        61.66807721919899
                    ],
                    [
                        -42.20589080763627,
                        61.65879377615948
                    ],
                    [
                        -42.17496173448533,
                        61.649502756569646
                    ],
                    [
                        -42.14405375429605,
                        61.64020416959066
                    ]
                ]
            }
        }
    ]
}
