{
    "type": "FeatureCollection",
    "features": [
        {
            "type": "Feature",
            "properties": {
                "name": "Vigrid",
                "object": "transect",
                "component": "landice",
                "author": "Matthew Hoffman, converted from https://github.com/yuwang115/sl-ice",
                "tags": "Antarctic_Ice_Sheet;flowline;sl-ice;vigrid"
            },
            "geometry": {
                "type": "LineString",
                "coordinates": [
                    [
                        10.995865630417324,
                        -73.22174570054271
                    ],
                    [
                        10.96175990583738,
                        -73.20664731412344
                    ],
                    [
                        10.927721251341506,
                        -73.19154152239602
                    ],
                    [
                        10.894173906986465,
                        -73.17635144935531
                    ],
                    [
                        10.86103854006361,
                        -73.16109271792682
                    ],
                    [
                        10.828267925191739,
                        -73.1457717787221
                    ],
                    [
                        10.796320364284348,
                        -73.1303129275725
                    ],
                    [
                        10.764925188025218,
                        -73.11476354906087
                    ],
                    [
                        10.733776244180689,
                        -73.0991783379231
                    ],
                    [
                        10.702790003514638,
                        -73.08357022551078
                    ],
                    [
                        10.67196234401035,
                        -73.06794315434412
                    ],
                    [
                        10.64166578877904,
                        -73.0522318244943
                    ],
                    [
                        10.612041136848704,
                        -73.03641771868034
                    ],
                    [
                        10.582890885834136,
                        -73.0205329323733
                    ],
                    [
                        10.55456796737591,
                        -73.00452814139358
                    ],
                    [
                        10.527261557644236,
                        -72.98837407516056
                    ],
                    [
                        10.501255994945238,
                        -72.97204460745452
                    ],
                    [
                        10.476543145918512,
                        -72.95554696150741
                    ],
                    [
                        10.452918477586003,
                        -72.93891362135642
                    ],
                    [
                        10.429600518590618,
                        -72.92225032005186
                    ],
                    [
                        10.406025893039786,
                        -72.90561869185956
                    ],
                    [
                        10.382218500075476,
                        -72.88902103987685
                    ],
                    [
                        10.358760457279967,
                        -72.87238290519606
                    ],
                    [
                        10.335790171437583,
                        -72.85568867970069
                    ],
                    [
                        10.313638213361452,
                        -72.83890331689788
                    ],
                    [
                        10.292352394119009,
                        -72.8220225934532
                    ],
                    [
                        10.270600704371876,
                        -72.80519953790697
                    ],
                    [
                        10.24719604418657,
                        -72.78857354237955
                    ],
                    [
                        10.221856786348257,
                        -72.7722022486302
                    ],
                    [
                        10.196999007890627,
                        -72.75576864062238
                    ],
                    [
                        10.174258312366462,
                        -72.73907500644809
                    ],
                    [
                        10.156259969458548,
                        -72.72188513579789
                    ],
                    [
                        10.142951009270256,
                        -72.70432786328762
                    ],
                    [
                        10.133995898880162,
                        -72.68652286097557
                    ],
                    [
                        10.129581923905407,
                        -72.6685698358869
                    ],
                    [
                        10.129113092878207,
                        -72.65057238090398
                    ],
                    [
                        10.131046103859445,
                        -72.63257657565764
                    ],
                    [
                        10.132634414716236,
                        -72.61457966507916
                    ],
                    [
                        10.132921184189785,
                        -72.59657894917592
                    ],
                    [
                        10.13165139373758,
                        -72.57858007769248
                    ],
                    [
                        10.128580064742604,
                        -72.56060372052953
                    ],
                    [
                        10.124291542218279,
                        -72.54264985396864
                    ],
                    [
                        10.11909446536842,
                        -72.52471941530224
                    ],
                    [
                        10.11261147476825,
                        -72.50682723763613
                    ],
                    [
                        10.104902320402365,
                        -72.48898024590596
                    ],
                    [
                        10.095691163162428,
                        -72.47119785718638
                    ],
                    [
                        10.084364014663453,
                        -72.45353039299798
                    ],
                    [
                        10.071660448283263,
                        -72.43594818253806
                    ],
                    [
                        10.058427545297553,
                        -72.41840391157358
                    ],
                    [
                        10.04412601156937,
                        -72.40093832118765
                    ],
                    [
                        10.026675438743476,
                        -72.38374951079525
                    ],
                    [
                        10.004559682363446,
                        -72.36705969002155
                    ],
                    [
                        9.977910471008997,
                        -72.35099134863037
                    ],
                    [
                        9.94842467412472,
                        -72.33538597146871
                    ],
                    [
                        9.919210196955703,
                        -72.3197385404289
                    ],
                    [
                        9.891731235854667,
                        -72.30380806562566
                    ],
                    [
                        9.863364687952059,
                        -72.28802796208574
                    ],
                    [
                        9.833711015516089,
                        -72.2724719296055
                    ],
                    [
                        9.805851054993795,
                        -72.25663028469327
                    ],
                    [
                        9.781450364791128,
                        -72.24025633673803
                    ],
                    [
                        9.758700869128758,
                        -72.22367057130595
                    ],
                    [
                        9.738600530140717,
                        -72.20678727951494
                    ],
                    [
                        9.725166615378809,
                        -72.1892932317683
                    ],
                    [
                        9.715898931351639,
                        -72.17153906753843
                    ],
                    [
                        9.70649456683891,
                        -72.15380528458468
                    ],
                    [
                        9.690445167720098,
                        -72.13653254541451
                    ],
                    [
                        9.669731321174488,
                        -72.11971941390077
                    ],
                    [
                        9.653411999697019,
                        -72.10247911793968
                    ],
                    [
                        9.643626354661267,
                        -72.08475965007833
                    ],
                    [
                        9.634514203304438,
                        -72.06700265601727
                    ],
                    [
                        9.620374995276421,
                        -72.04957550214517
                    ],
                    [
                        9.600031054751428,
                        -72.03274887749656
                    ],
                    [
                        9.575365310988271,
                        -72.01647165848686
                    ],
                    [
                        9.552988176489828,
                        -71.99989469710167
                    ],
                    [
                        9.535759739293344,
                        -71.98273776914866
                    ],
                    [
                        9.521114235105568,
                        -71.9653455152634
                    ],
                    [
                        9.50510275067987,
                        -71.94807452246597
                    ],
                    [
                        9.492828645876024,
                        -71.93052863831488
                    ],
                    [
                        9.488992304022915,
                        -71.91262988232408
                    ],
                    [
                        9.490940914778118,
                        -71.8946730471914
                    ],
                    [
                        9.48763471351546,
                        -71.87676984115507
                    ],
                    [
                        9.47257697023775,
                        -71.85948907007467
                    ],
                    [
                        9.451207470273866,
                        -71.8428030647921
                    ],
                    [
                        9.42861276140833,
                        -71.82627651166544
                    ],
                    [
                        9.40551636746448,
                        -71.80982247132914
                    ],
                    [
                        9.382112209411,
                        -71.79341438979344
                    ],
                    [
                        9.359027160402476,
                        -71.77696522285338
                    ],
                    [
                        9.33618782095141,
                        -71.76048611310178
                    ],
                    [
                        9.314273081668318,
                        -71.74388852185889
                    ],
                    [
                        9.292744155712654,
                        -71.72724493224696
                    ],
                    [
                        9.271678759661274,
                        -71.71054508049468
                    ],
                    [
                        9.250121778529268,
                        -71.69391438991616
                    ],
                    [
                        9.224516821223478,
                        -71.67788377972568
                    ],
                    [
                        9.192383905140955,
                        -71.66306851053285
                    ],
                    [
                        9.150774020329605,
                        -71.65086016893895
                    ],
                    [
                        9.102732888888275,
                        -71.64125920480173
                    ],
                    [
                        9.049645845746578,
                        -71.63492297665461
                    ],
                    [
                        8.993785196343458,
                        -71.63145869243282
                    ],
                    [
                        8.940903461185249,
                        -71.62518304190581
                    ],
                    [
                        8.899585853807203,
                        -71.61313405451872
                    ],
                    [
                        8.865038318815406,
                        -71.5988754882469
                    ],
                    [
                        8.83361365194963,
                        -71.58393689664686
                    ],
                    [
                        8.810579428893275,
                        -71.5675764455784
                    ],
                    [
                        8.800145067048419,
                        -71.54994821780336
                    ],
                    [
                        8.79546289981257,
                        -71.53206463049504
                    ],
                    [
                        8.792852564333634,
                        -71.5141323463457
                    ],
                    [
                        8.788557823424608,
                        -71.49624299990195
                    ],
                    [
                        8.778250035508234,
                        -71.47862013513215
                    ],
                    [
                        8.760731598998017,
                        -71.46157738925126
                    ],
                    [
                        8.738804706760842,
                        -71.44504353124586
                    ],
                    [
                        8.716224450771621,
                        -71.42860062943889
                    ],
                    [
                        8.694932153107553,
                        -71.41199131664337
                    ],
                    [
                        8.674169809457643,
                        -71.39531365624762
                    ],
                    [
                        8.652197935839494,
                        -71.37880029137871
                    ],
                    [
                        8.629750563790719,
                        -71.36235354843566
                    ],
                    [
                        8.607931999016413,
                        -71.34582450945766
                    ],
                    [
                        8.587038151469562,
                        -71.32917725241195
                    ],
                    [
                        8.568203806873097,
                        -71.31228461945479
                    ],
                    [
                        8.55115680046525,
                        -71.29519828361934
                    ],
                    [
                        8.535305177572075,
                        -71.2779969876968
                    ],
                    [
                        8.520983189731158,
                        -71.26066028195092
                    ],
                    [
                        8.507368498797446,
                        -71.24326512267422
                    ],
                    [
                        8.495843744681078,
                        -71.22572512720363
                    ],
                    [
                        8.490060271477502,
                        -71.20790195950259
                    ],
                    [
                        8.489387213900253,
                        -71.18996816646506
                    ],
                    [
                        8.487945235701106,
                        -71.17204519034938
                    ],
                    [
                        8.480453194130408,
                        -71.15429798562532
                    ],
                    [
                        8.467803899172356,
                        -71.13683859489002
                    ],
                    [
                        8.45811042304636,
                        -71.119205357392
                    ],
                    [
                        8.453392307170065,
                        -71.10134462442973
                    ],
                    [
                        8.448757463454594,
                        -71.08348198774753
                    ],
                    [
                        8.440431219425161,
                        -71.06576764378535
                    ],
                    [
                        8.431033355557533,
                        -71.0481025507296
                    ],
                    [
                        8.422762576597414,
                        -71.03037806178959
                    ],
                    [
                        8.41405041991687,
                        -71.01267698713033
                    ],
                    [
                        8.40742146324565,
                        -70.99488679709053
                    ],
                    [
                        8.4069314486442,
                        -70.97697324922066
                    ],
                    [
                        8.408646187645047,
                        -70.95906206152947
                    ],
                    [
                        8.405512223826365,
                        -70.94118288372778
                    ],
                    [
                        8.397543136377054,
                        -70.92345140602004
                    ],
                    [
                        8.389229371824305,
                        -70.90573872714155
                    ],
                    [
                        8.380703646828625,
                        -70.88803662338243
                    ],
                    [
                        8.371962334654027,
                        -70.87034798197969
                    ],
                    [
                        8.362871403529066,
                        -70.85268016968116
                    ],
                    [
                        8.352182495590565,
                        -70.83511149948603
                    ],
                    [
                        8.338519316153507,
                        -70.81776886530878
                    ],
                    [
                        8.323309496513158,
                        -70.80056597452142
                    ],
                    [
                        8.308420587219029,
                        -70.7833358228438
                    ],
                    [
                        8.295338001561621,
                        -70.76595003981043
                    ],
                    [
                        8.28428935576254,
                        -70.74841328087128
                    ],
                    [
                        8.27510921987294,
                        -70.73076079229207
                    ],
                    [
                        8.267391286471758,
                        -70.7130329729136
                    ],
                    [
                        8.259909729500716,
                        -70.69529414333837
                    ],
                    [
                        8.252147777482042,
                        -70.67757002765194
                    ],
                    [
                        8.242943911826385,
                        -70.65992453618138
                    ],
                    [
                        8.232021253604861,
                        -70.64238899493996
                    ],
                    [
                        8.22062576489545,
                        -70.62488543165856
                    ],
                    [
                        8.209399791237542,
                        -70.60737306471374
                    ],
                    [
                        8.19853963107332,
                        -70.58983526425826
                    ],
                    [
                        8.188066380891039,
                        -70.5722728543139
                    ],
                    [
                        8.177729801797346,
                        -70.55470597868099
                    ],
                    [
                        8.16811406598429,
                        -70.53709402661218
                    ],
                    [
                        8.161060758888596,
                        -70.51935161598277
                    ],
                    [
                        8.160368734776887,
                        -70.50147313686908
                    ],
                    [
                        8.165218380416086,
                        -70.48365085272772
                    ],
                    [
                        8.171797405194974,
                        -70.46588866983014
                    ],
                    [
                        8.178600820059222,
                        -70.44813745699213
                    ],
                    [
                        8.185133027618377,
                        -70.43037494757245
                    ],
                    [
                        8.191307255287539,
                        -70.41259816901734
                    ],
                    [
                        8.197044602732662,
                        -70.3948092184344
                    ],
                    [
                        8.202403854841814,
                        -70.37700444841303
                    ],
                    [
                        8.207503437570722,
                        -70.3591944717146
                    ],
                    [
                        8.212285801673952,
                        -70.34137491312353
                    ],
                    [
                        8.21718924829003,
                        -70.32355886098583
                    ],
                    [
                        8.222266353084631,
                        -70.30575095659182
                    ],
                    [
                        8.22741581754362,
                        -70.28794706719451
                    ],
                    [
                        8.232447217079082,
                        -70.27014021775035
                    ],
                    [
                        8.237406889518573,
                        -70.25233178184402
                    ],
                    [
                        8.242454629840474,
                        -70.23452659312107
                    ],
                    [
                        8.248208627903061,
                        -70.21674849458246
                    ],
                    [
                        8.254841980875197,
                        -70.19900777751536
                    ],
                    [
                        8.262023131265805,
                        -70.18128802503493
                    ],
                    [
                        8.270073243463457,
                        -70.16361570354233
                    ],
                    [
                        8.279045858470674,
                        -70.1459969540258
                    ],
                    [
                        8.288634015285096,
                        -70.12841509192523
                    ],
                    [
                        8.298112760146937,
                        -70.11082913508935
                    ],
                    [
                        8.306693584064769,
                        -70.09319252449302
                    ],
                    [
                        8.313535591676592,
                        -70.07546612805048
                    ],
                    [
                        8.318475499011182,
                        -70.05767210271061
                    ],
                    [
                        8.321086769483054,
                        -70.03982135790807
                    ],
                    [
                        8.320569894135632,
                        -70.02195069956439
                    ],
                    [
                        8.317328741589616,
                        -70.00411438718463
                    ],
                    [
                        8.311230648063383,
                        -69.98636713290163
                    ],
                    [
                        8.301899816673187,
                        -69.96878558859196
                    ],
                    [
                        8.29015284103856,
                        -69.95137574421422
                    ],
                    [
                        8.275867076498917,
                        -69.93419315341812
                    ],
                    [
                        8.264110008275624,
                        -69.91678587959017
                    ],
                    [
                        8.25237370958525,
                        -69.89937867941254
                    ],
                    [
                        8.24065812642277,
                        -69.88197155591331
                    ],
                    [
                        8.228963204966721,
                        -69.86456451211251
                    ],
                    [
                        8.21728889157842,
                        -69.84715755102202
                    ],
                    [
                        8.205635132801207,
                        -69.82975067564578
                    ],
                    [
                        8.194001875359707,
                        -69.8123438889797
                    ],
                    [
                        8.182389066159045,
                        -69.79493719401171
                    ],
                    [
                        8.170796652284132,
                        -69.77753059372183
                    ],
                    [
                        8.15922458099889,
                        -69.76012409108225
                    ],
                    [
                        8.14767279974554,
                        -69.74271768905717
                    ],
                    [
                        8.136141256143834,
                        -69.7253113906031
                    ],
                    [
                        8.12462989799034,
                        -69.70790519866861
                    ],
                    [
                        8.113138673257717,
                        -69.69049911619463
                    ],
                    [
                        8.10166753009397,
                        -69.6730931461143
                    ],
                    [
                        8.090216416821729,
                        -69.65568729135306
                    ],
                    [
                        8.078785281937547,
                        -69.63828155482868
                    ],
                    [
                        8.067374074111166,
                        -69.6208759394513
                    ],
                    [
                        8.055982742184806,
                        -69.60347044812345
                    ],
                    [
                        8.044611235172464,
                        -69.5860650837401
                    ]
                ]
            }
        }
    ]
}
