{
    "type": "FeatureCollection",
    "features": [
        {
            "type": "Feature",
            "properties": {
                "name": "Mercer",
                "object": "transect",
                "component": "landice",
                "author": "Matthew Hoffman, converted from https://github.com/yuwang115/sl-ice",
                "tags": "Antarctic_Ice_Sheet;flowline;sl-ice;mercer"
            },
            "geometry": {
                "type": "LineString",
                "coordinates": [
                    [
                        -121.88285568325186,
                        -85.57223613789685
                    ],
                    [
                        -121.69625514275567,
                        -85.56084900837537
                    ],
                    [
                        -121.51838202180312,
                        -85.54870370258382
                    ],
                    [
                        -121.3727490329425,
                        -85.53431145469528
                    ],
                    [
                        -121.26523411127513,
                        -85.51796043180771
                    ],
                    [
                        -121.13625821586878,
                        -85.5026589708142
                    ],
                    [
                        -120.98516345476267,
                        -85.48863524336606
                    ],
                    [
                        -120.8739189653864,
                        -85.47276301780582
                    ],
                    [
                        -120.81294400181733,
                        -85.45504900979294
                    ],
                    [
                        -120.77947079718393,
                        -85.4369484111259
                    ],
                    [
                        -120.85301809350544,
                        -85.41952810344915
                    ],
                    [
                        -120.89796418905286,
                        -85.40166761296692
                    ],
                    [
                        -120.90302304733203,
                        -85.38329858072515
                    ],
                    [
                        -120.92837269339083,
                        -85.36505649145357
                    ],
                    [
                        -120.98922809505692,
                        -85.34740951335966
                    ],
                    [
                        -121.09397995497585,
                        -85.33118196955233
                    ],
                    [
                        -121.24735944572576,
                        -85.31778716165158
                    ],
                    [
                        -121.4279978005226,
                        -85.30689026952511
                    ],
                    [
                        -121.61893825817198,
                        -85.29724382394592
                    ],
                    [
                        -121.81335367776163,
                        -85.28812532989932
                    ],
                    [
                        -122.00258966972001,
                        -85.2783527299104
                    ],
                    [
                        -122.18319601162302,
                        -85.26758350979777
                    ],
                    [
                        -122.35559582018692,
                        -85.25597211977517
                    ],
                    [
                        -122.52985340648773,
                        -85.24459591850164
                    ],
                    [
                        -122.71137681901824,
                        -85.2340847938567
                    ],
                    [
                        -122.91114135967193,
                        -85.22624545497473
                    ],
                    [
                        -123.116057475512,
                        -85.21943229684689
                    ],
                    [
                        -123.3223879589375,
                        -85.21298288665234
                    ],
                    [
                        -123.52976069563397,
                        -85.20684155201906
                    ],
                    [
                        -123.737967081323,
                        -85.20095791938046
                    ],
                    [
                        -123.94620909765251,
                        -85.19514857201717
                    ],
                    [
                        -124.15441128675052,
                        -85.18938603239567
                    ],
                    [
                        -124.35916325722802,
                        -85.18289362951673
                    ],
                    [
                        -124.55913575991441,
                        -85.17546458499922
                    ],
                    [
                        -124.75079622394598,
                        -85.16668339384454
                    ],
                    [
                        -124.93206841196623,
                        -85.15651686831745
                    ],
                    [
                        -125.09837842303637,
                        -85.14470765206998
                    ],
                    [
                        -125.24265499596193,
                        -85.13100993787675
                    ],
                    [
                        -125.36862257630257,
                        -85.11609477320329
                    ],
                    [
                        -125.48164127556375,
                        -85.10045373052418
                    ],
                    [
                        -125.59227067069419,
                        -85.08470308651009
                    ],
                    [
                        -125.709090671445,
                        -85.06930927599001
                    ],
                    [
                        -125.83477619184931,
                        -85.05446181361003
                    ],
                    [
                        -125.97133843943217,
                        -85.0403776540475
                    ],
                    [
                        -126.11345544135422,
                        -85.02672956875053
                    ],
                    [
                        -126.25654665330872,
                        -85.01319232635375
                    ],
                    [
                        -126.40138017367127,
                        -84.99982768758872
                    ],
                    [
                        -126.54775478661111,
                        -84.98662109566473
                    ],
                    [
                        -126.69738907531409,
                        -84.97373302978362
                    ],
                    [
                        -126.84961603109369,
                        -84.96111447665179
                    ],
                    [
                        -127.00108046856589,
                        -84.94846069398085
                    ],
                    [
                        -127.15081518130154,
                        -84.93568013650527
                    ],
                    [
                        -127.29884900326994,
                        -84.9227858500419
                    ],
                    [
                        -127.4456283597962,
                        -84.9098088494471
                    ],
                    [
                        -127.58835202442243,
                        -84.89651750211696
                    ],
                    [
                        -127.72707669145524,
                        -84.88292007346365
                    ],
                    [
                        -127.86317826746286,
                        -84.86914487070642
                    ],
                    [
                        -127.99952326712115,
                        -84.85541852754896
                    ],
                    [
                        -128.1393026833614,
                        -84.84200609081047
                    ],
                    [
                        -128.2844943853934,
                        -84.82910133110815
                    ],
                    [
                        -128.43625530846865,
                        -84.81685676861626
                    ],
                    [
                        -128.59479437675992,
                        -84.8053766015258
                    ],
                    [
                        -128.75907291154985,
                        -84.79462463038163
                    ],
                    [
                        -128.92848444170355,
                        -84.7845911936159
                    ],
                    [
                        -129.1031519997631,
                        -84.77537709837185
                    ],
                    [
                        -129.278397555251,
                        -84.7663032240082
                    ],
                    [
                        -129.45319738560087,
                        -84.75720171204193
                    ],
                    [
                        -129.62755109813156,
                        -84.74808114803608
                    ],
                    [
                        -129.80093883149675,
                        -84.73885838450701
                    ],
                    [
                        -129.97228536745382,
                        -84.72936362189304
                    ],
                    [
                        -130.14058870626766,
                        -84.71947193721327
                    ],
                    [
                        -130.30660658666898,
                        -84.70929700827242
                    ],
                    [
                        -130.47047920547814,
                        -84.69887671564022
                    ],
                    [
                        -130.632376615568,
                        -84.68823461937349
                    ],
                    [
                        -130.79300726144282,
                        -84.67747002693838
                    ],
                    [
                        -130.95355386060746,
                        -84.66673860983835
                    ],
                    [
                        -131.11548244871724,
                        -84.65623103278092
                    ],
                    [
                        -131.27996508930514,
                        -84.64612478671995
                    ],
                    [
                        -131.45383615467156,
                        -84.63757815944729
                    ],
                    [
                        -131.64134494692524,
                        -84.63239266006508
                    ],
                    [
                        -131.83410608518273,
                        -84.63346855717325
                    ],
                    [
                        -132.0194432326575,
                        -84.63948460454051
                    ],
                    [
                        -132.1900364294555,
                        -84.64860752036455
                    ],
                    [
                        -132.34857300428737,
                        -84.65949514178833
                    ],
                    [
                        -132.4969624594588,
                        -84.67161320523802
                    ],
                    [
                        -132.63980200410236,
                        -84.68433543694104
                    ],
                    [
                        -132.78545605048848,
                        -84.69680997558537
                    ],
                    [
                        -132.94155841009018,
                        -84.70818177216573
                    ],
                    [
                        -133.11082273395246,
                        -84.71787966590477
                    ],
                    [
                        -133.28657223114786,
                        -84.72659241542222
                    ],
                    [
                        -133.46679386470632,
                        -84.73456144056046
                    ],
                    [
                        -133.6512071483108,
                        -84.74172415463629
                    ],
                    [
                        -133.8381307477796,
                        -84.7483846055679
                    ],
                    [
                        -134.02654857281274,
                        -84.75473412965283
                    ],
                    [
                        -134.21567264551143,
                        -84.76096615512103
                    ],
                    [
                        -134.40380184856727,
                        -84.76750018951182
                    ],
                    [
                        -134.58887232083939,
                        -84.77476919045468
                    ],
                    [
                        -134.77104142521765,
                        -84.78268387171563
                    ],
                    [
                        -134.9555829349439,
                        -84.79018087680315
                    ],
                    [
                        -135.14437820080371,
                        -84.79679482611725
                    ],
                    [
                        -135.34065338800784,
                        -84.80130835730654
                    ],
                    [
                        -135.5411876656309,
                        -84.80399856869185
                    ],
                    [
                        -135.74318611946623,
                        -84.80564347639839
                    ],
                    [
                        -135.945782439928,
                        -84.80674375470637
                    ],
                    [
                        -136.14800534884495,
                        -84.80827696825995
                    ],
                    [
                        -136.34869558319997,
                        -84.81102247896419
                    ],
                    [
                        -136.54723347695227,
                        -84.81493816015225
                    ],
                    [
                        -136.74481814536793,
                        -84.81926289841638
                    ],
                    [
                        -136.93972778003294,
                        -84.82454384151711
                    ],
                    [
                        -137.1342299517323,
                        -84.83001846110832
                    ],
                    [
                        -137.32683825994593,
                        -84.83603931965175
                    ],
                    [
                        -137.50603611734843,
                        -84.84474356197137
                    ],
                    [
                        -137.67383382895002,
                        -84.85525932393934
                    ],
                    [
                        -137.8424264018934,
                        -84.86571613181833
                    ],
                    [
                        -138.01960365714226,
                        -84.87499852621427
                    ],
                    [
                        -138.20122066703124,
                        -84.88364498689907
                    ],
                    [
                        -138.3833692908989,
                        -84.8922482283839
                    ],
                    [
                        -138.5755433137644,
                        -84.89887711093358
                    ],
                    [
                        -138.77906675278433,
                        -84.90196216394816
                    ],
                    [
                        -138.98545386451374,
                        -84.90278929612123
                    ],
                    [
                        -139.191862494696,
                        -84.90184551788286
                    ],
                    [
                        -139.39620864397943,
                        -84.89911891657799
                    ],
                    [
                        -139.59831751194858,
                        -84.8953534557358
                    ],
                    [
                        -139.79759256893922,
                        -84.89058474197775
                    ],
                    [
                        -139.99281873222955,
                        -84.88468439411038
                    ],
                    [
                        -140.18450666653445,
                        -84.87798223539735
                    ],
                    [
                        -140.3739062831108,
                        -84.8708309071954
                    ],
                    [
                        -140.5634475803051,
                        -84.86375890469576
                    ],
                    [
                        -140.75327378780972,
                        -84.85680644394243
                    ],
                    [
                        -140.94188937970023,
                        -84.84965604702295
                    ],
                    [
                        -141.1280232383903,
                        -84.84205350754081
                    ],
                    [
                        -141.31185422184802,
                        -84.83405745642605
                    ],
                    [
                        -141.4936047213483,
                        -84.8257370248992
                    ],
                    [
                        -141.6741230038974,
                        -84.81724608622879
                    ],
                    [
                        -141.8546328714009,
                        -84.80881211610007
                    ],
                    [
                        -142.03534244241183,
                        -84.80046534718376
                    ],
                    [
                        -142.21537226974465,
                        -84.79204862789464
                    ],
                    [
                        -142.3956325023996,
                        -84.78372705326
                    ],
                    [
                        -142.57676955622762,
                        -84.77561040968418
                    ],
                    [
                        -142.75892808371535,
                        -84.76774331926799
                    ],
                    [
                        -142.9418233928405,
                        -84.76007347872363
                    ],
                    [
                        -143.12631815265536,
                        -84.75279105462074
                    ],
                    [
                        -143.31329819747643,
                        -84.74610355910417
                    ],
                    [
                        -143.50134132352105,
                        -84.73973457459658
                    ],
                    [
                        -143.69017703712234,
                        -84.73362146245154
                    ],
                    [
                        -143.880748624918,
                        -84.72804988411532
                    ],
                    [
                        -144.0725555797217,
                        -84.72290386171295
                    ],
                    [
                        -144.26500840736753,
                        -84.71802575292092
                    ],
                    [
                        -144.4576594568871,
                        -84.71326935013768
                    ],
                    [
                        -144.6506799673862,
                        -84.70869970356738
                    ],
                    [
                        -144.84399579478668,
                        -84.70430333387148
                    ],
                    [
                        -145.03777276053245,
                        -84.70015195645371
                    ],
                    [
                        -145.23210422132288,
                        -84.6962894275045
                    ],
                    [
                        -145.42674130017807,
                        -84.69262015361286
                    ],
                    [
                        -145.62151288075256,
                        -84.68906910279624
                    ],
                    [
                        -145.81615995100518,
                        -84.68550664184075
                    ],
                    [
                        -146.01056069700383,
                        -84.68192175102608
                    ],
                    [
                        -146.20580714465683,
                        -84.67880228875329
                    ],
                    [
                        -146.4017237294782,
                        -84.6761641631005
                    ],
                    [
                        -146.5979423330633,
                        -84.67375411220966
                    ],
                    [
                        -146.79443695510668,
                        -84.67162121099919
                    ],
                    [
                        -146.9911751318497,
                        -84.66974912610807
                    ],
                    [
                        -147.18800476028622,
                        -84.66802494284755
                    ],
                    [
                        -147.3846363628712,
                        -84.66618483561793
                    ],
                    [
                        -147.580889237783,
                        -84.6640774278303
                    ],
                    [
                        -147.77658352961802,
                        -84.66163433094158
                    ],
                    [
                        -147.97163429432862,
                        -84.65881511880126
                    ],
                    [
                        -148.16615018694287,
                        -84.6557585295679
                    ],
                    [
                        -148.36021844476448,
                        -84.65253062778356
                    ],
                    [
                        -148.55365239827373,
                        -84.64904339101028
                    ],
                    [
                        -148.7464168705617,
                        -84.64530423836447
                    ],
                    [
                        -148.93874590423917,
                        -84.64142682028974
                    ],
                    [
                        -149.13104900340866,
                        -84.63759973906808
                    ],
                    [
                        -149.3236072364592,
                        -84.63395979251474
                    ],
                    [
                        -149.51689940753377,
                        -84.63074173068604
                    ],
                    [
                        -149.71131049952922,
                        -84.6282419049695
                    ],
                    [
                        -149.9064052690215,
                        -84.62631870844233
                    ],
                    [
                        -150.102002048566,
                        -84.62507043296246
                    ],
                    [
                        -150.29800745702457,
                        -84.62464290954689
                    ],
                    [
                        -150.4940155993915,
                        -84.62496707377478
                    ],
                    [
                        -150.68976581693224,
                        -84.6260142040958
                    ],
                    [
                        -150.88501006500834,
                        -84.62775686147914
                    ],
                    [
                        -151.07983305596625,
                        -84.62993989127054
                    ],
                    [
                        -151.27424963382072,
                        -84.63247607804736
                    ],
                    [
                        -151.46825644823286,
                        -84.63534067031857
                    ],
                    [
                        -151.66202013914807,
                        -84.63840918007345
                    ],
                    [
                        -151.85567302419437,
                        -84.64158318701362
                    ],
                    [
                        -152.0494377353602,
                        -84.64476928491447
                    ],
                    [
                        -152.24338906183453,
                        -84.64790557834263
                    ],
                    [
                        -152.4377403757016,
                        -84.65089581169711
                    ],
                    [
                        -152.6325930194782,
                        -84.65365318823407
                    ],
                    [
                        -152.82766559776047,
                        -84.65632084822015
                    ],
                    [
                        -153.02284988211048,
                        -84.65900622778454
                    ],
                    [
                        -153.21808008743787,
                        -84.66169778654
                    ],
                    [
                        -153.41343875471634,
                        -84.66439105774577
                    ],
                    [
                        -153.60899659855366,
                        -84.66700507546149
                    ],
                    [
                        -153.80495543114253,
                        -84.66941516050088
                    ],
                    [
                        -154.00122967695413,
                        -84.67166708967235
                    ],
                    [
                        -154.19770646687672,
                        -84.67381745674207
                    ],
                    [
                        -154.39423010743585,
                        -84.67598386655105
                    ],
                    [
                        -154.59102123534632,
                        -84.67802133074485
                    ],
                    [
                        -154.78812159838077,
                        -84.67982642677941
                    ],
                    [
                        -154.9854433543427,
                        -84.6814812750624
                    ],
                    [
                        -155.18292814642788,
                        -84.68305365883201
                    ],
                    [
                        -155.38050391054173,
                        -84.68453464471509
                    ],
                    [
                        -155.57830207487976,
                        -84.68585137637409
                    ],
                    [
                        -155.7762570580181,
                        -84.68703183733227
                    ],
                    [
                        -155.97430246777964,
                        -84.68809382486353
                    ],
                    [
                        -156.1725147625412,
                        -84.6889053177937
                    ],
                    [
                        -156.3708864795269,
                        -84.68946693303154
                    ],
                    [
                        -156.5693149256218,
                        -84.68972340545025
                    ],
                    [
                        -156.76775412974027,
                        -84.68943326074066
                    ],
                    [
                        -156.9660988700569,
                        -84.68882722977594
                    ],
                    [
                        -157.16436706948525,
                        -84.68807879561047
                    ],
                    [
                        -157.36243053703646,
                        -84.68701540697295
                    ],
                    [
                        -157.5602806760133,
                        -84.6857425028419
                    ],
                    [
                        -157.75770109426844,
                        -84.68402064745369
                    ],
                    [
                        -157.95449299990278,
                        -84.6818237194224
                    ],
                    [
                        -158.15071770826304,
                        -84.6792870138654
                    ],
                    [
                        -158.34627416127827,
                        -84.67639668962501
                    ],
                    [
                        -158.54106922585598,
                        -84.67314429215813
                    ],
                    [
                        -158.7348571245505,
                        -84.66947161778397
                    ],
                    [
                        -158.92763075592183,
                        -84.66542995968318
                    ],
                    [
                        -159.1193274378619,
                        -84.66101132309427
                    ],
                    [
                        -159.31012431768323,
                        -84.65633305059339
                    ],
                    [
                        -159.5003255234267,
                        -84.6515004004511
                    ],
                    [
                        -159.6900254345494,
                        -84.6465635011647
                    ],
                    [
                        -159.87900170176863,
                        -84.64144390837959
                    ],
                    [
                        -160.06714069524764,
                        -84.6361163251141
                    ],
                    [
                        -160.25494642439142,
                        -84.63074719462496
                    ],
                    [
                        -160.44224638102833,
                        -84.62528027332574
                    ],
                    [
                        -160.6291277293231,
                        -84.61974620720578
                    ],
                    [
                        -160.8156466071282,
                        -84.61415980231426
                    ],
                    [
                        -161.0021239631884,
                        -84.60862200622755
                    ],
                    [
                        -161.1880286342815,
                        -84.60297086378588
                    ],
                    [
                        -161.37284245087181,
                        -84.5970703548285
                    ],
                    [
                        -161.55698571678408,
                        -84.59103776708925
                    ],
                    [
                        -161.74117568396943,
                        -84.58507312985282
                    ],
                    [
                        -161.92523329741962,
                        -84.57912694986997
                    ],
                    [
                        -162.10906264199073,
                        -84.57318066359964
                    ],
                    [
                        -162.2923523071827,
                        -84.56713417879674
                    ],
                    [
                        -162.47467571682782,
                        -84.56089433003264
                    ],
                    [
                        -162.65626116674258,
                        -84.55451133305849
                    ],
                    [
                        -162.8378668860164,
                        -84.54818506231604
                    ],
                    [
                        -163.0194613032581,
                        -84.54191801335317
                    ],
                    [
                        -163.19978925541304,
                        -84.53537438979053
                    ],
                    [
                        -163.37898193154467,
                        -84.52861890212507
                    ],
                    [
                        -163.55755273326915,
                        -84.52175726697158
                    ],
                    [
                        -163.73597752530165,
                        -84.51491712946442
                    ],
                    [
                        -163.9143668883013,
                        -84.50811950958118
                    ],
                    [
                        -164.09358004368391,
                        -84.5015832931076
                    ],
                    [
                        -164.27221911006876,
                        -84.49495523051705
                    ],
                    [
                        -164.4494422106209,
                        -84.48803121689943
                    ],
                    [
                        -164.62522741650568,
                        -84.48083327031544
                    ],
                    [
                        -164.80028002310954,
                        -84.47352606598236
                    ],
                    [
                        -164.9749377633829,
                        -84.4661778942591
                    ],
                    [
                        -165.1489597890479,
                        -84.45874379818311
                    ],
                    [
                        -165.32205434816186,
                        -84.45116368463093
                    ],
                    [
                        -165.49448064771542,
                        -84.44348470387267
                    ],
                    [
                        -165.6666830336965,
                        -84.4358112485809
                    ],
                    [
                        -165.83895210517147,
                        -84.42820528103844
                    ],
                    [
                        -166.0110612650185,
                        -84.42060975885424
                    ],
                    [
                        -166.18272107358658,
                        -84.41297127244125
                    ],
                    [
                        -166.35426743089394,
                        -84.40536506485172
                    ],
                    [
                        -166.5259300542423,
                        -84.39782555726033
                    ],
                    [
                        -166.69803735010086,
                        -84.39043912417286
                    ],
                    [
                        -166.87016610022047,
                        -84.38310561156707
                    ],
                    [
                        -167.0420708552639,
                        -84.37576823998467
                    ],
                    [
                        -167.21391559679972,
                        -84.36848145957644
                    ],
                    [
                        -167.38586461592095,
                        -84.36125988630997
                    ],
                    [
                        -167.5575350359,
                        -84.35402141913251
                    ],
                    [
                        -167.72929412374472,
                        -84.34685946719819
                    ],
                    [
                        -167.90105838503757,
                        -84.33975021735583
                    ],
                    [
                        -168.07272226641894,
                        -84.33266579753146
                    ],
                    [
                        -168.24415766743488,
                        -84.32557430797209
                    ],
                    [
                        -168.41519857166045,
                        -84.31844704867805
                    ],
                    [
                        -168.58581786338712,
                        -84.31126490687069
                    ],
                    [
                        -168.75631405400526,
                        -84.30411356584302
                    ],
                    [
                        -168.92645340539045,
                        -84.29692281200714
                    ],
                    [
                        -169.09619866177306,
                        -84.28968739552693
                    ],
                    [
                        -169.26543361054496,
                        -84.28239408503818
                    ],
                    [
                        -169.43423230076107,
                        -84.27504268344248
                    ],
                    [
                        -169.60244435479837,
                        -84.26760732891175
                    ],
                    [
                        -169.77013954187834,
                        -84.26011486401309
                    ],
                    [
                        -169.93755872200433,
                        -84.25259690178036
                    ],
                    [
                        -170.10426412324105,
                        -84.24497406460448
                    ],
                    [
                        -170.27045299444856,
                        -84.23729684394957
                    ],
                    [
                        -170.43622314237876,
                        -84.2295671767231
                    ],
                    [
                        -170.60151312055382,
                        -84.22178237464018
                    ],
                    [
                        -170.76639094244763,
                        -84.21395682352508
                    ],
                    [
                        -170.93062431778438,
                        -84.20604511433947
                    ],
                    [
                        -171.09394999183576,
                        -84.19798402099197
                    ],
                    [
                        -171.256530795822,
                        -84.18982509198088
                    ],
                    [
                        -171.41868044608879,
                        -84.18162005679339
                    ],
                    [
                        -171.58016724615334,
                        -84.17333313658601
                    ],
                    [
                        -171.7408667125706,
                        -84.16492858315634
                    ],
                    [
                        -171.9009244932446,
                        -84.1564489342141
                    ],
                    [
                        -172.05984112722092,
                        -84.14779291905492
                    ],
                    [
                        -172.21799823450039,
                        -84.13903624585676
                    ],
                    [
                        -172.37528916699034,
                        -84.13016127601881
                    ],
                    [
                        -172.53174115963074,
                        -84.12117915201972
                    ],
                    [
                        -172.6867295129055,
                        -84.11197391120483
                    ],
                    [
                        -172.84075932901973,
                        -84.10264852170593
                    ],
                    [
                        -172.99418204916992,
                        -84.09325986772768
                    ],
                    [
                        -173.146850716893,
                        -84.08377962787938
                    ],
                    [
                        -173.29853124443613,
                        -84.07417583517453
                    ],
                    [
                        -173.44917521531997,
                        -84.0644411775956
                    ],
                    [
                        -173.59839777522177,
                        -84.0545164496293
                    ],
                    [
                        -173.7466804284286,
                        -84.04448018256636
                    ],
                    [
                        -173.89423454769056,
                        -84.03436670344745
                    ],
                    [
                        -174.04090384847362,
                        -84.02415440606909
                    ],
                    [
                        -174.18672321085813,
                        -84.01385157083779
                    ],
                    [
                        -174.33184800128106,
                        -84.00347967286282
                    ],
                    [
                        -174.47587527762326,
                        -83.99297873649726
                    ],
                    [
                        -174.61880705009997,
                        -83.98235408842682
                    ],
                    [
                        -174.76063170853692,
                        -83.9716072238454
                    ],
                    [
                        -174.90159913403184,
                        -83.96077250827173
                    ],
                    [
                        -175.0414905698221,
                        -83.94981801409685
                    ],
                    [
                        -175.18037139726334,
                        -83.93875879357456
                    ],
                    [
                        -175.31788195224465,
                        -83.92754166893239
                    ],
                    [
                        -175.4542825385696,
                        -83.91621114298482
                    ],
                    [
                        -175.58988070600668,
                        -83.90480905546961
                    ],
                    [
                        -175.7245375191878,
                        -83.89331262240094
                    ],
                    [
                        -175.8581559608826,
                        -83.88171241189072
                    ],
                    [
                        -175.99050286551292,
                        -83.86998334527071
                    ],
                    [
                        -176.12159502312952,
                        -83.85812630347598
                    ],
                    [
                        -176.25131021983822,
                        -83.84613105083558
                    ],
                    [
                        -176.3795792566886,
                        -83.83398506397165
                    ],
                    [
                        -176.5065491002977,
                        -83.82171592111135
                    ],
                    [
                        -176.63205212784686,
                        -83.8093049179362
                    ],
                    [
                        -176.75627696723464,
                        -83.79676785815235
                    ],
                    [
                        -176.8795643096907,
                        -83.78415526837887
                    ],
                    [
                        -177.00171627558845,
                        -83.77144260120284
                    ],
                    [
                        -177.12271004817623,
                        -83.75862850222454
                    ],
                    [
                        -177.2420240258291,
                        -83.74565756304759
                    ],
                    [
                        -177.3601515171328,
                        -83.7325828455318
                    ],
                    [
                        -177.47710802583222,
                        -83.71941331890926
                    ],
                    [
                        -177.59296266807257,
                        -83.70615083042782
                    ],
                    [
                        -177.7080545904034,
                        -83.69283508922837
                    ],
                    [
                        -177.82136292695583,
                        -83.67936205565363
                    ],
                    [
                        -177.93215634437703,
                        -83.66566369870976
                    ],
                    [
                        -178.04170643917814,
                        -83.65186104517045
                    ],
                    [
                        -178.14931154072704,
                        -83.63789987849927
                    ],
                    [
                        -178.25510616998804,
                        -83.62379180540549
                    ],
                    [
                        -178.35983675590597,
                        -83.60960534018116
                    ],
                    [
                        -178.46328796619858,
                        -83.59532748556072
                    ],
                    [
                        -178.56523168839857,
                        -83.58093436061311
                    ],
                    [
                        -178.66582538503013,
                        -83.56644181426934
                    ],
                    [
                        -178.76511361280353,
                        -83.551856114575
                    ],
                    [
                        -178.8629079043706,
                        -83.53716461412606
                    ],
                    [
                        -178.9596154709877,
                        -83.52240007248483
                    ],
                    [
                        -179.05509578785532,
                        -83.5075553742648
                    ],
                    [
                        -179.14852181569992,
                        -83.49255628036639
                    ],
                    [
                        -179.23963540923694,
                        -83.47739882491611
                    ],
                    [
                        -179.32868677079944,
                        -83.46209639865242
                    ],
                    [
                        -179.41630688632603,
                        -83.44670392939494
                    ],
                    [
                        -179.50181627968857,
                        -83.43117550334426
                    ],
                    [
                        -179.5844842872385,
                        -83.41545643683615
                    ],
                    [
                        -179.66457800796954,
                        -83.39958032811548
                    ],
                    [
                        -179.74323820233653,
                        -83.3836204717848
                    ],
                    [
                        -179.81996489951706,
                        -83.3675479186134
                    ],
                    [
                        -179.89421429613475,
                        -83.35133125474792
                    ],
                    [
                        -179.96684517083884,
                        -83.3350330387894
                    ],
                    [
                        179.96198335234976,
                        -83.3186548140413
                    ],
                    [
                        179.8928847472451,
                        -83.30216883745321
                    ],
                    [
                        179.8256820288036,
                        -83.28558227689108
                    ],
                    [
                        179.76049691326793,
                        -83.26890141539157
                    ],
                    [
                        179.69721566179047,
                        -83.25212509966974
                    ],
                    [
                        179.63566227841378,
                        -83.23527040033434
                    ],
                    [
                        179.5758961665261,
                        -83.2183324744192
                    ],
                    [
                        179.51789793424214,
                        -83.20131742481443
                    ],
                    [
                        179.46145457609052,
                        -83.184234784561
                    ],
                    [
                        179.4068419552143,
                        -83.16707714787171
                    ],
                    [
                        179.35350764803331,
                        -83.1498672973884
                    ],
                    [
                        179.3017508138841,
                        -83.1325978087389
                    ],
                    [
                        179.25146131346537,
                        -83.11526991371407
                    ],
                    [
                        179.20295075053957,
                        -83.09787631943337
                    ],
                    [
                        179.15561044590365,
                        -83.08044032268101
                    ],
                    [
                        179.10940926631292,
                        -83.06296494694662
                    ],
                    [
                        179.0647352404641,
                        -83.04543568201512
                    ],
                    [
                        179.02019486280975,
                        -83.02790876376805
                    ],
                    [
                        178.97666709536568,
                        -83.01034483732577
                    ],
                    [
                        178.93417419736372,
                        -82.99274972430742
                    ],
                    [
                        178.89277682208024,
                        -82.97512108661194
                    ],
                    [
                        178.8527237698157,
                        -82.95744605993492
                    ],
                    [
                        178.81389927078916,
                        -82.93973661870486
                    ],
                    [
                        178.77479830599697,
                        -82.92203771757165
                    ],
                    [
                        178.73563862157212,
                        -82.9043461824126
                    ],
                    [
                        178.69838748981383,
                        -82.8865978057059
                    ],
                    [
                        178.66098122904995,
                        -82.86885312066758
                    ],
                    [
                        178.62437633196882,
                        -82.85108740827573
                    ],
                    [
                        178.58917390258804,
                        -82.83328069132287
                    ],
                    [
                        178.55407165604308,
                        -82.81547872342354
                    ],
                    [
                        178.51896100995154,
                        -82.79767198680977
                    ],
                    [
                        178.48451466827737,
                        -82.7798544430706
                    ],
                    [
                        178.45081829013228,
                        -82.76201185748272
                    ],
                    [
                        178.41914300371766,
                        -82.74411856400015
                    ],
                    [
                        178.38993515328127,
                        -82.72615551613282
                    ],
                    [
                        178.36084146669114,
                        -82.70819632946764
                    ],
                    [
                        178.33230496240455,
                        -82.69022247991653
                    ],
                    [
                        178.3052399892072,
                        -82.67221184751988
                    ],
                    [
                        178.27729035248385,
                        -82.6542272107293
                    ],
                    [
                        178.2489297388832,
                        -82.63625830052905
                    ],
                    [
                        178.22163408734946,
                        -82.61826413071776
                    ],
                    [
                        178.1955186039502,
                        -82.60023804689585
                    ],
                    [
                        178.1703580425746,
                        -82.58219586111755
                    ],
                    [
                        178.14628945570868,
                        -82.56412915775852
                    ],
                    [
                        178.1228640883025,
                        -82.54604907146039
                    ],
                    [
                        178.10020464143017,
                        -82.52795441146391
                    ],
                    [
                        178.07825672957864,
                        -82.50984415740419
                    ],
                    [
                        178.05675240247422,
                        -82.49173100007845
                    ],
                    [
                        178.0357829751578,
                        -82.47360166592685
                    ],
                    [
                        178.01551596610204,
                        -82.45546892749381
                    ],
                    [
                        177.99562866524832,
                        -82.43732224237826
                    ],
                    [
                        177.9763249923813,
                        -82.41916904005338
                    ],
                    [
                        177.95779569998948,
                        -82.40100664397336
                    ],
                    [
                        177.93961387207975,
                        -82.38283313905967
                    ],
                    [
                        177.92180931043373,
                        -82.36465697382366
                    ],
                    [
                        177.90437221170848,
                        -82.34647907287263
                    ],
                    [
                        177.8871569382806,
                        -82.32829510398831
                    ],
                    [
                        177.87018830720748,
                        -82.31010888934895
                    ],
                    [
                        177.85361732667394,
                        -82.2919120521521
                    ],
                    [
                        177.83736902990907,
                        -82.2737189409059
                    ],
                    [
                        177.8215001199275,
                        -82.25551338514146
                    ],
                    [
                        177.80612688853208,
                        -82.23730704379078
                    ],
                    [
                        177.79142505975756,
                        -82.21908898261677
                    ],
                    [
                        177.77719329229544,
                        -82.2008619010979
                    ],
                    [
                        177.76331854876727,
                        -82.18263259700663
                    ],
                    [
                        177.74982467398797,
                        -82.16440307826085
                    ],
                    [
                        177.73677088966292,
                        -82.14616821185652
                    ],
                    [
                        177.7243979442471,
                        -82.12791836105667
                    ],
                    [
                        177.71239579369768,
                        -82.10967024883348
                    ],
                    [
                        177.700877082752,
                        -82.09141720682608
                    ],
                    [
                        177.6901188398707,
                        -82.07315533249093
                    ],
                    [
                        177.67986395600084,
                        -82.05488419030449
                    ],
                    [
                        177.6700672051071,
                        -82.03661091653449
                    ],
                    [
                        177.66083089628435,
                        -82.01833614128564
                    ],
                    [
                        177.65192237564744,
                        -82.00005401157698
                    ],
                    [
                        177.64334328045558,
                        -81.98177373904164
                    ],
                    [
                        177.63527079014582,
                        -81.96348721183756
                    ],
                    [
                        177.62752242512627,
                        -81.94520258845239
                    ],
                    [
                        177.62016519330402,
                        -81.92690653939985
                    ],
                    [
                        177.61310653073878,
                        -81.90861689406032
                    ],
                    [
                        177.60642629897893,
                        -81.89032039936423
                    ],
                    [
                        177.60008040941148,
                        -81.87202599564428
                    ],
                    [
                        177.59401629782332,
                        -81.85372881553681
                    ],
                    [
                        177.58818188694903,
                        -81.83542398842066
                    ],
                    [
                        177.58251879533256,
                        -81.81712951707947
                    ],
                    [
                        177.5773647904271,
                        -81.79882912103955
                    ],
                    [
                        177.5727050303034,
                        -81.78051816806584
                    ],
                    [
                        177.56850526435272,
                        -81.76221482083083
                    ],
                    [
                        177.56483655500026,
                        -81.74390579749242
                    ],
                    [
                        177.56158460364634,
                        -81.72559960074915
                    ],
                    [
                        177.55873166671176,
                        -81.7072824005579
                    ],
                    [
                        177.55644690565046,
                        -81.68897359808875
                    ],
                    [
                        177.55455379219018,
                        -81.67065838634144
                    ],
                    [
                        177.55305830697563,
                        -81.65235057315175
                    ],
                    [
                        177.55193042459578,
                        -81.6340362453987
                    ],
                    [
                        177.55120268607223,
                        -81.61572479037984
                    ],
                    [
                        177.55088632294826,
                        -81.59741171533513
                    ],
                    [
                        177.55105225439357,
                        -81.57910206559727
                    ],
                    [
                        177.5516812991374,
                        -81.56078657643197
                    ],
                    [
                        177.55274912345513,
                        -81.5424742769029
                    ],
                    [
                        177.55420323429368,
                        -81.52416485153894
                    ],
                    [
                        177.5561291301568,
                        -81.50585426981542
                    ],
                    [
                        177.55868307253957,
                        -81.48754811295714
                    ],
                    [
                        177.56173770811085,
                        -81.46924559016644
                    ],
                    [
                        177.5652111483311,
                        -81.45094161139525
                    ],
                    [
                        177.56906125962433,
                        -81.43264507933957
                    ],
                    [
                        177.57336173632504,
                        -81.41434730205343
                    ],
                    [
                        177.57799226374874,
                        -81.39605210305517
                    ],
                    [
                        177.58305442710207,
                        -81.37776012705213
                    ],
                    [
                        177.58854548012877,
                        -81.35947135722407
                    ],
                    [
                        177.59437767000992,
                        -81.34118523743918
                    ],
                    [
                        177.6006033839103,
                        -81.32290209711684
                    ],
                    [
                        177.6072866644692,
                        -81.30462233737687
                    ],
                    [
                        177.61435698234135,
                        -81.28635008733431
                    ],
                    [
                        177.62198782523126,
                        -81.26808185396555
                    ],
                    [
                        177.63015163844227,
                        -81.24981745168932
                    ],
                    [
                        177.63856196515724,
                        -81.23155964541498
                    ],
                    [
                        177.64716464430106,
                        -81.21330350773792
                    ],
                    [
                        177.65645299147752,
                        -81.1950567033546
                    ],
                    [
                        177.6661557632691,
                        -81.17681293145472
                    ],
                    [
                        177.67619186173653,
                        -81.15857624845638
                    ],
                    [
                        177.68666015260598,
                        -81.14034725421591
                    ],
                    [
                        177.69744663134347,
                        -81.12212064074865
                    ],
                    [
                        177.70863801460328,
                        -81.10389692800975
                    ],
                    [
                        177.72019407414626,
                        -81.0856850027251
                    ],
                    [
                        177.7319842584712,
                        -81.06747946060784
                    ],
                    [
                        177.74398481308023,
                        -81.04927556197721
                    ],
                    [
                        177.75635277202488,
                        -81.03107425190717
                    ],
                    [
                        177.76910117905211,
                        -81.01288474095917
                    ],
                    [
                        177.7822814580167,
                        -80.99470273443359
                    ],
                    [
                        177.79567538084618,
                        -80.97652688136657
                    ],
                    [
                        177.80929442542168,
                        -80.95835265472567
                    ],
                    [
                        177.82322900978482,
                        -80.94018515404024
                    ],
                    [
                        177.8374066506535,
                        -80.92202849703494
                    ],
                    [
                        177.85177028948277,
                        -80.9038731675357
                    ],
                    [
                        177.86639852117827,
                        -80.88572418846853
                    ],
                    [
                        177.8813819288078,
                        -80.86758206582624
                    ],
                    [
                        177.896563249586,
                        -80.8494458457453
                    ],
                    [
                        177.91208368291404,
                        -80.8313209036914
                    ],
                    [
                        177.92809686779324,
                        -80.81320351440345
                    ],
                    [
                        177.94433608431817,
                        -80.79509666954806
                    ],
                    [
                        177.96083527823157,
                        -80.77699595914466
                    ],
                    [
                        177.97773990714254,
                        -80.75890675276499
                    ],
                    [
                        177.9948281216593,
                        -80.74081859980421
                    ],
                    [
                        178.01229997327243,
                        -80.72274632253075
                    ],
                    [
                        178.03017125013184,
                        -80.70468538343133
                    ],
                    [
                        178.0481874998768,
                        -80.68662517542607
                    ],
                    [
                        178.066413608885,
                        -80.66857518221309
                    ],
                    [
                        178.08495623227745,
                        -80.650531376809
                    ],
                    [
                        178.1037059692142,
                        -80.6324976991608
                    ],
                    [
                        178.12260004260338,
                        -80.61447378108612
                    ],
                    [
                        178.14157797159075,
                        -80.59645012796922
                    ],
                    [
                        178.1607276906095,
                        -80.5784317604351
                    ],
                    [
                        178.1801373862177,
                        -80.56041910945422
                    ],
                    [
                        178.19982609681838,
                        -80.54242138008698
                    ],
                    [
                        178.2196774871107,
                        -80.52442878313666
                    ],
                    [
                        178.2397729056307,
                        -80.50644627557476
                    ],
                    [
                        178.2601726885045,
                        -80.48846954467545
                    ],
                    [
                        178.2807860112427,
                        -80.47050266093817
                    ],
                    [
                        178.30148502956249,
                        -80.452544956245
                    ],
                    [
                        178.32234160057212,
                        -80.43459218718218
                    ],
                    [
                        178.3432788291939,
                        -80.41663937950301
                    ],
                    [
                        178.36427826310037,
                        -80.3986955719797
                    ],
                    [
                        178.38540052474897,
                        -80.38075646057283
                    ],
                    [
                        178.40661766922642,
                        -80.36282188876346
                    ],
                    [
                        178.42788091785135,
                        -80.34488703758092
                    ],
                    [
                        178.44925378453098,
                        -80.32696132627348
                    ],
                    [
                        178.47074729739376,
                        -80.30904020708729
                    ],
                    [
                        178.49230122800031,
                        -80.29112338565047
                    ],
                    [
                        178.51389364116102,
                        -80.27321074860986
                    ],
                    [
                        178.535529748759,
                        -80.2553023049046
                    ],
                    [
                        178.55720462836234,
                        -80.2373934476555
                    ],
                    [
                        178.57897050345682,
                        -80.21949352592016
                    ],
                    [
                        178.6007530973835,
                        -80.20159306564153
                    ],
                    [
                        178.6225516705194,
                        -80.1836966248922
                    ],
                    [
                        178.64440894672833,
                        -80.16580436630838
                    ],
                    [
                        178.66632463266623,
                        -80.14791627117516
                    ],
                    [
                        178.6882830611445,
                        -80.13002769005013
                    ],
                    [
                        178.71022488751044,
                        -80.11214294915912
                    ],
                    [
                        178.73216615622505,
                        -80.09426210510833
                    ],
                    [
                        178.75412337236025,
                        -80.07638064259592
                    ],
                    [
                        178.77596947699692,
                        -80.05849808307022
                    ],
                    [
                        178.7977678804702,
                        -80.04061923913248
                    ],
                    [
                        178.81962483577536,
                        -80.0227399219683
                    ],
                    [
                        178.84150265840654,
                        -80.00486455115743
                    ],
                    [
                        178.86332247382254,
                        -79.98699284343549
                    ],
                    [
                        178.8849760414723,
                        -79.96911072815277
                    ],
                    [
                        178.90641134781677,
                        -79.95122262480025
                    ],
                    [
                        178.92773826097084,
                        -79.9333380628737
                    ],
                    [
                        178.94898441610977,
                        -79.91544800652052
                    ],
                    [
                        178.97019612774372,
                        -79.89756174678557
                    ],
                    [
                        178.9912913695271,
                        -79.8796698927619
                    ],
                    [
                        179.0122910292444,
                        -79.86177709065339
                    ],
                    [
                        179.0332163224056,
                        -79.8438834142712
                    ],
                    [
                        179.05399484034294,
                        -79.82599322705303
                    ],
                    [
                        179.07470087478416,
                        -79.80809305801381
                    ],
                    [
                        179.09535453895768,
                        -79.79019210590765
                    ],
                    [
                        179.11588371747033,
                        -79.77229474357341
                    ],
                    [
                        179.13631039391007,
                        -79.75439191126624
                    ],
                    [
                        179.1564403560016,
                        -79.73648311201495
                    ],
                    [
                        179.1763113009846,
                        -79.71856392209058
                    ],
                    [
                        179.1959602710279,
                        -79.70063447438729
                    ],
                    [
                        179.21543829689492,
                        -79.68270862707334
                    ],
                    [
                        179.23480803471134,
                        -79.66477742081833
                    ],
                    [
                        179.25405444956823,
                        -79.6468454002272
                    ],
                    [
                        179.27295095491334,
                        -79.62889836498003
                    ],
                    [
                        179.29162996617518,
                        -79.61095036277712
                    ],
                    [
                        179.31012828630435,
                        -79.59299693887962
                    ],
                    [
                        179.32844177951398,
                        -79.57503810979865
                    ],
                    [
                        179.34643569324786,
                        -79.55706905720184
                    ],
                    [
                        179.36441773138645,
                        -79.53909957950297
                    ],
                    [
                        179.38264281750537,
                        -79.52114843500713
                    ],
                    [
                        179.4008555944941,
                        -79.50319226573191
                    ],
                    [
                        179.41897607682722,
                        -79.48523092153864
                    ],
                    [
                        179.4369992281933,
                        -79.46727353406988
                    ],
                    [
                        179.45496093203718,
                        -79.4493110475135
                    ],
                    [
                        179.47283613974875,
                        -79.43135255474358
                    ],
                    [
                        179.49056614742602,
                        -79.41338884037228
                    ],
                    [
                        179.50821613498582,
                        -79.395420027094
                    ],
                    [
                        179.52575142157528,
                        -79.37745519940248
                    ],
                    [
                        179.54322736683338,
                        -79.35948532478939
                    ],
                    [
                        179.56082641442526,
                        -79.3415197956025
                    ],
                    [
                        179.57833617048672,
                        -79.3235582975879
                    ],
                    [
                        179.59547261278038,
                        -79.3055822143733
                    ],
                    [
                        179.61240412478944,
                        -79.28760094161734
                    ],
                    [
                        179.62924426923163,
                        -79.26961920854055
                    ],
                    [
                        179.6459789785727,
                        -79.25163244644928
                    ],
                    [
                        179.66287192220875,
                        -79.2336592107394
                    ],
                    [
                        179.68011266209956,
                        -79.2156951063976
                    ],
                    [
                        179.6975389900371,
                        -79.19773534853022
                    ],
                    [
                        179.71483412295703,
                        -79.17977960597227
                    ],
                    [
                        179.73198937251323,
                        -79.16181420092474
                    ],
                    [
                        179.74931010248574,
                        -79.14385765446958
                    ],
                    [
                        179.76674727437202,
                        -79.12590533435029
                    ],
                    [
                        179.7840300854826,
                        -79.10795246161902
                    ],
                    [
                        179.80122203466178,
                        -79.08999453789161
                    ],
                    [
                        179.81837632093612,
                        -79.07204073036483
                    ],
                    [
                        179.8355268428175,
                        -79.05408649783521
                    ],
                    [
                        179.8526879411456,
                        -79.0361364055507
                    ],
                    [
                        179.86979745071721,
                        -79.01818129772383
                    ],
                    [
                        179.88677429632466,
                        -79.00022571023213
                    ],
                    [
                        179.9036287114756,
                        -78.9822651036591
                    ],
                    [
                        179.92023737067373,
                        -78.96430402321833
                    ],
                    [
                        179.93663482359992,
                        -78.94633339146505
                    ],
                    [
                        179.95295025547173,
                        -78.92835782131597
                    ],
                    [
                        179.96913660992146,
                        -78.91038643936331
                    ],
                    [
                        179.9852087526027,
                        -78.89240558216662
                    ],
                    [
                        -179.9988422512728,
                        -78.87442894661649
                    ],
                    [
                        -179.9830865733553,
                        -78.8564428723428
                    ],
                    [
                        -179.9675374451805,
                        -78.83844738925733
                    ],
                    [
                        -179.9522455925734,
                        -78.8204516557252
                    ],
                    [
                        -179.93717223580933,
                        -78.80245114085434
                    ],
                    [
                        -179.92226008859183,
                        -78.78444586075634
                    ],
                    [
                        -179.9074101155059,
                        -78.76643580655578
                    ],
                    [
                        -179.89249112554683,
                        -78.74843005615485
                    ],
                    [
                        -179.87778336995174,
                        -78.73042415351512
                    ],
                    [
                        -179.86342571735938,
                        -78.71240451566104
                    ],
                    [
                        -179.84915137778862,
                        -78.694380173848
                    ],
                    [
                        -179.83487163209494,
                        -78.67636020588756
                    ],
                    [
                        -179.82068382365165,
                        -78.65834466805708
                    ],
                    [
                        -179.80663863350867,
                        -78.6403199292007
                    ],
                    [
                        -179.79263822548614,
                        -78.62229505586902
                    ],
                    [
                        -179.77872390221424,
                        -78.60427008387603
                    ],
                    [
                        -179.76482147354625,
                        -78.58624952151692
                    ],
                    [
                        -179.75088048854604,
                        -78.56822420829488
                    ],
                    [
                        -179.73699734556135,
                        -78.55020334027358
                    ],
                    [
                        -179.72313989167114,
                        -78.53217777691104
                    ],
                    [
                        -179.70926191204123,
                        -78.51416114637611
                    ],
                    [
                        -179.6953363007653,
                        -78.4961442987632
                    ],
                    [
                        -179.68130854197432,
                        -78.4781271640445
                    ],
                    [
                        -179.6671788548944,
                        -78.46011883912783
                    ],
                    [
                        -179.65302058668618,
                        -78.44211483713423
                    ],
                    [
                        -179.63891118753872,
                        -78.4241106918707
                    ],
                    [
                        -179.62483244502525,
                        -78.40610182765924
                    ],
                    [
                        -179.61073866393392,
                        -78.38809729818217
                    ],
                    [
                        -179.59662538068395,
                        -78.37009709200986
                    ],
                    [
                        -179.582497348209,
                        -78.3520966538836
                    ],
                    [
                        -179.56836815269745,
                        -78.33409599981724
                    ],
                    [
                        -179.5543142700786,
                        -78.31609524776135
                    ],
                    [
                        -179.5402724755273,
                        -78.29809430420116
                    ],
                    [
                        -179.5262202937247,
                        -78.28009313091938
                    ],
                    [
                        -179.51210814333547,
                        -78.26210074960531
                    ],
                    [
                        -179.49791431068041,
                        -78.24410799751878
                    ],
                    [
                        -179.48367021866,
                        -78.22611947255957
                    ],
                    [
                        -179.46939836777457,
                        -78.20813520643493
                    ],
                    [
                        -179.45508128376218,
                        -78.19015060254169
                    ],
                    [
                        -179.44068341615954,
                        -78.17217013506172
                    ],
                    [
                        -179.42623173835307,
                        -78.15419384336678
                    ],
                    [
                        -179.41181529764052,
                        -78.13621734882261
                    ],
                    [
                        -179.3973717854437,
                        -78.11824507448311
                    ],
                    [
                        -179.38285297392065,
                        -78.10027235119941
                    ],
                    [
                        -179.36820116028872,
                        -78.08231269587861
                    ],
                    [
                        -179.35344871291284,
                        -78.06434794049143
                    ],
                    [
                        -179.3387448053516,
                        -78.04639208505466
                    ],
                    [
                        -179.32402851423683,
                        -78.02843132298285
                    ],
                    [
                        -179.309334182668,
                        -78.01047939781178
                    ],
                    [
                        -179.2947505449683,
                        -77.99251376803579
                    ],
                    [
                        -179.2803066403001,
                        -77.97455274188108
                    ],
                    [
                        -179.26581014241327,
                        -77.95659127214276
                    ],
                    [
                        -179.25128278697835,
                        -77.93863396014409
                    ],
                    [
                        -179.23681633096996,
                        -77.92067650022379
                    ],
                    [
                        -179.2225804743157,
                        -77.90271027665793
                    ],
                    [
                        -179.20876099021734,
                        -77.88473131231316
                    ],
                    [
                        -179.19555121925558,
                        -77.86673569250989
                    ],
                    [
                        -179.18187788021905,
                        -77.84875479816189
                    ],
                    [
                        -179.1682452398682,
                        -77.83077379577475
                    ],
                    [
                        -179.15465311830036,
                        -77.81279268929322
                    ],
                    [
                        -179.14110133666236,
                        -77.79481148264367
                    ],
                    [
                        -179.1275897171431,
                        -77.77683017973426
                    ],
                    [
                        -179.114118082966,
                        -77.75884878445503
                    ],
                    [
                        -179.10068625838147,
                        -77.7408673006781
                    ],
                    [
                        -179.08729406865956,
                        -77.72288573225768
                    ],
                    [
                        -179.07394134008283,
                        -77.7049040830303
                    ],
                    [
                        -179.06062789993874,
                        -77.6869223568149
                    ],
                    [
                        -179.04735357651276,
                        -77.66894055741301
                    ],
                    [
                        -179.0341181990811,
                        -77.65095868860871
                    ],
                    [
                        -179.02092159790365,
                        -77.63297675416898
                    ],
                    [
                        -179.007763604217,
                        -77.61499475784369
                    ],
                    [
                        -178.99464405022744,
                        -77.59701270336569
                    ],
                    [
                        -178.9815627691041,
                        -77.57903059445104
                    ],
                    [
                        -178.9685195949721,
                        -77.56104843479908
                    ],
                    [
                        -178.9555143629058,
                        -77.54306622809251
                    ],
                    [
                        -178.942546908922,
                        -77.52508397799755
                    ],
                    [
                        -178.92961706997338,
                        -77.50710168816404
                    ]
                ]
            }
        }
    ]
}
