{
    "type": "FeatureCollection",
    "features": [
        {
            "type": "Feature",
            "properties": {
                "name": "Rutford",
                "object": "transect",
                "component": "landice",
                "author": "Matthew Hoffman, converted from https://github.com/yuwang115/sl-ice",
                "tags": "Antarctic_Ice_Sheet;flowline;sl-ice;rutford"
            },
            "geometry": {
                "type": "LineString",
                "coordinates": [
                    [
                        -92.55849699716133,
                        -79.11481616449858
                    ],
                    [
                        -92.54153784940793,
                        -79.09686632850628
                    ],
                    [
                        -92.53709823388787,
                        -79.07867284981015
                    ],
                    [
                        -92.54808657976332,
                        -79.06057560129426
                    ],
                    [
                        -92.57163882787108,
                        -79.04289168525386
                    ],
                    [
                        -92.60043352035113,
                        -79.02548924574486
                    ],
                    [
                        -92.63244327230024,
                        -79.0082948339892
                    ],
                    [
                        -92.65840259370967,
                        -78.99075398974568
                    ],
                    [
                        -92.6752239066851,
                        -78.97280118122171
                    ],
                    [
                        -92.6912347566931,
                        -78.9548182307663
                    ],
                    [
                        -92.71386728550064,
                        -78.93717792806684
                    ],
                    [
                        -92.71207625846053,
                        -78.9190295523511
                    ],
                    [
                        -92.69409724821202,
                        -78.90113570520445
                    ],
                    [
                        -92.68450294826255,
                        -78.88300176627544
                    ],
                    [
                        -92.68203797654976,
                        -78.864764649506
                    ],
                    [
                        -92.67944074219515,
                        -78.84653297896307
                    ],
                    [
                        -92.6784871495201,
                        -78.82830344352293
                    ],
                    [
                        -92.68498185378347,
                        -78.8101126741929
                    ],
                    [
                        -92.69424449204018,
                        -78.79196070706539
                    ],
                    [
                        -92.70255018944742,
                        -78.77379560213993
                    ],
                    [
                        -92.71008571361699,
                        -78.7556157596698
                    ],
                    [
                        -92.71750351170982,
                        -78.7374371345911
                    ],
                    [
                        -92.72420412987282,
                        -78.71924797836733
                    ],
                    [
                        -92.73239297892903,
                        -78.70108161181676
                    ],
                    [
                        -92.74187288890262,
                        -78.6829406070918
                    ],
                    [
                        -92.75004502218431,
                        -78.66477904583593
                    ],
                    [
                        -92.75349537240977,
                        -78.64656190558817
                    ],
                    [
                        -92.75512146700808,
                        -78.62833054554805
                    ],
                    [
                        -92.75963962121922,
                        -78.61011962009397
                    ],
                    [
                        -92.76597492319809,
                        -78.59192909718996
                    ],
                    [
                        -92.76821082183682,
                        -78.57370782662115
                    ],
                    [
                        -92.76090012159433,
                        -78.55553383693693
                    ],
                    [
                        -92.75695599166204,
                        -78.53732640899901
                    ],
                    [
                        -92.75893818042182,
                        -78.51910387386874
                    ],
                    [
                        -92.76249885951333,
                        -78.50088762918313
                    ],
                    [
                        -92.76622252527221,
                        -78.48267478113392
                    ],
                    [
                        -92.77354919880142,
                        -78.46450773961286
                    ],
                    [
                        -92.7811214383917,
                        -78.44634119215722
                    ],
                    [
                        -92.78487705009991,
                        -78.42813722599702
                    ],
                    [
                        -92.7792607988465,
                        -78.40996137131668
                    ],
                    [
                        -92.76920719661763,
                        -78.3918467108225
                    ],
                    [
                        -92.76060897557366,
                        -78.37370564617613
                    ],
                    [
                        -92.75296363960118,
                        -78.35554403633839
                    ],
                    [
                        -92.74946357676679,
                        -78.33733458378072
                    ],
                    [
                        -92.74770994132675,
                        -78.31911153040772
                    ],
                    [
                        -92.74786442858745,
                        -78.30088967701923
                    ],
                    [
                        -92.74244435441808,
                        -78.28270079550784
                    ],
                    [
                        -92.73553455402862,
                        -78.26453067793614
                    ],
                    [
                        -92.73020416323727,
                        -78.24634217816134
                    ],
                    [
                        -92.7303367641601,
                        -78.22812673536163
                    ],
                    [
                        -92.73470303801481,
                        -78.20992711136924
                    ],
                    [
                        -92.7354789847219,
                        -78.19171374653175
                    ],
                    [
                        -92.73557002283206,
                        -78.17349304849579
                    ],
                    [
                        -92.73739445370165,
                        -78.15527871294418
                    ],
                    [
                        -92.74171398225062,
                        -78.13708136689579
                    ],
                    [
                        -92.74866754466576,
                        -78.11891946896434
                    ],
                    [
                        -92.7556266262144,
                        -78.10075953008402
                    ],
                    [
                        -92.76330897348825,
                        -78.08261263261784
                    ],
                    [
                        -92.77071918777666,
                        -78.0644585577375
                    ],
                    [
                        -92.7776479526568,
                        -78.04630035625111
                    ],
                    [
                        -92.78306496094565,
                        -78.02812021436559
                    ],
                    [
                        -92.78750602471719,
                        -78.00992837298986
                    ],
                    [
                        -92.79126619821054,
                        -77.99173105014893
                    ],
                    [
                        -92.79374421378213,
                        -77.97352530502847
                    ],
                    [
                        -92.7948944825015,
                        -77.9553153448926
                    ],
                    [
                        -92.79447898803367,
                        -77.93710185489346
                    ],
                    [
                        -92.79192464385619,
                        -77.91889895864989
                    ],
                    [
                        -92.78535373976152,
                        -77.90074226527918
                    ],
                    [
                        -92.7756344271795,
                        -77.88264653091647
                    ],
                    [
                        -92.76298511091453,
                        -77.86463304006178
                    ],
                    [
                        -92.74729469948876,
                        -77.84672723967563
                    ],
                    [
                        -92.73027566275493,
                        -77.82887504746712
                    ],
                    [
                        -92.7128493859449,
                        -77.8110415230871
                    ],
                    [
                        -92.69381093462165,
                        -77.79328416203673
                    ],
                    [
                        -92.6742106790456,
                        -77.77555492549715
                    ],
                    [
                        -92.65315997622726,
                        -77.75790527318749
                    ],
                    [
                        -92.62954262763049,
                        -77.74040321017893
                    ],
                    [
                        -92.60432353315258,
                        -77.72300509287759
                    ],
                    [
                        -92.57972497527096,
                        -77.705569834522
                    ],
                    [
                        -92.55591332894437,
                        -77.68808779235039
                    ],
                    [
                        -92.5315168400676,
                        -77.67064407370934
                    ],
                    [
                        -92.50613100561065,
                        -77.65326964601232
                    ],
                    [
                        -92.48006599986064,
                        -77.63594406200735
                    ],
                    [
                        -92.45270054008738,
                        -77.61871201083503
                    ],
                    [
                        -92.42499799201065,
                        -77.60150879403312
                    ],
                    [
                        -92.39876394552746,
                        -77.58420509983036
                    ],
                    [
                        -92.37399321068249,
                        -77.56680317878781
                    ],
                    [
                        -92.3497049422863,
                        -77.54937126923097
                    ],
                    [
                        -92.32491466940532,
                        -77.53197639914369
                    ],
                    [
                        -92.30025655724378,
                        -77.51457649803977
                    ],
                    [
                        -92.27543046992172,
                        -77.49718874222405
                    ],
                    [
                        -92.25031759765486,
                        -77.47982592946553
                    ],
                    [
                        -92.22470692875852,
                        -77.46249795019509
                    ],
                    [
                        -92.19807157399826,
                        -77.4452454791061
                    ],
                    [
                        -92.16873373593046,
                        -77.42820860805897
                    ],
                    [
                        -92.13699823405288,
                        -77.41137944854533
                    ],
                    [
                        -92.10425155989327,
                        -77.39464682172755
                    ],
                    [
                        -92.0709772815479,
                        -77.37796829773576
                    ],
                    [
                        -92.0365919806578,
                        -77.36140282331421
                    ],
                    [
                        -91.99986250641759,
                        -77.34508682578428
                    ],
                    [
                        -91.9609696566936,
                        -77.32901706092994
                    ],
                    [
                        -91.92098014864256,
                        -77.31308550715033
                    ],
                    [
                        -91.88067686883402,
                        -77.29719589921426
                    ],
                    [
                        -91.83974099931866,
                        -77.28139491557515
                    ],
                    [
                        -91.79879366242223,
                        -77.26559968147983
                    ],
                    [
                        -91.75774626514047,
                        -77.24982532577569
                    ],
                    [
                        -91.71610524552437,
                        -77.23413418584595
                    ],
                    [
                        -91.6757034906778,
                        -77.21829301094927
                    ],
                    [
                        -91.63787736358891,
                        -77.20215196407288
                    ],
                    [
                        -91.60132332891632,
                        -77.1858694171306
                    ],
                    [
                        -91.56424071286635,
                        -77.16965147958751
                    ],
                    [
                        -91.52669182697886,
                        -77.15349389896329
                    ],
                    [
                        -91.48963726625266,
                        -77.13728719972462
                    ],
                    [
                        -91.45352227867114,
                        -77.1209781186262
                    ],
                    [
                        -91.4177451377765,
                        -77.10463947374308
                    ],
                    [
                        -91.38086918170417,
                        -77.08842828030082
                    ],
                    [
                        -91.34410253260837,
                        -77.07221039094641
                    ],
                    [
                        -91.30842398152369,
                        -77.0558771560687
                    ],
                    [
                        -91.27375849176988,
                        -77.0394402929458
                    ],
                    [
                        -91.2401352891493,
                        -77.02289913931982
                    ],
                    [
                        -91.20597391829668,
                        -77.00641978255345
                    ],
                    [
                        -91.16821488033719,
                        -76.99035064877897
                    ],
                    [
                        -91.12711958496679,
                        -76.97470805820802
                    ],
                    [
                        -91.082334771709,
                        -76.95960097008286
                    ],
                    [
                        -91.03242854246902,
                        -76.94534322590782
                    ],
                    [
                        -90.97839750512475,
                        -76.9318897034721
                    ],
                    [
                        -90.92057264829019,
                        -76.91928010677059
                    ],
                    [
                        -90.85836347332697,
                        -76.90780643289413
                    ],
                    [
                        -90.79291795519515,
                        -76.89730719404173
                    ],
                    [
                        -90.72533758859808,
                        -76.8875466359698
                    ],
                    [
                        -90.65647571909427,
                        -76.87827805086575
                    ],
                    [
                        -90.58612872400204,
                        -76.86962256973116
                    ],
                    [
                        -90.51440990336101,
                        -76.86159044632586
                    ],
                    [
                        -90.4409173484742,
                        -76.85445831715987
                    ],
                    [
                        -90.36585918417282,
                        -76.84825785694716
                    ],
                    [
                        -90.2894925139654,
                        -76.84297274183136
                    ],
                    [
                        -90.21169257693916,
                        -76.838943505373
                    ],
                    [
                        -90.13302987635527,
                        -76.83591399296097
                    ],
                    [
                        -90.05401926762815,
                        -76.8334088719224
                    ],
                    [
                        -89.97475902206537,
                        -76.83138963155679
                    ],
                    [
                        -89.89545438070697,
                        -76.82950532900105
                    ],
                    [
                        -89.81614866324742,
                        -76.82760963488096
                    ],
                    [
                        -89.73660271018046,
                        -76.82649652893595
                    ],
                    [
                        -89.65690903670843,
                        -76.82664845751948
                    ],
                    [
                        -89.57736367667192,
                        -76.82780590221621
                    ],
                    [
                        -89.49826259059267,
                        -76.83008686845164
                    ],
                    [
                        -89.41999844608843,
                        -76.83353182514448
                    ],
                    [
                        -89.342563171825,
                        -76.83789623917265
                    ],
                    [
                        -89.26506871155365,
                        -76.84222863370437
                    ],
                    [
                        -89.18734840574626,
                        -76.84639029095973
                    ],
                    [
                        -89.10958311940415,
                        -76.85052071169204
                    ],
                    [
                        -89.03182170658735,
                        -76.85466641747377
                    ],
                    [
                        -88.9537912170563,
                        -76.85858816010357
                    ],
                    [
                        -88.87564893854345,
                        -76.86240456009634
                    ],
                    [
                        -88.79771665783628,
                        -76.86645975542349
                    ],
                    [
                        -88.71952408074671,
                        -76.87028617223494
                    ],
                    [
                        -88.64089717662101,
                        -76.8736317239001
                    ],
                    [
                        -88.56262782932676,
                        -76.87740959455442
                    ],
                    [
                        -88.48433084587914,
                        -76.88118330281284
                    ],
                    [
                        -88.40572470650827,
                        -76.88463466831851
                    ],
                    [
                        -88.32671582252539,
                        -76.88759909979991
                    ],
                    [
                        -88.24744641314261,
                        -76.89021355111822
                    ],
                    [
                        -88.16830068533937,
                        -76.89303703425423
                    ],
                    [
                        -88.08902714760497,
                        -76.89570861156172
                    ],
                    [
                        -88.00958319364649,
                        -76.89810414135711
                    ],
                    [
                        -87.93004160115507,
                        -76.90037591151703
                    ],
                    [
                        -87.85049807289309,
                        -76.90266106526306
                    ],
                    [
                        -87.77094018740362,
                        -76.904959507916
                    ],
                    [
                        -87.6916684556293,
                        -76.90772333795945
                    ],
                    [
                        -87.61271730514436,
                        -76.91093778484678
                    ],
                    [
                        -87.53402455800538,
                        -76.91450712278906
                    ],
                    [
                        -87.45550735185608,
                        -76.91828892039113
                    ],
                    [
                        -87.37704499142569,
                        -76.92214567527353
                    ],
                    [
                        -87.29837759278328,
                        -76.92581264471399
                    ],
                    [
                        -87.21937814501584,
                        -76.92910895843876
                    ],
                    [
                        -87.1398643415122,
                        -76.93174097124539
                    ],
                    [
                        -87.06014083621633,
                        -76.93406655839296
                    ],
                    [
                        -86.98062995679422,
                        -76.93673128145885
                    ],
                    [
                        -86.90129842756684,
                        -76.93969679667792
                    ],
                    [
                        -86.82193606982952,
                        -76.9426484782793
                    ],
                    [
                        -86.74260075800944,
                        -76.94566080089072
                    ],
                    [
                        -86.66348529221877,
                        -76.94896580747633
                    ],
                    [
                        -86.58458413835336,
                        -76.95254915414122
                    ],
                    [
                        -86.50566175399186,
                        -76.95614470794989
                    ],
                    [
                        -86.42645868902636,
                        -76.95943461316568
                    ],
                    [
                        -86.34708256685693,
                        -76.96252757458366
                    ],
                    [
                        -86.26749436010203,
                        -76.96533264186327
                    ],
                    [
                        -86.18757282549375,
                        -76.967675552813
                    ],
                    [
                        -86.10775381038206,
                        -76.97017390587781
                    ],
                    [
                        -86.0284279816977,
                        -76.97339981861585
                    ],
                    [
                        -85.95011239842417,
                        -76.97772492936683
                    ],
                    [
                        -85.87266026369907,
                        -76.98280364059039
                    ],
                    [
                        -85.79563447988771,
                        -76.98822597757486
                    ],
                    [
                        -85.7183633210569,
                        -76.99349891981575
                    ],
                    [
                        -85.6421342680906,
                        -76.9994684661799
                    ],
                    [
                        -85.5690649873091,
                        -77.00720484330193
                    ],
                    [
                        -85.49872951444709,
                        -77.01616576525493
                    ],
                    [
                        -85.43080609432775,
                        -77.0260416524238
                    ],
                    [
                        -85.36651686527854,
                        -77.03708311277974
                    ],
                    [
                        -85.3092463364039,
                        -77.04991733991197
                    ],
                    [
                        -85.26016920235153,
                        -77.06437221755716
                    ],
                    [
                        -85.22197770276387,
                        -77.08037872659277
                    ],
                    [
                        -85.19317033170583,
                        -77.09737943897845
                    ],
                    [
                        -85.16953576591844,
                        -77.11477302671165
                    ],
                    [
                        -85.15026602991372,
                        -77.13244131035003
                    ],
                    [
                        -85.13630796898151,
                        -77.15035636995124
                    ],
                    [
                        -85.12612264158754,
                        -77.16840010310867
                    ],
                    [
                        -85.11845197095847,
                        -77.18650503110041
                    ],
                    [
                        -85.11501101606949,
                        -77.20467445587978
                    ],
                    [
                        -85.11411182664682,
                        -77.22286077716616
                    ],
                    [
                        -85.11361376879434,
                        -77.2410507776723
                    ],
                    [
                        -85.11233373511422,
                        -77.25923762718381
                    ],
                    [
                        -85.11027281184073,
                        -77.27742048421095
                    ],
                    [
                        -85.10819664585625,
                        -77.29560650649235
                    ],
                    [
                        -85.10629705371919,
                        -77.31379382495443
                    ],
                    [
                        -85.10432621740746,
                        -77.33197959779359
                    ],
                    [
                        -85.10310276604007,
                        -77.35016915110617
                    ],
                    [
                        -85.10303019057336,
                        -77.36836360547325
                    ],
                    [
                        -85.1042253014449,
                        -77.38655500981983
                    ],
                    [
                        -85.1071488136375,
                        -77.40473541054706
                    ],
                    [
                        -85.11112664826118,
                        -77.42291122388416
                    ],
                    [
                        -85.11563962500439,
                        -77.44107997013964
                    ],
                    [
                        -85.12104911321147,
                        -77.45923731978043
                    ],
                    [
                        -85.12526438487437,
                        -77.47741022469312
                    ],
                    [
                        -85.12755416754356,
                        -77.49560086350843
                    ],
                    [
                        -85.12848030100396,
                        -77.51379788323707
                    ],
                    [
                        -85.12659561346818,
                        -77.53198846379263
                    ],
                    [
                        -85.12159384921596,
                        -77.55015526251884
                    ],
                    [
                        -85.11479800767547,
                        -77.56829622011283
                    ],
                    [
                        -85.10646946472785,
                        -77.58640701961073
                    ],
                    [
                        -85.09602661974368,
                        -77.60446778910215
                    ],
                    [
                        -85.083531575931,
                        -77.62247045607408
                    ],
                    [
                        -85.06841749566165,
                        -77.64038066858265
                    ],
                    [
                        -85.05086000441052,
                        -77.65819047067382
                    ],
                    [
                        -85.03160113665473,
                        -77.67592247505665
                    ],
                    [
                        -85.01118228819578,
                        -77.69359748366385
                    ],
                    [
                        -84.99012899305339,
                        -77.711240662851
                    ],
                    [
                        -84.96818726363387,
                        -77.72883619523456
                    ],
                    [
                        -84.94441768728797,
                        -77.74632608145248
                    ],
                    [
                        -84.91842588144614,
                        -77.76367694804733
                    ],
                    [
                        -84.89031372099981,
                        -77.78088201534516
                    ],
                    [
                        -84.86027084895348,
                        -77.79794346388913
                    ],
                    [
                        -84.82932679674707,
                        -77.81493713374192
                    ],
                    [
                        -84.79804472044229,
                        -77.8319065088549
                    ],
                    [
                        -84.76672865234279,
                        -77.84887840022755
                    ],
                    [
                        -84.73618997764554,
                        -77.86591607925479
                    ],
                    [
                        -84.70675205391872,
                        -77.88304343791722
                    ],
                    [
                        -84.67892340392245,
                        -77.90029356898596
                    ],
                    [
                        -84.65191795783994,
                        -77.91760207638958
                    ],
                    [
                        -84.62530124504208,
                        -77.9349404903634
                    ],
                    [
                        -84.59858484712903,
                        -77.95227822871634
                    ],
                    [
                        -84.57190706378162,
                        -77.9696189359655
                    ],
                    [
                        -84.54525373055914,
                        -77.98696509413298
                    ],
                    [
                        -84.51803571489377,
                        -78.00427751902158
                    ],
                    [
                        -84.48995311801808,
                        -78.021532705209
                    ],
                    [
                        -84.46060256284919,
                        -78.0386985611336
                    ],
                    [
                        -84.42984292637755,
                        -78.05576369896329
                    ],
                    [
                        -84.39783027842964,
                        -78.07273275544901
                    ],
                    [
                        -84.36448882380095,
                        -78.08959652968598
                    ],
                    [
                        -84.32975613101367,
                        -78.10634513087085
                    ],
                    [
                        -84.29381660550405,
                        -78.12299109273619
                    ],
                    [
                        -84.25652900283887,
                        -78.13951372748987
                    ],
                    [
                        -84.21824135071981,
                        -78.1559482154963
                    ],
                    [
                        -84.17940840742907,
                        -78.17233395111981
                    ],
                    [
                        -84.1403529392717,
                        -78.18870135543376
                    ],
                    [
                        -84.10155837600809,
                        -78.20510271482375
                    ],
                    [
                        -84.06326568445839,
                        -78.2215597508788
                    ],
                    [
                        -84.02527778977954,
                        -78.23804830345797
                    ],
                    [
                        -83.9873134474799,
                        -78.25454872538953
                    ],
                    [
                        -83.9493848474327,
                        -78.27105489791421
                    ],
                    [
                        -83.91112024548592,
                        -78.28753589487962
                    ],
                    [
                        -83.871999415921,
                        -78.3039390600495
                    ],
                    [
                        -83.83217427608112,
                        -78.32027935437468
                    ],
                    [
                        -83.79179391387885,
                        -78.33656991140779
                    ],
                    [
                        -83.75116220823404,
                        -78.35284110736701
                    ],
                    [
                        -83.71063175608283,
                        -78.36912821695284
                    ],
                    [
                        -83.67036673174034,
                        -78.38544780734343
                    ],
                    [
                        -83.63054851846249,
                        -78.4018196613199
                    ],
                    [
                        -83.59105978779957,
                        -78.41822756054135
                    ],
                    [
                        -83.55185640512771,
                        -78.43467064433617
                    ],
                    [
                        -83.5129593673706,
                        -78.45114584534815
                    ],
                    [
                        -83.4741755912683,
                        -78.46763970046796
                    ],
                    [
                        -83.43552803570364,
                        -78.48415280034527
                    ],
                    [
                        -83.39666505924468,
                        -78.50064957014521
                    ],
                    [
                        -83.35758725126036,
                        -78.51713548081283
                    ],
                    [
                        -83.31845153427683,
                        -78.53361689419089
                    ],
                    [
                        -83.2784700582809,
                        -78.55002673026392
                    ],
                    [
                        -83.23763858371018,
                        -78.56635911509896
                    ],
                    [
                        -83.19603784859375,
                        -78.58262118860276
                    ],
                    [
                        -83.15353053604774,
                        -78.59879750167232
                    ],
                    [
                        -83.1100356305757,
                        -78.61487846420661
                    ],
                    [
                        -83.06545572117989,
                        -78.6308503686286
                    ],
                    [
                        -83.01944925679003,
                        -78.64667151301079
                    ],
                    [
                        -82.97204250078394,
                        -78.66233738213147
                    ],
                    [
                        -82.92333583368027,
                        -78.67785995938206
                    ],
                    [
                        -82.8730102719638,
                        -78.69318952979465
                    ],
                    [
                        -82.8211443110239,
                        -78.70832823103065
                    ],
                    [
                        -82.76773608723173,
                        -78.72327255080583
                    ],
                    [
                        -82.71253967073763,
                        -78.73797516180863
                    ],
                    [
                        -82.65569510657461,
                        -78.75244604097007
                    ],
                    [
                        -82.59719622987954,
                        -78.76667497740348
                    ],
                    [
                        -82.53680828403647,
                        -78.78061278327537
                    ],
                    [
                        -82.47483108827494,
                        -78.79430103615753
                    ],
                    [
                        -82.41127622805024,
                        -78.80772622794693
                    ],
                    [
                        -82.34629867365776,
                        -78.82090156372071
                    ],
                    [
                        -82.28040022907163,
                        -78.83392952789777
                    ],
                    [
                        -82.21371691360861,
                        -78.84681132232836
                    ],
                    [
                        -82.14583232638675,
                        -78.85947551907852
                    ],
                    [
                        -82.07696679668824,
                        -78.87195948673755
                    ],
                    [
                        -82.00735215922599,
                        -78.88429833616372
                    ],
                    [
                        -81.93711130617079,
                        -78.89652625667341
                    ],
                    [
                        -81.86585808264796,
                        -78.90855023118222
                    ],
                    [
                        -81.79369355943163,
                        -78.92038895117271
                    ],
                    [
                        -81.7204402335779,
                        -78.93199810966348
                    ],
                    [
                        -81.64628002285569,
                        -78.94341062398476
                    ],
                    [
                        -81.57123960643318,
                        -78.95462382640936
                    ],
                    [
                        -81.49504561857795,
                        -78.96556928645634
                    ],
                    [
                        -81.41772764973973,
                        -78.97624788576269
                    ],
                    [
                        -81.33913356924867,
                        -78.98659801795571
                    ],
                    [
                        -81.25923762623015,
                        -78.99659479466044
                    ],
                    [
                        -81.17809836755036,
                        -79.00624160157251
                    ],
                    [
                        -81.09537594239468,
                        -79.01540807710248
                    ],
                    [
                        -81.01083125237936,
                        -79.02398025166524
                    ],
                    [
                        -80.92489963143733,
                        -79.03205641514128
                    ],
                    [
                        -80.83773545177328,
                        -79.03966391990966
                    ],
                    [
                        -80.74901540117241,
                        -79.04662138596491
                    ],
                    [
                        -80.65913570232487,
                        -79.0530467074507
                    ],
                    [
                        -80.56815937008797,
                        -79.05891832977186
                    ],
                    [
                        -80.47623496406165,
                        -79.06425167157782
                    ],
                    [
                        -80.38349647473247,
                        -79.06908960889307
                    ],
                    [
                        -80.28997413739792,
                        -79.07336724248964
                    ],
                    [
                        -80.19561425255334,
                        -79.07697520192865
                    ],
                    [
                        -80.1008715313834,
                        -79.08023285375612
                    ],
                    [
                        -80.00590202414297,
                        -79.08326522192311
                    ],
                    [
                        -79.91071015130589,
                        -79.08606281474412
                    ],
                    [
                        -79.8152947316786,
                        -79.08862242835589
                    ],
                    [
                        -79.71974719875168,
                        -79.09103860987449
                    ],
                    [
                        -79.62405068809993,
                        -79.09325118735168
                    ],
                    [
                        -79.52817165015911,
                        -79.0951891006946
                    ],
                    [
                        -79.43213685605652,
                        -79.09685196592397
                    ],
                    [
                        -79.33598014747767,
                        -79.09826196094468
                    ],
                    [
                        -79.23970414322223,
                        -79.09943742093782
                    ],
                    [
                        -79.1433455480312,
                        -79.10036728218624
                    ],
                    [
                        -79.04693017710649,
                        -79.10104196885126
                    ],
                    [
                        -78.95048117279876,
                        -79.10148342978046
                    ],
                    [
                        -78.85400255044219,
                        -79.1016887770163
                    ],
                    [
                        -78.75750750568801,
                        -79.1017447689535
                    ],
                    [
                        -78.66100250097672,
                        -79.10168592697434
                    ],
                    [
                        -78.56452390396514,
                        -79.10155448526415
                    ],
                    [
                        -78.46802573791496,
                        -79.10141288286758
                    ],
                    [
                        -78.37154355634506,
                        -79.10121031877615
                    ],
                    [
                        -78.27507202775992,
                        -79.1008990210529
                    ],
                    [
                        -78.17861059761081,
                        -79.10052641303636
                    ],
                    [
                        -78.08215801884965,
                        -79.10013902251805
                    ],
                    [
                        -77.985692321734,
                        -79.0997564877326
                    ],
                    [
                        -77.88924949831288,
                        -79.09937280453134
                    ],
                    [
                        -77.79279337855725,
                        -79.09897625276132
                    ],
                    [
                        -77.69635384050541,
                        -79.0985409647542
                    ],
                    [
                        -77.59993979656501,
                        -79.09800470190261
                    ],
                    [
                        -77.50354827066528,
                        -79.09731305653001
                    ],
                    [
                        -77.40719715000118,
                        -79.09648346699996
                    ],
                    [
                        -77.3109130378947,
                        -79.09546738859518
                    ],
                    [
                        -77.21472970845433,
                        -79.09416227964842
                    ],
                    [
                        -77.11871124638111,
                        -79.09249674574043
                    ],
                    [
                        -77.02297974373886,
                        -79.09034571604376
                    ],
                    [
                        -76.92756628311594,
                        -79.08777490550507
                    ],
                    [
                        -76.83258659240906,
                        -79.08471149135933
                    ],
                    [
                        -76.73826667691183,
                        -79.08100793573621
                    ],
                    [
                        -76.64453524657732,
                        -79.07684097048762
                    ],
                    [
                        -76.55144802119499,
                        -79.07219532546213
                    ],
                    [
                        -76.45951203882053,
                        -79.06681739058074
                    ],
                    [
                        -76.36878889563017,
                        -79.06078912996534
                    ],
                    [
                        -76.27922217995915,
                        -79.054174090023
                    ],
                    [
                        -76.19119239633123,
                        -79.04688338368197
                    ],
                    [
                        -76.10431742080209,
                        -79.03912717429368
                    ],
                    [
                        -76.01854094652651,
                        -79.03097481045373
                    ],
                    [
                        -75.93425335891796,
                        -79.02229314848074
                    ],
                    [
                        -75.85135558859686,
                        -79.0131610301937
                    ],
                    [
                        -75.76962394139701,
                        -79.00368230532546
                    ],
                    [
                        -75.68928932034027,
                        -78.9937954781743
                    ],
                    [
                        -75.61019477905282,
                        -78.98357091555522
                    ],
                    [
                        -75.53240878451297,
                        -78.97300898809266
                    ],
                    [
                        -75.45638653195394,
                        -78.96200590691032
                    ],
                    [
                        -75.38174921908605,
                        -78.95068149000195
                    ],
                    [
                        -75.30860125176538,
                        -78.93902302143857
                    ],
                    [
                        -75.23679887172877,
                        -78.92707323976018
                    ],
                    [
                        -75.16640260878377,
                        -78.91483987372034
                    ],
                    [
                        -75.09754823099806,
                        -78.9023006019236
                    ],
                    [
                        -75.03008202110786,
                        -78.88950044454471
                    ],
                    [
                        -74.96339281951357,
                        -78.87656635040409
                    ],
                    [
                        -74.89721095324583,
                        -78.8635480523656
                    ],
                    [
                        -74.83134076993348,
                        -78.85048757523373
                    ],
                    [
                        -74.76581940853217,
                        -78.8373757166288
                    ],
                    [
                        -74.70052177083183,
                        -78.82423535771069
                    ],
                    [
                        -74.63543548500671,
                        -78.81107163214415
                    ],
                    [
                        -74.57052050241877,
                        -78.79789196544897
                    ],
                    [
                        -74.50556223457205,
                        -78.78473407873216
                    ],
                    [
                        -74.44057767536492,
                        -78.77159598981919
                    ],
                    [
                        -74.37537291164254,
                        -78.75851441669671
                    ],
                    [
                        -74.30983133434282,
                        -78.74550930075269
                    ],
                    [
                        -74.24362255729802,
                        -78.73265121638238
                    ],
                    [
                        -74.17683819264002,
                        -78.7199229545149
                    ],
                    [
                        -74.10970650029856,
                        -78.70727993174806
                    ],
                    [
                        -74.04214973719897,
                        -78.6947383807789
                    ],
                    [
                        -73.97425299210016,
                        -78.68228569830931
                    ],
                    [
                        -73.90606362282917,
                        -78.66991197031419
                    ],
                    [
                        -73.83762396950748,
                        -78.6576041919833
                    ],
                    [
                        -73.7691763992313,
                        -78.6453152801375
                    ],
                    [
                        -73.70088673352936,
                        -78.63301106386012
                    ],
                    [
                        -73.63257952143582,
                        -78.62072516125482
                    ],
                    [
                        -73.56420433984248,
                        -78.6084716982581
                    ],
                    [
                        -73.49581343791338,
                        -78.59623464486845
                    ],
                    [
                        -73.4275552634064,
                        -78.58398846213329
                    ],
                    [
                        -73.35946243725442,
                        -78.57172087424266
                    ],
                    [
                        -73.29163903343596,
                        -78.5594105588589
                    ],
                    [
                        -73.2238686606796,
                        -78.54710850239621
                    ],
                    [
                        -73.15623597205996,
                        -78.53479028585443
                    ],
                    [
                        -73.08878166297633,
                        -78.52244795352875
                    ],
                    [
                        -73.02122701430652,
                        -78.51014469610271
                    ],
                    [
                        -72.9535997624704,
                        -78.49787448649971
                    ],
                    [
                        -72.88594982369506,
                        -78.48562314955963
                    ],
                    [
                        -72.81840843157374,
                        -78.47336726621202
                    ],
                    [
                        -72.7510082426388,
                        -78.46109173503207
                    ],
                    [
                        -72.68369917942343,
                        -78.44881640360248
                    ],
                    [
                        -72.61636067763006,
                        -78.43656334706918
                    ],
                    [
                        -72.54890905367606,
                        -78.42434920974719
                    ],
                    [
                        -72.48141628161109,
                        -78.41216411407186
                    ],
                    [
                        -72.41384639462855,
                        -78.40001240754545
                    ],
                    [
                        -72.34632699540947,
                        -78.38786106321223
                    ],
                    [
                        -72.27871717274665,
                        -78.37574788589345
                    ],
                    [
                        -72.21101523373929,
                        -78.36367650750813
                    ],
                    [
                        -72.1433259965409,
                        -78.35161345347039
                    ],
                    [
                        -72.07560416032867,
                        -78.3395720190816
                    ],
                    [
                        -72.00780034900163,
                        -78.32757381826926
                    ],
                    [
                        -71.93996286919597,
                        -78.3155912995339
                    ],
                    [
                        -71.87202272527755,
                        -78.30365817544869
                    ],
                    [
                        -71.80380806872508,
                        -78.29180126056906
                    ],
                    [
                        -71.73536791994265,
                        -78.28001883031448
                    ],
                    [
                        -71.66672269579232,
                        -78.26829769228526
                    ],
                    [
                        -71.59769507703615,
                        -78.25668808413394
                    ],
                    [
                        -71.52837043491688,
                        -78.24517152733097
                    ],
                    [
                        -71.45877056953789,
                        -78.23373968758241
                    ],
                    [
                        -71.38876008386741,
                        -78.22242823327863
                    ],
                    [
                        -71.31847806340397,
                        -78.21120897690062
                    ],
                    [
                        -71.2477944859616,
                        -78.20011406696412
                    ],
                    [
                        -71.17664698124779,
                        -78.18916293510966
                    ],
                    [
                        -71.10509247850412,
                        -78.1783371147657
                    ],
                    [
                        -71.03310228130135,
                        -78.16765260440349
                    ],
                    [
                        -70.96057762414657,
                        -78.15714452060529
                    ],
                    [
                        -70.88760362903844,
                        -78.14678580572372
                    ],
                    [
                        -70.81417841128821,
                        -78.13657892853747
                    ],
                    [
                        -70.74017937319068,
                        -78.12656978537636
                    ],
                    [
                        -70.66568810986116,
                        -78.11673882740308
                    ],
                    [
                        -70.59073224668703,
                        -78.10707907833122
                    ],
                    [
                        -70.51516777793685,
                        -78.09764545677228
                    ],
                    [
                        -70.43909531214356,
                        -78.08840440644957
                    ],
                    [
                        -70.36247902186287,
                        -78.07938008287621
                    ],
                    [
                        -70.2852498793582,
                        -78.07060192146281
                    ],
                    [
                        -70.207611186174,
                        -78.06200150704305
                    ],
                    [
                        -70.12955467667892,
                        -78.05358964635107
                    ],
                    [
                        -70.05094797430765,
                        -78.04542111522902
                    ],
                    [
                        -69.97198416511593,
                        -78.03742593221354
                    ],
                    [
                        -69.89263964801859,
                        -78.02961283188293
                    ],
                    [
                        -69.81291446979264,
                        -78.02199816409211
                    ],
                    [
                        -69.73289350032734,
                        -78.01453977454813
                    ],
                    [
                        -69.65256286695535,
                        -78.00724621056588
                    ],
                    [
                        -69.57191370564544,
                        -78.00013612684764
                    ],
                    [
                        -69.49104647350899,
                        -77.99315406885268
                    ],
                    [
                        -69.40997261502093,
                        -77.98629990534589
                    ],
                    [
                        -69.32862691611213,
                        -77.97961324407238
                    ],
                    [
                        -69.24712477165686,
                        -77.97303888271057
                    ],
                    [
                        -69.16546105568672,
                        -77.96657055905754
                    ],
                    [
                        -69.0836708554356,
                        -77.96019545027674
                    ],
                    [
                        -69.00180388032008,
                        -77.95388534514036
                    ],
                    [
                        -68.91985120827187,
                        -77.94764928545978
                    ],
                    [
                        -68.83780709204912,
                        -77.94149950769348
                    ],
                    [
                        -68.75564289649246,
                        -77.93543272995146
                    ],
                    [
                        -68.67340589832256,
                        -77.92944009448688
                    ],
                    [
                        -68.59106735385406,
                        -77.9235310039526
                    ],
                    [
                        -68.50866720453904,
                        -77.91769310489327
                    ],
                    [
                        -68.4262028742734,
                        -77.91191446716859
                    ],
                    [
                        -68.34366273309593,
                        -77.90620785053908
                    ],
                    [
                        -68.26108062177352,
                        -77.90055454055171
                    ],
                    [
                        -68.17843434721871,
                        -77.8949703540598
                    ],
                    [
                        -68.09569571790128,
                        -77.88946668275634
                    ],
                    [
                        -68.01291576102827,
                        -77.88401841710787
                    ],
                    [
                        -67.93008746324652,
                        -77.87863088813059
                    ],
                    [
                        -67.84717277480688,
                        -77.87332053819956
                    ],
                    [
                        -67.76423888061177,
                        -77.86805185520227
                    ],
                    [
                        -67.6812851944437,
                        -77.86281498103037
                    ],
                    [
                        -67.59831512817395,
                        -77.85762204656623
                    ],
                    [
                        -67.51532955570647,
                        -77.85246725854384
                    ],
                    [
                        -67.43234278224452,
                        -77.84733809961907
                    ],
                    [
                        -67.34938940449241,
                        -77.84221198814804
                    ],
                    [
                        -67.26646079724357,
                        -77.83709312083234
                    ],
                    [
                        -67.18355534473312,
                        -77.8319774249355
                    ],
                    [
                        -67.1007191892044,
                        -77.82683937471198
                    ],
                    [
                        -67.01795192648022,
                        -77.82167697027035
                    ],
                    [
                        -66.9352611432578,
                        -77.81648892448581
                    ],
                    [
                        -66.85267360369983,
                        -77.81125291633262
                    ],
                    [
                        -66.7701735678873,
                        -77.80597247391377
                    ],
                    [
                        -66.6877899577253,
                        -77.8006452668655
                    ],
                    [
                        -66.60552757890297,
                        -77.79525786502296
                    ],
                    [
                        -66.52340446842818,
                        -77.78980199753263
                    ],
                    [
                        -66.44143541352204,
                        -77.78427108407332
                    ],
                    [
                        -66.35959595045958,
                        -77.77867080987201
                    ],
                    [
                        -66.2779409044919,
                        -77.77298439039693
                    ],
                    [
                        -66.19643853453303,
                        -77.76721882055298
                    ],
                    [
                        -66.11510356574074,
                        -77.76137447984316
                    ],
                    [
                        -66.03392323053835,
                        -77.75545814176192
                    ],
                    [
                        -65.95290430898929,
                        -77.74946048709467
                    ],
                    [
                        -65.8721192170673,
                        -77.7433634639848
                    ],
                    [
                        -65.79148193906654,
                        -77.73719083128988
                    ],
                    [
                        -65.71101839332239,
                        -77.7309420710127
                    ],
                    [
                        -65.63073532697967,
                        -77.72461685124767
                    ],
                    [
                        -65.55060265371256,
                        -77.71822328384405
                    ],
                    [
                        -65.47065040759384,
                        -77.71175228705174
                    ],
                    [
                        -65.39091768952063,
                        -77.70519067673197
                    ],
                    [
                        -65.31137775687655,
                        -77.6985428821306
                    ],
                    [
                        -65.23209888213624,
                        -77.69177153046765
                    ],
                    [
                        -65.15325045344319,
                        -77.68480610951922
                    ],
                    [
                        -65.07489201773069,
                        -77.67761445109016
                    ],
                    [
                        -64.9969888447709,
                        -77.67022730820555
                    ],
                    [
                        -64.91949265978319,
                        -77.66266405818864
                    ],
                    [
                        -64.84226777146128,
                        -77.6549986269757
                    ],
                    [
                        -64.7653245275952,
                        -77.64722709580373
                    ],
                    [
                        -64.68871030352604,
                        -77.63933520560413
                    ],
                    [
                        -64.61233617668238,
                        -77.63135128330458
                    ],
                    [
                        -64.53622972242671,
                        -77.62327416625136
                    ],
                    [
                        -64.4603684051299,
                        -77.61511675464628
                    ],
                    [
                        -64.38480393369397,
                        -77.60685013687957
                    ],
                    [
                        -64.30950496826145,
                        -77.59849539324796
                    ],
                    [
                        -64.23447810808082,
                        -77.59005228579638
                    ],
                    [
                        -64.15970940913631,
                        -77.58152552292577
                    ],
                    [
                        -64.0852088613171,
                        -77.57290915552535
                    ],
                    [
                        -64.01099415579893,
                        -77.56419804262141
                    ],
                    [
                        -63.937083378043816,
                        -77.55539520107118
                    ],
                    [
                        -63.8634379555335,
                        -77.54650579245045
                    ],
                    [
                        -63.790116631181576,
                        -77.5375107938689
                    ],
                    [
                        -63.71708888649179,
                        -77.52843040910032
                    ],
                    [
                        -63.644353462238314,
                        -77.51925751778454
                    ],
                    [
                        -63.57195811075129,
                        -77.50998008931973
                    ],
                    [
                        -63.49983061666197,
                        -77.50062401754361
                    ],
                    [
                        -63.427992293053215,
                        -77.49118663352307
                    ],
                    [
                        -63.356455096432285,
                        -77.48165918445376
                    ],
                    [
                        -63.285212165364044,
                        -77.47205122969358
                    ],
                    [
                        -63.214247170782016,
                        -77.46236620837618
                    ],
                    [
                        -63.14357958756605,
                        -77.45259618778685
                    ],
                    [
                        -63.07321372686881,
                        -77.44274381370397
                    ],
                    [
                        -63.003146579340616,
                        -77.43280480656078
                    ],
                    [
                        -62.93338581668487,
                        -77.42279036434103
                    ],
                    [
                        -62.863941660077124,
                        -77.41269054022021
                    ],
                    [
                        -62.79477494387302,
                        -77.4025164342988
                    ],
                    [
                        -62.725950577067124,
                        -77.3922488703643
                    ],
                    [
                        -62.65745922144319,
                        -77.38189822108849
                    ],
                    [
                        -62.58930747429343,
                        -77.37145618382837
                    ],
                    [
                        -62.52152803760042,
                        -77.36091536670725
                    ],
                    [
                        -62.45407347174742,
                        -77.3502961838113
                    ],
                    [
                        -62.38694078657393,
                        -77.3395943583097
                    ],
                    [
                        -62.32013003296606,
                        -77.32881416644872
                    ],
                    [
                        -62.253588697674154,
                        -77.3179661554607
                    ],
                    [
                        -62.187306209088526,
                        -77.30706671457865
                    ],
                    [
                        -62.12127208043108,
                        -77.29611065829526
                    ],
                    [
                        -62.05538951885309,
                        -77.28512284748389
                    ],
                    [
                        -61.98969591204652,
                        -77.27409949481157
                    ],
                    [
                        -61.92421064445524,
                        -77.26303267768455
                    ],
                    [
                        -61.858931818287886,
                        -77.25192331509643
                    ],
                    [
                        -61.79385504773988,
                        -77.24077719078869
                    ],
                    [
                        -61.72902563739591,
                        -77.22957192891283
                    ],
                    [
                        -61.66445822565322,
                        -77.21830940257422
                    ],
                    [
                        -61.60014509875732,
                        -77.20699296848254
                    ],
                    [
                        -61.53615096337894,
                        -77.19560778974518
                    ],
                    [
                        -61.472448133842654,
                        -77.18415588857256
                    ],
                    [
                        -61.40901355994023,
                        -77.17264499192618
                    ],
                    [
                        -61.345928668887005,
                        -77.16105923486877
                    ],
                    [
                        -61.283125594893384,
                        -77.14941129101557
                    ],
                    [
                        -61.220606730241805,
                        -77.13769850018616
                    ],
                    [
                        -61.158437064603035,
                        -77.12591550288343
                    ],
                    [
                        -61.0965411348289,
                        -77.11407607197307
                    ],
                    [
                        -61.034898001777016,
                        -77.10218505563829
                    ],
                    [
                        -60.97355108451461,
                        -77.09023446924469
                    ],
                    [
                        -60.91244899406832,
                        -77.07823578519874
                    ],
                    [
                        -60.85154624398385,
                        -77.06619804335588
                    ],
                    [
                        -60.79087942789559,
                        -77.05411969249501
                    ],
                    [
                        -60.73025129127094,
                        -77.04204069742667
                    ],
                    [
                        -60.669622675054896,
                        -77.02998219514537
                    ],
                    [
                        -60.60912510579101,
                        -77.01790449504165
                    ],
                    [
                        -60.54884511214145,
                        -77.00578421125344
                    ],
                    [
                        -60.48883399522077,
                        -76.99361025150442
                    ],
                    [
                        -60.429275791063354,
                        -76.981344647443
                    ],
                    [
                        -60.37003315994656,
                        -76.96901085915889
                    ],
                    [
                        -60.310994342264934,
                        -76.95663863617838
                    ],
                    [
                        -60.25208138610005,
                        -76.94425153330302
                    ],
                    [
                        -60.193265129208285,
                        -76.93185737204229
                    ],
                    [
                        -60.13462671142256,
                        -76.91943322203572
                    ],
                    [
                        -60.07618840329196,
                        -76.90697580407851
                    ],
                    [
                        -60.01794655010064,
                        -76.89448476642036
                    ],
                    [
                        -59.95991701224175,
                        -76.88195391479613
                    ],
                    [
                        -59.90216689121277,
                        -76.8693733089521
                    ],
                    [
                        -59.84467068274824,
                        -76.85674396687597
                    ],
                    [
                        -59.787415620304714,
                        -76.84407276790871
                    ],
                    [
                        -59.73043652602364,
                        -76.83134977018182
                    ],
                    [
                        -59.67364679467841,
                        -76.81859623134625
                    ],
                    [
                        -59.61706977964775,
                        -76.80580486528459
                    ],
                    [
                        -59.560732506535984,
                        -76.79297416609951
                    ],
                    [
                        -59.504602707539924,
                        -76.7801041653446
                    ],
                    [
                        -59.44869747846958,
                        -76.76720257597935
                    ],
                    [
                        -59.39302102861528,
                        -76.75426062556873
                    ],
                    [
                        -59.337528471654906,
                        -76.74128503202303
                    ],
                    [
                        -59.282236006123966,
                        -76.72828023096285
                    ],
                    [
                        -59.227162932490394,
                        -76.71524054138061
                    ],
                    [
                        -59.172285310327204,
                        -76.7021681138637
                    ],
                    [
                        -59.11762319948649,
                        -76.6890605448527
                    ],
                    [
                        -59.06316824518222,
                        -76.67592106041054
                    ],
                    [
                        -59.00891613551898,
                        -76.662746024178
                    ],
                    [
                        -58.954869993762784,
                        -76.64954130209244
                    ],
                    [
                        -58.901018095614894,
                        -76.6363043413769
                    ],
                    [
                        -58.84737028490874,
                        -76.62303664607468
                    ],
                    [
                        -58.79391012355329,
                        -76.60973923543476
                    ],
                    [
                        -58.74063808083391,
                        -76.59641017469424
                    ],
                    [
                        -58.68755568508872,
                        -76.58305937001977
                    ],
                    [
                        -58.63463327453487,
                        -76.56968063266082
                    ],
                    [
                        -58.581933043437886,
                        -76.55627118928226
                    ],
                    [
                        -58.52938083753169,
                        -76.54283660665078
                    ],
                    [
                        -58.476997152997285,
                        -76.52937777381952
                    ],
                    [
                        -58.424798310965116,
                        -76.51589714462037
                    ],
                    [
                        -58.37274804312872,
                        -76.50239283904311
                    ],
                    [
                        -58.320852750283976,
                        -76.48886587419386
                    ],
                    [
                        -58.26915036954198,
                        -76.47531223153938
                    ],
                    [
                        -58.21762048577867,
                        -76.46173442728
                    ],
                    [
                        -58.16626361150808,
                        -76.44813051774915
                    ],
                    [
                        -58.115085252847145,
                        -76.4345035625368
                    ],
                    [
                        -58.0640715436482,
                        -76.42084844979215
                    ],
                    [
                        -58.01323701278545,
                        -76.40717170027979
                    ],
                    [
                        -57.96260383618576,
                        -76.39346492934932
                    ],
                    [
                        -57.91217131394286,
                        -76.37972496088781
                    ],
                    [
                        -57.861915804425,
                        -76.36596236800996
                    ],
                    [
                        -57.811895081431885,
                        -76.35216226179882
                    ],
                    [
                        -57.76205976378057,
                        -76.3383346242347
                    ],
                    [
                        -57.712435691508546,
                        -76.32447485589324
                    ],
                    [
                        -57.663013469697475,
                        -76.31058814605099
                    ],
                    [
                        -57.61377127999484,
                        -76.29667243906616
                    ],
                    [
                        -57.5647197183801,
                        -76.28273053045531
                    ],
                    [
                        -57.51585962165917,
                        -76.26876376138836
                    ],
                    [
                        -57.467177758423524,
                        -76.25477026746118
                    ],
                    [
                        -57.41865918869588,
                        -76.24075221068011
                    ],
                    [
                        -57.370323151448346,
                        -76.22671587049479
                    ],
                    [
                        -57.322120274523876,
                        -76.21265599610295
                    ],
                    [
                        -57.27406476842867,
                        -76.19858240089978
                    ],
                    [
                        -57.22619217399617,
                        -76.1844801548542
                    ],
                    [
                        -57.178468151000175,
                        -76.17036028888722
                    ],
                    [
                        -57.130917478833915,
                        -76.15622026087733
                    ],
                    [
                        -57.08353513308048,
                        -76.14205185534128
                    ],
                    [
                        -57.03634119348098,
                        -76.12786263543869
                    ],
                    [
                        -56.98930990734825,
                        -76.11364873103732
                    ],
                    [
                        -56.942477414434826,
                        -76.09940508162681
                    ],
                    [
                        -56.89581247396417,
                        -76.08514318026538
                    ],
                    [
                        -56.84930925368468,
                        -76.07085681960434
                    ],
                    [
                        -56.80299473040092,
                        -76.05654928373757
                    ],
                    [
                        -56.756878599443766,
                        -76.0422103203525
                    ],
                    [
                        -56.71097103000016,
                        -76.02784277056274
                    ],
                    [
                        -56.665304707357215,
                        -76.0134378738152
                    ],
                    [
                        -56.61989074891269,
                        -75.99899975662537
                    ],
                    [
                        -56.57467679061884,
                        -75.98453111447627
                    ],
                    [
                        -56.52965422962937,
                        -75.9700350650572
                    ],
                    [
                        -56.48479378350367,
                        -75.95551901153983
                    ],
                    [
                        -56.44008581397208,
                        -75.94098478807243
                    ],
                    [
                        -56.395523804344904,
                        -75.92643472332244
                    ],
                    [
                        -56.35099983600072,
                        -75.9118851830463
                    ],
                    [
                        -56.306568656973866,
                        -75.89732767402053
                    ],
                    [
                        -56.26223003077367,
                        -75.88276222370125
                    ],
                    [
                        -56.21798372145027,
                        -75.86818885944902
                    ],
                    [
                        -56.17382949359483,
                        -75.8536076085292
                    ],
                    [
                        -56.129767112339906,
                        -75.83901849811228
                    ],
                    [
                        -56.08579634335954,
                        -75.82442155527418
                    ],
                    [
                        -56.04191695286955,
                        -75.80981680699666
                    ],
                    [
                        -55.99812870762763,
                        -75.79520428016755
                    ],
                    [
                        -55.954431374933584,
                        -75.78058400158119
                    ],
                    [
                        -55.91082472262941,
                        -75.7659559979387
                    ],
                    [
                        -55.867308519099446,
                        -75.7513202958483
                    ],
                    [
                        -55.823882533270485,
                        -75.7366769218257
                    ],
                    [
                        -55.78054653461182,
                        -75.72202590229439
                    ],
                    [
                        -55.73730029313533,
                        -75.70736726358594
                    ],
                    [
                        -55.694143579395515,
                        -75.6927010319404
                    ],
                    [
                        -55.65107616448957,
                        -75.6780272335066
                    ],
                    [
                        -55.60809782005729,
                        -75.66334589434243
                    ],
                    [
                        -55.56520831828119,
                        -75.64865704041524
                    ],
                    [
                        -55.52240743188636,
                        -75.63396069760212
                    ]
                ]
            }
        }
    ]
}
