{
    "type": "FeatureCollection",
    "features": [
        {
            "type": "Feature",
            "properties": {
                "name": "Greenland Glacier 0077",
                "object": "transect",
                "component": "landice",
                "author": "Matthew Hoffman, converted from Felikson et al. (2020) Zenodo dataset",
                "tags": "Greenland_Ice_Sheet;flowline;zenodo_4284759;glacier_0077",
                "citation": "Felikson, Denis, Catania, Ginny, Bartholomaus, Timothy, Morlighem, Mathieu, & No\u00ebl, Brice. (2020). Inland limits to diffusion of thinning along Greenland Ice Sheet outlet glaciers (v1.0) [Data set]. Zenodo. https://doi.org/10.5281/zenodo.4284759",
                "license": "CC-BY-4.0"
            },
            "geometry": {
                "type": "LineString",
                "coordinates": [
                    [
                        -67.57208135051049,
                        76.93777927352764
                    ],
                    [
                        -67.56665150647505,
                        76.94075762886234
                    ],
                    [
                        -67.57921824977457,
                        76.94165296054848
                    ],
                    [
                        -67.58052228080629,
                        76.93906201399237
                    ],
                    [
                        -67.57043203390728,
                        76.9395124480034
                    ],
                    [
                        -67.57310718878881,
                        76.94172931470919
                    ],
                    [
                        -67.58235162949052,
                        76.94081821760409
                    ],
                    [
                        -67.5779775027227,
                        76.93876103567958
                    ],
                    [
                        -67.56892899787744,
                        76.93977790652926
                    ],
                    [
                        -67.57533144428594,
                        76.94164455685664
                    ],
                    [
                        -67.58336851584676,
                        76.94007734006725
                    ],
                    [
                        -67.57574429647516,
                        76.93832570648564
                    ],
                    [
                        -67.56576704962818,
                        76.9388372015757
                    ],
                    [
                        -67.56437048673502,
                        76.94143648650406
                    ],
                    [
                        -67.57141103192657,
                        76.94324333136288
                    ],
                    [
                        -67.57998578808123,
                        76.94490601136863
                    ],
                    [
                        -67.58745321646835,
                        76.946672694436
                    ],
                    [
                        -67.59786091657281,
                        76.94816291190419
                    ],
                    [
                        -67.61036209870342,
                        76.94901607870801
                    ],
                    [
                        -67.61956662038467,
                        76.9480805679273
                    ],
                    [
                        -67.62830469610114,
                        76.94689263234265
                    ],
                    [
                        -67.63511243593547,
                        76.94465926837493
                    ],
                    [
                        -67.64232079355253,
                        76.94264406689948
                    ],
                    [
                        -67.64966316551865,
                        76.94070247894368
                    ],
                    [
                        -67.65710749876497,
                        76.93881709763974
                    ],
                    [
                        -67.66347674695672,
                        76.93635054155955
                    ],
                    [
                        -67.67174577908571,
                        76.9349136749846
                    ],
                    [
                        -67.68247525563963,
                        76.93480893918331
                    ],
                    [
                        -67.69363887165456,
                        76.93493861384152
                    ],
                    [
                        -67.70375565920897,
                        76.93450187949625
                    ],
                    [
                        -67.7127994415586,
                        76.93348537873419
                    ],
                    [
                        -67.72157674681318,
                        76.93232539344217
                    ],
                    [
                        -67.73044026716796,
                        76.93121250622342
                    ],
                    [
                        -67.73968652918799,
                        76.93030671426011
                    ],
                    [
                        -67.74930935367743,
                        76.92960444483587
                    ],
                    [
                        -67.75833531157778,
                        76.92858048613788
                    ],
                    [
                        -67.76555073575143,
                        76.92658081585303
                    ],
                    [
                        -67.77212640755734,
                        76.92423725300311
                    ],
                    [
                        -67.77945460612597,
                        76.92230044186432
                    ],
                    [
                        -67.7872737300073,
                        76.92062915536874
                    ],
                    [
                        -67.79529504136224,
                        76.91906764180698
                    ],
                    [
                        -67.80345964455998,
                        76.91758409136203
                    ],
                    [
                        -67.81124788626535,
                        76.91589864645763
                    ],
                    [
                        -67.81871302145484,
                        76.91404012803669
                    ],
                    [
                        -67.82643980919153,
                        76.91232336312152
                    ],
                    [
                        -67.83430387655469,
                        76.91068132928342
                    ],
                    [
                        -67.84222395721802,
                        76.90907025549198
                    ],
                    [
                        -67.85020097060494,
                        76.90749061119115
                    ],
                    [
                        -67.8577756397072,
                        76.9056954590825
                    ],
                    [
                        -67.86484627530177,
                        76.90363029084902
                    ],
                    [
                        -67.8706682066745,
                        76.90089503030411
                    ],
                    [
                        -67.87547016511672,
                        76.89796223873351
                    ],
                    [
                        -67.8807540697128,
                        76.89498303344509
                    ],
                    [
                        -67.88620615643026,
                        76.89205257203636
                    ],
                    [
                        -67.89077083170629,
                        76.88914162069348
                    ],
                    [
                        -67.89630459302168,
                        76.8862573970323
                    ],
                    [
                        -67.90220486644644,
                        76.8835713349692
                    ],
                    [
                        -67.90836387008282,
                        76.88102547287234
                    ],
                    [
                        -67.91445913525646,
                        76.87844652543924
                    ],
                    [
                        -67.92048703262797,
                        76.87583255266983
                    ],
                    [
                        -67.92611982242644,
                        76.87300752175157
                    ],
                    [
                        -67.93032629630004,
                        76.87012889143385
                    ],
                    [
                        -67.93330671720098,
                        76.86736793515921
                    ],
                    [
                        -67.93568825774952,
                        76.86466444726398
                    ],
                    [
                        -67.93746234936809,
                        76.86201930720611
                    ],
                    [
                        -67.93917347032776,
                        76.8593801597623
                    ],
                    [
                        -67.94061608130212,
                        76.85676679848727
                    ],
                    [
                        -67.9412289386348,
                        76.85423329053098
                    ],
                    [
                        -67.94075500245152,
                        76.85180444455244
                    ],
                    [
                        -67.93932463792515,
                        76.8494677533874
                    ],
                    [
                        -67.93799635838589,
                        76.84712127996126
                    ],
                    [
                        -67.93623704983719,
                        76.84481638237452
                    ],
                    [
                        -67.93413183699512,
                        76.84254486990713
                    ],
                    [
                        -67.9318886508454,
                        76.8402867146247
                    ],
                    [
                        -67.9295692283095,
                        76.8380359700358
                    ],
                    [
                        -67.92676729898989,
                        76.8358317864319
                    ],
                    [
                        -67.92333947756457,
                        76.83368798446583
                    ],
                    [
                        -67.91941511958412,
                        76.83159209862072
                    ],
                    [
                        -67.91514429956605,
                        76.82952966400963
                    ],
                    [
                        -67.91075036296988,
                        76.82747915688023
                    ],
                    [
                        -67.90636924561541,
                        76.82542747898535
                    ],
                    [
                        -67.90251076161036,
                        76.82332551711544
                    ],
                    [
                        -67.8995035977782,
                        76.82114161090534
                    ],
                    [
                        -67.89711077501869,
                        76.81889858787582
                    ],
                    [
                        -67.89482565918192,
                        76.81664525348135
                    ],
                    [
                        -67.89237420026653,
                        76.81440801189393
                    ],
                    [
                        -67.88968655013102,
                        76.81219359575267
                    ],
                    [
                        -67.8872309510921,
                        76.80995688738632
                    ],
                    [
                        -67.88568703727944,
                        76.8076323878176
                    ],
                    [
                        -67.88502070971171,
                        76.80522335784997
                    ],
                    [
                        -67.88432481065006,
                        76.80281721169119
                    ],
                    [
                        -67.88346717351271,
                        76.80042669312242
                    ],
                    [
                        -67.88248676895823,
                        76.79804805078163
                    ],
                    [
                        -67.88167566761943,
                        76.7956531227228
                    ],
                    [
                        -67.88076058038708,
                        76.793268261365
                    ],
                    [
                        -67.87984068137159,
                        76.79088390401968
                    ],
                    [
                        -67.8789302011564,
                        76.78849867795196
                    ],
                    [
                        -67.8780769904832,
                        76.78610796569541
                    ],
                    [
                        -67.87741231138236,
                        76.78369909772968
                    ],
                    [
                        -67.8768745735137,
                        76.78127801068148
                    ],
                    [
                        -67.8763157484249,
                        76.77885898866877
                    ],
                    [
                        -67.8756483254228,
                        76.77645048160072
                    ],
                    [
                        -67.87480547481925,
                        76.774058947232
                    ],
                    [
                        -67.87384521578733,
                        76.77167878940415
                    ],
                    [
                        -67.87275837117996,
                        76.7693108989179
                    ],
                    [
                        -67.87143458256669,
                        76.76696594048741
                    ],
                    [
                        -67.86971969066215,
                        76.7646588141672
                    ],
                    [
                        -67.86744608533753,
                        76.76240572276228
                    ],
                    [
                        -67.86443420872449,
                        76.76022402281346
                    ],
                    [
                        -67.86052273192912,
                        76.75812930325783
                    ],
                    [
                        -67.85562134348447,
                        76.75613027891312
                    ],
                    [
                        -67.84997377864657,
                        76.75420338238399
                    ],
                    [
                        -67.84427926062112,
                        76.75228105998805
                    ],
                    [
                        -67.83929576254344,
                        76.75029011838222
                    ],
                    [
                        -67.83551421390459,
                        76.74818317299945
                    ],
                    [
                        -67.8334119827802,
                        76.74591413591381
                    ],
                    [
                        -67.83358534008894,
                        76.74342538449012
                    ],
                    [
                        -67.83670587494595,
                        76.74065190314788
                    ],
                    [
                        -67.8424660362095,
                        76.73792062298914
                    ],
                    [
                        -67.84909674591384,
                        76.73566474458792
                    ],
                    [
                        -67.85617292002794,
                        76.73365254593247
                    ],
                    [
                        -67.86336305175575,
                        76.73170338284187
                    ],
                    [
                        -67.87051928946354,
                        76.72973672861224
                    ],
                    [
                        -67.87754470469208,
                        76.7276998376575
                    ],
                    [
                        -67.88434404603909,
                        76.725540915723
                    ],
                    [
                        -67.89096565873147,
                        76.723286329769
                    ],
                    [
                        -67.89798890959663,
                        76.72125130532643
                    ],
                    [
                        -67.90570030904334,
                        76.71959153906035
                    ],
                    [
                        -67.91394130667757,
                        76.7182205438064
                    ],
                    [
                        -67.92258912298705,
                        76.71707132789655
                    ],
                    [
                        -67.93158990658951,
                        76.71611440969907
                    ],
                    [
                        -67.94092764178296,
                        76.71534087929446
                    ],
                    [
                        -67.94092764178296,
                        76.71534087929446
                    ],
                    [
                        -67.95026427995634,
                        76.71456700028007
                    ],
                    [
                        -67.95988002241532,
                        76.71394482715209
                    ],
                    [
                        -67.96962451825212,
                        76.7133926154008
                    ],
                    [
                        -67.97928706237272,
                        76.71279603322256
                    ],
                    [
                        -67.98873801812424,
                        76.71208487839534
                    ],
                    [
                        -67.99807445820039,
                        76.71131188003723
                    ],
                    [
                        -68.00744286042281,
                        76.71055643521588
                    ],
                    [
                        -68.01682676880782,
                        76.70980961479007
                    ],
                    [
                        -68.09153523172607,
                        76.70373882822805
                    ],
                    [
                        -68.16617478775464,
                        76.69764572298449
                    ],
                    [
                        -68.24074527920122,
                        76.69153033091163
                    ],
                    [
                        -68.31524654960118,
                        76.68539268392011
                    ],
                    [
                        -68.38967844371646,
                        76.67923281397833
                    ],
                    [
                        -68.46404080753466,
                        76.67305075311171
                    ],
                    [
                        -68.5383334882679,
                        76.66684653340211
                    ],
                    [
                        -68.61255633435182,
                        76.66062018698709
                    ],
                    [
                        -68.68670919544442,
                        76.6543717460593
                    ],
                    [
                        -68.76079192242481,
                        76.64810124286576
                    ],
                    [
                        -68.83480436739208,
                        76.64180870970732
                    ],
                    [
                        -68.90874638366407,
                        76.63549417893783
                    ],
                    [
                        -68.9826178257759,
                        76.6291576829636
                    ],
                    [
                        -69.05641854947883,
                        76.62279925424271
                    ],
                    [
                        -69.13014841173883,
                        76.61641892528435
                    ],
                    [
                        -69.20380727073508,
                        76.61001672864822
                    ],
                    [
                        -69.2773949858586,
                        76.60359269694374
                    ],
                    [
                        -69.35091141771075,
                        76.59714686282956
                    ],
                    [
                        -69.42435642810163,
                        76.5906792590128
                    ],
                    [
                        -69.49772988004864,
                        76.58418991824847
                    ]
                ]
            }
        }
    ]
}
