{
    "type": "FeatureCollection",
    "features": [
        {
            "type": "Feature",
            "properties": {
                "name": "Kamb",
                "object": "transect",
                "component": "landice",
                "author": "Matthew Hoffman, converted from https://github.com/yuwang115/sl-ice",
                "tags": "Antarctic_Ice_Sheet;flowline;sl-ice;kamb"
            },
            "geometry": {
                "type": "LineString",
                "coordinates": [
                    [
                        -112.46061487169864,
                        -81.39916745013679
                    ],
                    [
                        -112.47610253960116,
                        -81.41732611375284
                    ],
                    [
                        -112.4941597541269,
                        -81.43543518226274
                    ],
                    [
                        -112.51517852289766,
                        -81.45347608639813
                    ],
                    [
                        -112.53958861898332,
                        -81.47142103308462
                    ],
                    [
                        -112.56759877516413,
                        -81.48925285509377
                    ],
                    [
                        -112.59956634129176,
                        -81.50694219728219
                    ],
                    [
                        -112.6346660867095,
                        -81.52450452601114
                    ],
                    [
                        -112.67011121239051,
                        -81.54205578912574
                    ],
                    [
                        -112.70556135518508,
                        -81.55961098737545
                    ],
                    [
                        -112.73982068057506,
                        -81.57721875287864
                    ],
                    [
                        -112.77150782047788,
                        -81.5949329913271
                    ],
                    [
                        -112.80143681209749,
                        -81.61271839967795
                    ],
                    [
                        -112.83112791759085,
                        -81.63051238621894
                    ],
                    [
                        -112.86163321750911,
                        -81.64827732447927
                    ],
                    [
                        -112.8944059598797,
                        -81.66596413498488
                    ],
                    [
                        -112.93187733664737,
                        -81.68345413786972
                    ],
                    [
                        -112.97336451629108,
                        -81.7007576252178
                    ],
                    [
                        -113.01889113108679,
                        -81.7178573552374
                    ],
                    [
                        -113.06899759576478,
                        -81.73469332213037
                    ],
                    [
                        -113.12159602876413,
                        -81.75137524475805
                    ],
                    [
                        -113.17711864537152,
                        -81.76787044317953
                    ],
                    [
                        -113.23654570892805,
                        -81.784088531406
                    ],
                    [
                        -113.30185062631027,
                        -81.79985377362834
                    ],
                    [
                        -113.37231609018225,
                        -81.81517098539904
                    ],
                    [
                        -113.44542510346436,
                        -81.83024963192933
                    ],
                    [
                        -113.51664644886483,
                        -81.84552043754478
                    ],
                    [
                        -113.58770707300434,
                        -81.86081841474218
                    ],
                    [
                        -113.6654091990463,
                        -81.87547144185716
                    ],
                    [
                        -113.73569489088824,
                        -81.89085058250765
                    ],
                    [
                        -113.79798806350387,
                        -81.90692405521023
                    ],
                    [
                        -113.86775168703137,
                        -81.92239105505192
                    ],
                    [
                        -113.9416152028508,
                        -81.93749249530505
                    ],
                    [
                        -114.01686864775485,
                        -81.95247332061506
                    ],
                    [
                        -114.09263472192896,
                        -81.96741403170499
                    ],
                    [
                        -114.1624794243362,
                        -81.9829160374544
                    ],
                    [
                        -114.22496747923336,
                        -81.99902894719236
                    ],
                    [
                        -114.29348479302885,
                        -82.01464380011302
                    ],
                    [
                        -114.37311128603172,
                        -82.02925888571838
                    ],
                    [
                        -114.44722471299485,
                        -82.04441950294681
                    ],
                    [
                        -114.52225882497378,
                        -82.05949067236809
                    ],
                    [
                        -114.61286868189372,
                        -82.07283816046099
                    ],
                    [
                        -114.71164475831146,
                        -82.08509922071471
                    ],
                    [
                        -114.81258834623624,
                        -82.09702789623744
                    ],
                    [
                        -114.92238749892257,
                        -82.1073886738338
                    ],
                    [
                        -115.04062673618768,
                        -82.11586458254082
                    ],
                    [
                        -115.16267114332754,
                        -82.1233172571362
                    ],
                    [
                        -115.28232734575697,
                        -82.13150661472584
                    ],
                    [
                        -115.40229030519485,
                        -82.13963979175932
                    ],
                    [
                        -115.52611313467168,
                        -82.14665419592339
                    ],
                    [
                        -115.65192262565446,
                        -82.15301214809824
                    ],
                    [
                        -115.7777677265636,
                        -82.15939433706787
                    ],
                    [
                        -115.90294371058268,
                        -82.16605131750696
                    ],
                    [
                        -116.02714918027601,
                        -82.17308009046774
                    ],
                    [
                        -116.15064667284793,
                        -82.18037122101799
                    ],
                    [
                        -116.27270437776474,
                        -82.18812243120799
                    ],
                    [
                        -116.39251790526096,
                        -82.19654086261073
                    ],
                    [
                        -116.51202158061469,
                        -82.2050661702699
                    ],
                    [
                        -116.63264720072019,
                        -82.21333830819013
                    ],
                    [
                        -116.7529579872843,
                        -82.22172381584683
                    ],
                    [
                        -116.87510554786223,
                        -82.22964247182256
                    ],
                    [
                        -116.99928086676113,
                        -82.23699627379224
                    ],
                    [
                        -117.1268554972551,
                        -82.24322394298385
                    ],
                    [
                        -117.258388641923,
                        -82.24773095611094
                    ],
                    [
                        -117.39239779777272,
                        -82.25075825414584
                    ],
                    [
                        -117.52581467300901,
                        -82.25422928571672
                    ],
                    [
                        -117.65860603675662,
                        -82.2581775939811
                    ],
                    [
                        -117.79038536554117,
                        -82.26271895828073
                    ],
                    [
                        -117.91967199419274,
                        -82.26844947714523
                    ],
                    [
                        -118.04630338184279,
                        -82.27520746612481
                    ],
                    [
                        -118.1643334841897,
                        -82.28438556300918
                    ],
                    [
                        -118.27784713503178,
                        -82.29456709624672
                    ],
                    [
                        -118.39163165148655,
                        -82.30473421795084
                    ],
                    [
                        -118.50547306647876,
                        -82.31492224984565
                    ],
                    [
                        -118.62051161243231,
                        -82.32488959602607
                    ],
                    [
                        -118.73823065700397,
                        -82.33432273985136
                    ],
                    [
                        -118.85662378331567,
                        -82.34363791721948
                    ],
                    [
                        -118.97550540415692,
                        -82.35287960518274
                    ],
                    [
                        -119.09450439871908,
                        -82.36211368747783
                    ],
                    [
                        -119.21358650432269,
                        -82.37137322293904
                    ],
                    [
                        -119.3351449414789,
                        -82.38007953631747
                    ],
                    [
                        -119.45625616023261,
                        -82.38892066150017
                    ],
                    [
                        -119.57754138423795,
                        -82.39775285033792
                    ],
                    [
                        -119.70301290320805,
                        -82.40552451495785
                    ],
                    [
                        -119.83262913979587,
                        -82.41204000458328
                    ],
                    [
                        -119.96549497994555,
                        -82.41734705609828
                    ],
                    [
                        -120.10173360217556,
                        -82.42078918958009
                    ],
                    [
                        -120.23993463777728,
                        -82.42268824129137
                    ],
                    [
                        -120.3786303820252,
                        -82.42387615047598
                    ],
                    [
                        -120.51760540443036,
                        -82.42414497069083
                    ],
                    [
                        -120.65656882606058,
                        -82.42370507307321
                    ],
                    [
                        -120.79518817637162,
                        -82.42238755437624
                    ],
                    [
                        -120.93316588518117,
                        -82.42021253434355
                    ],
                    [
                        -121.07074328141265,
                        -82.41767675901382
                    ],
                    [
                        -121.2081951367864,
                        -82.41504966118087
                    ],
                    [
                        -121.34547148834805,
                        -82.41231784024153
                    ],
                    [
                        -121.48278269630505,
                        -82.40966821066884
                    ],
                    [
                        -121.62023590922907,
                        -82.40719249090546
                    ],
                    [
                        -121.75771999707882,
                        -82.40477754085366
                    ],
                    [
                        -121.89550588874958,
                        -82.40276618915559
                    ],
                    [
                        -122.03401839270592,
                        -82.40244051727072
                    ],
                    [
                        -122.17224759715162,
                        -82.40372802125046
                    ],
                    [
                        -122.3092992425773,
                        -82.40647149027215
                    ],
                    [
                        -122.44635003762032,
                        -82.40930811187197
                    ],
                    [
                        -122.58378463603846,
                        -82.4118328814578
                    ],
                    [
                        -122.72149027033863,
                        -82.41414085593722
                    ],
                    [
                        -122.85907971203723,
                        -82.4166075982413
                    ],
                    [
                        -122.99654627287674,
                        -82.41924009649212
                    ],
                    [
                        -123.13405026458796,
                        -82.42187779036756
                    ],
                    [
                        -123.27177539065062,
                        -82.42435690550913
                    ],
                    [
                        -123.40952667452798,
                        -82.42683958860343
                    ],
                    [
                        -123.5471316861689,
                        -82.42952026071191
                    ],
                    [
                        -123.68428521943386,
                        -82.4326174541896
                    ],
                    [
                        -123.82084863319483,
                        -82.43616575398279
                    ],
                    [
                        -123.95673839396976,
                        -82.44017092018362
                    ],
                    [
                        -124.0923360621306,
                        -82.44440707274823
                    ],
                    [
                        -124.22783522841215,
                        -82.44872536145928
                    ],
                    [
                        -124.36334011803073,
                        -82.45308817181503
                    ],
                    [
                        -124.49945480943539,
                        -82.45715887464654
                    ],
                    [
                        -124.63595730039106,
                        -82.46102487951495
                    ],
                    [
                        -124.77259786800954,
                        -82.46486395231197
                    ],
                    [
                        -124.90950303686284,
                        -82.46858617341826
                    ],
                    [
                        -125.0464952272697,
                        -82.4722900453427
                    ],
                    [
                        -125.18374000683043,
                        -82.47586156830708
                    ],
                    [
                        -125.32134498816139,
                        -82.47925182393175
                    ],
                    [
                        -125.45920516305489,
                        -82.48248076023694
                    ],
                    [
                        -125.59742892591436,
                        -82.48550800920268
                    ],
                    [
                        -125.73620646884318,
                        -82.48810442793449
                    ],
                    [
                        -125.8754714844666,
                        -82.49023974213998
                    ],
                    [
                        -126.01506624792691,
                        -82.4920236420354
                    ],
                    [
                        -126.15483332104286,
                        -82.49360192246719
                    ],
                    [
                        -126.29477554504159,
                        -82.49494586963306
                    ],
                    [
                        -126.43490080772533,
                        -82.49595087119872
                    ],
                    [
                        -126.57518076542358,
                        -82.49651961134423
                    ],
                    [
                        -126.7155440880022,
                        -82.49671720665367
                    ],
                    [
                        -126.85587948991108,
                        -82.49654908663813
                    ],
                    [
                        -126.99618789196025,
                        -82.49599144757529
                    ],
                    [
                        -127.13639279361182,
                        -82.49518202196798
                    ],
                    [
                        -127.27652972736303,
                        -82.494218566318
                    ],
                    [
                        -127.41663465475261,
                        -82.49320062329542
                    ],
                    [
                        -127.5566801120558,
                        -82.49214346242637
                    ],
                    [
                        -127.69671244788711,
                        -82.49108516619768
                    ],
                    [
                        -127.83674206588441,
                        -82.4900676918191
                    ],
                    [
                        -127.97681081207608,
                        -82.48913474473886
                    ],
                    [
                        -128.11690072103107,
                        -82.48841450232919
                    ],
                    [
                        -128.25709829122843,
                        -82.48806273807736
                    ],
                    [
                        -128.39729313778147,
                        -82.48796902981826
                    ],
                    [
                        -128.5374792910236,
                        -82.4881637119072
                    ],
                    [
                        -128.67761935660565,
                        -82.48878163307181
                    ],
                    [
                        -128.8177125120254,
                        -82.48955258763976
                    ],
                    [
                        -128.95785282006713,
                        -82.4902920559257
                    ],
                    [
                        -129.098007687088,
                        -82.49092660225385
                    ],
                    [
                        -129.23819325751666,
                        -82.49153206927447
                    ],
                    [
                        -129.3784092513071,
                        -82.4920680676618
                    ],
                    [
                        -129.51868475376298,
                        -82.49237546354354
                    ],
                    [
                        -129.65894618623528,
                        -82.49229658070401
                    ],
                    [
                        -129.79919330103291,
                        -82.49187333769476
                    ],
                    [
                        -129.9393101452102,
                        -82.49102914620755
                    ],
                    [
                        -130.07924420759318,
                        -82.48980932909647
                    ],
                    [
                        -130.21899167576876,
                        -82.48828186854573
                    ],
                    [
                        -130.35847380157503,
                        -82.48645146368563
                    ],
                    [
                        -130.4978111302358,
                        -82.48445497500671
                    ],
                    [
                        -130.6370460899046,
                        -82.48241846614098
                    ],
                    [
                        -130.7762923524631,
                        -82.48041979643097
                    ],
                    [
                        -130.91549075082682,
                        -82.47840895588291
                    ],
                    [
                        -131.0547342580989,
                        -82.47650178020054
                    ],
                    [
                        -131.19361355453526,
                        -82.47421845242157
                    ],
                    [
                        -131.33179239851785,
                        -82.47135530767316
                    ],
                    [
                        -131.46955907642644,
                        -82.46818308312565
                    ],
                    [
                        -131.60675698685282,
                        -82.46467440944885
                    ],
                    [
                        -131.74303110023945,
                        -82.46062861007613
                    ],
                    [
                        -131.87909422661497,
                        -82.45649120835552
                    ],
                    [
                        -132.01597696374697,
                        -82.45290476232476
                    ],
                    [
                        -132.15327477498695,
                        -82.44964560817104
                    ],
                    [
                        -132.2903750775385,
                        -82.4463129376869
                    ],
                    [
                        -132.4277688475361,
                        -82.44322249274032
                    ],
                    [
                        -132.56626376730802,
                        -82.44127353590659
                    ],
                    [
                        -132.7053935430975,
                        -82.44035708241901
                    ],
                    [
                        -132.84468830824153,
                        -82.44071436461152
                    ],
                    [
                        -132.9838133403257,
                        -82.44167083812326
                    ],
                    [
                        -133.12210608130414,
                        -82.44386496524811
                    ],
                    [
                        -133.2586908743403,
                        -82.44751877252314
                    ],
                    [
                        -133.3933411683052,
                        -82.45227943959982
                    ],
                    [
                        -133.52560251221408,
                        -82.45813543308489
                    ],
                    [
                        -133.65635891907377,
                        -82.46458850945278
                    ],
                    [
                        -133.78733919866664,
                        -82.47100372345481
                    ],
                    [
                        -133.91935817844066,
                        -82.47708091651148
                    ],
                    [
                        -134.05280476396038,
                        -82.48264445533528
                    ],
                    [
                        -134.18484446420865,
                        -82.48878787080122
                    ],
                    [
                        -134.31551524359875,
                        -82.4954574533633
                    ],
                    [
                        -134.44290216855973,
                        -82.5031543969291
                    ],
                    [
                        -134.56730878953212,
                        -82.51167841919019
                    ],
                    [
                        -134.68846938584247,
                        -82.5210034530324
                    ],
                    [
                        -134.80567226925137,
                        -82.53118254946949
                    ],
                    [
                        -134.92039905086455,
                        -82.54185177543452
                    ],
                    [
                        -135.03203756573387,
                        -82.55309038071361
                    ],
                    [
                        -135.13751730005936,
                        -82.56530563114791
                    ],
                    [
                        -135.23530142276783,
                        -82.57856189996419
                    ],
                    [
                        -135.321660171412,
                        -82.59310180612754
                    ],
                    [
                        -135.3865986804359,
                        -82.60938044211122
                    ],
                    [
                        -135.4291590882094,
                        -82.62683385483899
                    ],
                    [
                        -135.4485487464737,
                        -82.64496812322982
                    ],
                    [
                        -135.4384812572695,
                        -82.66323288958536
                    ],
                    [
                        -135.40919154965536,
                        -82.68116427788661
                    ],
                    [
                        -135.36696488268123,
                        -82.69868979082088
                    ],
                    [
                        -135.31354124762368,
                        -82.7157189423434
                    ],
                    [
                        -135.25226805876764,
                        -82.73232625844417
                    ],
                    [
                        -135.18349122266997,
                        -82.74846822196405
                    ],
                    [
                        -135.10509094176967,
                        -82.76390336188372
                    ],
                    [
                        -135.0179462345705,
                        -82.77859298927487
                    ],
                    [
                        -134.92296076904748,
                        -82.79251284942504
                    ],
                    [
                        -134.82129344909472,
                        -82.80569553543245
                    ],
                    [
                        -134.71804445314663,
                        -82.81870975317982
                    ],
                    [
                        -134.6164690993837,
                        -82.83195084486194
                    ],
                    [
                        -134.52285768832039,
                        -82.84607825462666
                    ],
                    [
                        -134.44215460574074,
                        -82.8614012666619
                    ],
                    [
                        -134.37362263325753,
                        -82.87763657132977
                    ],
                    [
                        -134.31374903932684,
                        -82.89441093767394
                    ],
                    [
                        -134.25678924594936,
                        -82.91134636336078
                    ],
                    [
                        -134.20211198361883,
                        -82.9284013691344
                    ],
                    [
                        -134.14742139531995,
                        -82.94546494759662
                    ],
                    [
                        -134.09203932559112,
                        -82.9624988586549
                    ],
                    [
                        -134.0352390968213,
                        -82.97946963592128
                    ],
                    [
                        -133.97715922542284,
                        -82.99638750554816
                    ],
                    [
                        -133.92076605143603,
                        -83.0133937727766
                    ],
                    [
                        -133.87102160184742,
                        -83.03070398421188
                    ],
                    [
                        -133.83942695192118,
                        -83.0486021563805
                    ],
                    [
                        -133.87028429402645,
                        -83.06566645537347
                    ],
                    [
                        -133.97060844405632,
                        -83.07929070068278
                    ],
                    [
                        -134.09260440722394,
                        -83.09022887969968
                    ],
                    [
                        -134.22443061993462,
                        -83.09945974175535
                    ],
                    [
                        -134.35804913961337,
                        -83.10835060243618
                    ],
                    [
                        -134.49149641870153,
                        -83.11730986811365
                    ],
                    [
                        -134.6235593145424,
                        -83.12659759610894
                    ],
                    [
                        -134.75364050406242,
                        -83.13631724361781
                    ],
                    [
                        -134.87829050464026,
                        -83.14703656217115
                    ],
                    [
                        -135.00228629268972,
                        -83.15789216797911
                    ],
                    [
                        -135.1282853517934,
                        -83.16845077090396
                    ],
                    [
                        -135.25844966713998,
                        -83.17830247036912
                    ],
                    [
                        -135.38955335388448,
                        -83.18801480663905
                    ],
                    [
                        -135.52028683703665,
                        -83.19783375114977
                    ],
                    [
                        -135.6494583465621,
                        -83.20797282378105
                    ],
                    [
                        -135.778860104978,
                        -83.21810429768921
                    ],
                    [
                        -135.90930467950673,
                        -83.22808455954682
                    ],
                    [
                        -136.04299117414467,
                        -83.23747874327636
                    ],
                    [
                        -136.18065045485244,
                        -83.24607164947703
                    ],
                    [
                        -136.32305348249142,
                        -83.25356850072659
                    ],
                    [
                        -136.4675234823295,
                        -83.26055713984218
                    ],
                    [
                        -136.61246149066247,
                        -83.26744337900607
                    ],
                    [
                        -136.75903084033075,
                        -83.27388333237501
                    ],
                    [
                        -136.90568482183585,
                        -83.28035082878108
                    ],
                    [
                        -137.05276158230828,
                        -83.28672573397328
                    ],
                    [
                        -137.20111995958334,
                        -83.29272479102488
                    ],
                    [
                        -137.34974628150772,
                        -83.29868670851431
                    ],
                    [
                        -137.4993691371951,
                        -83.30432845902646
                    ],
                    [
                        -137.64985696581255,
                        -83.30971414954185
                    ],
                    [
                        -137.80016967698842,
                        -83.31520289207404
                    ],
                    [
                        -137.95068541010463,
                        -83.32066088073474
                    ],
                    [
                        -138.10152918359066,
                        -83.32604567480497
                    ],
                    [
                        -138.25274937104717,
                        -83.33133660357426
                    ],
                    [
                        -138.40383705189515,
                        -83.3367182176993
                    ],
                    [
                        -138.55531029713393,
                        -83.3420044336546
                    ],
                    [
                        -138.70675396328602,
                        -83.34734370234523
                    ],
                    [
                        -138.8579421485622,
                        -83.35282248349074
                    ],
                    [
                        -139.00948428771784,
                        -83.35822426826822
                    ],
                    [
                        -139.1612608885865,
                        -83.36356998484715
                    ],
                    [
                        -139.3127073665866,
                        -83.36910252969528
                    ],
                    [
                        -139.46285825670319,
                        -83.37511808345252
                    ],
                    [
                        -139.6121694367918,
                        -83.3814512791786
                    ],
                    [
                        -139.7616843552332,
                        -83.38777486293556
                    ],
                    [
                        -139.91127237555384,
                        -83.3941096137858
                    ],
                    [
                        -140.06066985856805,
                        -83.40055208078968
                    ],
                    [
                        -140.21045091951163,
                        -83.40692270568863
                    ],
                    [
                        -140.3597553665072,
                        -83.41349243915023
                    ],
                    [
                        -140.5082217220969,
                        -83.4203370216675
                    ],
                    [
                        -140.65785155238834,
                        -83.42688787326175
                    ],
                    [
                        -140.80853701736874,
                        -83.4331686334484
                    ],
                    [
                        -140.9600000144142,
                        -83.43924620013226
                    ],
                    [
                        -141.11258969890676,
                        -83.44497988238214
                    ],
                    [
                        -141.26595553831504,
                        -83.45048908976153
                    ],
                    [
                        -141.41951654564403,
                        -83.45598094553984
                    ],
                    [
                        -141.57349500939299,
                        -83.46136300735913
                    ],
                    [
                        -141.72751461970148,
                        -83.46677586428999
                    ],
                    [
                        -141.8813463073322,
                        -83.47230381607075
                    ],
                    [
                        -142.0359501268968,
                        -83.47759389326183
                    ],
                    [
                        -142.1908699653945,
                        -83.48280746967853
                    ],
                    [
                        -142.34614706957112,
                        -83.48794829256886
                    ],
                    [
                        -142.501916422991,
                        -83.49292639537556
                    ],
                    [
                        -142.65790264118664,
                        -83.49787771948935
                    ],
                    [
                        -142.81375927234836,
                        -83.50291756834422
                    ],
                    [
                        -142.9698147294066,
                        -83.50792185508803
                    ],
                    [
                        -143.12649690938338,
                        -83.51273416200327
                    ],
                    [
                        -143.2832175531973,
                        -83.51756412724377
                    ],
                    [
                        -143.43992305400045,
                        -83.52246195563923
                    ],
                    [
                        -143.59705080141666,
                        -83.52722422070339
                    ],
                    [
                        -143.75371424992292,
                        -83.53223087420865
                    ],
                    [
                        -143.9096651935428,
                        -83.5375469121039
                    ],
                    [
                        -144.064915938839,
                        -83.54317458817448
                    ],
                    [
                        -144.21904682131364,
                        -83.5492180242172
                    ],
                    [
                        -144.3732771203191,
                        -83.55528539999641
                    ],
                    [
                        -144.52760321599047,
                        -83.56136833040553
                    ],
                    [
                        -144.68069331332967,
                        -83.56787148969835
                    ],
                    [
                        -144.83196355582038,
                        -83.5749219021974
                    ],
                    [
                        -144.9808414291283,
                        -83.58263405235616
                    ],
                    [
                        -145.12770818817148,
                        -83.59085900152162
                    ],
                    [
                        -145.27412213888778,
                        -83.59921889400762
                    ],
                    [
                        -145.4191935442967,
                        -83.6079094800115
                    ],
                    [
                        -145.5611234928951,
                        -83.6172575100217
                    ],
                    [
                        -145.701854059202,
                        -83.62687172366225
                    ],
                    [
                        -145.8421633979938,
                        -83.6365923528133
                    ],
                    [
                        -145.98086890557212,
                        -83.64663448185962
                    ],
                    [
                        -146.1180643535777,
                        -83.65696346881393
                    ],
                    [
                        -146.25436042656045,
                        -83.66747029850079
                    ],
                    [
                        -146.3896265672587,
                        -83.6781787877487
                    ],
                    [
                        -146.52344453041385,
                        -83.68913591123757
                    ],
                    [
                        -146.65466501405774,
                        -83.70049441559705
                    ],
                    [
                        -146.7846835854996,
                        -83.71205512880407
                    ],
                    [
                        -146.91413837601127,
                        -83.72372829417272
                    ],
                    [
                        -147.04185359068958,
                        -83.73565412485944
                    ],
                    [
                        -147.16727648602506,
                        -83.74789964549024
                    ],
                    [
                        -147.29193861642176,
                        -83.76026120027333
                    ],
                    [
                        -147.4164306951681,
                        -83.77267895761102
                    ],
                    [
                        -147.54104816150428,
                        -83.78511026989928
                    ],
                    [
                        -147.66639029054946,
                        -83.7974841862311
                    ],
                    [
                        -147.79168770339055,
                        -83.80989444093345
                    ],
                    [
                        -147.9156193831197,
                        -83.82249242732388
                    ],
                    [
                        -148.03830651283496,
                        -83.835259036333
                    ],
                    [
                        -148.15990663181813,
                        -83.84817210494491
                    ],
                    [
                        -148.2809134725571,
                        -83.86117547366827
                    ],
                    [
                        -148.40243107011034,
                        -83.87415563527884
                    ],
                    [
                        -148.52589299813778,
                        -83.88694958940044
                    ],
                    [
                        -148.65226712626944,
                        -83.89945107263277
                    ],
                    [
                        -148.78100429821015,
                        -83.91170123703364
                    ],
                    [
                        -148.91304851289482,
                        -83.92358418565267
                    ],
                    [
                        -149.05017258535756,
                        -83.93483993927867
                    ],
                    [
                        -149.1914899954632,
                        -83.9455296119389
                    ],
                    [
                        -149.33693960560117,
                        -83.95562920038817
                    ],
                    [
                        -149.48726889201785,
                        -83.96494240721702
                    ],
                    [
                        -149.64185867709094,
                        -83.9734901133206
                    ],
                    [
                        -149.800455161947,
                        -83.98123989707307
                    ],
                    [
                        -149.9632191335527,
                        -83.98801333316473
                    ],
                    [
                        -150.1290874850959,
                        -83.99396490642879
                    ],
                    [
                        -150.29742689164044,
                        -83.9991622517061
                    ],
                    [
                        -150.46804154152247,
                        -84.00352849015881
                    ],
                    [
                        -150.64018854934085,
                        -84.00723244589703
                    ],
                    [
                        -150.81349721540337,
                        -84.01035100114245
                    ],
                    [
                        -150.98783330488152,
                        -84.01283510837102
                    ],
                    [
                        -151.1627890289975,
                        -84.01484058567463
                    ],
                    [
                        -151.33822631125273,
                        -84.01643349887559
                    ],
                    [
                        -151.51397057048533,
                        -84.01759611507735
                    ],
                    [
                        -151.68993771823898,
                        -84.0184516618027
                    ],
                    [
                        -151.86603033761253,
                        -84.01904903666295
                    ],
                    [
                        -152.04219016783438,
                        -84.01934452324001
                    ],
                    [
                        -152.2184021581874,
                        -84.01940502991924
                    ],
                    [
                        -152.39457327140337,
                        -84.01929278769718
                    ],
                    [
                        -152.57072650826956,
                        -84.01897258768537
                    ],
                    [
                        -152.74680763583962,
                        -84.01842797709483
                    ],
                    [
                        -152.92280949932234,
                        -84.01762249094648
                    ],
                    [
                        -153.09862960950696,
                        -84.01652822762989
                    ],
                    [
                        -153.27428458102463,
                        -84.01525537542312
                    ],
                    [
                        -153.4498511559121,
                        -84.01388370312704
                    ],
                    [
                        -153.6252543148806,
                        -84.01237797899343
                    ],
                    [
                        -153.80043064984855,
                        -84.01063736764944
                    ],
                    [
                        -153.97536711338674,
                        -84.0087256753909
                    ],
                    [
                        -154.15019389139502,
                        -84.00672377723818
                    ],
                    [
                        -154.32480032847394,
                        -84.00461629342666
                    ],
                    [
                        -154.49912079671415,
                        -84.00229673945957
                    ],
                    [
                        -154.67297975144973,
                        -83.9996802843374
                    ],
                    [
                        -154.84645041620675,
                        -83.99684508051445
                    ],
                    [
                        -155.0194548723667,
                        -83.99376819691169
                    ],
                    [
                        -155.1919555975388,
                        -83.99043897363512
                    ],
                    [
                        -155.36411618484183,
                        -83.9869877795626
                    ],
                    [
                        -155.53573299061583,
                        -83.98330468558567
                    ],
                    [
                        -155.70665299335207,
                        -83.9793212489076
                    ],
                    [
                        -155.87702870070996,
                        -83.97516092223812
                    ],
                    [
                        -156.0469835300983,
                        -83.97084852877987
                    ],
                    [
                        -156.21631268601934,
                        -83.96631917768333
                    ],
                    [
                        -156.38507486439596,
                        -83.96162884403779
                    ],
                    [
                        -156.55339099612263,
                        -83.95680596232617
                    ],
                    [
                        -156.72134110764438,
                        -83.95189880999396
                    ],
                    [
                        -156.8889422846609,
                        -83.9469115767374
                    ],
                    [
                        -157.05632592468743,
                        -83.94189537972898
                    ],
                    [
                        -157.22358295906594,
                        -83.93688421030647
                    ],
                    [
                        -157.39065471518435,
                        -83.9318505208346
                    ],
                    [
                        -157.55770332076239,
                        -83.92686102502037
                    ],
                    [
                        -157.72474259424524,
                        -83.92192789429488
                    ],
                    [
                        -157.89193209752744,
                        -83.91710120684635
                    ],
                    [
                        -158.0589039741461,
                        -83.91224185385042
                    ],
                    [
                        -158.22531808288252,
                        -83.90721988183167
                    ],
                    [
                        -158.3912061843097,
                        -83.90205424979635
                    ],
                    [
                        -158.5564823619757,
                        -83.89671843978157
                    ],
                    [
                        -158.72079865794976,
                        -83.89111026476323
                    ],
                    [
                        -158.88393427065458,
                        -83.8851768725232
                    ],
                    [
                        -159.04560062884437,
                        -83.87884735451564
                    ],
                    [
                        -159.20555998346967,
                        -83.87209466355628
                    ],
                    [
                        -159.36394529029758,
                        -83.86496876642839
                    ],
                    [
                        -159.52034200590973,
                        -83.85740232339077
                    ],
                    [
                        -159.67365473363768,
                        -83.84919392676665
                    ],
                    [
                        -159.8249392111889,
                        -83.84060516378666
                    ],
                    [
                        -159.97432188925288,
                        -83.83168332114553
                    ],
                    [
                        -160.12068813156253,
                        -83.82224161732343
                    ],
                    [
                        -160.26385598877619,
                        -83.81228691990599
                    ],
                    [
                        -160.40453828151843,
                        -83.8019608450187
                    ],
                    [
                        -160.5420746455702,
                        -83.791193698758
                    ],
                    [
                        -160.6757838919093,
                        -83.77990884705983
                    ],
                    [
                        -160.8055608340713,
                        -83.76812979007099
                    ],
                    [
                        -160.9306068146548,
                        -83.75579068707161
                    ],
                    [
                        -161.052032243628,
                        -83.7430606862907
                    ],
                    [
                        -161.16909407593792,
                        -83.72988440365269
                    ],
                    [
                        -161.28274753648012,
                        -83.71637453140954
                    ],
                    [
                        -161.39265066359434,
                        -83.70252518953801
                    ],
                    [
                        -161.49859974885257,
                        -83.68833567225093
                    ],
                    [
                        -161.59953775473346,
                        -83.67372562009751
                    ],
                    [
                        -161.69488838408688,
                        -83.65869071901852
                    ],
                    [
                        -161.7836120846604,
                        -83.64318563172772
                    ],
                    [
                        -161.86507369377364,
                        -83.62720882822387
                    ],
                    [
                        -161.94191357215837,
                        -83.61096430812866
                    ],
                    [
                        -162.01322153555944,
                        -83.59442208480097
                    ],
                    [
                        -162.07806654143866,
                        -83.57756301340495
                    ],
                    [
                        -162.1382354696216,
                        -83.56049693046437
                    ],
                    [
                        -162.19163969115718,
                        -83.54315463225626
                    ],
                    [
                        -162.23920333753972,
                        -83.52560262242612
                    ],
                    [
                        -162.28357819232926,
                        -83.50795024136428
                    ],
                    [
                        -162.3258956990251,
                        -83.49023638369339
                    ],
                    [
                        -162.36841373732778,
                        -83.47253486354235
                    ],
                    [
                        -162.41053456658216,
                        -83.454820199825
                    ],
                    [
                        -162.4517499903861,
                        -83.43708553480386
                    ],
                    [
                        -162.4923104556294,
                        -83.41933409534388
                    ],
                    [
                        -162.53332910601,
                        -83.40159839315186
                    ],
                    [
                        -162.5750840713959,
                        -83.3838913541784
                    ],
                    [
                        -162.61779167323826,
                        -83.36621693697762
                    ],
                    [
                        -162.6602562021849,
                        -83.34853571751702
                    ],
                    [
                        -162.70312617871576,
                        -83.33087496397218
                    ],
                    [
                        -162.74616039180495,
                        -83.31322495819933
                    ],
                    [
                        -162.78998712734938,
                        -83.29560262686145
                    ],
                    [
                        -162.83487133526006,
                        -83.27802327368622
                    ],
                    [
                        -162.87969725078253,
                        -83.26044458765536
                    ],
                    [
                        -162.92551894054614,
                        -83.24290655325235
                    ],
                    [
                        -162.97350535248975,
                        -83.22545709449345
                    ],
                    [
                        -163.02238399122342,
                        -83.20804244710304
                    ],
                    [
                        -163.07200494880217,
                        -83.19066478303465
                    ],
                    [
                        -163.12358007979856,
                        -83.17337154948676
                    ],
                    [
                        -163.1789901647982,
                        -83.15625234634936
                    ],
                    [
                        -163.23690801708912,
                        -83.13926275396693
                    ],
                    [
                        -163.29615935576885,
                        -83.12234100740378
                    ],
                    [
                        -163.3579500169377,
                        -83.10556266547054
                    ],
                    [
                        -163.42155075058798,
                        -83.08888768255888
                    ],
                    [
                        -163.48678019554848,
                        -83.07231393158624
                    ],
                    [
                        -163.5545755124173,
                        -83.05590025595131
                    ],
                    [
                        -163.62350191186238,
                        -83.03956809736799
                    ],
                    [
                        -163.69378156350533,
                        -83.02332688884114
                    ],
                    [
                        -163.76703041567953,
                        -83.00729460293263
                    ],
                    [
                        -163.84182626558555,
                        -82.99138082896697
                    ],
                    [
                        -163.9176183631608,
                        -82.97554742448123
                    ],
                    [
                        -163.99370325229737,
                        -82.95975014665903
                    ],
                    [
                        -164.07137237534653,
                        -82.94408080202145
                    ],
                    [
                        -164.15088073710638,
                        -82.9285628919306
                    ],
                    [
                        -164.2318893454756,
                        -82.9131819034746
                    ],
                    [
                        -164.3148212597977,
                        -82.89796896045709
                    ],
                    [
                        -164.39881951634672,
                        -82.88286398646119
                    ],
                    [
                        -164.4857401659364,
                        -82.86802553856046
                    ],
                    [
                        -164.57388583804644,
                        -82.85332062761118
                    ],
                    [
                        -164.66266326211718,
                        -82.8386911580433
                    ],
                    [
                        -164.75279131621505,
                        -82.82420773366006
                    ],
                    [
                        -164.8436577383142,
                        -82.8098145728757
                    ],
                    [
                        -164.93540454099877,
                        -82.79552923886001
                    ],
                    [
                        -165.02804352282124,
                        -82.78134866730687
                    ],
                    [
                        -165.12104709112862,
                        -82.76722897005908
                    ],
                    [
                        -165.21436543063749,
                        -82.75316149856732
                    ],
                    [
                        -165.30887868581183,
                        -82.73924239422074
                    ],
                    [
                        -165.40424110608583,
                        -82.7254347852042
                    ],
                    [
                        -165.50117934019755,
                        -82.71182815104343
                    ],
                    [
                        -165.59916235762654,
                        -82.69835955354044
                    ],
                    [
                        -165.6973797251895,
                        -82.68493943542613
                    ],
                    [
                        -165.79613821667817,
                        -82.67160765980519
                    ],
                    [
                        -165.8959253005839,
                        -82.65842474347332
                    ],
                    [
                        -165.9964324631548,
                        -82.64534787443003
                    ],
                    [
                        -166.09718290915566,
                        -82.63233011717008
                    ],
                    [
                        -166.1978583637518,
                        -82.61933088667632
                    ],
                    [
                        -166.29878115040609,
                        -82.60637810747849
                    ],
                    [
                        -166.3997963404684,
                        -82.59346096990475
                    ],
                    [
                        -166.50030727216298,
                        -82.5805004168268
                    ],
                    [
                        -166.60023045365608,
                        -82.56749123609883
                    ],
                    [
                        -166.69981698080844,
                        -82.55446019550685
                    ],
                    [
                        -166.79938806309383,
                        -82.54145104464888
                    ],
                    [
                        -166.89871716329228,
                        -82.52843325309928
                    ],
                    [
                        -166.99805385248746,
                        -82.51543785622694
                    ],
                    [
                        -167.09741510581355,
                        -82.50246802503716
                    ],
                    [
                        -167.1966650431314,
                        -82.4895073337567
                    ],
                    [
                        -167.29546360731288,
                        -82.4765080831349
                    ],
                    [
                        -167.39387471710927,
                        -82.46347982034575
                    ],
                    [
                        -167.4922567731413,
                        -82.45047347555094
                    ],
                    [
                        -167.59065485971658,
                        -82.43748834381788
                    ],
                    [
                        -167.68878106791712,
                        -82.42449253253318
                    ],
                    [
                        -167.7866835820857,
                        -82.4114921415857
                    ],
                    [
                        -167.88430418648818,
                        -82.39847145918057
                    ],
                    [
                        -167.98144898037734,
                        -82.38541101087142
                    ],
                    [
                        -168.07792440948927,
                        -82.37229149752265
                    ],
                    [
                        -168.17370310377152,
                        -82.35910028282613
                    ],
                    [
                        -168.26877391172638,
                        -82.34584112637894
                    ],
                    [
                        -168.36315980689332,
                        -82.33251404752441
                    ],
                    [
                        -168.45674546052743,
                        -82.31910872487744
                    ],
                    [
                        -168.54939185582813,
                        -82.30560773982621
                    ],
                    [
                        -168.6413604411137,
                        -82.2920429004785
                    ],
                    [
                        -168.7325229582133,
                        -82.27840359267158
                    ],
                    [
                        -168.82288515109008,
                        -82.26468286324841
                    ],
                    [
                        -168.91245022624432,
                        -82.25088956824972
                    ],
                    [
                        -169.00101557335938,
                        -82.23699820585178
                    ],
                    [
                        -169.08858085442185,
                        -82.22301110602334
                    ],
                    [
                        -169.17541415489163,
                        -82.20895993832528
                    ],
                    [
                        -169.261406301117,
                        -82.19482634119176
                    ],
                    [
                        -169.3459899440414,
                        -82.18056166623757
                    ],
                    [
                        -169.42953513598272,
                        -82.16619370404624
                    ],
                    [
                        -169.51200586710394,
                        -82.15173132849765
                    ],
                    [
                        -169.5931672233101,
                        -82.1371495430149
                    ],
                    [
                        -169.67316163547042,
                        -82.12245714588872
                    ],
                    [
                        -169.75173813344026,
                        -82.10764189476045
                    ],
                    [
                        -169.8288038787901,
                        -82.09269094038356
                    ],
                    [
                        -169.90483043582338,
                        -82.07765651690548
                    ],
                    [
                        -169.97957595814873,
                        -82.06250986949985
                    ],
                    [
                        -170.0527658208825,
                        -82.04723833849009
                    ],
                    [
                        -170.12481151717753,
                        -82.03187200173679
                    ],
                    [
                        -170.19582071184539,
                        -82.0164250290463
                    ],
                    [
                        -170.2655859059318,
                        -82.00087982652055
                    ],
                    [
                        -170.3340578769669,
                        -81.98523753717684
                    ],
                    [
                        -170.4012815972304,
                        -81.96950432978228
                    ],
                    [
                        -170.46688493948156,
                        -81.95364680860828
                    ],
                    [
                        -170.53114506062389,
                        -81.93768874027758
                    ],
                    [
                        -170.59399267126977,
                        -81.92163824252188
                    ],
                    [
                        -170.65550357621242,
                        -81.90549288265098
                    ],
                    [
                        -170.71591141456472,
                        -81.88927238977315
                    ],
                    [
                        -170.7753055252426,
                        -81.87298378150993
                    ],
                    [
                        -170.83342250942562,
                        -81.85662132609059
                    ],
                    [
                        -170.89050937225105,
                        -81.84018637023964
                    ],
                    [
                        -170.9466714285657,
                        -81.8237001331208
                    ],
                    [
                        -171.0015258522467,
                        -81.80713103083305
                    ],
                    [
                        -171.05512466200219,
                        -81.79048521957667
                    ],
                    [
                        -171.1075969327036,
                        -81.77377518348528
                    ],
                    [
                        -171.15884737529396,
                        -81.75699907436443
                    ],
                    [
                        -171.20915941021212,
                        -81.7401634833305
                    ],
                    [
                        -171.25839604192802,
                        -81.72327485830911
                    ],
                    [
                        -171.3065537178322,
                        -81.70632409605844
                    ],
                    [
                        -171.35405734228345,
                        -81.68933929910229
                    ],
                    [
                        -171.4008806465059,
                        -81.67232464896614
                    ],
                    [
                        -171.44688853568366,
                        -81.65527269504831
                    ],
                    [
                        -171.4922519663345,
                        -81.63818268569472
                    ],
                    [
                        -171.537003929979,
                        -81.62106934222655
                    ],
                    [
                        -171.58105156695171,
                        -81.60392150694005
                    ],
                    [
                        -171.62454268737355,
                        -81.58674711877752
                    ],
                    [
                        -171.66743706409568,
                        -81.56954540643987
                    ],
                    [
                        -171.70952046164604,
                        -81.5523072566646
                    ],
                    [
                        -171.75088964044502,
                        -81.535034876639
                    ],
                    [
                        -171.79165019613026,
                        -81.51773988363138
                    ],
                    [
                        -171.83178542483265,
                        -81.50041739306194
                    ],
                    [
                        -171.87151904759213,
                        -81.48307223557764
                    ],
                    [
                        -171.91089515937503,
                        -81.46571926656449
                    ],
                    [
                        -171.94994453901063,
                        -81.44835455231515
                    ],
                    [
                        -171.9884890221037,
                        -81.4309651490219
                    ],
                    [
                        -172.0267511337783,
                        -81.41357427025761
                    ],
                    [
                        -172.0647555366101,
                        -81.39616397155005
                    ],
                    [
                        -172.1025128172151,
                        -81.37875760461866
                    ],
                    [
                        -172.14008762145946,
                        -81.36133342761572
                    ],
                    [
                        -172.17746616711716,
                        -81.34391426876182
                    ],
                    [
                        -172.21458388316418,
                        -81.3264849488067
                    ],
                    [
                        -172.2514223032173,
                        -81.30904049513086
                    ],
                    [
                        -172.28809654408073,
                        -81.2915971532227
                    ],
                    [
                        -172.32462165286313,
                        -81.2741460016168
                    ],
                    [
                        -172.36073787333544,
                        -81.25668636742242
                    ],
                    [
                        -172.39651903967302,
                        -81.23920595179624
                    ],
                    [
                        -172.4320878271716,
                        -81.22172574839482
                    ],
                    [
                        -172.4673821748133,
                        -81.2042352855487
                    ],
                    [
                        -172.502306847455,
                        -81.18672805544549
                    ],
                    [
                        -172.53694476454632,
                        -81.16921500043829
                    ],
                    [
                        -172.57124243643395,
                        -81.15169046175579
                    ],
                    [
                        -172.60524679283196,
                        -81.1341508028389
                    ],
                    [
                        -172.63897911933486,
                        -81.11660109377775
                    ],
                    [
                        -172.6722846709727,
                        -81.09904289520627
                    ],
                    [
                        -172.70522606475444,
                        -81.08146827492122
                    ],
                    [
                        -172.73788335294353,
                        -81.06388347209246
                    ],
                    [
                        -172.77016481009625,
                        -81.04628670388809
                    ],
                    [
                        -172.80198308508068,
                        -81.02867168065812
                    ],
                    [
                        -172.83335815033448,
                        -81.0110388505215
                    ],
                    [
                        -172.86436998205787,
                        -80.99339444329914
                    ],
                    [
                        -172.8950206046474,
                        -80.97573853711027
                    ],
                    [
                        -172.92532358223298,
                        -80.95807143437725
                    ],
                    [
                        -172.95531543968178,
                        -80.9403938814634
                    ],
                    [
                        -172.9849899340936,
                        -80.92270117866967
                    ],
                    [
                        -173.01431876935067,
                        -80.90500202634041
                    ],
                    [
                        -173.04337619683315,
                        -80.88729328474356
                    ],
                    [
                        -173.0721888463766,
                        -80.86958009902816
                    ],
                    [
                        -173.10073871832174,
                        -80.85185753513751
                    ],
                    [
                        -173.12895659053498,
                        -80.83411968019699
                    ],
                    [
                        -173.15678394797192,
                        -80.81637005213037
                    ],
                    [
                        -173.18431610068225,
                        -80.79861511699733
                    ],
                    [
                        -173.21153541756294,
                        -80.78084995781632
                    ],
                    [
                        -173.2383904023116,
                        -80.76306901705118
                    ],
                    [
                        -173.26493051527638,
                        -80.74527787380879
                    ],
                    [
                        -173.2910696320101,
                        -80.72747952728032
                    ],
                    [
                        -173.31681097412942,
                        -80.70966486582704
                    ],
                    [
                        -173.34228491068077,
                        -80.69184559551452
                    ],
                    [
                        -173.36751067106465,
                        -80.67401289163311
                    ],
                    [
                        -173.39231526801439,
                        -80.65617272594434
                    ],
                    [
                        -173.4167130893654,
                        -80.63831619862418
                    ],
                    [
                        -173.4408750761481,
                        -80.62046035602427
                    ],
                    [
                        -173.4646373150412,
                        -80.6025837375135
                    ],
                    [
                        -173.48792579702868,
                        -80.58469880043724
                    ],
                    [
                        -173.51071382754515,
                        -80.56679128017355
                    ],
                    [
                        -173.53273782673546,
                        -80.54886551334256
                    ],
                    [
                        -173.55374874534346,
                        -80.53090772804862
                    ],
                    [
                        -173.57457264763522,
                        -80.51294253807092
                    ],
                    [
                        -173.59534190328446,
                        -80.49498160692096
                    ],
                    [
                        -173.61601599474432,
                        -80.47701958152409
                    ],
                    [
                        -173.63659302983407,
                        -80.45905182835395
                    ],
                    [
                        -173.6569252026607,
                        -80.44108481926287
                    ],
                    [
                        -173.67695988663533,
                        -80.42310839739628
                    ],
                    [
                        -173.6969355127941,
                        -80.40513156896728
                    ],
                    [
                        -173.71663534274353,
                        -80.38714114984012
                    ],
                    [
                        -173.7357887929301,
                        -80.36914138230146
                    ],
                    [
                        -173.7543096972752,
                        -80.35112611918422
                    ],
                    [
                        -173.7717637650692,
                        -80.3330782407831
                    ],
                    [
                        -173.78877444943163,
                        -80.31502301176191
                    ],
                    [
                        -173.8055975538214,
                        -80.29696513058492
                    ],
                    [
                        -173.82213479289535,
                        -80.27889820896759
                    ],
                    [
                        -173.83842531334753,
                        -80.26082297234002
                    ],
                    [
                        -173.85439787108555,
                        -80.24274272494358
                    ],
                    [
                        -173.870011403647,
                        -80.22465672798036
                    ],
                    [
                        -173.8853426601168,
                        -80.20656639132332
                    ],
                    [
                        -173.90045468441164,
                        -80.18846827526117
                    ],
                    [
                        -173.91531920989908,
                        -80.17036646628097
                    ],
                    [
                        -173.92980478420634,
                        -80.15225857876675
                    ],
                    [
                        -173.94389756810557,
                        -80.13414437036485
                    ],
                    [
                        -173.95754957520197,
                        -80.11601838308734
                    ],
                    [
                        -173.97085828724215,
                        -80.09788239719386
                    ],
                    [
                        -173.98388328136463,
                        -80.07974668894427
                    ],
                    [
                        -173.99662888616012,
                        -80.0616067459915
                    ],
                    [
                        -174.00913090378475,
                        -80.04345862751835
                    ],
                    [
                        -174.02125151695918,
                        -80.0253044291681
                    ],
                    [
                        -174.0328880768926,
                        -80.00714229203818
                    ],
                    [
                        -174.04416340611434,
                        -79.98897444685677
                    ],
                    [
                        -174.05504815568833,
                        -79.9708003620609
                    ],
                    [
                        -174.06545069957343,
                        -79.95261837548125
                    ],
                    [
                        -174.07552958109648,
                        -79.93443136143303
                    ],
                    [
                        -174.0852319683863,
                        -79.91624295128345
                    ],
                    [
                        -174.09446166810926,
                        -79.89804221137648
                    ],
                    [
                        -174.1032934211435,
                        -79.8798396764377
                    ],
                    [
                        -174.11174751996302,
                        -79.86163111634062
                    ],
                    [
                        -174.11971265229505,
                        -79.84341450182264
                    ],
                    [
                        -174.12730707034027,
                        -79.82519656193497
                    ],
                    [
                        -174.1345251380208,
                        -79.80697259294597
                    ],
                    [
                        -174.14130474764482,
                        -79.78874604467647
                    ],
                    [
                        -174.1477122509285,
                        -79.77051351961202
                    ],
                    [
                        -174.1537061702447,
                        -79.75227883915872
                    ],
                    [
                        -174.15925054788013,
                        -79.73403674054222
                    ],
                    [
                        -174.16446728397955,
                        -79.71579401916715
                    ],
                    [
                        -174.16934796864112,
                        -79.69755050591627
                    ],
                    [
                        -174.1738436927623,
                        -79.6793052896693
                    ],
                    [
                        -174.17809066567764,
                        -79.6610562533532
                    ],
                    [
                        -174.181956278709,
                        -79.64280554338174
                    ],
                    [
                        -174.18509962393196,
                        -79.62454688355707
                    ],
                    [
                        -174.18775096776977,
                        -79.60629363456555
                    ],
                    [
                        -174.1901290925748,
                        -79.58804060716696
                    ],
                    [
                        -174.19198963124254,
                        -79.56978328088373
                    ],
                    [
                        -174.19332783967067,
                        -79.55151693950931
                    ],
                    [
                        -174.19430126226587,
                        -79.53326280571108
                    ],
                    [
                        -174.1949095304787,
                        -79.5149978980367
                    ],
                    [
                        -174.19513944757833,
                        -79.49674029369888
                    ],
                    [
                        -174.19498810422323,
                        -79.47848072659431
                    ],
                    [
                        -174.19445000503833,
                        -79.46022364605493
                    ],
                    [
                        -174.19355446385953,
                        -79.44196497156085
                    ],
                    [
                        -174.19222905502323,
                        -79.4237124896089
                    ],
                    [
                        -174.19040202239057,
                        -79.40545563526128
                    ],
                    [
                        -174.18824600222626,
                        -79.38720217667768
                    ],
                    [
                        -174.1856691943606,
                        -79.36895035068167
                    ],
                    [
                        -174.18255577691534,
                        -79.35070710019956
                    ],
                    [
                        -174.17910477426798,
                        -79.33246693912596
                    ],
                    [
                        -174.17541593550172,
                        -79.31422253661064
                    ],
                    [
                        -174.17119215876656,
                        -79.29598657592356
                    ],
                    [
                        -174.1664337927155,
                        -79.27775440266629
                    ],
                    [
                        -174.16139932935477,
                        -79.25952628058717
                    ],
                    [
                        -174.15593944660714,
                        -79.24129931575922
                    ],
                    [
                        -174.14979881961054,
                        -79.22308689852515
                    ],
                    [
                        -174.14291069064546,
                        -79.20488305136487
                    ],
                    [
                        -174.1355910454282,
                        -79.18667998121097
                    ],
                    [
                        -174.12811001695272,
                        -79.16848742345914
                    ],
                    [
                        -174.12028768951808,
                        -79.15029727505718
                    ],
                    [
                        -174.11155991406648,
                        -79.13212143561121
                    ],
                    [
                        -174.10236146265993,
                        -79.11395446245477
                    ],
                    [
                        -174.09278581174266,
                        -79.09579809576937
                    ],
                    [
                        -174.0826432941652,
                        -79.07764853605258
                    ],
                    [
                        -174.0718264177381,
                        -79.05952189540865
                    ],
                    [
                        -174.06015484868473,
                        -79.04140987956559
                    ],
                    [
                        -174.0479712554945,
                        -79.02330993544034
                    ],
                    [
                        -174.03545184940464,
                        -79.00522087450915
                    ],
                    [
                        -174.02201107260544,
                        -78.98716300658192
                    ],
                    [
                        -174.008125844601,
                        -78.96911359242584
                    ],
                    [
                        -173.9946180096241,
                        -78.951052409975
                    ],
                    [
                        -173.98100781130992,
                        -78.93299734980148
                    ],
                    [
                        -173.96703133275477,
                        -78.9149521934995
                    ],
                    [
                        -173.9532041506113,
                        -78.89690902715473
                    ],
                    [
                        -173.93970944579655,
                        -78.87885329249634
                    ],
                    [
                        -173.92595089782523,
                        -78.86080490623786
                    ],
                    [
                        -173.91201191987955,
                        -78.84276093885158
                    ],
                    [
                        -173.89801031846423,
                        -78.82472378582061
                    ],
                    [
                        -173.88385764361257,
                        -78.80669158921562
                    ],
                    [
                        -173.86957075653422,
                        -78.78866924765472
                    ],
                    [
                        -173.85514131801318,
                        -78.7706473788088
                    ],
                    [
                        -173.8405442741801,
                        -78.7526300030518
                    ],
                    [
                        -173.82570580736092,
                        -78.73462468699253
                    ],
                    [
                        -173.81066408866153,
                        -78.71663217674052
                    ],
                    [
                        -173.79548096663814,
                        -78.69863539193986
                    ],
                    [
                        -173.7800732067926,
                        -78.68065085560463
                    ],
                    [
                        -173.7643932249048,
                        -78.66268206958554
                    ],
                    [
                        -173.74839207638524,
                        -78.644718731184
                    ],
                    [
                        -173.7320891961628,
                        -78.62677034382963
                    ],
                    [
                        -173.71548595602508,
                        -78.60883685204603
                    ],
                    [
                        -173.6986116715281,
                        -78.59090963845573
                    ],
                    [
                        -173.68160019157062,
                        -78.57299156093424
                    ],
                    [
                        -173.66455558745332,
                        -78.55507111291072
                    ],
                    [
                        -173.64740407514395,
                        -78.53716499192667
                    ],
                    [
                        -173.63001667973674,
                        -78.51926571142425
                    ],
                    [
                        -173.61209102125872,
                        -78.50138937979634
                    ],
                    [
                        -173.5937661411826,
                        -78.48352978167857
                    ],
                    [
                        -173.57527789510664,
                        -78.46567834841517
                    ],
                    [
                        -173.55657019938207,
                        -78.44783834393536
                    ],
                    [
                        -173.53724499061468,
                        -78.43002816798443
                    ],
                    [
                        -173.51852100056652,
                        -78.41219257164727
                    ],
                    [
                        -173.49985493969953,
                        -78.39435629082078
                    ],
                    [
                        -173.48124654353677,
                        -78.37651933210304
                    ],
                    [
                        -173.4626955491841,
                        -78.35868170205858
                    ],
                    [
                        -173.4442016953188,
                        -78.34084340721226
                    ],
                    [
                        -173.4257647221778,
                        -78.3230044540591
                    ],
                    [
                        -173.40738437154639,
                        -78.30516484905817
                    ],
                    [
                        -173.38906038674676,
                        -78.28732459863443
                    ],
                    [
                        -173.37079251262696,
                        -78.26948370917903
                    ],
                    [
                        -173.35258049554952,
                        -78.25164218704946
                    ],
                    [
                        -173.33442408338058,
                        -78.23380003856994
                    ],
                    [
                        -173.31632302547897,
                        -78.21595727003155
                    ],
                    [
                        -173.2982770726851,
                        -78.1981138876925
                    ],
                    [
                        -173.28028597731057,
                        -78.18026989777844
                    ],
                    [
                        -173.2623494931272,
                        -78.16242530648262
                    ],
                    [
                        -173.24446737535655,
                        -78.14458011996615
                    ],
                    [
                        -173.22663938065946,
                        -78.12673434435825
                    ],
                    [
                        -173.20886526712565,
                        -78.10888798575652
                    ],
                    [
                        -173.1911447942634,
                        -78.09104105022708
                    ],
                    [
                        -173.17347772298928,
                        -78.07319354380486
                    ]
                ]
            }
        }
    ]
}
