{
    "type": "FeatureCollection",
    "features": [
        {
            "type": "Feature",
            "properties": {
                "name": "George Vi",
                "object": "transect",
                "component": "landice",
                "author": "Matthew Hoffman, converted from https://github.com/yuwang115/sl-ice",
                "tags": "Antarctic_Ice_Sheet;flowline;sl-ice;george_vi"
            },
            "geometry": {
                "type": "LineString",
                "coordinates": [
                    [
                        -65.65617165598182,
                        -73.24477832306992
                    ],
                    [
                        -65.6752495156824,
                        -73.23202582585854
                    ],
                    [
                        -65.7372648875514,
                        -73.2339334186873
                    ],
                    [
                        -65.7962476581123,
                        -73.22904989836005
                    ],
                    [
                        -65.85750745668966,
                        -73.22555568922448
                    ],
                    [
                        -65.91738882735844,
                        -73.22066524768888
                    ],
                    [
                        -65.97202132657615,
                        -73.21207284394099
                    ],
                    [
                        -66.02663547287746,
                        -73.20337185643068
                    ],
                    [
                        -66.08152206117823,
                        -73.1948255553677
                    ],
                    [
                        -66.13666614770727,
                        -73.1864375328905
                    ],
                    [
                        -66.1922581150822,
                        -73.17832235157728
                    ],
                    [
                        -66.24600558856577,
                        -73.16923964733571
                    ],
                    [
                        -66.29830234765078,
                        -73.15947617905269
                    ],
                    [
                        -66.3511405467445,
                        -73.14997841317526
                    ],
                    [
                        -66.40412592251468,
                        -73.14056978883369
                    ],
                    [
                        -66.45472628471357,
                        -73.13012645538586
                    ],
                    [
                        -66.49877849071997,
                        -73.11745763542304
                    ],
                    [
                        -66.5372621480062,
                        -73.10334035657264
                    ],
                    [
                        -66.57154830596139,
                        -73.08833545573115
                    ],
                    [
                        -66.60741542022203,
                        -73.07364900918512
                    ],
                    [
                        -66.64580320172922,
                        -73.05951940380295
                    ],
                    [
                        -66.68616897414476,
                        -73.0458781523649
                    ],
                    [
                        -66.72670773639395,
                        -73.03228360197753
                    ],
                    [
                        -66.76863585995203,
                        -73.019065699028
                    ],
                    [
                        -66.81274605503782,
                        -73.00648066587276
                    ],
                    [
                        -66.8593377805885,
                        -72.99469568892647
                    ],
                    [
                        -66.90776033491369,
                        -72.98357557035537
                    ],
                    [
                        -66.95704532349976,
                        -72.97278839218444
                    ],
                    [
                        -67.00743954401081,
                        -72.9624775212954
                    ],
                    [
                        -67.05995247583905,
                        -72.95312514537075
                    ],
                    [
                        -67.11379374149143,
                        -72.94446267488122
                    ],
                    [
                        -67.16742174292132,
                        -72.93570056543898
                    ],
                    [
                        -67.22054505190259,
                        -72.92668877715899
                    ],
                    [
                        -67.2727422962105,
                        -72.9172373359876
                    ],
                    [
                        -67.32293945598856,
                        -72.9069048595886
                    ],
                    [
                        -67.37187578391296,
                        -72.89607886469216
                    ],
                    [
                        -67.41860656113352,
                        -72.88444973876467
                    ],
                    [
                        -67.46429028546967,
                        -72.87248285434914
                    ],
                    [
                        -67.50609845608018,
                        -72.85936766372872
                    ],
                    [
                        -67.5468205844781,
                        -72.84594494299522
                    ],
                    [
                        -67.59137325667116,
                        -72.83365102691691
                    ],
                    [
                        -67.63840000688826,
                        -72.82218670954757
                    ],
                    [
                        -67.68630738544864,
                        -72.81105568506231
                    ],
                    [
                        -67.73562758808376,
                        -72.80049382653671
                    ],
                    [
                        -67.78517002543842,
                        -72.79003085439659
                    ],
                    [
                        -67.83442183524278,
                        -72.77946459088443
                    ],
                    [
                        -67.88383465419935,
                        -72.76897507668954
                    ],
                    [
                        -67.93347657504395,
                        -72.75859653166854
                    ],
                    [
                        -67.98333866837298,
                        -72.74832372003084
                    ],
                    [
                        -68.03347474886877,
                        -72.73818223537275
                    ],
                    [
                        -68.08365372840355,
                        -72.7280752155553
                    ],
                    [
                        -68.13381300812688,
                        -72.71796696651258
                    ],
                    [
                        -68.18383687968635,
                        -72.70781751202145
                    ],
                    [
                        -68.2337938445897,
                        -72.69764866006588
                    ],
                    [
                        -68.2836101841324,
                        -72.68743038009913
                    ],
                    [
                        -68.33323628124039,
                        -72.6771510940619
                    ],
                    [
                        -68.38270736917546,
                        -72.66681607974165
                    ],
                    [
                        -68.43221324362175,
                        -72.65650494990346
                    ],
                    [
                        -68.4819787531786,
                        -72.64632247205252
                    ],
                    [
                        -68.53204295324902,
                        -72.63628355674189
                    ],
                    [
                        -68.58238747466947,
                        -72.62638279222766
                    ],
                    [
                        -68.63310148564585,
                        -72.61666602752
                    ],
                    [
                        -68.68412284182254,
                        -72.60711203073112
                    ],
                    [
                        -68.73557037127823,
                        -72.59777384792007
                    ],
                    [
                        -68.78753670332375,
                        -72.58870998833562
                    ],
                    [
                        -68.83989103055505,
                        -72.57986794618938
                    ],
                    [
                        -68.89277529235925,
                        -72.57132825692433
                    ],
                    [
                        -68.94673776206996,
                        -72.56343412956201
                    ],
                    [
                        -69.0017334184015,
                        -72.55623093008512
                    ],
                    [
                        -69.05855537361072,
                        -72.55048754786986
                    ],
                    [
                        -69.11729880311734,
                        -72.54692261071115
                    ],
                    [
                        -69.1757693578965,
                        -72.54833570289698
                    ],
                    [
                        -69.22798428141922,
                        -72.55692558651259
                    ],
                    [
                        -69.27763454632489,
                        -72.56703586115836
                    ],
                    [
                        -69.32684566634506,
                        -72.57734756078025
                    ],
                    [
                        -69.3783568260184,
                        -72.5866125870139
                    ],
                    [
                        -69.43278433771549,
                        -72.59423552422362
                    ],
                    [
                        -69.48933275912789,
                        -72.60035770073793
                    ],
                    [
                        -69.54675192559473,
                        -72.60573545558692
                    ],
                    [
                        -69.60372952603902,
                        -72.61153178859772
                    ],
                    [
                        -69.65980913001147,
                        -72.61808974273309
                    ],
                    [
                        -69.71586375845867,
                        -72.62468627031134
                    ],
                    [
                        -69.7724916227785,
                        -72.63083941299003
                    ],
                    [
                        -69.83005430414207,
                        -72.63616292615717
                    ],
                    [
                        -69.88862676843208,
                        -72.64041858378557
                    ],
                    [
                        -69.94782801531615,
                        -72.64387457926765
                    ],
                    [
                        -70.00722546421562,
                        -72.64700246797314
                    ],
                    [
                        -70.06661540692409,
                        -72.65018353493006
                    ],
                    [
                        -70.12613737425416,
                        -72.65312836994417
                    ],
                    [
                        -70.18580639983242,
                        -72.65584637763764
                    ],
                    [
                        -70.24507907848809,
                        -72.65923697861491
                    ],
                    [
                        -70.30348448609482,
                        -72.66380800453301
                    ],
                    [
                        -70.36182590740177,
                        -72.66846494854111
                    ],
                    [
                        -70.42070967506602,
                        -72.6724722663206
                    ],
                    [
                        -70.4804659239062,
                        -72.67503205597772
                    ],
                    [
                        -70.5408098511338,
                        -72.67527670925085
                    ],
                    [
                        -70.60112280701156,
                        -72.67420185302308
                    ],
                    [
                        -70.66128933984031,
                        -72.67257070793538
                    ],
                    [
                        -70.7214743100219,
                        -72.67122240336772
                    ],
                    [
                        -70.78162794847618,
                        -72.6725159208164
                    ],
                    [
                        -70.84200203408781,
                        -72.673175846076
                    ],
                    [
                        -70.90235905908563,
                        -72.67257793122471
                    ],
                    [
                        -70.96240585628259,
                        -72.6706410361297
                    ],
                    [
                        -71.02244290919694,
                        -72.6686515300775
                    ],
                    [
                        -71.08269649080017,
                        -72.66740630385027
                    ],
                    [
                        -71.14305106811557,
                        -72.66679838941582
                    ],
                    [
                        -71.20344635434792,
                        -72.66710997945204
                    ],
                    [
                        -71.26377168152843,
                        -72.66797045198717
                    ],
                    [
                        -71.32400426581924,
                        -72.66931236715185
                    ],
                    [
                        -71.38391883210325,
                        -72.67160478580757
                    ],
                    [
                        -71.44365324061553,
                        -72.6743271040155
                    ],
                    [
                        -71.50343945733306,
                        -72.67693921443836
                    ],
                    [
                        -71.5631626551287,
                        -72.67968791229858
                    ],
                    [
                        -71.62267419867956,
                        -72.68284776885997
                    ],
                    [
                        -71.68190035855042,
                        -72.68648054329314
                    ],
                    [
                        -71.74075353332184,
                        -72.6906210563796
                    ],
                    [
                        -71.79938117747456,
                        -72.69505141065865
                    ],
                    [
                        -71.85777367471988,
                        -72.69976872170047
                    ],
                    [
                        -71.91595774079613,
                        -72.70472534955675
                    ],
                    [
                        -71.97401312695199,
                        -72.70983620710552
                    ],
                    [
                        -72.03198028115546,
                        -72.7150540708359
                    ],
                    [
                        -72.09001643877491,
                        -72.72022371372032
                    ],
                    [
                        -72.14820601188097,
                        -72.72524630722137
                    ],
                    [
                        -72.2066026605911,
                        -72.7300796806304
                    ],
                    [
                        -72.26523189779958,
                        -72.73466290097993
                    ],
                    [
                        -72.32403162397087,
                        -72.73907516443217
                    ],
                    [
                        -72.3827068802067,
                        -72.74364951659338
                    ],
                    [
                        -72.44141364764647,
                        -72.74820607674793
                    ],
                    [
                        -72.50015182831456,
                        -72.75274482991018
                    ],
                    [
                        -72.55892132386637,
                        -72.75726576113748
                    ],
                    [
                        -72.61772203558884,
                        -72.7617688555304
                    ],
                    [
                        -72.676553864401,
                        -72.766254098233
                    ],
                    [
                        -72.73541671085452,
                        -72.77072147443296
                    ],
                    [
                        -72.79431047513428,
                        -72.77517096936188
                    ],
                    [
                        -72.85323505705894,
                        -72.77960256829535
                    ],
                    [
                        -72.91219035608152,
                        -72.78401625655334
                    ],
                    [
                        -72.97117627129003,
                        -72.78841201950029
                    ],
                    [
                        -73.03019270140807,
                        -72.79278984254533
                    ],
                    [
                        -73.08923954479536,
                        -72.79714971114255
                    ],
                    [
                        -73.1483166994485,
                        -72.80149161079112
                    ],
                    [
                        -73.20742406300148,
                        -72.8058155270356
                    ],
                    [
                        -73.26656153272643,
                        -72.81012144546608
                    ],
                    [
                        -73.32572900553419,
                        -72.81440935171837
                    ],
                    [
                        -73.384926377975,
                        -72.8186792314743
                    ],
                    [
                        -73.44415354623924,
                        -72.82293107046185
                    ],
                    [
                        -73.50341040615797,
                        -72.82716485445533
                    ]
                ]
            }
        }
    ]
}
