{
    "type": "FeatureCollection",
    "features": [
        {
            "type": "Feature",
            "properties": {
                "name": "Getz",
                "object": "transect",
                "component": "landice",
                "author": "Matthew Hoffman, converted from https://github.com/yuwang115/sl-ice",
                "tags": "Antarctic_Ice_Sheet;flowline;sl-ice;getz"
            },
            "geometry": {
                "type": "LineString",
                "coordinates": [
                    [
                        -117.08552204725281,
                        -75.9210491092266
                    ],
                    [
                        -117.09402499356081,
                        -75.93575532259594
                    ],
                    [
                        -117.16418022874038,
                        -75.94186723029533
                    ],
                    [
                        -117.23354346747652,
                        -75.94858432305008
                    ],
                    [
                        -117.30728591575844,
                        -75.94652428035086
                    ],
                    [
                        -117.3746967934346,
                        -75.9390323854285
                    ],
                    [
                        -117.43481646983042,
                        -75.92832307309929
                    ],
                    [
                        -117.47853982437412,
                        -75.91368413867373
                    ],
                    [
                        -117.50417158685543,
                        -75.89686785711665
                    ],
                    [
                        -117.49244747987858,
                        -75.87936153403844
                    ],
                    [
                        -117.45591375256579,
                        -75.86357117392957
                    ],
                    [
                        -117.42638222042096,
                        -75.84698120495891
                    ],
                    [
                        -117.40116302514657,
                        -75.82992515679531
                    ],
                    [
                        -117.36168695196756,
                        -75.81458209989188
                    ],
                    [
                        -117.32041282993298,
                        -75.79953709739262
                    ],
                    [
                        -117.26832161632143,
                        -75.78680913378612
                    ],
                    [
                        -117.22531888557586,
                        -75.77207070846104
                    ],
                    [
                        -117.17874829307847,
                        -75.75808475329781
                    ],
                    [
                        -117.12349758619956,
                        -75.74612420387784
                    ],
                    [
                        -117.06199458295671,
                        -75.73617102220989
                    ],
                    [
                        -116.9977065713678,
                        -75.7273961184601
                    ],
                    [
                        -116.93090455391466,
                        -75.71983394047948
                    ],
                    [
                        -116.86194524749612,
                        -75.71357825883837
                    ],
                    [
                        -116.79327609214084,
                        -75.70715274485946
                    ],
                    [
                        -116.7243729225441,
                        -75.70090427572845
                    ],
                    [
                        -116.65421961945319,
                        -75.69561069381668
                    ],
                    [
                        -116.58279703385628,
                        -75.69150273066242
                    ],
                    [
                        -116.51069962131156,
                        -75.68820181134497
                    ],
                    [
                        -116.43848002479513,
                        -75.68507991978743
                    ],
                    [
                        -116.36609824830468,
                        -75.68222041522284
                    ],
                    [
                        -116.29328122183317,
                        -75.68023749044374
                    ],
                    [
                        -116.22013481156387,
                        -75.67914345508397
                    ],
                    [
                        -116.14718515588358,
                        -75.67751900853418
                    ],
                    [
                        -116.07465888511038,
                        -75.67496338760148
                    ],
                    [
                        -116.00343317653368,
                        -75.67081088215076
                    ],
                    [
                        -115.93541033837892,
                        -75.66420825546487
                    ],
                    [
                        -115.87444048864499,
                        -75.65428919239297
                    ],
                    [
                        -115.82363132835808,
                        -75.64126074321122
                    ],
                    [
                        -115.77322926859325,
                        -75.62815364604614
                    ],
                    [
                        -115.71857991455774,
                        -75.61614716864163
                    ],
                    [
                        -115.65902193740341,
                        -75.60568603149719
                    ],
                    [
                        -115.60137100625985,
                        -75.59460880822971
                    ],
                    [
                        -115.53779810963134,
                        -75.58598290846307
                    ],
                    [
                        -115.47763285910007,
                        -75.57588688818278
                    ],
                    [
                        -115.426691437599,
                        -75.56406284503109
                    ],
                    [
                        -115.39219412201206,
                        -75.54811295355415
                    ],
                    [
                        -115.34479637739376,
                        -75.53447035428191
                    ],
                    [
                        -115.28717577476287,
                        -75.52352482824965
                    ],
                    [
                        -115.22576099296954,
                        -75.51390949919289
                    ],
                    [
                        -115.15557286877333,
                        -75.50984321303672
                    ],
                    [
                        -115.0860588122984,
                        -75.5058552369968
                    ],
                    [
                        -115.02187925622218,
                        -75.49752258634103
                    ],
                    [
                        -114.95442229245931,
                        -75.49102250467881
                    ],
                    [
                        -114.88475541080938,
                        -75.48619537104663
                    ],
                    [
                        -114.81427006732955,
                        -75.48218625515236
                    ],
                    [
                        -114.74317881199987,
                        -75.47902533771072
                    ],
                    [
                        -114.67113836869767,
                        -75.47782521932312
                    ],
                    [
                        -114.59891636726351,
                        -75.4772974033167
                    ],
                    [
                        -114.52697461208834,
                        -75.47567533785069
                    ],
                    [
                        -114.45517655058642,
                        -75.47366963564258
                    ],
                    [
                        -114.38350044724751,
                        -75.47144969844472
                    ],
                    [
                        -114.31230078047398,
                        -75.46845371406206
                    ],
                    [
                        -114.24286314636916,
                        -75.4636624442399
                    ],
                    [
                        -114.17753168369171,
                        -75.45602818486998
                    ],
                    [
                        -114.12126051961742,
                        -75.44473049216444
                    ],
                    [
                        -114.06966519832885,
                        -75.43208189275627
                    ],
                    [
                        -114.01922601647205,
                        -75.41915158027874
                    ],
                    [
                        -113.9690019928729,
                        -75.40617862801327
                    ],
                    [
                        -113.91965489038957,
                        -75.39300780119765
                    ],
                    [
                        -113.87528246743074,
                        -75.37878332006163
                    ],
                    [
                        -113.84354227958036,
                        -75.36255017353
                    ],
                    [
                        -113.8170575307701,
                        -75.34571622777649
                    ],
                    [
                        -113.78733341672209,
                        -75.32924650106635
                    ],
                    [
                        -113.74397511623907,
                        -75.31493013855861
                    ],
                    [
                        -113.6901151409539,
                        -75.30306648398553
                    ],
                    [
                        -113.63223250547459,
                        -75.29248077682212
                    ],
                    [
                        -113.57438281977716,
                        -75.2818891313832
                    ],
                    [
                        -113.51830063958208,
                        -75.27072314888392
                    ],
                    [
                        -113.46365716312867,
                        -75.25911062726405
                    ],
                    [
                        -113.40859218082014,
                        -75.24764191248306
                    ],
                    [
                        -113.35259504093985,
                        -75.23648624560757
                    ],
                    [
                        -113.2955205806295,
                        -75.22570204578868
                    ],
                    [
                        -113.23522567446507,
                        -75.2161687427204
                    ],
                    [
                        -113.17175613359986,
                        -75.20809139940921
                    ],
                    [
                        -113.10611361216858,
                        -75.20126296147613
                    ],
                    [
                        -113.0392968756091,
                        -75.19522786685079
                    ],
                    [
                        -112.97266143687976,
                        -75.1890727058875
                    ],
                    [
                        -112.9065111175313,
                        -75.18261547155096
                    ],
                    [
                        -112.84288729374647,
                        -75.17469441410795
                    ],
                    [
                        -112.78207850971059,
                        -75.16546696296999
                    ],
                    [
                        -112.72451544455458,
                        -75.15496501518672
                    ],
                    [
                        -112.67205551852587,
                        -75.14284672834086
                    ],
                    [
                        -112.62319235033345,
                        -75.12978565970054
                    ],
                    [
                        -112.57628032903948,
                        -75.11626502458597
                    ],
                    [
                        -112.53125882914233,
                        -75.10233654339616
                    ],
                    [
                        -112.48727652403727,
                        -75.08819972603229
                    ],
                    [
                        -112.44485208087153,
                        -75.07375968417047
                    ],
                    [
                        -112.40381462291937,
                        -75.05906367486426
                    ],
                    [
                        -112.36408503859322,
                        -75.04414023814847
                    ],
                    [
                        -112.33000167256837,
                        -75.02833752056262
                    ],
                    [
                        -112.30599373144126,
                        -75.01133457657907
                    ],
                    [
                        -112.2849243476632,
                        -74.99407054540775
                    ],
                    [
                        -112.26343577785245,
                        -74.9768431335747
                    ],
                    [
                        -112.24114057535847,
                        -74.95968761195941
                    ],
                    [
                        -112.21871737130552,
                        -74.94254562688776
                    ],
                    [
                        -112.1970818097965,
                        -74.92533951290376
                    ],
                    [
                        -112.17744213906242,
                        -74.90797516021732
                    ],
                    [
                        -112.16088960094643,
                        -74.8904000599785
                    ],
                    [
                        -112.15079359231495,
                        -74.87250688670267
                    ],
                    [
                        -112.14986745079177,
                        -74.85441390950213
                    ],
                    [
                        -112.15318601609863,
                        -74.83633672976947
                    ],
                    [
                        -112.15914279736552,
                        -74.8183071706544
                    ],
                    [
                        -112.16750779572229,
                        -74.8003436977638
                    ],
                    [
                        -112.17761844790834,
                        -74.78244177864488
                    ],
                    [
                        -112.18836274246674,
                        -74.76456633178067
                    ],
                    [
                        -112.19820804518608,
                        -74.7466568793179
                    ],
                    [
                        -112.20657108541151,
                        -74.72869649447617
                    ],
                    [
                        -112.21293725682523,
                        -74.7106797871741
                    ],
                    [
                        -112.21698129574341,
                        -74.69261933657108
                    ],
                    [
                        -112.21956852224852,
                        -74.67453899282242
                    ],
                    [
                        -112.2213377937456,
                        -74.65645236544464
                    ],
                    [
                        -112.22238147933426,
                        -74.63836249351894
                    ],
                    [
                        -112.22263260698708,
                        -74.62027204411838
                    ],
                    [
                        -112.22189044834406,
                        -74.60218259368375
                    ],
                    [
                        -112.21986193101696,
                        -74.58410193131405
                    ],
                    [
                        -112.21723786339611,
                        -74.56602768784096
                    ],
                    [
                        -112.21413997753717,
                        -74.54795658888239
                    ],
                    [
                        -112.21055253905064,
                        -74.52989637267324
                    ],
                    [
                        -112.20699108824164,
                        -74.51183395197208
                    ],
                    [
                        -112.20436569671736,
                        -74.49376274906163
                    ],
                    [
                        -112.20402055257814,
                        -74.4756790934697
                    ],
                    [
                        -112.20582282392692,
                        -74.45760153699479
                    ],
                    [
                        -112.20909892431457,
                        -74.43953952576608
                    ],
                    [
                        -112.21299996502502,
                        -74.42148790527726
                    ],
                    [
                        -112.2168543990641,
                        -74.40343619507561
                    ],
                    [
                        -112.22061183214375,
                        -74.38538214763517
                    ],
                    [
                        -112.22440223665033,
                        -74.36733004369721
                    ],
                    [
                        -112.22813588605078,
                        -74.34927804767479
                    ],
                    [
                        -112.2314749277338,
                        -74.33122248474669
                    ],
                    [
                        -112.23371435777752,
                        -74.3131545785363
                    ],
                    [
                        -112.23477881523324,
                        -74.29507922819533
                    ],
                    [
                        -112.23458964692742,
                        -74.27700367219792
                    ],
                    [
                        -112.23304069151243,
                        -74.25893333701525
                    ],
                    [
                        -112.2305869508181,
                        -74.24086895526742
                    ],
                    [
                        -112.22919598838183,
                        -74.22279836545141
                    ],
                    [
                        -112.227808247471,
                        -74.20472852559858
                    ],
                    [
                        -112.2264237169084,
                        -74.18665943656167
                    ],
                    [
                        -112.22504238556841,
                        -74.16859109919312
                    ],
                    [
                        -112.22366424237688,
                        -74.15052351434501
                    ],
                    [
                        -112.22228927631059,
                        -74.13245668286905
                    ],
                    [
                        -112.22091747639709,
                        -74.11439060561659
                    ],
                    [
                        -112.21954883171446,
                        -74.09632528343866
                    ],
                    [
                        -112.21818333139086,
                        -74.07826071718594
                    ],
                    [
                        -112.21682096460438,
                        -74.06019690770873
                    ],
                    [
                        -112.21546172058272,
                        -74.042133855857
                    ],
                    [
                        -112.21410558860285,
                        -74.0240715624804
                    ],
                    [
                        -112.21275255799083,
                        -74.00601002842818
                    ],
                    [
                        -112.21140261812138,
                        -73.98794925454928
                    ],
                    [
                        -112.21005575841778,
                        -73.96988924169229
                    ],
                    [
                        -112.20871196835151,
                        -73.95182999070545
                    ],
                    [
                        -112.20737123744189,
                        -73.93377150243663
                    ],
                    [
                        -112.20603355525596,
                        -73.9157137777334
                    ],
                    [
                        -112.20469891140813,
                        -73.89765681744299
                    ],
                    [
                        -112.20336729555991,
                        -73.87960062241224
                    ]
                ]
            }
        }
    ]
}
