{
    "type": "FeatureCollection",
    "features": [
        {
            "type": "Feature",
            "properties": {
                "name": "West Graham Land",
                "object": "transect",
                "component": "landice",
                "author": "Matthew Hoffman, converted from https://github.com/yuwang115/sl-ice",
                "tags": "Antarctic_Ice_Sheet;flowline;sl-ice;west_graham_land"
            },
            "geometry": {
                "type": "LineString",
                "coordinates": [
                    [
                        -64.79942390503066,
                        -66.46711562912637
                    ],
                    [
                        -64.8256897461812,
                        -66.45315242793917
                    ],
                    [
                        -64.84180688363037,
                        -66.43670338144348
                    ],
                    [
                        -64.85846495197303,
                        -66.42034191465326
                    ],
                    [
                        -64.8793968132388,
                        -66.40479281503849
                    ],
                    [
                        -64.89849581154093,
                        -66.38891622141188
                    ],
                    [
                        -64.91750576994481,
                        -66.37299791680523
                    ],
                    [
                        -64.94176474668251,
                        -66.35828277632663
                    ],
                    [
                        -64.97224659804313,
                        -66.34567203141214
                    ],
                    [
                        -65.00778596959312,
                        -66.33530107159169
                    ],
                    [
                        -65.04686958831688,
                        -66.32736041880729
                    ],
                    [
                        -65.08823031524514,
                        -66.3214188528008
                    ],
                    [
                        -65.11987057743617,
                        -66.30976916429285
                    ],
                    [
                        -65.12642416266868,
                        -66.29264653704985
                    ],
                    [
                        -65.11354814226624,
                        -66.27588120881396
                    ],
                    [
                        -65.09606314196587,
                        -66.25969049262149
                    ],
                    [
                        -65.08156114026349,
                        -66.24302783364335
                    ],
                    [
                        -65.06919652945706,
                        -66.22611046134857
                    ],
                    [
                        -65.06761740527342,
                        -66.20858846977718
                    ],
                    [
                        -65.0802814635446,
                        -66.19178872933364
                    ],
                    [
                        -65.10405531162282,
                        -66.1771011483794
                    ],
                    [
                        -65.1160895490484,
                        -66.16013345624278
                    ],
                    [
                        -65.12810618389541,
                        -66.14316576489573
                    ],
                    [
                        -65.14010525370196,
                        -66.12619807739311
                    ],
                    [
                        -65.15208679590265,
                        -66.10923039678286
                    ],
                    [
                        -65.16405084782893,
                        -66.09226272610597
                    ],
                    [
                        -65.17599744670947,
                        -66.07529506839657
                    ],
                    [
                        -65.18792662967041,
                        -66.05832742668184
                    ],
                    [
                        -65.19983843373582,
                        -66.04135980398219
                    ],
                    [
                        -65.21173289582795,
                        -66.02439220331117
                    ],
                    [
                        -65.2236100527676,
                        -66.0074246276755
                    ],
                    [
                        -65.23546994127449,
                        -65.99045708007516
                    ],
                    [
                        -65.24731259796752,
                        -65.97348956350332
                    ],
                    [
                        -65.25913805936516,
                        -65.95652208094644
                    ],
                    [
                        -65.27094636188578,
                        -65.93955463538427
                    ],
                    [
                        -65.28273754184794,
                        -65.92258722978983
                    ],
                    [
                        -65.29451163547081,
                        -65.9056198671295
                    ],
                    [
                        -65.30626867887439,
                        -65.888652550363
                    ],
                    [
                        -65.31800870807986,
                        -65.87168528244342
                    ],
                    [
                        -65.32973175901003,
                        -65.85471806631726
                    ],
                    [
                        -65.34143786748949,
                        -65.83775090492439
                    ]
                ]
            }
        }
    ]
}
