{
    "type": "FeatureCollection",
    "features": [
        {
            "type": "Feature",
            "properties": {
                "name": "Greenland Glacier 0018",
                "object": "transect",
                "component": "landice",
                "author": "Matthew Hoffman, converted from Felikson et al. (2020) Zenodo dataset",
                "tags": "Greenland_Ice_Sheet;flowline;zenodo_4284759;glacier_0018;upernavik_isstr\u00f8m",
                "citation": "Felikson, Denis, Catania, Ginny, Bartholomaus, Timothy, Morlighem, Mathieu, & No\u00ebl, Brice. (2020). Inland limits to diffusion of thinning along Greenland Ice Sheet outlet glaciers (v1.0) [Data set]. Zenodo. https://doi.org/10.5281/zenodo.4284759",
                "license": "CC-BY-4.0",
                "officialName": "Sermeq",
                "foreignName": "Upernavik Isstr\u00f8m"
            },
            "geometry": {
                "type": "LineString",
                "coordinates": [
                    [
                        -53.933354656615094,
                        72.76888340962904
                    ],
                    [
                        -53.93377355419435,
                        72.7711496753473
                    ],
                    [
                        -53.93817432329963,
                        72.77323042134077
                    ],
                    [
                        -53.9459039427074,
                        72.77326002048657
                    ],
                    [
                        -53.95318144944895,
                        72.7724388874468
                    ],
                    [
                        -53.96021859939338,
                        72.77116703944816
                    ],
                    [
                        -53.96664688063461,
                        72.76875323659172
                    ],
                    [
                        -53.972151570733956,
                        72.76620969649372
                    ],
                    [
                        -53.978912248975064,
                        72.76442594468288
                    ],
                    [
                        -53.985401261371926,
                        72.76213521077065
                    ],
                    [
                        -53.99311748158408,
                        72.76214712622107
                    ],
                    [
                        -54.001106996100624,
                        72.76267028916018
                    ],
                    [
                        -54.00920422992537,
                        72.76339364458434
                    ],
                    [
                        -54.01734503971514,
                        72.76419678480492
                    ],
                    [
                        -54.02544222789886,
                        72.76491672947964
                    ],
                    [
                        -54.03355355784361,
                        72.76566142645976
                    ],
                    [
                        -54.041678251154174,
                        72.76642935425392
                    ],
                    [
                        -54.04978176018574,
                        72.76715614844777
                    ],
                    [
                        -54.05775661028626,
                        72.76764208903974
                    ],
                    [
                        -54.06559815974623,
                        72.76787921852168
                    ],
                    [
                        -54.07342631677071,
                        72.76809076627146
                    ],
                    [
                        -54.081304084925215,
                        72.76839363633299
                    ],
                    [
                        -54.08921611794069,
                        72.76875914953847
                    ],
                    [
                        -54.09718927529578,
                        72.76923685365357
                    ],
                    [
                        -54.105235378195104,
                        72.76984830066584
                    ],
                    [
                        -54.11329386473444,
                        72.77048122332346
                    ],
                    [
                        -54.12130105693109,
                        72.7710180196767
                    ],
                    [
                        -54.12940193316225,
                        72.7717263202154
                    ],
                    [
                        -54.13765288594293,
                        72.7727095351789
                    ],
                    [
                        -54.14605002621367,
                        72.77395970367584
                    ],
                    [
                        -54.15473875723817,
                        72.77574335441454
                    ],
                    [
                        -54.16254414616652,
                        72.77765777293222
                    ],
                    [
                        -54.170867867743894,
                        72.77954718225247
                    ],
                    [
                        -54.17912929676174,
                        72.78143931251525
                    ],
                    [
                        -54.18734697977384,
                        72.78333328267223
                    ],
                    [
                        -54.19592320870751,
                        72.78489261487094
                    ],
                    [
                        -54.20437623164305,
                        72.78622355276318
                    ],
                    [
                        -54.21274462529163,
                        72.78739721050265
                    ],
                    [
                        -54.21274462529163,
                        72.78739721050265
                    ],
                    [
                        -54.2211141767222,
                        72.78857050978942
                    ],
                    [
                        -54.22948559887235,
                        72.78974474969395
                    ],
                    [
                        -54.237917240905574,
                        72.79102612993681
                    ],
                    [
                        -54.246377794345754,
                        72.79235740026311
                    ],
                    [
                        -54.25476201192098,
                        72.7935472300697
                    ],
                    [
                        -54.26322887904367,
                        72.79488454842446
                    ],
                    [
                        -54.31752721279162,
                        72.80314465170066
                    ],
                    [
                        -54.37187844617331,
                        72.81138969026412
                    ],
                    [
                        -54.42628255857225,
                        72.81961964082265
                    ],
                    [
                        -54.4807395289504,
                        72.82783448008279
                    ],
                    [
                        -54.535249335846814,
                        72.83603418474993
                    ],
                    [
                        -54.589811957376305,
                        72.84421873152866
                    ],
                    [
                        -54.6444273712281,
                        72.85238809712278
                    ],
                    [
                        -54.699095554664446,
                        72.86054225823567
                    ],
                    [
                        -54.753816484519355,
                        72.86868119157043
                    ],
                    [
                        -54.80859013719718,
                        72.87680487383004
                    ],
                    [
                        -54.86341648867133,
                        72.8849132817177
                    ],
                    [
                        -54.91829551448294,
                        72.89300639193688
                    ],
                    [
                        -54.97322718973952,
                        72.90108418119165
                    ],
                    [
                        -55.028211489113616,
                        72.90914662618687
                    ],
                    [
                        -55.08324838684157,
                        72.91719370362831
                    ],
                    [
                        -55.13833785672209,
                        72.925225390223
                    ],
                    [
                        -55.193479872115034,
                        72.93324166267934
                    ],
                    [
                        -55.248674405940044,
                        72.94124249770736
                    ],
                    [
                        -55.303921430675274,
                        72.94922787201895
                    ],
                    [
                        -55.359220918356044,
                        72.95719776232801
                    ]
                ]
            }
        }
    ]
}
