{
    "type": "FeatureCollection",
    "features": [
        {
            "type": "Feature",
            "properties": {
                "name": "Bindschadler",
                "object": "transect",
                "component": "landice",
                "author": "Matthew Hoffman, converted from https://github.com/yuwang115/sl-ice",
                "tags": "Antarctic_Ice_Sheet;flowline;sl-ice;bindschadler"
            },
            "geometry": {
                "type": "LineString",
                "coordinates": [
                    [
                        -114.73746918821004,
                        -79.97509364767417
                    ],
                    [
                        -114.69423387609015,
                        -79.99170814006006
                    ],
                    [
                        -114.66657513790986,
                        -80.00931289053953
                    ],
                    [
                        -114.64914011752826,
                        -80.02732898112059
                    ],
                    [
                        -114.6404555140507,
                        -80.04553537049999
                    ],
                    [
                        -114.63793705214144,
                        -80.06379932716683
                    ],
                    [
                        -114.64286020974723,
                        -80.08204803444488
                    ],
                    [
                        -114.65796036405511,
                        -80.1001338587343
                    ],
                    [
                        -114.68003180522084,
                        -80.11800591759237
                    ],
                    [
                        -114.70782322173699,
                        -80.13564666403427
                    ],
                    [
                        -114.7402373762339,
                        -80.15305588546893
                    ],
                    [
                        -114.78068909641155,
                        -80.16996079753115
                    ],
                    [
                        -114.83092340747872,
                        -80.1860917032317
                    ],
                    [
                        -114.88783003006486,
                        -80.20158389541433
                    ],
                    [
                        -114.94949038073096,
                        -80.21655104068003
                    ],
                    [
                        -115.01453338651305,
                        -80.23111217308202
                    ],
                    [
                        -115.08333667779353,
                        -80.24517744389756
                    ],
                    [
                        -115.15695512827521,
                        -80.25854205898194
                    ],
                    [
                        -115.23437388732539,
                        -80.27129416697672
                    ],
                    [
                        -115.31423570961053,
                        -80.28362858424973
                    ],
                    [
                        -115.39604809073255,
                        -80.29561840045916
                    ],
                    [
                        -115.48009377353584,
                        -80.3071756734778
                    ],
                    [
                        -115.56830610702353,
                        -80.31783593444753
                    ],
                    [
                        -115.65981981939758,
                        -80.3277065555955
                    ],
                    [
                        -115.75253275501105,
                        -80.33728200759518
                    ],
                    [
                        -115.8448626030632,
                        -80.34699019373646
                    ],
                    [
                        -115.93806989030426,
                        -80.35648099000518
                    ],
                    [
                        -116.03436700353718,
                        -80.36508016523473
                    ],
                    [
                        -116.13338753242212,
                        -80.37280761415873
                    ],
                    [
                        -116.23163644710783,
                        -80.38083386158584
                    ],
                    [
                        -116.33051684157797,
                        -80.38865978841446
                    ],
                    [
                        -116.43194303411919,
                        -80.39556121229488
                    ],
                    [
                        -116.53238124130729,
                        -80.4028786304912
                    ],
                    [
                        -116.63374623010634,
                        -80.40985666588215
                    ],
                    [
                        -116.73652390464133,
                        -80.4162698560738
                    ],
                    [
                        -116.83807062125801,
                        -80.42323892537063
                    ],
                    [
                        -116.94123701825976,
                        -80.42951943104728
                    ],
                    [
                        -117.04813037141187,
                        -80.43381170358823
                    ],
                    [
                        -117.1554573292103,
                        -80.43783963969628
                    ],
                    [
                        -117.26152766737644,
                        -80.44270332225524
                    ],
                    [
                        -117.3669847174706,
                        -80.44797727581253
                    ],
                    [
                        -117.47366515721177,
                        -80.45254753068706
                    ],
                    [
                        -117.58136958197875,
                        -80.45643355766055
                    ],
                    [
                        -117.689754098622,
                        -80.45982973746575
                    ],
                    [
                        -117.79800390302084,
                        -80.4633468568687
                    ],
                    [
                        -117.90647489449013,
                        -80.4667121512896
                    ],
                    [
                        -118.01603490765986,
                        -80.46892791016889
                    ],
                    [
                        -118.12623932581145,
                        -80.46988289017372
                    ],
                    [
                        -118.23661094564771,
                        -80.47047850330199
                    ],
                    [
                        -118.34664436258115,
                        -80.47202085445186
                    ],
                    [
                        -118.45668758149426,
                        -80.47361058121145
                    ],
                    [
                        -118.56670244922721,
                        -80.47526797094335
                    ],
                    [
                        -118.67653993077116,
                        -80.47723294090439
                    ],
                    [
                        -118.78624263467023,
                        -80.47945064504067
                    ],
                    [
                        -118.8952640120434,
                        -80.48245859506623
                    ],
                    [
                        -119.00414089683517,
                        -80.4856514538571
                    ],
                    [
                        -119.11328687897057,
                        -80.48862775114733
                    ],
                    [
                        -119.2219004943327,
                        -80.49210394870558
                    ],
                    [
                        -119.33012097407324,
                        -80.49595598068852
                    ],
                    [
                        -119.43840524118147,
                        -80.4997932796581
                    ],
                    [
                        -119.54628014203247,
                        -80.50395645827741
                    ],
                    [
                        -119.65448087137582,
                        -80.50792763416675
                    ],
                    [
                        -119.76302630008843,
                        -80.51166208769436
                    ],
                    [
                        -119.87094446020254,
                        -80.51588876367605
                    ],
                    [
                        -119.97828861149361,
                        -80.52053829369855
                    ],
                    [
                        -120.0861896335839,
                        -80.5248379453061
                    ],
                    [
                        -120.19453243620171,
                        -80.52888502885244
                    ],
                    [
                        -120.30247063420792,
                        -80.53323319636945
                    ],
                    [
                        -120.41082168236605,
                        -80.53733952463588
                    ],
                    [
                        -120.51954879506046,
                        -80.54119908672038
                    ],
                    [
                        -120.6285078429541,
                        -80.54491729084776
                    ],
                    [
                        -120.73760535686739,
                        -80.54855160947766
                    ],
                    [
                        -120.84640371581324,
                        -80.55246200788507
                    ],
                    [
                        -120.95421355455773,
                        -80.55707799175836
                    ],
                    [
                        -121.06129457542438,
                        -80.56215300696563
                    ],
                    [
                        -121.16808186876476,
                        -80.5674323915099
                    ],
                    [
                        -121.27462688670133,
                        -80.57287565803342
                    ],
                    [
                        -121.38042082584282,
                        -80.57872081570954
                    ],
                    [
                        -121.48546875670064,
                        -80.58495434960582
                    ],
                    [
                        -121.5893155236407,
                        -80.5917356055717
                    ],
                    [
                        -121.69344523690043,
                        -80.59841682235201
                    ],
                    [
                        -121.79950284622242,
                        -80.60427587101614
                    ],
                    [
                        -121.90701656108,
                        -80.60941687467947
                    ],
                    [
                        -122.01490002770622,
                        -80.61438711114418
                    ],
                    [
                        -122.12242080954856,
                        -80.61958899829942
                    ],
                    [
                        -122.23090811830369,
                        -80.62426018069192
                    ],
                    [
                        -122.34048088894217,
                        -80.62824836621634
                    ],
                    [
                        -122.45048099029039,
                        -80.63194026341452
                    ],
                    [
                        -122.55986854628848,
                        -80.63611962882982
                    ],
                    [
                        -122.66861124518556,
                        -80.64075091598296
                    ],
                    [
                        -122.77790481309808,
                        -80.645061866062
                    ],
                    [
                        -122.88855849996145,
                        -80.64838218442104
                    ],
                    [
                        -122.99994491833083,
                        -80.65099356052656
                    ],
                    [
                        -123.11191314079554,
                        -80.65284541084444
                    ],
                    [
                        -123.22383242772672,
                        -80.65486729088329
                    ],
                    [
                        -123.33513939623906,
                        -80.65762584189778
                    ],
                    [
                        -123.44615263611384,
                        -80.66076373032934
                    ],
                    [
                        -123.5581053586046,
                        -80.66284078989865
                    ],
                    [
                        -123.67039472347459,
                        -80.66443924807959
                    ],
                    [
                        -123.78257176312303,
                        -80.66627469693634
                    ],
                    [
                        -123.89446789513082,
                        -80.66852415456049
                    ],
                    [
                        -124.00632921375,
                        -80.67089347329672
                    ],
                    [
                        -124.11813330994983,
                        -80.6733370879282
                    ],
                    [
                        -124.22943168044074,
                        -80.67635394951965
                    ],
                    [
                        -124.33935692181798,
                        -80.68048142617276
                    ],
                    [
                        -124.4474281319433,
                        -80.68579399819491
                    ],
                    [
                        -124.55405281467215,
                        -80.69185924562028
                    ],
                    [
                        -124.65966169289675,
                        -80.69840065806714
                    ],
                    [
                        -124.76464142932677,
                        -80.70524278306178
                    ],
                    [
                        -124.86944632546862,
                        -80.71217901418177
                    ],
                    [
                        -124.9740507057878,
                        -80.71922845699092
                    ],
                    [
                        -125.07761223153578,
                        -80.72669052175445
                    ],
                    [
                        -125.18044907428488,
                        -80.73444413153442
                    ],
                    [
                        -125.28270152163209,
                        -80.7424234258185
                    ],
                    [
                        -125.38429423104414,
                        -80.75064841100956
                    ],
                    [
                        -125.48513583445123,
                        -80.75913545590181
                    ],
                    [
                        -125.58497312644992,
                        -80.76795113250512
                    ],
                    [
                        -125.68410580659186,
                        -80.77699524242708
                    ],
                    [
                        -125.783111510054,
                        -80.78610772373257
                    ],
                    [
                        -125.88272206334187,
                        -80.79507561343672
                    ],
                    [
                        -125.98161440507297,
                        -80.80427101270332
                    ],
                    [
                        -126.0772438982727,
                        -80.81432402568039
                    ],
                    [
                        -126.16934572471436,
                        -80.8252101143859
                    ],
                    [
                        -126.25953710772674,
                        -80.83652574533781
                    ],
                    [
                        -126.34933897936808,
                        -80.84794404917683
                    ],
                    [
                        -126.43995650323896,
                        -80.85922076588476
                    ],
                    [
                        -126.53065910819527,
                        -80.87050488151958
                    ],
                    [
                        -126.61908012590347,
                        -80.88225309275472
                    ],
                    [
                        -126.70756187707501,
                        -80.89400991837711
                    ],
                    [
                        -126.79903421493135,
                        -80.90520166273502
                    ],
                    [
                        -126.89536813121424,
                        -80.91535083527968
                    ],
                    [
                        -126.9952168969869,
                        -80.92464033379467
                    ],
                    [
                        -127.09800618900594,
                        -80.93312566911625
                    ],
                    [
                        -127.20326442840486,
                        -80.94084818819108
                    ],
                    [
                        -127.30997793243625,
                        -80.94810325459513
                    ],
                    [
                        -127.41726540988695,
                        -80.95517037644183
                    ],
                    [
                        -127.52444919536335,
                        -80.96231254788485
                    ],
                    [
                        -127.63174648835609,
                        -80.96944622637142
                    ],
                    [
                        -127.73951478987696,
                        -80.97642852750369
                    ],
                    [
                        -127.84855782528642,
                        -80.98294637934409
                    ],
                    [
                        -127.95778886584753,
                        -80.98940947498731
                    ],
                    [
                        -128.06686065988023,
                        -80.99598448449737
                    ],
                    [
                        -128.17652138476652,
                        -81.0023252319774
                    ],
                    [
                        -128.2883203997578,
                        -81.00771466004458
                    ],
                    [
                        -128.40192289599898,
                        -81.0121440806697
                    ],
                    [
                        -128.51696774397556,
                        -81.01556372939345
                    ],
                    [
                        -128.63276172591736,
                        -81.01835405098261
                    ],
                    [
                        -128.7492020722075,
                        -81.02043751806549
                    ],
                    [
                        -128.86616525304822,
                        -81.02166356528869
                    ],
                    [
                        -128.98330256609896,
                        -81.02236351234967
                    ],
                    [
                        -129.10053535497448,
                        -81.02263187696661
                    ],
                    [
                        -129.2177858080158,
                        -81.02276218549167
                    ],
                    [
                        -129.3350004772534,
                        -81.02319122218147
                    ],
                    [
                        -129.45212332036505,
                        -81.02408894075845
                    ],
                    [
                        -129.56911336654633,
                        -81.02536226073391
                    ],
                    [
                        -129.68603812539968,
                        -81.0268048032799
                    ],
                    [
                        -129.8029798536658,
                        -81.0282520528627
                    ],
                    [
                        -129.91999112094314,
                        -81.02959106307019
                    ],
                    [
                        -130.03698458931322,
                        -81.0310167758926
                    ],
                    [
                        -130.15385209998595,
                        -81.03271993664441
                    ],
                    [
                        -130.27061810100525,
                        -81.03462100214982
                    ],
                    [
                        -130.38728752042283,
                        -81.03667006992254
                    ],
                    [
                        -130.50392370115242,
                        -81.03882836751002
                    ],
                    [
                        -130.62024904613827,
                        -81.04136511414596
                    ],
                    [
                        -130.73616408070723,
                        -81.04438051403969
                    ],
                    [
                        -130.85130984799855,
                        -81.04805041291729
                    ],
                    [
                        -130.96525283673844,
                        -81.05258653032224
                    ],
                    [
                        -131.07796424483797,
                        -81.05783439443483
                    ],
                    [
                        -131.1891752071479,
                        -81.0638388429233
                    ],
                    [
                        -131.29788990304556,
                        -81.07088799804608
                    ],
                    [
                        -131.40421052221998,
                        -81.0788026622995
                    ],
                    [
                        -131.50781322447574,
                        -81.08756808933923
                    ],
                    [
                        -131.60798839391137,
                        -81.0972713499927
                    ],
                    [
                        -131.7062367067913,
                        -81.10746511240625
                    ],
                    [
                        -131.80329416991364,
                        -81.11795378693914
                    ],
                    [
                        -131.8998715571633,
                        -81.12857322447854
                    ],
                    [
                        -131.99685276039762,
                        -81.13913274090424
                    ],
                    [
                        -132.09421716399993,
                        -81.14963000558389
                    ],
                    [
                        -132.19156901106868,
                        -81.16015447020803
                    ],
                    [
                        -132.28935478044696,
                        -81.17061683507949
                    ],
                    [
                        -132.3891173608057,
                        -81.18064350950867
                    ],
                    [
                        -132.49259535694372,
                        -81.1897744517399
                    ],
                    [
                        -132.59852293052228,
                        -81.19826031236201
                    ],
                    [
                        -132.7052130156199,
                        -81.2065441419418
                    ],
                    [
                        -132.81218167464374,
                        -81.21477800010445
                    ],
                    [
                        -132.9197726745205,
                        -81.2228516137934
                    ],
                    [
                        -133.02784208019705,
                        -81.23080199827479
                    ],
                    [
                        -133.13663667406823,
                        -81.23855430352968
                    ],
                    [
                        -133.24743721603323,
                        -81.24563614479149
                    ],
                    [
                        -133.3603104318092,
                        -81.25196786003487
                    ],
                    [
                        -133.47559760849066,
                        -81.25721118936737
                    ],
                    [
                        -133.59270229359183,
                        -81.26146870906507
                    ],
                    [
                        -133.7110176059886,
                        -81.26493426921981
                    ],
                    [
                        -133.8300557130226,
                        -81.26780667401225
                    ],
                    [
                        -133.94942859308193,
                        -81.27038784294524
                    ],
                    [
                        -134.06898241220912,
                        -81.27277487973714
                    ],
                    [
                        -134.1887695414586,
                        -81.27496777365113
                    ],
                    [
                        -134.308792634666,
                        -81.27684078874242
                    ],
                    [
                        -134.42912147612404,
                        -81.27824434574025
                    ],
                    [
                        -134.54968070688543,
                        -81.27911597840485
                    ],
                    [
                        -134.6703419041796,
                        -81.27968514787912
                    ],
                    [
                        -134.7910508977202,
                        -81.27992844700927
                    ],
                    [
                        -134.91174987013318,
                        -81.27963160986685
                    ],
                    [
                        -135.0323186383442,
                        -81.27877977639547
                    ],
                    [
                        -135.1526362312777,
                        -81.27735563827927
                    ],
                    [
                        -135.27260752967436,
                        -81.27537566256204
                    ],
                    [
                        -135.3923470211219,
                        -81.27312932241237
                    ],
                    [
                        -135.51196984714142,
                        -81.27079203839487
                    ],
                    [
                        -135.63162654266208,
                        -81.26854291482395
                    ],
                    [
                        -135.7513519049847,
                        -81.26639153472013
                    ],
                    [
                        -135.87102014587808,
                        -81.26422807032708
                    ],
                    [
                        -135.9904285232542,
                        -81.26180517686956
                    ],
                    [
                        -136.1083692656917,
                        -81.2581440151402
                    ],
                    [
                        -136.22288902172266,
                        -81.25255758198327
                    ],
                    [
                        -136.33178597445917,
                        -81.24480862937796
                    ],
                    [
                        -136.43514238343096,
                        -81.23549057152516
                    ],
                    [
                        -136.53557876602457,
                        -81.2254652209135
                    ],
                    [
                        -136.63697877355784,
                        -81.21570126052825
                    ],
                    [
                        -136.7399111318449,
                        -81.20634410030998
                    ],
                    [
                        -136.84397882992818,
                        -81.19730890964406
                    ],
                    [
                        -136.95134608103191,
                        -81.18928138066644
                    ],
                    [
                        -137.062215102182,
                        -81.1824958736225
                    ],
                    [
                        -137.17493810758367,
                        -81.17649467407999
                    ],
                    [
                        -137.28921837121985,
                        -81.17126503680645
                    ],
                    [
                        -137.4046627951944,
                        -81.16671618724025
                    ],
                    [
                        -137.5205916181189,
                        -81.1624896632548
                    ],
                    [
                        -137.63789426856096,
                        -81.15934570229851
                    ],
                    [
                        -137.75571504262274,
                        -81.15671624882594
                    ],
                    [
                        -137.87376882364225,
                        -81.15438672638255
                    ],
                    [
                        -137.9921422754176,
                        -81.15253835551705
                    ],
                    [
                        -138.1108013956873,
                        -81.15123345509235
                    ],
                    [
                        -138.22965620425154,
                        -81.15057898657531
                    ],
                    [
                        -138.34859811965563,
                        -81.15082810231328
                    ],
                    [
                        -138.46741311693762,
                        -81.1517068845959
                    ],
                    [
                        -138.58617730968135,
                        -81.15279030299953
                    ],
                    [
                        -138.70492175121674,
                        -81.15395110123164
                    ],
                    [
                        -138.82358807537676,
                        -81.15531835710524
                    ],
                    [
                        -138.94225073330156,
                        -81.15674682239461
                    ],
                    [
                        -139.06101987321156,
                        -81.15798429607838
                    ],
                    [
                        -139.17987910183834,
                        -81.15903793531301
                    ],
                    [
                        -139.2988341226406,
                        -81.15982121914585
                    ],
                    [
                        -139.41790250414059,
                        -81.16013773528607
                    ],
                    [
                        -139.53696977543632,
                        -81.15999764675368
                    ],
                    [
                        -139.65595659004134,
                        -81.15935693281834
                    ],
                    [
                        -139.77485422197094,
                        -81.15836812585398
                    ],
                    [
                        -139.89366698754193,
                        -81.15719992842033
                    ],
                    [
                        -140.0123797881446,
                        -81.15588954907251
                    ],
                    [
                        -140.1310149368435,
                        -81.1544262948956
                    ],
                    [
                        -140.24960556535623,
                        -81.15291754483808
                    ],
                    [
                        -140.36814041969248,
                        -81.1513608670297
                    ],
                    [
                        -140.4862947648205,
                        -81.14925858175866
                    ],
                    [
                        -140.6041714460859,
                        -81.14683868072377
                    ],
                    [
                        -140.7217380079121,
                        -81.14412838407071
                    ],
                    [
                        -140.8388963459035,
                        -81.14104737839087
                    ],
                    [
                        -140.95566743953924,
                        -81.13769109718925
                    ],
                    [
                        -141.07219316716834,
                        -81.1341575916637
                    ],
                    [
                        -141.1884658884663,
                        -81.1304750643409
                    ],
                    [
                        -141.30453229408366,
                        -81.12666886910684
                    ],
                    [
                        -141.4204639390992,
                        -81.12281402513307
                    ],
                    [
                        -141.53624594629164,
                        -81.11888089440234
                    ],
                    [
                        -141.65195751295576,
                        -81.1149273815751
                    ],
                    [
                        -141.7675592245871,
                        -81.11094640417453
                    ],
                    [
                        -141.88303787002016,
                        -81.10691088199174
                    ],
                    [
                        -141.99841234063658,
                        -81.10284657114751
                    ],
                    [
                        -142.11368422125886,
                        -81.09873522220265
                    ],
                    [
                        -142.22895229932342,
                        -81.09466296737943
                    ],
                    [
                        -142.34431365160867,
                        -81.0907035370606
                    ],
                    [
                        -142.45976355486133,
                        -81.08682566154063
                    ],
                    [
                        -142.5753376930627,
                        -81.08308141501125
                    ],
                    [
                        -142.69094128923612,
                        -81.07939895462177
                    ],
                    [
                        -142.80653203766812,
                        -81.07572234898399
                    ],
                    [
                        -142.9221259890861,
                        -81.07210153357246
                    ],
                    [
                        -143.0376031965731,
                        -81.0684247971444
                    ],
                    [
                        -143.15293852990908,
                        -81.06468946247406
                    ],
                    [
                        -143.26816099429666,
                        -81.06089688838598
                    ],
                    [
                        -143.3832270295748,
                        -81.05702062997022
                    ],
                    [
                        -143.49787750150438,
                        -81.05291629104183
                    ],
                    [
                        -143.61208972635768,
                        -81.04852567596033
                    ],
                    [
                        -143.72605210330502,
                        -81.04403750767804
                    ],
                    [
                        -143.83974440416483,
                        -81.0394261972456
                    ],
                    [
                        -143.9532999110345,
                        -81.03475276379133
                    ],
                    [
                        -144.06634396340024,
                        -81.02982935796024
                    ],
                    [
                        -144.17882343220205,
                        -81.02463328743723
                    ],
                    [
                        -144.29047951811376,
                        -81.01905471328564
                    ],
                    [
                        -144.40143343373734,
                        -81.0131767885776
                    ],
                    [
                        -144.51160769702136,
                        -81.00697564207861
                    ],
                    [
                        -144.62067213133196,
                        -81.00036920563365
                    ],
                    [
                        -144.72879959595232,
                        -80.99340465231326
                    ],
                    [
                        -144.83586387772206,
                        -80.98608786969793
                    ],
                    [
                        -144.94182964960586,
                        -80.97840795712801
                    ],
                    [
                        -145.04692172915938,
                        -80.97048083118037
                    ],
                    [
                        -145.1513468084527,
                        -80.96236165682613
                    ],
                    [
                        -145.25492873368054,
                        -80.95401439995746
                    ],
                    [
                        -145.35780778535195,
                        -80.94548221399734
                    ],
                    [
                        -145.46015980628007,
                        -80.9368228830841
                    ],
                    [
                        -145.5618912783737,
                        -80.92800918189921
                    ],
                    [
                        -145.66301604839097,
                        -80.919052242325
                    ],
                    [
                        -145.7633871136272,
                        -80.90992258918577
                    ],
                    [
                        -145.86287694946648,
                        -80.90057317085278
                    ],
                    [
                        -145.9614472105698,
                        -80.89101754555492
                    ],
                    [
                        -146.0590023952985,
                        -80.88122562532213
                    ],
                    [
                        -146.15532807659827,
                        -80.87115924940616
                    ],
                    [
                        -146.25078502519938,
                        -80.8609119924865
                    ],
                    [
                        -146.34551446548812,
                        -80.85051946428658
                    ],
                    [
                        -146.43945873574071,
                        -80.83997406173629
                    ],
                    [
                        -146.53301291766843,
                        -80.82936309452394
                    ],
                    [
                        -146.62654992285698,
                        -80.81877093763838
                    ],
                    [
                        -146.72059708425417,
                        -80.80832274995652
                    ],
                    [
                        -146.81556411485707,
                        -80.79811742137186
                    ],
                    [
                        -146.912055718298,
                        -80.78831497473482
                    ],
                    [
                        -147.01122265971648,
                        -80.77924341996912
                    ],
                    [
                        -147.11334915410814,
                        -80.77111013302695
                    ],
                    [
                        -147.2189430331028,
                        -80.76423774609982
                    ],
                    [
                        -147.3285961611951,
                        -80.75930726206066
                    ],
                    [
                        -147.44060607131246,
                        -80.7560826823985
                    ],
                    [
                        -147.55394261754589,
                        -80.75446223664157
                    ],
                    [
                        -147.66776386953046,
                        -80.75448178250505
                    ],
                    [
                        -147.78138015536544,
                        -80.75555343666247
                    ],
                    [
                        -147.89469961341453,
                        -80.75731001021232
                    ],
                    [
                        -148.0077246227394,
                        -80.75956613925575
                    ],
                    [
                        -148.12056455009562,
                        -80.76206837169498
                    ],
                    [
                        -148.2333040356822,
                        -80.7647157385885
                    ],
                    [
                        -148.34598972848684,
                        -80.7674576176078
                    ],
                    [
                        -148.45882233918854,
                        -80.7700870288836
                    ],
                    [
                        -148.57181639230916,
                        -80.77255525925602
                    ],
                    [
                        -148.68503186374687,
                        -80.77479040556894
                    ],
                    [
                        -148.79841866323213,
                        -80.77682990440827
                    ],
                    [
                        -148.91193926484732,
                        -80.77871015651111
                    ],
                    [
                        -149.0255598620648,
                        -80.78046352761794
                    ],
                    [
                        -149.13925138558534,
                        -80.7821429711406
                    ],
                    [
                        -149.2530126801771,
                        -80.78371236032812
                    ],
                    [
                        -149.3668722821222,
                        -80.78513961774539
                    ],
                    [
                        -149.48078990799576,
                        -80.78650095017608
                    ],
                    [
                        -149.59471165548882,
                        -80.7878285586605
                    ],
                    [
                        -149.70867242599198,
                        -80.78914168378908
                    ],
                    [
                        -149.82266135289203,
                        -80.79042871844945
                    ],
                    [
                        -149.9366740273658,
                        -80.79169985842617
                    ],
                    [
                        -150.05069900076853,
                        -80.79298572171773
                    ],
                    [
                        -150.16472604878714,
                        -80.79427473653489
                    ],
                    [
                        -150.27878625558563,
                        -80.79557496901798
                    ],
                    [
                        -150.39284310194293,
                        -80.79689878326424
                    ],
                    [
                        -150.50691852923237,
                        -80.79822179076845
                    ],
                    [
                        -150.6209930309362,
                        -80.79954219438635
                    ],
                    [
                        -150.73508989033493,
                        -80.80087779249246
                    ],
                    [
                        -150.84919620255081,
                        -80.80223257336928
                    ],
                    [
                        -150.96332314757234,
                        -80.80360743157418
                    ],
                    [
                        -151.07744833490892,
                        -80.8049846034487
                    ],
                    [
                        -151.19162495325438,
                        -80.80631653942059
                    ],
                    [
                        -151.30581082123499,
                        -80.80763612021202
                    ],
                    [
                        -151.4200092377703,
                        -80.80897488860013
                    ],
                    [
                        -151.53421198029935,
                        -80.81031642668218
                    ],
                    [
                        -151.64843472936246,
                        -80.8116620491789
                    ],
                    [
                        -151.76268155837266,
                        -80.81300685798885
                    ],
                    [
                        -151.8769562986436,
                        -80.81434595007474
                    ],
                    [
                        -151.99123229484877,
                        -80.81568739028512
                    ],
                    [
                        -152.10551187960453,
                        -80.81703651912619
                    ],
                    [
                        -152.21985565457643,
                        -80.81836736528771
                    ],
                    [
                        -152.33417972243475,
                        -80.81969353766468
                    ],
                    [
                        -152.4485342989326,
                        -80.8210037523041
                    ],
                    [
                        -152.56292228585588,
                        -80.82229309363677
                    ],
                    [
                        -152.67733742641536,
                        -80.8235713512407
                    ],
                    [
                        -152.79175501785156,
                        -80.8248621977523
                    ],
                    [
                        -152.90617147568958,
                        -80.82615500289585
                    ],
                    [
                        -153.0206254439979,
                        -80.8274580086135
                    ],
                    [
                        -153.13506831093162,
                        -80.8287928342827
                    ],
                    [
                        -153.24953268092008,
                        -80.83015174936604
                    ],
                    [
                        -153.36397367104274,
                        -80.83154128516121
                    ],
                    [
                        -153.4784262914982,
                        -80.8329692484589
                    ],
                    [
                        -153.59288961334673,
                        -80.83442010079321
                    ],
                    [
                        -153.70735254665934,
                        -80.83590817612703
                    ],
                    [
                        -153.8218047135901,
                        -80.83744782324372
                    ],
                    [
                        -153.93626342581607,
                        -80.83903004913417
                    ],
                    [
                        -154.0507219615914,
                        -80.84063892573049
                    ],
                    [
                        -154.16515020899107,
                        -80.84229744644267
                    ],
                    [
                        -154.27959591315272,
                        -80.84402437248981
                    ],
                    [
                        -154.3940030366552,
                        -80.84582027343365
                    ],
                    [
                        -154.50836904804234,
                        -80.84772532052926
                    ],
                    [
                        -154.6226569173403,
                        -80.84973643807963
                    ],
                    [
                        -154.73696550235263,
                        -80.85183046705399
                    ],
                    [
                        -154.85117092226093,
                        -80.85404842488678
                    ],
                    [
                        -154.96531996786146,
                        -80.85637838970783
                    ],
                    [
                        -155.0794292322041,
                        -80.85880115187382
                    ],
                    [
                        -155.19348567016593,
                        -80.86133568685071
                    ],
                    [
                        -155.30748078294923,
                        -80.86395594591811
                    ],
                    [
                        -155.42143614593707,
                        -80.86667338021455
                    ],
                    [
                        -155.53530953190418,
                        -80.86949979067296
                    ],
                    [
                        -155.6491399614494,
                        -80.87240764547089
                    ],
                    [
                        -155.76291644692722,
                        -80.87539097062641
                    ],
                    [
                        -155.8766033051946,
                        -80.87849720435058
                    ],
                    [
                        -155.990246723819,
                        -80.88168931962778
                    ],
                    [
                        -156.1038560128503,
                        -80.88494277955101
                    ],
                    [
                        -156.21740414425528,
                        -80.88829556542507
                    ],
                    [
                        -156.33088014470323,
                        -80.89171676250872
                    ],
                    [
                        -156.4443836912408,
                        -80.89517822524678
                    ],
                    [
                        -156.55783626164524,
                        -80.89870934353661
                    ],
                    [
                        -156.67130925108924,
                        -80.90225509563321
                    ],
                    [
                        -156.78479836037693,
                        -80.90581514318572
                    ],
                    [
                        -156.8983138264333,
                        -80.90940008090583
                    ],
                    [
                        -157.01189292736305,
                        -80.91298251713502
                    ],
                    [
                        -157.1255040615133,
                        -80.91656030044149
                    ],
                    [
                        -157.23919186334945,
                        -80.92012149672664
                    ],
                    [
                        -157.3529813357187,
                        -80.92362807685923
                    ],
                    [
                        -157.4668525147024,
                        -80.92710849185613
                    ],
                    [
                        -157.58082843201404,
                        -80.93053454380106
                    ],
                    [
                        -157.6949014029627,
                        -80.93392060676858
                    ],
                    [
                        -157.8090315575416,
                        -80.9372937698729
                    ],
                    [
                        -157.92324090679637,
                        -80.9406406148507
                    ],
                    [
                        -158.03751821277876,
                        -80.9439604225469
                    ],
                    [
                        -158.15185755492922,
                        -80.94725775465108
                    ],
                    [
                        -158.2662909396797,
                        -80.95052477115856
                    ],
                    [
                        -158.3807850202136,
                        -80.95374461983972
                    ],
                    [
                        -158.49539807975543,
                        -80.95692097111622
                    ],
                    [
                        -158.61011187723332,
                        -80.96003304322343
                    ],
                    [
                        -158.72496135306378,
                        -80.96306339596588
                    ],
                    [
                        -158.83994940743526,
                        -80.96601226813148
                    ],
                    [
                        -158.95506475967355,
                        -80.96883982479234
                    ],
                    [
                        -159.07032654471215,
                        -80.97156206638331
                    ],
                    [
                        -159.18573185001117,
                        -80.97418381385734
                    ],
                    [
                        -159.30127922533006,
                        -80.97667573109719
                    ],
                    [
                        -159.41698409019656,
                        -80.97902422371114
                    ],
                    [
                        -159.53281489182234,
                        -80.98123249779562
                    ],
                    [
                        -159.6488034854545,
                        -80.98329283831418
                    ],
                    [
                        -159.76489166127058,
                        -80.98521180737966
                    ],
                    [
                        -159.88111926031513,
                        -80.98699677747064
                    ],
                    [
                        -159.99744124606363,
                        -80.98863559917093
                    ],
                    [
                        -160.1138712830355,
                        -80.99011467637989
                    ],
                    [
                        -160.23041468093987,
                        -80.9914345449353
                    ],
                    [
                        -160.3470182074284,
                        -80.99257788253426
                    ],
                    [
                        -160.46372078408018,
                        -80.99355201890621
                    ],
                    [
                        -160.5804751252735,
                        -80.99434489882371
                    ],
                    [
                        -160.6972994856058,
                        -80.99494815274461
                    ],
                    [
                        -160.81416267707587,
                        -80.9954088379814
                    ],
                    [
                        -160.9310410673746,
                        -80.99570172042556
                    ],
                    [
                        -161.04792868733355,
                        -80.99579293977847
                    ],
                    [
                        -161.16483344348427,
                        -80.99571230960926
                    ],
                    [
                        -161.28172220298737,
                        -80.99549219935138
                    ],
                    [
                        -161.39859202599976,
                        -80.99512307728857
                    ],
                    [
                        -161.51543005329688,
                        -80.99462868322405
                    ],
                    [
                        -161.63225218087368,
                        -80.99400527886607
                    ],
                    [
                        -161.749019206688,
                        -80.99327516955309
                    ],
                    [
                        -161.86577389646146,
                        -80.99244559599947
                    ],
                    [
                        -161.98246425814284,
                        -80.99150446523093
                    ],
                    [
                        -162.09908044369482,
                        -80.99041306731485
                    ],
                    [
                        -162.215640401558,
                        -80.98918704574518
                    ],
                    [
                        -162.3321012688683,
                        -80.98779093230927
                    ],
                    [
                        -162.44843598475,
                        -80.9861805876511
                    ],
                    [
                        -162.5646423859162,
                        -80.98438995750075
                    ],
                    [
                        -162.6806868326931,
                        -80.98240823330693
                    ],
                    [
                        -162.7965432654939,
                        -80.98022982684039
                    ],
                    [
                        -162.91223855770727,
                        -80.97784695659014
                    ],
                    [
                        -163.0277319509015,
                        -80.97525814949287
                    ],
                    [
                        -163.1428888392642,
                        -80.97240015865978
                    ],
                    [
                        -163.2578333829032,
                        -80.96932735922343
                    ],
                    [
                        -163.37248577099433,
                        -80.96607472429703
                    ],
                    [
                        -163.4867961619653,
                        -80.96254980491547
                    ],
                    [
                        -163.6007133266536,
                        -80.95875572731303
                    ],
                    [
                        -163.7141399091772,
                        -80.95465541729548
                    ],
                    [
                        -163.82698197431367,
                        -80.95020261970778
                    ],
                    [
                        -163.93925019427164,
                        -80.9454417023302
                    ],
                    [
                        -164.05093839910668,
                        -80.94038760320647
                    ],
                    [
                        -164.16190968534661,
                        -80.93498756500918
                    ],
                    [
                        -164.2721995227923,
                        -80.92928702992755
                    ],
                    [
                        -164.38182882370177,
                        -80.92330689636955
                    ],
                    [
                        -164.49059610829235,
                        -80.91697279171603
                    ],
                    [
                        -164.5985953047241,
                        -80.91035640609408
                    ],
                    [
                        -164.7058066638241,
                        -80.90347208487768
                    ],
                    [
                        -164.81220692612652,
                        -80.8962913437126
                    ],
                    [
                        -164.9178132056141,
                        -80.88886328388902
                    ],
                    [
                        -165.0225765430584,
                        -80.88116778742629
                    ],
                    [
                        -165.12622973215775,
                        -80.87313302509669
                    ],
                    [
                        -165.22894751970708,
                        -80.86482904392902
                    ],
                    [
                        -165.33092617877384,
                        -80.85633591657118
                    ],
                    [
                        -165.4320281614589,
                        -80.84760141781389
                    ],
                    [
                        -165.53223393257716,
                        -80.83863507200995
                    ],
                    [
                        -165.63156592298418,
                        -80.82945754780961
                    ],
                    [
                        -165.72983225676185,
                        -80.82002411606751
                    ],
                    [
                        -165.82719019272298,
                        -80.81037513018747
                    ],
                    [
                        -165.9236789148408,
                        -80.80053655085632
                    ],
                    [
                        -166.01907338081355,
                        -80.79044359648569
                    ],
                    [
                        -166.11351452678585,
                        -80.78015934551077
                    ],
                    [
                        -166.20700797416757,
                        -80.76967537744908
                    ],
                    [
                        -166.29940659597096,
                        -80.7589678744668
                    ],
                    [
                        -166.39097017365478,
                        -80.74810429343758
                    ],
                    [
                        -166.48165088292595,
                        -80.73706929762642
                    ],
                    [
                        -166.57118412785877,
                        -80.72582045719192
                    ],
                    [
                        -166.65978702292648,
                        -80.71439984259214
                    ],
                    [
                        -166.74744531948232,
                        -80.70281697878566
                    ],
                    [
                        -166.83398763009896,
                        -80.69103786179758
                    ],
                    [
                        -166.9195028418554,
                        -80.67908540130533
                    ],
                    [
                        -167.00402244308233,
                        -80.66696616598873
                    ],
                    [
                        -167.0874636413605,
                        -80.65467773428932
                    ],
                    [
                        -167.16976907043147,
                        -80.64219992239056
                    ],
                    [
                        -167.25102176771685,
                        -80.6295646561199
                    ],
                    [
                        -167.33105584167947,
                        -80.61674307172072
                    ],
                    [
                        -167.41002698794318,
                        -80.60376502459903
                    ],
                    [
                        -167.48786544519314,
                        -80.59062392947212
                    ],
                    [
                        -167.56440468743102,
                        -80.57730038764728
                    ],
                    [
                        -167.63976964027486,
                        -80.56381367673309
                    ],
                    [
                        -167.71399916573998,
                        -80.55017051882824
                    ],
                    [
                        -167.78699182181265,
                        -80.53636324133981
                    ],
                    [
                        -167.85887213126531,
                        -80.52242029474968
                    ],
                    [
                        -167.92968035760217,
                        -80.50833898652286
                    ],
                    [
                        -167.99919123182704,
                        -80.494107269141
                    ],
                    [
                        -168.06770928703696,
                        -80.47975043865593
                    ],
                    [
                        -168.1352037405977,
                        -80.465272563416
                    ],
                    [
                        -168.20164418333775,
                        -80.45067772913943
                    ],
                    [
                        -168.26705464812832,
                        -80.43596723542856
                    ],
                    [
                        -168.3314212924576,
                        -80.42114572421335
                    ],
                    [
                        -168.39445220976867,
                        -80.4061756478117
                    ],
                    [
                        -168.45626301613757,
                        -80.39108018209237
                    ],
                    [
                        -168.51699089122272,
                        -80.3758738128279
                    ],
                    [
                        -168.57662829955962,
                        -80.36055204768314
                    ],
                    [
                        -168.63521568929107,
                        -80.34513065796139
                    ],
                    [
                        -168.6926069644448,
                        -80.32959580114017
                    ],
                    [
                        -168.74883790089703,
                        -80.31394911101397
                    ],
                    [
                        -168.80401874174922,
                        -80.29820399491977
                    ],
                    [
                        -168.85815845331862,
                        -80.28237042422019
                    ],
                    [
                        -168.9110959528309,
                        -80.2664294290209
                    ],
                    [
                        -168.9629044340928,
                        -80.25038847355334
                    ],
                    [
                        -169.01364112367065,
                        -80.23425910562808
                    ],
                    [
                        -169.06303487706347,
                        -80.21801877870075
                    ],
                    [
                        -169.1112282417289,
                        -80.20168186223601
                    ],
                    [
                        -169.15829450480288,
                        -80.1852557377251
                    ],
                    [
                        -169.2041224420262,
                        -80.16873708522355
                    ],
                    [
                        -169.24893249100026,
                        -80.1521380353195
                    ],
                    [
                        -169.2927502709168,
                        -80.13546896931905
                    ],
                    [
                        -169.33534939989892,
                        -80.11871815265182
                    ],
                    [
                        -169.37683430666291,
                        -80.10188923003116
                    ],
                    [
                        -169.4169955466296,
                        -80.08497105671015
                    ],
                    [
                        -169.45569304469112,
                        -80.0679594110933
                    ],
                    [
                        -169.49339671615485,
                        -80.05087893407192
                    ],
                    [
                        -169.53007058371426,
                        -80.03374259446232
                    ],
                    [
                        -169.56541239544018,
                        -80.01652697936301
                    ],
                    [
                        -169.59968258960893,
                        -79.99924990024836
                    ],
                    [
                        -169.6329171041537,
                        -79.98191266342315
                    ],
                    [
                        -169.6649768073243,
                        -79.9645156378752
                    ],
                    [
                        -169.69607318980226,
                        -79.94706569180424
                    ],
                    [
                        -169.72619072015826,
                        -79.92956709338087
                    ],
                    [
                        -169.75517501705798,
                        -79.91201506502264
                    ],
                    [
                        -169.78333480850253,
                        -79.89442877280763
                    ],
                    [
                        -169.81051403580844,
                        -79.87678943956853
                    ],
                    [
                        -169.83650456803568,
                        -79.85910450359916
                    ],
                    [
                        -169.86168384079667,
                        -79.84138132341506
                    ],
                    [
                        -169.88605184250093,
                        -79.82362923327665
                    ],
                    [
                        -169.90945402747786,
                        -79.80583413540523
                    ],
                    [
                        -169.9320890258486,
                        -79.78801161386397
                    ],
                    [
                        -169.953707543518,
                        -79.77015385779305
                    ],
                    [
                        -169.9742029175207,
                        -79.75225291308676
                    ],
                    [
                        -169.99385445020053,
                        -79.73432687163012
                    ],
                    [
                        -170.01273635042335,
                        -79.71637344613187
                    ],
                    [
                        -170.03081289165715,
                        -79.69839615981626
                    ],
                    [
                        -170.04819359887816,
                        -79.68039846029211
                    ],
                    [
                        -170.06474169925409,
                        -79.66237604660901
                    ],
                    [
                        -170.08034700309716,
                        -79.64433008301413
                    ],
                    [
                        -170.09521349157174,
                        -79.62626233451095
                    ],
                    [
                        -170.109410399472,
                        -79.60817959691498
                    ],
                    [
                        -170.12280742645333,
                        -79.59008238397588
                    ],
                    [
                        -170.13551175111664,
                        -79.57196477228008
                    ],
                    [
                        -170.14743893964217,
                        -79.55383334091455
                    ],
                    [
                        -170.15851377390067,
                        -79.53568568040001
                    ],
                    [
                        -170.16885369058608,
                        -79.51752081208933
                    ],
                    [
                        -170.17851742003577,
                        -79.49934517543458
                    ],
                    [
                        -170.1873366927356,
                        -79.48115804075445
                    ],
                    [
                        -170.19549225795882,
                        -79.46296042274687
                    ],
                    [
                        -170.2030562772193,
                        -79.44475454844856
                    ],
                    [
                        -170.20979721512242,
                        -79.42653766368753
                    ],
                    [
                        -170.2158863520657,
                        -79.40831974988475
                    ],
                    [
                        -170.22149043356356,
                        -79.39008750548675
                    ],
                    [
                        -170.2263812724547,
                        -79.37185678387941
                    ],
                    [
                        -170.23049859549937,
                        -79.35362095307177
                    ],
                    [
                        -170.23392764290023,
                        -79.33537337213093
                    ],
                    [
                        -170.23659636247947,
                        -79.31712554581584
                    ],
                    [
                        -170.2386435891636,
                        -79.29887717525816
                    ],
                    [
                        -170.24004834090772,
                        -79.2806275001123
                    ],
                    [
                        -170.2406256823152,
                        -79.26237049687339
                    ],
                    [
                        -170.24054019659644,
                        -79.2441205801445
                    ],
                    [
                        -170.23995678908628,
                        -79.2258690549577
                    ],
                    [
                        -170.23868247266026,
                        -79.20761887899486
                    ],
                    [
                        -170.23668788057995,
                        -79.18937361249915
                    ],
                    [
                        -170.2341284700438,
                        -79.1711288925257
                    ],
                    [
                        -170.23094566781654,
                        -79.15288734395776
                    ],
                    [
                        -170.22712898386254,
                        -79.13465313403461
                    ],
                    [
                        -170.22235508043468,
                        -79.11642949983705
                    ],
                    [
                        -170.216448160321,
                        -79.09821050449447
                    ],
                    [
                        -170.2102084553707,
                        -79.08000354314524
                    ],
                    [
                        -170.20346709061363,
                        -79.06180300608017
                    ],
                    [
                        -170.19600087207448,
                        -79.0436107034072
                    ],
                    [
                        -170.1881237075156,
                        -79.02542754127045
                    ],
                    [
                        -170.17980935222775,
                        -79.007252553026
                    ],
                    [
                        -170.1709752778095,
                        -78.98908289847927
                    ],
                    [
                        -170.16162530475836,
                        -78.97092783062992
                    ],
                    [
                        -170.15179354115782,
                        -78.95277909220084
                    ],
                    [
                        -170.14144145234806,
                        -78.9346445281469
                    ],
                    [
                        -170.13048277507482,
                        -78.91652111187842
                    ],
                    [
                        -170.11878697210784,
                        -78.8984181835923
                    ],
                    [
                        -170.1069682484294,
                        -78.88032379406879
                    ],
                    [
                        -170.0944262285495,
                        -78.86224542565344
                    ],
                    [
                        -170.08151892739352,
                        -78.84417183494436
                    ],
                    [
                        -170.06798277725437,
                        -78.8261217422318
                    ],
                    [
                        -170.05389364234037,
                        -78.80808827984863
                    ],
                    [
                        -170.03733452352614,
                        -78.79013542869264
                    ],
                    [
                        -170.01948919103205,
                        -78.77223349616618
                    ],
                    [
                        -170.00153638203622,
                        -78.7543346101107
                    ],
                    [
                        -169.98322136407864,
                        -78.73644845796883
                    ],
                    [
                        -169.96455551465596,
                        -78.71857993240828
                    ],
                    [
                        -169.94563152099943,
                        -78.70072749568138
                    ],
                    [
                        -169.92638599284408,
                        -78.68288421059482
                    ],
                    [
                        -169.906816850342,
                        -78.6650591439057
                    ],
                    [
                        -169.88697062429833,
                        -78.64724917665582
                    ],
                    [
                        -169.86684806179252,
                        -78.6294495976633
                    ],
                    [
                        -169.8463609664119,
                        -78.61167107168805
                    ],
                    [
                        -169.82558712221737,
                        -78.59390695641399
                    ],
                    [
                        -169.8045006243811,
                        -78.57615621471453
                    ],
                    [
                        -169.7830363836909,
                        -78.55843028748025
                    ],
                    [
                        -169.76142361454785,
                        -78.54070946193079
                    ],
                    [
                        -169.73984732637325,
                        -78.52299570726892
                    ],
                    [
                        -169.71822140259022,
                        -78.50528128614931
                    ],
                    [
                        -169.69632351671277,
                        -78.48758126382755
                    ],
                    [
                        -169.674756343728,
                        -78.4698685707064
                    ],
                    [
                        -169.6532557646021,
                        -78.45215479049672
                    ],
                    [
                        -169.63182147740102,
                        -78.43443993161823
                    ],
                    [
                        -169.61045318197526,
                        -78.41672400244464
                    ],
                    [
                        -169.5891505799475,
                        -78.39900701130404
                    ],
                    [
                        -169.5679133746994,
                        -78.3812889664792
                    ],
                    [
                        -169.54674127135925,
                        -78.36356987620951
                    ],
                    [
                        -169.5256339767892,
                        -78.34584974868498
                    ],
                    [
                        -169.50459119957296,
                        -78.32812859205607
                    ],
                    [
                        -169.4836126500034,
                        -78.31040641442762
                    ],
                    [
                        -169.46269804007036,
                        -78.29268322386086
                    ],
                    [
                        -169.44184708344835,
                        -78.27495902837369
                    ],
                    [
                        -169.4210594954848,
                        -78.25723383594095
                    ],
                    [
                        -169.4003349931879,
                        -78.23950765449484
                    ],
                    [
                        -169.3796732952148,
                        -78.2217804919251
                    ],
                    [
                        -169.35907412185998,
                        -78.20405235607947
                    ],
                    [
                        -169.33853719504353,
                        -78.18632325476383
                    ],
                    [
                        -169.31806223829966,
                        -78.16859319574266
                    ],
                    [
                        -169.29764897676515,
                        -78.15086218673926
                    ],
                    [
                        -169.27729713716812,
                        -78.13313023543604
                    ]
                ]
            }
        }
    ]
}
