{
    "type": "FeatureCollection",
    "features": [
        {
            "type": "Feature",
            "properties": {
                "name": "Greenland Glacier 0184",
                "object": "transect",
                "component": "landice",
                "author": "Matthew Hoffman, converted from Felikson et al. (2020) Zenodo dataset",
                "tags": "Greenland_Ice_Sheet;flowline;zenodo_4284759;glacier_0184",
                "citation": "Felikson, Denis, Catania, Ginny, Bartholomaus, Timothy, Morlighem, Mathieu, & No\u00ebl, Brice. (2020). Inland limits to diffusion of thinning along Greenland Ice Sheet outlet glaciers (v1.0) [Data set]. Zenodo. https://doi.org/10.5281/zenodo.4284759",
                "license": "CC-BY-4.0"
            },
            "geometry": {
                "type": "LineString",
                "coordinates": [
                    [
                        -34.59566963671422,
                        67.26075455017843
                    ],
                    [
                        -34.593325091452314,
                        67.26284665215479
                    ],
                    [
                        -34.593201616419975,
                        67.26509658578766
                    ],
                    [
                        -34.59433836515912,
                        67.26743606280422
                    ],
                    [
                        -34.59458331958011,
                        67.26971219512161
                    ],
                    [
                        -34.59384903473359,
                        67.27191879468414
                    ],
                    [
                        -34.59261931168432,
                        67.27409022914289
                    ],
                    [
                        -34.58987595157265,
                        67.27615416680467
                    ],
                    [
                        -34.58438347799899,
                        67.2780227460583
                    ],
                    [
                        -34.57829390233621,
                        67.27984874118498
                    ],
                    [
                        -34.57267701433978,
                        67.28170819790348
                    ],
                    [
                        -34.567165182084395,
                        67.28357499798133
                    ],
                    [
                        -34.5611658762239,
                        67.28540695777933
                    ],
                    [
                        -34.55455316167886,
                        67.28701735045671
                    ],
                    [
                        -34.54810865934266,
                        67.28827302771339
                    ],
                    [
                        -34.541753454486226,
                        67.28933993982895
                    ],
                    [
                        -34.535454040191624,
                        67.29028857075454
                    ],
                    [
                        -34.529185523963314,
                        67.2911712019076
                    ],
                    [
                        -34.52295391613578,
                        67.29197540203303
                    ],
                    [
                        -34.5167667171325,
                        67.29268565860228
                    ],
                    [
                        -34.51060164964705,
                        67.29334864222174
                    ],
                    [
                        -34.504428020551636,
                        67.29402845771918
                    ],
                    [
                        -34.49824037331755,
                        67.29473644636472
                    ],
                    [
                        -34.49208058190992,
                        67.29538532934018
                    ],
                    [
                        -34.48599407158665,
                        67.29588065281956
                    ],
                    [
                        -34.47998320134127,
                        67.29621779075289
                    ],
                    [
                        -34.474021503464876,
                        67.29645206123352
                    ],
                    [
                        -34.46807282087858,
                        67.29665878335074
                    ],
                    [
                        -34.46210984550956,
                        67.29689472047912
                    ],
                    [
                        -34.456107985230034,
                        67.29721086492133
                    ],
                    [
                        -34.45007921857847,
                        67.29758222533941
                    ],
                    [
                        -34.44405094959879,
                        67.29795189016387
                    ],
                    [
                        -34.43804739324578,
                        67.29826969144146
                    ],
                    [
                        -34.43209118680765,
                        67.29848884688906
                    ],
                    [
                        -34.42619254479358,
                        67.29858839073633
                    ],
                    [
                        -34.42034951017182,
                        67.29857257677992
                    ],
                    [
                        -34.41454801200616,
                        67.29847068721384
                    ],
                    [
                        -34.40877742813503,
                        67.29830481132345
                    ],
                    [
                        -34.40302668536865,
                        67.29809791973892
                    ],
                    [
                        -34.39727306186925,
                        67.29789697249494
                    ],
                    [
                        -34.39148879620524,
                        67.297759221678
                    ],
                    [
                        -34.38567919879607,
                        67.29767361515869
                    ],
                    [
                        -34.37985836371362,
                        67.29761102725331
                    ],
                    [
                        -34.374026763452,
                        67.29757044634754
                    ],
                    [
                        -34.36819749901966,
                        67.29752487305414
                    ],
                    [
                        -34.36239778491518,
                        67.29741833834238
                    ],
                    [
                        -34.35664194953761,
                        67.29722148732321
                    ],
                    [
                        -34.35092201783105,
                        67.29695085361845
                    ],
                    [
                        -34.345237804349786,
                        67.29660693703815
                    ],
                    [
                        -34.33959332668965,
                        67.29618160816116
                    ],
                    [
                        -34.33399616699815,
                        67.29565944048122
                    ],
                    [
                        -34.3284351248598,
                        67.29506354882993
                    ],
                    [
                        -34.322897096403416,
                        67.29442090012681
                    ],
                    [
                        -34.317385221530124,
                        67.29372513330912
                    ],
                    [
                        -34.31187684163099,
                        67.2930227172924
                    ],
                    [
                        -34.30634313015926,
                        67.29237264959583
                    ],
                    [
                        -34.30074841059802,
                        67.2918478185869
                    ],
                    [
                        -34.29509651651604,
                        67.29144019490025
                    ],
                    [
                        -34.28939994138007,
                        67.29112406925645
                    ],
                    [
                        -34.283657135301915,
                        67.2909024606359
                    ],
                    [
                        -34.27788239938268,
                        67.29074602938884
                    ],
                    [
                        -34.272100933832455,
                        67.29060326669573
                    ],
                    [
                        -34.266326702534464,
                        67.29044568265081
                    ],
                    [
                        -34.26056484882328,
                        67.2902628215438
                    ],
                    [
                        -34.25482739205088,
                        67.29003024751695
                    ],
                    [
                        -34.249128223074656,
                        67.28971976747033
                    ],
                    [
                        -34.243458204267284,
                        67.28935009376566
                    ],
                    [
                        -34.23779760365425,
                        67.28896143927476
                    ],
                    [
                        -34.23212899324371,
                        67.28858925042488
                    ],
                    [
                        -34.226422019279305,
                        67.28829515292938
                    ],
                    [
                        -34.22071373323073,
                        67.28800380744435
                    ],
                    [
                        -34.215017765846184,
                        67.28768755337138
                    ],
                    [
                        -34.20932622767381,
                        67.28736242889748
                    ],
                    [
                        -34.203625640929666,
                        67.28705576489135
                    ],
                    [
                        -34.19793168986548,
                        67.28673575974032
                    ],
                    [
                        -34.19225168066118,
                        67.28638764167533
                    ],
                    [
                        -34.18658107164317,
                        67.28602064538553
                    ],
                    [
                        -34.18091459440645,
                        67.28564545603369
                    ],
                    [
                        -34.17525128050625,
                        67.28526404402535
                    ],
                    [
                        -34.169586061202224,
                        67.28488666019574
                    ],
                    [
                        -34.16391489086873,
                        67.2845214679651
                    ],
                    [
                        -34.15822735786555,
                        67.28418946266697
                    ],
                    [
                        -34.15249601753636,
                        67.28394595610116
                    ],
                    [
                        -34.14666422192552,
                        67.2839050205572
                    ],
                    [
                        -34.14067106283998,
                        67.28418905460343
                    ],
                    [
                        -34.13454395100689,
                        67.28474229582329
                    ],
                    [
                        -34.12833646618735,
                        67.2854564264591
                    ],
                    [
                        -34.12209323522429,
                        67.28624139104883
                    ],
                    [
                        -34.11584904477272,
                        67.2870271338806
                    ],
                    [
                        -34.10966694664554,
                        67.28768699221719
                    ],
                    [
                        -34.10358460042512,
                        67.28814558816636
                    ],
                    [
                        -34.09761968895939,
                        67.28836779723534
                    ],
                    [
                        -34.09183434861148,
                        67.28822941301627
                    ],
                    [
                        -34.08633425277492,
                        67.28751920005223
                    ],
                    [
                        -34.08108417182406,
                        67.28630857828283
                    ],
                    [
                        -34.076049920572046,
                        67.28466667617624
                    ],
                    [
                        -34.07121620089578,
                        67.28262464282834
                    ],
                    [
                        -34.066527820312245,
                        67.28029337919841
                    ],
                    [
                        -34.061908035222146,
                        67.27782672246259
                    ],
                    [
                        -34.05748645300112,
                        67.27523346735383
                    ],
                    [
                        -34.05397203995014,
                        67.27270788077631
                    ],
                    [
                        -34.051115641381124,
                        67.27023140879702
                    ],
                    [
                        -34.048738098125895,
                        67.2677906966518
                    ],
                    [
                        -34.046851930919615,
                        67.26538671660963
                    ],
                    [
                        -34.045512161618646,
                        67.26302361953503
                    ],
                    [
                        -34.04467056713315,
                        67.26069782110213
                    ],
                    [
                        -34.0442402839898,
                        67.25840283421351
                    ],
                    [
                        -34.04405030499614,
                        67.256125860235
                    ],
                    [
                        -34.04391270992231,
                        67.2538528254874
                    ],
                    [
                        -34.0435792458484,
                        67.25156512879079
                    ],
                    [
                        -34.042797882485026,
                        67.24924387586583
                    ],
                    [
                        -34.04138604410709,
                        67.24687536304846
                    ],
                    [
                        -34.039327106324,
                        67.24445831101178
                    ],
                    [
                        -34.039327106324,
                        67.24445831101178
                    ],
                    [
                        -34.037268617147596,
                        67.24204125009703
                    ],
                    [
                        -34.03479070073744,
                        67.23959267625223
                    ],
                    [
                        -34.032117463338245,
                        67.23712937953076
                    ],
                    [
                        -34.02928880056088,
                        67.23465434008303
                    ],
                    [
                        -34.026536562830536,
                        67.23218496054928
                    ],
                    [
                        -34.024159532318706,
                        67.22974369756903
                    ],
                    [
                        -34.021952354914085,
                        67.22731514385602
                    ],
                    [
                        -34.01973423627412,
                        67.22488571825285
                    ],
                    [
                        -34.0167439594952,
                        67.222398168048
                    ],
                    [
                        -34.011994259336895,
                        67.22022485870858
                    ],
                    [
                        -34.00687826826488,
                        67.21878416327006
                    ],
                    [
                        -34.00165872577129,
                        67.21755115312793
                    ],
                    [
                        -33.996401513094966,
                        67.21639421814227
                    ],
                    [
                        -33.991126970164586,
                        67.21527272613895
                    ],
                    [
                        -33.9858395631782,
                        67.21417773388461
                    ],
                    [
                        -33.98053705946836,
                        67.21311365075282
                    ],
                    [
                        -33.97521510946696,
                        67.21208909064141
                    ],
                    [
                        -33.96986645264811,
                        67.21111844172493
                    ],
                    [
                        -33.96448843211309,
                        67.21020691241033
                    ],
                    [
                        -33.9590721530046,
                        67.20937209705242
                    ],
                    [
                        -33.953609559054044,
                        67.2086298900482
                    ],
                    [
                        -33.9481010035395,
                        67.2079794576705
                    ],
                    [
                        -33.94255455401905,
                        67.20740465757596
                    ],
                    [
                        -33.93698583050752,
                        67.20687439784527
                    ],
                    [
                        -33.931387244597836,
                        67.20640365567013
                    ],
                    [
                        -33.92576337149956,
                        67.20598327652995
                    ],
                    [
                        -33.920121829087904,
                        67.20559809786118
                    ],
                    [
                        -33.914463450536644,
                        67.20524641695236
                    ],
                    [
                        -33.90877140235414,
                        67.20496148563471
                    ],
                    [
                        -33.903041508441895,
                        67.20475145843751
                    ],
                    [
                        -33.89726581355059,
                        67.20463194027258
                    ],
                    [
                        -33.89142540080315,
                        67.20464015295471
                    ],
                    [
                        -33.88550102536526,
                        67.20481388183039
                    ],
                    [
                        -33.87943136244628,
                        67.20527384629395
                    ],
                    [
                        -33.873102277818994,
                        67.20624459786882
                    ],
                    [
                        -33.86667630390961,
                        67.20801803887086
                    ],
                    [
                        -33.862279649839785,
                        67.20994621876906
                    ],
                    [
                        -33.858360737802464,
                        67.21191081963937
                    ],
                    [
                        -33.85481138544133,
                        67.2139036093278
                    ],
                    [
                        -33.85123039993077,
                        67.21589395919831
                    ],
                    [
                        -33.84731409871277,
                        67.21785866096
                    ],
                    [
                        -33.84246698679813,
                        67.21975217120298
                    ],
                    [
                        -33.836689395867424,
                        67.22157443703345
                    ],
                    [
                        -33.83042015516086,
                        67.22335894098846
                    ],
                    [
                        -33.823858473086425,
                        67.22512087803679
                    ],
                    [
                        -33.81722140794704,
                        67.22687683974061
                    ],
                    [
                        -33.8106481666236,
                        67.22830584622686
                    ],
                    [
                        -33.80419589445101,
                        67.22949612539554
                    ],
                    [
                        -33.79804948411457,
                        67.23008644017244
                    ],
                    [
                        -33.79196250174382,
                        67.2305596718314
                    ],
                    [
                        -33.785875718831626,
                        67.23103175693609
                    ],
                    [
                        -33.77987427556275,
                        67.23133642629509
                    ],
                    [
                        -33.77392510567967,
                        67.23153850194538
                    ],
                    [
                        -33.7681000712131,
                        67.23149796536266
                    ],
                    [
                        -33.76230156257741,
                        67.23140552145728
                    ],
                    [
                        -33.756473768293105,
                        67.23137001501809
                    ],
                    [
                        -33.75075390952377,
                        67.23112408565811
                    ],
                    [
                        -33.7049567891472,
                        67.23012713771948
                    ],
                    [
                        -33.65916381154858,
                        67.2291160124736
                    ],
                    [
                        -33.61337503466123,
                        67.22809071200386
                    ],
                    [
                        -33.56759051638639,
                        67.22705123842253
                    ],
                    [
                        -33.521810314592756,
                        67.22599759387064
                    ],
                    [
                        -33.47603448711608,
                        67.22492978051807
                    ],
                    [
                        -33.43026309175872,
                        67.22384780056342
                    ],
                    [
                        -33.38449618628922,
                        67.22275165623411
                    ],
                    [
                        -33.33873382844185,
                        67.22164134978622
                    ],
                    [
                        -33.29297607591625,
                        67.22051688350464
                    ],
                    [
                        -33.24722298637689,
                        67.21937825970286
                    ],
                    [
                        -33.201474617452725,
                        67.2182254807231
                    ],
                    [
                        -33.15573102673676,
                        67.21705854893622
                    ],
                    [
                        -33.10999227178557,
                        67.2158774667417
                    ],
                    [
                        -33.064258410118946,
                        67.21468223656761
                    ],
                    [
                        -33.018529499219404,
                        67.21347286087065
                    ],
                    [
                        -32.972805596531785,
                        67.21224934213602
                    ],
                    [
                        -32.927086759462846,
                        67.21101168287751
                    ],
                    [
                        -32.88137304538082,
                        67.20975988563741
                    ],
                    [
                        -32.83566451161499,
                        67.20849395298644
                    ]
                ]
            }
        }
    ]
}
