{
    "type": "FeatureCollection",
    "features": [
        {
            "type": "Feature",
            "properties": {
                "name": "Support Force",
                "object": "transect",
                "component": "landice",
                "author": "Matthew Hoffman, converted from https://github.com/yuwang115/sl-ice",
                "tags": "Antarctic_Ice_Sheet;flowline;sl-ice;support_force"
            },
            "geometry": {
                "type": "LineString",
                "coordinates": [
                    [
                        -28.192273800244376,
                        -85.84227705067391
                    ],
                    [
                        -28.43872755913628,
                        -85.8379934434101
                    ],
                    [
                        -28.68269130523886,
                        -85.83309456546789
                    ],
                    [
                        -28.9242405663967,
                        -85.8276733361879
                    ],
                    [
                        -29.162680744586947,
                        -85.82162842648684
                    ],
                    [
                        -29.397788825786257,
                        -85.8149974528617
                    ],
                    [
                        -29.630561030205612,
                        -85.80799749840614
                    ],
                    [
                        -29.865025986856537,
                        -85.80139175271613
                    ],
                    [
                        -30.102837476595585,
                        -85.79554096002393
                    ],
                    [
                        -30.342852493669167,
                        -85.79026902388625
                    ],
                    [
                        -30.5838326994243,
                        -85.78529943170606
                    ],
                    [
                        -30.82445451400146,
                        -85.78032856364362
                    ],
                    [
                        -31.06413687791321,
                        -85.7751743351285
                    ],
                    [
                        -31.302529410350832,
                        -85.76978532080086
                    ],
                    [
                        -31.53992752554881,
                        -85.76422100274196
                    ],
                    [
                        -31.776801456861502,
                        -85.75862275687874
                    ],
                    [
                        -32.01471136970296,
                        -85.75334024124629
                    ],
                    [
                        -32.25451243066836,
                        -85.74862487184195
                    ],
                    [
                        -32.495289268481145,
                        -85.74427491135538
                    ],
                    [
                        -32.73510138411004,
                        -85.73970412111069
                    ],
                    [
                        -32.971797277306415,
                        -85.73440309684945
                    ],
                    [
                        -33.202304603527224,
                        -85.727830377117
                    ],
                    [
                        -33.42435195678907,
                        -85.71984577588971
                    ],
                    [
                        -33.63793446867765,
                        -85.7107485125404
                    ],
                    [
                        -33.837810618518034,
                        -85.7000951473729
                    ],
                    [
                        -34.03261535906064,
                        -85.68896034904206
                    ],
                    [
                        -34.2267380411911,
                        -85.67780390897073
                    ],
                    [
                        -34.41820245444418,
                        -85.66644329627091
                    ],
                    [
                        -34.60575742173418,
                        -85.65475775627263
                    ],
                    [
                        -34.794326246176105,
                        -85.64322143185395
                    ],
                    [
                        -34.98842653349057,
                        -85.6322785057106
                    ],
                    [
                        -35.18953976268385,
                        -85.62214581144765
                    ],
                    [
                        -35.39580611563507,
                        -85.61269418060942
                    ],
                    [
                        -35.60798915028728,
                        -85.60410895553686
                    ],
                    [
                        -35.82434384312855,
                        -85.59621114770736
                    ],
                    [
                        -36.040793657561274,
                        -85.58839633558676
                    ],
                    [
                        -36.25440640506902,
                        -85.58019126209385
                    ],
                    [
                        -36.45870861635214,
                        -85.57074143071242
                    ],
                    [
                        -36.65492896614883,
                        -85.56036893746281
                    ],
                    [
                        -36.845534403280894,
                        -85.54943692256546
                    ],
                    [
                        -37.034313188496455,
                        -85.53835972197392
                    ],
                    [
                        -37.22291671749958,
                        -85.52731275794343
                    ],
                    [
                        -37.40940965334517,
                        -85.51609724916177
                    ],
                    [
                        -37.588916972880824,
                        -85.5042545754861
                    ],
                    [
                        -37.761057620982555,
                        -85.49179771464652
                    ],
                    [
                        -37.926393656225706,
                        -85.4788235658639
                    ],
                    [
                        -38.08826674355823,
                        -85.46561065091791
                    ],
                    [
                        -38.24984906252203,
                        -85.45241710217348
                    ],
                    [
                        -38.41250046091548,
                        -85.43933569033756
                    ],
                    [
                        -38.5753835935203,
                        -85.42631662142396
                    ],
                    [
                        -38.73609452108449,
                        -85.41316177081893
                    ],
                    [
                        -38.8939437705353,
                        -85.39981927350715
                    ],
                    [
                        -39.04959426856841,
                        -85.38634848867012
                    ],
                    [
                        -39.20587630653024,
                        -85.37295850530793
                    ],
                    [
                        -39.36333870328848,
                        -85.35969800948672
                    ],
                    [
                        -39.523355337834694,
                        -85.34667317253142
                    ],
                    [
                        -39.688393247344735,
                        -85.33410613991448
                    ],
                    [
                        -39.858356605257946,
                        -85.32202295087964
                    ],
                    [
                        -40.02811498512441,
                        -85.30995591925432
                    ],
                    [
                        -40.19710094036568,
                        -85.29785789836662
                    ],
                    [
                        -40.36477763907467,
                        -85.2856825037238
                    ],
                    [
                        -40.53446257680794,
                        -85.27375540167425
                    ],
                    [
                        -40.71348239400289,
                        -85.26282053882663
                    ],
                    [
                        -40.8884637068299,
                        -85.25149627720829
                    ],
                    [
                        -41.05261504610011,
                        -85.23914221190621
                    ],
                    [
                        -41.21087653308896,
                        -85.22631536441467
                    ],
                    [
                        -41.36317365434178,
                        -85.21302756840514
                    ],
                    [
                        -41.514332644767016,
                        -85.19968137350986
                    ],
                    [
                        -41.66338430709459,
                        -85.18620610688127
                    ],
                    [
                        -41.80570093859972,
                        -85.17225772588739
                    ],
                    [
                        -41.94812652407121,
                        -85.15834394714526
                    ],
                    [
                        -42.08642315341689,
                        -85.14416841473701
                    ],
                    [
                        -42.211880900452925,
                        -85.12919720585252
                    ],
                    [
                        -42.341252430095516,
                        -85.11449076689698
                    ],
                    [
                        -42.485495665953536,
                        -85.10085779509677
                    ],
                    [
                        -42.63450183186385,
                        -85.08761825458187
                    ],
                    [
                        -42.78400450131773,
                        -85.07445287335321
                    ],
                    [
                        -42.92815517620742,
                        -85.06089495192975
                    ],
                    [
                        -43.069281089550294,
                        -85.04712671130606
                    ],
                    [
                        -43.20866592255188,
                        -85.0332553282491
                    ],
                    [
                        -43.34728628216789,
                        -85.01935882404534
                    ],
                    [
                        -43.48250536535735,
                        -85.00524029437365
                    ],
                    [
                        -43.610901646636776,
                        -84.99066951139987
                    ],
                    [
                        -43.73736132303152,
                        -84.97599818633545
                    ],
                    [
                        -43.86468693688496,
                        -84.96140686789671
                    ],
                    [
                        -43.98930264376116,
                        -84.94666254639402
                    ],
                    [
                        -44.10922179454339,
                        -84.93163844258966
                    ],
                    [
                        -44.22988210177814,
                        -84.91669033831381
                    ],
                    [
                        -44.347745173369695,
                        -84.90158798701087
                    ],
                    [
                        -44.46196353621897,
                        -84.88628458993394
                    ],
                    [
                        -44.574833849433254,
                        -84.87092177880841
                    ],
                    [
                        -44.685505677582356,
                        -84.85545224696806
                    ],
                    [
                        -44.7929764214403,
                        -84.83982012380912
                    ],
                    [
                        -44.894913600798375,
                        -84.82390891477407
                    ],
                    [
                        -44.992292134539426,
                        -84.8077815489025
                    ],
                    [
                        -45.08751276527038,
                        -84.79156501923055
                    ],
                    [
                        -45.17784805916276,
                        -84.77513624388405
                    ],
                    [
                        -45.26205824937939,
                        -84.75844772533527
                    ],
                    [
                        -45.342698941801814,
                        -84.74162450315812
                    ],
                    [
                        -45.420230795903095,
                        -84.7246876997862
                    ],
                    [
                        -45.49511768055256,
                        -84.70766271223533
                    ],
                    [
                        -45.56996030743958,
                        -84.69064416438054
                    ],
                    [
                        -45.64662249249958,
                        -84.67370602663573
                    ],
                    [
                        -45.72340069127163,
                        -84.65678132384181
                    ],
                    [
                        -45.79905671660213,
                        -84.63982152466606
                    ],
                    [
                        -45.873460636870476,
                        -84.62282325735846
                    ],
                    [
                        -45.94896699122894,
                        -84.60587742473834
                    ],
                    [
                        -46.01878437141,
                        -84.58873124308613
                    ],
                    [
                        -46.082145210881926,
                        -84.57136726612246
                    ],
                    [
                        -46.15240256466042,
                        -84.55425259624774
                    ],
                    [
                        -46.2312916285652,
                        -84.53748826413013
                    ],
                    [
                        -46.311153329949484,
                        -84.52077305432891
                    ],
                    [
                        -46.38756696548131,
                        -84.50392187324752
                    ],
                    [
                        -46.463383405584196,
                        -84.4870582884262
                    ],
                    [
                        -46.54044044511748,
                        -84.47025239363474
                    ],
                    [
                        -46.617337747016876,
                        -84.45345609775904
                    ],
                    [
                        -46.692248191570776,
                        -84.43658171989284
                    ],
                    [
                        -46.76703694831392,
                        -84.41971337997053
                    ],
                    [
                        -46.84236607433382,
                        -84.40287495172292
                    ],
                    [
                        -46.91482593339654,
                        -84.38593176649452
                    ],
                    [
                        -46.98211438998822,
                        -84.36879005587174
                    ],
                    [
                        -47.04479448741,
                        -84.3514919292652
                    ],
                    [
                        -47.097782686056505,
                        -84.33389362877337
                    ],
                    [
                        -47.14594434699043,
                        -84.31615805183708
                    ],
                    [
                        -47.19835462410068,
                        -84.29854696067886
                    ],
                    [
                        -47.254467323072184,
                        -84.28105465985615
                    ],
                    [
                        -47.31152025453128,
                        -84.26359553063476
                    ],
                    [
                        -47.36563364141784,
                        -84.2460514388481
                    ],
                    [
                        -47.41519618767936,
                        -84.22837423159798
                    ],
                    [
                        -47.46185051537667,
                        -84.2106263306934
                    ],
                    [
                        -47.50713276909435,
                        -84.19284266269497
                    ],
                    [
                        -47.55202913703004,
                        -84.1750555072124
                    ],
                    [
                        -47.60397640239646,
                        -84.15747229914349
                    ],
                    [
                        -47.662316920726596,
                        -84.14010234074745
                    ],
                    [
                        -47.7112007719433,
                        -84.12244267859435
                    ],
                    [
                        -47.753142907436064,
                        -84.10459290330354
                    ],
                    [
                        -47.79383018246606,
                        -84.08671735695864
                    ],
                    [
                        -47.83005615278031,
                        -84.0687430448655
                    ],
                    [
                        -47.860466377844915,
                        -84.0506552904192
                    ],
                    [
                        -47.880887929589704,
                        -84.03241931375835
                    ],
                    [
                        -47.89693115160442,
                        -84.01413709848536
                    ],
                    [
                        -47.90482352388674,
                        -83.99580132713321
                    ],
                    [
                        -47.91852533057902,
                        -83.97750007652904
                    ],
                    [
                        -47.92431204571316,
                        -83.95915710363994
                    ],
                    [
                        -47.929717285779795,
                        -83.94081103922612
                    ],
                    [
                        -47.94582209971191,
                        -83.92253488007862
                    ],
                    [
                        -47.96563174356359,
                        -83.90429873042537
                    ],
                    [
                        -47.980507272146276,
                        -83.88600894550612
                    ],
                    [
                        -47.98511883455079,
                        -83.8676614521567
                    ],
                    [
                        -47.98482336356048,
                        -83.84930771218436
                    ],
                    [
                        -47.98334137666335,
                        -83.83094793467117
                    ],
                    [
                        -47.979095426721344,
                        -83.81260206907992
                    ],
                    [
                        -47.96891132555536,
                        -83.79428084569258
                    ],
                    [
                        -47.96202698923327,
                        -83.77594156697187
                    ],
                    [
                        -47.95095237251279,
                        -83.75762753853384
                    ],
                    [
                        -47.935621488341916,
                        -83.73934816683055
                    ],
                    [
                        -47.91414353677899,
                        -83.72114760176741
                    ],
                    [
                        -47.892854076874734,
                        -83.70294416107795
                    ],
                    [
                        -47.875591952417956,
                        -83.68468936561261
                    ],
                    [
                        -47.862727427036695,
                        -83.66639307405502
                    ],
                    [
                        -47.85586680281748,
                        -83.64805563509584
                    ],
                    [
                        -47.851465420528214,
                        -83.62970894880802
                    ],
                    [
                        -47.846950759512694,
                        -83.61136590472215
                    ],
                    [
                        -47.84183312332895,
                        -83.59302272221757
                    ],
                    [
                        -47.83759795302133,
                        -83.57467961972426
                    ],
                    [
                        -47.8315650407429,
                        -83.55633977003963
                    ],
                    [
                        -47.828835178378114,
                        -83.537991741859
                    ],
                    [
                        -47.83025142514942,
                        -83.51964047279169
                    ],
                    [
                        -47.83689510274338,
                        -83.50130630122027
                    ],
                    [
                        -47.843066330799346,
                        -83.4829722165734
                    ],
                    [
                        -47.84640160410622,
                        -83.46462695697277
                    ],
                    [
                        -47.847246047286134,
                        -83.446276550768
                    ],
                    [
                        -47.83999040619233,
                        -83.42794521839112
                    ],
                    [
                        -47.83480853931681,
                        -83.4096051502702
                    ],
                    [
                        -47.83060879986402,
                        -83.39126447542226
                    ],
                    [
                        -47.825341625975256,
                        -83.37292640769667
                    ],
                    [
                        -47.815624965056,
                        -83.35461412320352
                    ],
                    [
                        -47.80370741102182,
                        -83.33631739097714
                    ],
                    [
                        -47.787906659633165,
                        -83.31806712026992
                    ],
                    [
                        -47.764038122634304,
                        -83.29993670772744
                    ],
                    [
                        -47.73403783746398,
                        -83.28192815155231
                    ],
                    [
                        -47.70158800144049,
                        -83.26397929639869
                    ],
                    [
                        -47.66844257867767,
                        -83.24605220660595
                    ],
                    [
                        -47.63663921452913,
                        -83.22809218603804
                    ],
                    [
                        -47.60234748884433,
                        -83.21020378476071
                    ],
                    [
                        -47.56203273739971,
                        -83.19249101638498
                    ],
                    [
                        -47.52275912947639,
                        -83.17474878929023
                    ],
                    [
                        -47.48089738584176,
                        -83.15710056393458
                    ],
                    [
                        -47.446844394189384,
                        -83.13921103432017
                    ],
                    [
                        -47.416127496189844,
                        -83.12123985357768
                    ],
                    [
                        -47.39088636834784,
                        -83.1031488899969
                    ],
                    [
                        -47.36710600289056,
                        -83.08503214429724
                    ],
                    [
                        -47.33806356375347,
                        -83.06702745425498
                    ],
                    [
                        -47.30655513984534,
                        -83.04908601165475
                    ],
                    [
                        -47.273496147768505,
                        -83.03118676153608
                    ],
                    [
                        -47.23703878009102,
                        -83.01338752096075
                    ],
                    [
                        -47.197358656021144,
                        -82.99569455820539
                    ],
                    [
                        -47.15574162883041,
                        -82.978072666045
                    ],
                    [
                        -47.11234355789314,
                        -82.96052000667937
                    ],
                    [
                        -47.06515107528361,
                        -82.94311640503417
                    ],
                    [
                        -47.0147941182117,
                        -82.92585740255234
                    ],
                    [
                        -46.961391567717904,
                        -82.90873826742246
                    ],
                    [
                        -46.90603297204865,
                        -82.89172365047085
                    ],
                    [
                        -46.84897795725979,
                        -82.8748014276588
                    ],
                    [
                        -46.79297741527353,
                        -82.85783441126738
                    ],
                    [
                        -46.73667769555477,
                        -82.8408903028519
                    ],
                    [
                        -46.67881257374107,
                        -82.82403131514572
                    ],
                    [
                        -46.620707758204254,
                        -82.80719311669779
                    ],
                    [
                        -46.56201274354147,
                        -82.79039817058015
                    ],
                    [
                        -46.50133886331054,
                        -82.77372147704595
                    ],
                    [
                        -46.439806210965656,
                        -82.75710290023379
                    ],
                    [
                        -46.37625843579344,
                        -82.74061753966491
                    ],
                    [
                        -46.30610358382089,
                        -82.72457997534596
                    ],
                    [
                        -46.22990518001353,
                        -82.7089959730656
                    ],
                    [
                        -46.152255857369795,
                        -82.69354208013777
                    ],
                    [
                        -46.07352824943261,
                        -82.6781925898137
                    ],
                    [
                        -45.99441749585641,
                        -82.66288307187143
                    ],
                    [
                        -45.91619406751085,
                        -82.6475166333326
                    ],
                    [
                        -45.84099743637401,
                        -82.63191847715379
                    ],
                    [
                        -45.770823548158674,
                        -82.6159536960805
                    ],
                    [
                        -45.70774797512241,
                        -82.5995130120436
                    ],
                    [
                        -45.647250073691104,
                        -82.5829216511667
                    ],
                    [
                        -45.59054361023766,
                        -82.56611934663998
                    ],
                    [
                        -45.54189653175086,
                        -82.54891105664392
                    ],
                    [
                        -45.49943956094426,
                        -82.53142658429674
                    ],
                    [
                        -45.46195548982964,
                        -82.51375579133241
                    ],
                    [
                        -45.430210724239096,
                        -82.49589850210407
                    ],
                    [
                        -45.397297413307506,
                        -82.47807871642041
                    ],
                    [
                        -45.36283897137405,
                        -82.46031332330833
                    ],
                    [
                        -45.32615195865971,
                        -82.4426277325401
                    ],
                    [
                        -45.28779591949214,
                        -82.42500609152032
                    ],
                    [
                        -45.248041342053035,
                        -82.40744454479206
                    ],
                    [
                        -45.206349613171525,
                        -82.38996627252052
                    ],
                    [
                        -45.16430316126294,
                        -82.37250269449672
                    ],
                    [
                        -45.12223529692087,
                        -82.35504969721326
                    ],
                    [
                        -45.08068017954286,
                        -82.33757604194248
                    ],
                    [
                        -45.04028902228373,
                        -82.32006040640064
                    ],
                    [
                        -45.0015140290728,
                        -82.30248171054846
                    ],
                    [
                        -44.96486634450954,
                        -82.28482486442506
                    ],
                    [
                        -44.92971106103906,
                        -82.26711945350793
                    ],
                    [
                        -44.89625008414321,
                        -82.24935551421373
                    ],
                    [
                        -44.865263695956166,
                        -82.23151230187709
                    ],
                    [
                        -44.83700355392579,
                        -82.2135904502133
                    ],
                    [
                        -44.811952766454,
                        -82.19558359269244
                    ],
                    [
                        -44.789942075679726,
                        -82.17750323474786
                    ],
                    [
                        -44.769938515957655,
                        -82.15938492869954
                    ],
                    [
                        -44.75247374454071,
                        -82.1412143782103
                    ],
                    [
                        -44.73840487986359,
                        -82.12299309441711
                    ],
                    [
                        -44.72663269337281,
                        -82.10474274234296
                    ],
                    [
                        -44.71672722768679,
                        -82.08646712128474
                    ],
                    [
                        -44.71065183568002,
                        -82.0681645078292
                    ],
                    [
                        -44.706656060526505,
                        -82.04985199258807
                    ],
                    [
                        -44.70387506368229,
                        -82.03153291496453
                    ],
                    [
                        -44.70295286720612,
                        -82.01321295333199
                    ],
                    [
                        -44.703513965379884,
                        -81.99489056431258
                    ],
                    [
                        -44.705232451587,
                        -81.97657069831294
                    ],
                    [
                        -44.70772073240833,
                        -81.9582543662407
                    ],
                    [
                        -44.711010590441795,
                        -81.9399389900372
                    ],
                    [
                        -44.714474358116654,
                        -81.92162605890692
                    ],
                    [
                        -44.718083312039575,
                        -81.90331425451865
                    ],
                    [
                        -44.72133188561471,
                        -81.88500193213191
                    ],
                    [
                        -44.723101273224415,
                        -81.86668380230745
                    ],
                    [
                        -44.72278934373794,
                        -81.84836464725795
                    ],
                    [
                        -44.720678735229434,
                        -81.83005177337549
                    ],
                    [
                        -44.716158725291976,
                        -81.81174406633718
                    ],
                    [
                        -44.70877312392614,
                        -81.79345794084999
                    ],
                    [
                        -44.69888943698669,
                        -81.77519673814581
                    ],
                    [
                        -44.68653755864499,
                        -81.75696611043655
                    ],
                    [
                        -44.67089917587835,
                        -81.7387890981728
                    ],
                    [
                        -44.65264320103003,
                        -81.72066458048447
                    ],
                    [
                        -44.63156618022854,
                        -81.70260299432113
                    ],
                    [
                        -44.60674403939456,
                        -81.68464438943745
                    ],
                    [
                        -44.578342501460604,
                        -81.6667998560633
                    ],
                    [
                        -44.546476498970925,
                        -81.64907842580482
                    ],
                    [
                        -44.51147760726228,
                        -81.6314873948463
                    ],
                    [
                        -44.474200064318104,
                        -81.61400112431086
                    ],
                    [
                        -44.43500775296728,
                        -81.59660325910049
                    ],
                    [
                        -44.39336441806978,
                        -81.57933702521454
                    ],
                    [
                        -44.34962410639513,
                        -81.56218598954227
                    ],
                    [
                        -44.30366446449019,
                        -81.5451647138283
                    ],
                    [
                        -44.25535037074301,
                        -81.52828828097552
                    ],
                    [
                        -44.20527858079027,
                        -81.51153560545937
                    ],
                    [
                        -44.15368234825025,
                        -81.49488768012213
                    ],
                    [
                        -44.10065133769458,
                        -81.47834728088895
                    ],
                    [
                        -44.046266047145615,
                        -81.46191330667114
                    ],
                    [
                        -43.990721375155424,
                        -81.44556815166804
                    ],
                    [
                        -43.93344635859337,
                        -81.42936599305338
                    ],
                    [
                        -43.87545491586005,
                        -81.41323126568707
                    ],
                    [
                        -43.81621992718115,
                        -81.39720792212466
                    ],
                    [
                        -43.75509837036027,
                        -81.381352783518
                    ],
                    [
                        -43.69264232741601,
                        -81.36562337525957
                    ],
                    [
                        -43.62894654394194,
                        -81.35001995312062
                    ],
                    [
                        -43.56374436532435,
                        -81.33456670737465
                    ],
                    [
                        -43.49746166382266,
                        -81.31923274025719
                    ],
                    [
                        -43.430066433488186,
                        -81.30402115891323
                    ],
                    [
                        -43.36177074878797,
                        -81.28891019386538
                    ],
                    [
                        -43.292714039254875,
                        -81.273896024376
                    ],
                    [
                        -43.22261115326331,
                        -81.2590053002531
                    ],
                    [
                        -43.15148055359091,
                        -81.24424132997791
                    ],
                    [
                        -43.07953648765352,
                        -81.22958446943628
                    ],
                    [
                        -43.00668888283602,
                        -81.21504469912392
                    ],
                    [
                        -42.933073752553454,
                        -81.20060726633493
                    ],
                    [
                        -42.85899389060653,
                        -81.18624746850931
                    ],
                    [
                        -42.7843918262319,
                        -81.17195943067507
                    ],
                    [
                        -42.708821354018234,
                        -81.15780866171525
                    ],
                    [
                        -42.632674221793636,
                        -81.14374905555104
                    ],
                    [
                        -42.556220973800286,
                        -81.1297443947334
                    ],
                    [
                        -42.47904354172219,
                        -81.11584856628224
                    ],
                    [
                        -42.40144982602897,
                        -81.10202627724368
                    ],
                    [
                        -42.323522285274116,
                        -81.08826677314747
                    ],
                    [
                        -42.245371016583846,
                        -81.07455050680919
                    ],
                    [
                        -42.1669274407637,
                        -81.06089551818084
                    ],
                    [
                        -42.08814484689746,
                        -81.0473031179386
                    ],
                    [
                        -42.00906573675449,
                        -81.03376946943635
                    ],
                    [
                        -41.930038582209114,
                        -81.02024539008826
                    ],
                    [
                        -41.85095241028611,
                        -81.00674997280383
                    ],
                    [
                        -41.77138090164673,
                        -80.99333895491593
                    ],
                    [
                        -41.69177649048929,
                        -80.979949943866
                    ],
                    [
                        -41.61234282952939,
                        -80.96655557573882
                    ],
                    [
                        -41.533081142476156,
                        -80.95315071931701
                    ],
                    [
                        -41.45400951276265,
                        -80.9397401301925
                    ],
                    [
                        -41.37524824215635,
                        -80.92629849087152
                    ],
                    [
                        -41.29731820659498,
                        -80.91275476993471
                    ],
                    [
                        -41.220157814722754,
                        -80.89911658157449
                    ],
                    [
                        -41.1435065859251,
                        -80.8854263132962
                    ],
                    [
                        -41.0675873136275,
                        -80.8716484066716
                    ],
                    [
                        -40.992562702199265,
                        -80.85776303468137
                    ],
                    [
                        -40.918395287726185,
                        -80.84377806368025
                    ],
                    [
                        -40.84525590577486,
                        -80.82967260898607
                    ],
                    [
                        -40.7734376290375,
                        -80.8154066147134
                    ],
                    [
                        -40.703250990507456,
                        -80.80095344288806
                    ],
                    [
                        -40.635155037752654,
                        -80.78626127306883
                    ],
                    [
                        -40.56913750809917,
                        -80.77133829219747
                    ],
                    [
                        -40.50526287782334,
                        -80.75619167563816
                    ],
                    [
                        -40.44431609071653,
                        -80.74074768328289
                    ],
                    [
                        -40.38609424938939,
                        -80.72504159167543
                    ],
                    [
                        -40.3311550982495,
                        -80.70904259954916
                    ],
                    [
                        -40.2809700382383,
                        -80.6926519686082
                    ],
                    [
                        -40.23490244943595,
                        -80.67595161112952
                    ],
                    [
                        -40.19309868962787,
                        -80.65896612569705
                    ],
                    [
                        -40.157109450304034,
                        -80.64163948368201
                    ],
                    [
                        -40.12629760488133,
                        -80.6240558653384
                    ],
                    [
                        -40.10064550313391,
                        -80.60625245127932
                    ],
                    [
                        -40.08113745120191,
                        -80.58824526947465
                    ],
                    [
                        -40.06657497725119,
                        -80.57011817809294
                    ],
                    [
                        -40.056696958315776,
                        -80.55190158698004
                    ],
                    [
                        -40.05193302867034,
                        -80.53363549742224
                    ],
                    [
                        -40.0511910115653,
                        -80.51534908886381
                    ],
                    [
                        -40.05425061239998,
                        -80.4970733190426
                    ],
                    [
                        -40.061293355065594,
                        -80.47882397523317
                    ],
                    [
                        -40.07128684278483,
                        -80.46061493588127
                    ],
                    [
                        -40.0840150035348,
                        -80.44245347773965
                    ],
                    [
                        -40.100000592856276,
                        -80.4243618938761
                    ],
                    [
                        -40.11836590811636,
                        -80.40633851719903
                    ],
                    [
                        -40.13890923759052,
                        -80.3883796297496
                    ],
                    [
                        -40.16215786178273,
                        -80.37051517003106
                    ],
                    [
                        -40.187671144426346,
                        -80.35273791108006
                    ],
                    [
                        -40.21515560257452,
                        -80.33504661617235
                    ],
                    [
                        -40.24492500559276,
                        -80.31746413398581
                    ],
                    [
                        -40.27596982393562,
                        -80.29994546721728
                    ],
                    [
                        -40.308040804480534,
                        -80.2824842882633
                    ],
                    [
                        -40.34103518647354,
                        -80.26507634577695
                    ],
                    [
                        -40.37458454573303,
                        -80.24769820613463
                    ],
                    [
                        -40.408630644448216,
                        -80.23035411469554
                    ],
                    [
                        -40.44320090143418,
                        -80.21304560069028
                    ],
                    [
                        -40.47795618179577,
                        -80.19575174062776
                    ],
                    [
                        -40.51280452694131,
                        -80.17846410738936
                    ],
                    [
                        -40.54767301696385,
                        -80.16118363285878
                    ],
                    [
                        -40.58240359738274,
                        -80.14389977614755
                    ],
                    [
                        -40.61702008386323,
                        -80.12661156975216
                    ],
                    [
                        -40.65134531221558,
                        -80.10931152513014
                    ],
                    [
                        -40.6853732123522,
                        -80.09199961773157
                    ],
                    [
                        -40.718975723381035,
                        -80.07466258771638
                    ],
                    [
                        -40.75218826298714,
                        -80.0573100476847
                    ],
                    [
                        -40.78499202998772,
                        -80.03993794786157
                    ],
                    [
                        -40.81738553660501,
                        -80.0225457030261
                    ],
                    [
                        -40.84923184893175,
                        -80.00512648718986
                    ],
                    [
                        -40.88052670722994,
                        -79.98767906337952
                    ],
                    [
                        -40.91139375572621,
                        -79.9702167404615
                    ],
                    [
                        -40.9420561496117,
                        -79.95274365694985
                    ],
                    [
                        -40.97246958935989,
                        -79.93526188972754
                    ],
                    [
                        -41.00266525837097,
                        -79.91777056599973
                    ],
                    [
                        -41.03271514337659,
                        -79.90027707074249
                    ],
                    [
                        -41.06252032257211,
                        -79.88277245567913
                    ],
                    [
                        -41.0922049652626,
                        -79.86526213837995
                    ],
                    [
                        -41.12150455328647,
                        -79.84773843864394
                    ],
                    [
                        -41.150487148713715,
                        -79.83020094004279
                    ],
                    [
                        -41.179191197309144,
                        -79.8126488571929
                    ],
                    [
                        -41.207303321747,
                        -79.79507402498339
                    ],
                    [
                        -41.23479635917683,
                        -79.77746911663847
                    ],
                    [
                        -41.26168296740277,
                        -79.75983762942691
                    ],
                    [
                        -41.28799070494541,
                        -79.74218193195262
                    ],
                    [
                        -41.313715627958864,
                        -79.72450078541758
                    ],
                    [
                        -41.33879995841965,
                        -79.70679168722286
                    ],
                    [
                        -41.363138362009884,
                        -79.68905484020283
                    ],
                    [
                        -41.38684231316065,
                        -79.67129162827626
                    ],
                    [
                        -41.40988621599599,
                        -79.65350186256777
                    ],
                    [
                        -41.432137665429444,
                        -79.63568286423119
                    ],
                    [
                        -41.45379610525191,
                        -79.6178402128699
                    ],
                    [
                        -41.474997005096164,
                        -79.59998455518235
                    ],
                    [
                        -41.49566644457933,
                        -79.58210866454237
                    ],
                    [
                        -41.5157677047636,
                        -79.56421285299345
                    ],
                    [
                        -41.535324049313836,
                        -79.54630003622773
                    ],
                    [
                        -41.55424312122345,
                        -79.52836733023761
                    ],
                    [
                        -41.572553505830015,
                        -79.5104131829464
                    ],
                    [
                        -41.590324298723196,
                        -79.49244164898612
                    ],
                    [
                        -41.607392218471524,
                        -79.47445166574207
                    ],
                    [
                        -41.623974525232256,
                        -79.45644888615118
                    ],
                    [
                        -41.64010673266504,
                        -79.43842921426587
                    ],
                    [
                        -41.6557886141144,
                        -79.42040045020221
                    ],
                    [
                        -41.67104427165919,
                        -79.40236030660003
                    ],
                    [
                        -41.685876244837594,
                        -79.38430755513811
                    ],
                    [
                        -41.7001252536957,
                        -79.36624312304318
                    ],
                    [
                        -41.71397874722915,
                        -79.34816969400526
                    ],
                    [
                        -41.72748165527745,
                        -79.33008389542296
                    ],
                    [
                        -41.74048051511917,
                        -79.31199188941144
                    ],
                    [
                        -41.75309773655983,
                        -79.2938885375973
                    ],
                    [
                        -41.76529577342262,
                        -79.27577799552755
                    ],
                    [
                        -41.776768427764274,
                        -79.2576480262862
                    ],
                    [
                        -41.7876371702782,
                        -79.23950964121015
                    ],
                    [
                        -41.79785797701955,
                        -79.22135853363903
                    ],
                    [
                        -41.807290065772555,
                        -79.20319197059904
                    ],
                    [
                        -41.816107879372275,
                        -79.18501568302563
                    ],
                    [
                        -41.8243657158026,
                        -79.16683090482003
                    ],
                    [
                        -41.83226405486883,
                        -79.1486423267397
                    ],
                    [
                        -41.83994094162812,
                        -79.13045268799597
                    ],
                    [
                        -41.84722850684222,
                        -79.11225507764027
                    ],
                    [
                        -41.85425295763163,
                        -79.09405663195666
                    ],
                    [
                        -41.860948393287366,
                        -79.07585408615064
                    ],
                    [
                        -41.867191486099266,
                        -79.057644225631
                    ],
                    [
                        -41.87305432197944,
                        -79.03943232721811
                    ],
                    [
                        -41.87861073076369,
                        -79.02121593059108
                    ],
                    [
                        -41.88384726339381,
                        -79.00300006605211
                    ],
                    [
                        -41.88847432932881,
                        -78.98477461974446
                    ],
                    [
                        -41.89265744220681,
                        -78.96654970745688
                    ],
                    [
                        -41.896528273864135,
                        -78.9483202347369
                    ],
                    [
                        -41.90001704091283,
                        -78.93008870247921
                    ],
                    [
                        -41.90277636973142,
                        -78.91185536511412
                    ],
                    [
                        -41.904945374445134,
                        -78.89361519667533
                    ],
                    [
                        -41.90638429936045,
                        -78.87537576551222
                    ],
                    [
                        -41.90729069023142,
                        -78.85713652525979
                    ],
                    [
                        -41.90771724149143,
                        -78.8388973595486
                    ],
                    [
                        -41.90733983794248,
                        -78.82065872556811
                    ],
                    [
                        -41.906135912136534,
                        -78.80242034268832
                    ],
                    [
                        -41.90426524875538,
                        -78.7841831945612
                    ],
                    [
                        -41.902018037975104,
                        -78.76595223278228
                    ],
                    [
                        -41.899547241714515,
                        -78.74771936070925
                    ],
                    [
                        -41.89687575717742,
                        -78.72948932480783
                    ],
                    [
                        -41.894143370993845,
                        -78.71126101215518
                    ],
                    [
                        -41.89116619284143,
                        -78.6930337512337
                    ],
                    [
                        -41.88819484578861,
                        -78.67480890768103
                    ],
                    [
                        -41.885315797320956,
                        -78.65658224306506
                    ],
                    [
                        -41.882383798116415,
                        -78.6383560807203
                    ],
                    [
                        -41.8794735845481,
                        -78.6201331580121
                    ],
                    [
                        -41.87666533065023,
                        -78.60190659491312
                    ],
                    [
                        -41.873924617996614,
                        -78.58368119321058
                    ],
                    [
                        -41.87129656160161,
                        -78.56545744804203
                    ],
                    [
                        -41.86869365666416,
                        -78.54723248163336
                    ],
                    [
                        -41.8661538994265,
                        -78.52900929278982
                    ],
                    [
                        -41.863726324339765,
                        -78.51078519491763
                    ],
                    [
                        -41.86147525008636,
                        -78.49255961040384
                    ],
                    [
                        -41.85936013649892,
                        -78.47433598180491
                    ],
                    [
                        -41.85725513545997,
                        -78.45611229132722
                    ],
                    [
                        -41.85529874345335,
                        -78.43788812981413
                    ],
                    [
                        -41.85352194817314,
                        -78.41966514185692
                    ],
                    [
                        -41.8517319276135,
                        -78.4014412081355
                    ],
                    [
                        -41.85009787445271,
                        -78.38321884947919
                    ],
                    [
                        -41.84843813309172,
                        -78.3649928330492
                    ],
                    [
                        -41.84675302877587,
                        -78.34677413252194
                    ],
                    [
                        -41.845001672019976,
                        -78.32854938396396
                    ],
                    [
                        -41.84312073838427,
                        -78.3103301368487
                    ],
                    [
                        -41.84111857252467,
                        -78.29211131340844
                    ],
                    [
                        -41.83898273615954,
                        -78.27389405636325
                    ],
                    [
                        -41.83666031848721,
                        -78.25567711572594
                    ],
                    [
                        -41.834059489314946,
                        -78.23746395865149
                    ],
                    [
                        -41.83115109650453,
                        -78.21925036238518
                    ],
                    [
                        -41.82792260166568,
                        -78.2010413212834
                    ],
                    [
                        -41.824255829333254,
                        -78.18283675493136
                    ],
                    [
                        -41.8201845099299,
                        -78.16463571740017
                    ],
                    [
                        -41.81577311858729,
                        -78.14643890695146
                    ],
                    [
                        -41.81090932353775,
                        -78.12825016264776
                    ],
                    [
                        -41.805509227349035,
                        -78.1100633108958
                    ],
                    [
                        -41.79986124153612,
                        -78.09188420103611
                    ],
                    [
                        -41.79399277770064,
                        -78.07370796143074
                    ],
                    [
                        -41.787985951197456,
                        -78.05553423038083
                    ],
                    [
                        -41.78200112742037,
                        -78.037359055796
                    ],
                    [
                        -41.77608428740744,
                        -78.01918538743004
                    ],
                    [
                        -41.770185496312365,
                        -78.0010121736245
                    ],
                    [
                        -41.76430467179991,
                        -77.98283941582181
                    ],
                    [
                        -41.75844173203409,
                        -77.96466711546078
                    ],
                    [
                        -41.75259659567446,
                        -77.94649527397647
                    ],
                    [
                        -41.746769181872295,
                        -77.92832389280035
                    ],
                    [
                        -41.74095941026697,
                        -77.9101529733602
                    ],
                    [
                        -41.73516720098224,
                        -77.89198251708025
                    ],
                    [
                        -41.729392474622585,
                        -77.8738125253811
                    ],
                    [
                        -41.72363515226967,
                        -77.85564299967987
                    ],
                    [
                        -41.71789515547869,
                        -77.8374739413901
                    ],
                    [
                        -41.71217240627492,
                        -77.81930535192184
                    ],
                    [
                        -41.70646682715009,
                        -77.80113723268168
                    ],
                    [
                        -41.700778341059014,
                        -77.78296958507275
                    ],
                    [
                        -41.69510687141609,
                        -77.76480241049472
                    ],
                    [
                        -41.689452342091876,
                        -77.74663571034395
                    ],
                    [
                        -41.68381467740975,
                        -77.72846948601331
                    ],
                    [
                        -41.67819380214249,
                        -77.71030373889239
                    ],
                    [
                        -41.672589641509006,
                        -77.69213847036742
                    ],
                    [
                        -41.66700212117099,
                        -77.67397368182134
                    ]
                ]
            }
        }
    ]
}
