{
    "type": "FeatureCollection",
    "features": [
        {
            "type": "Feature",
            "properties": {
                "name": "Frost",
                "object": "transect",
                "component": "landice",
                "author": "Matthew Hoffman, converted from https://github.com/yuwang115/sl-ice",
                "tags": "Antarctic_Ice_Sheet;flowline;sl-ice;frost"
            },
            "geometry": {
                "type": "LineString",
                "coordinates": [
                    [
                        127.36582761763728,
                        -70.9480597310892
                    ],
                    [
                        127.37654226536783,
                        -70.9304843865525
                    ],
                    [
                        127.38765646856761,
                        -70.91293400521724
                    ],
                    [
                        127.39901320025513,
                        -70.89540808205172
                    ],
                    [
                        127.41088256779493,
                        -70.87791199919437
                    ],
                    [
                        127.42316240741437,
                        -70.86045402950788
                    ],
                    [
                        127.43584589787807,
                        -70.84302424300355
                    ],
                    [
                        127.44920013308169,
                        -70.82565659378051
                    ],
                    [
                        127.46331307447308,
                        -70.80834523628177
                    ],
                    [
                        127.47802263352861,
                        -70.79110218066012
                    ],
                    [
                        127.49367858982636,
                        -70.77394570972754
                    ],
                    [
                        127.51015107720762,
                        -70.75687960537489
                    ],
                    [
                        127.52722810210365,
                        -70.73987217079826
                    ],
                    [
                        127.54472639687866,
                        -70.7229185493997
                    ],
                    [
                        127.56260947912119,
                        -70.70601068379486
                    ],
                    [
                        127.58112394025248,
                        -70.68918145831285
                    ],
                    [
                        127.60053459513577,
                        -70.6724644550745
                    ],
                    [
                        127.62055195755862,
                        -70.65583105018425
                    ],
                    [
                        127.64117469859399,
                        -70.63928101589887
                    ],
                    [
                        127.66244513303718,
                        -70.62282555783126
                    ],
                    [
                        127.68442439328892,
                        -70.60647665706553
                    ],
                    [
                        127.70721705603485,
                        -70.5902576796203
                    ],
                    [
                        127.73073199881364,
                        -70.57415171533603
                    ],
                    [
                        127.75497364205121,
                        -70.55816826318012
                    ],
                    [
                        127.78013350595356,
                        -70.54235341618632
                    ],
                    [
                        127.8060418645973,
                        -70.52667095444212
                    ],
                    [
                        127.83240359562262,
                        -70.51108904080203
                    ],
                    [
                        127.85885160809617,
                        -70.49551557098503
                    ],
                    [
                        127.88464861516809,
                        -70.4798304464992
                    ],
                    [
                        127.90917757733924,
                        -70.46392852620177
                    ],
                    [
                        127.93243028131444,
                        -70.44781312662663
                    ],
                    [
                        127.95450178571956,
                        -70.43151731621414
                    ],
                    [
                        127.9758604137996,
                        -70.41511820318098
                    ],
                    [
                        127.99646203438317,
                        -70.39861099490203
                    ],
                    [
                        128.01578001599552,
                        -70.38193599077258
                    ],
                    [
                        128.03320419504567,
                        -70.36503340558428
                    ],
                    [
                        128.04898875751695,
                        -70.34794596301404
                    ],
                    [
                        128.0639246682542,
                        -70.3307733037403
                    ],
                    [
                        128.0785673532149,
                        -70.31357972333585
                    ],
                    [
                        128.09325842927043,
                        -70.29638878740654
                    ],
                    [
                        128.10851531249799,
                        -70.27925664220635
                    ],
                    [
                        128.12439013076806,
                        -70.26219167365488
                    ],
                    [
                        128.14096159400373,
                        -70.24520651172429
                    ],
                    [
                        128.15852629897603,
                        -70.228335340969
                    ],
                    [
                        128.17718428117843,
                        -70.21160745272456
                    ],
                    [
                        128.1970479595651,
                        -70.1950430244679
                    ],
                    [
                        128.21840792025625,
                        -70.17868845285072
                    ],
                    [
                        128.24087724393266,
                        -70.16251495201082
                    ],
                    [
                        128.26401758512358,
                        -70.14645679195426
                    ],
                    [
                        128.28758014612072,
                        -70.13047193665932
                    ],
                    [
                        128.3112983128708,
                        -70.11451775539679
                    ],
                    [
                        128.33468761583745,
                        -70.0985080717893
                    ],
                    [
                        128.35665795461784,
                        -70.08227562706644
                    ],
                    [
                        128.376005352841,
                        -70.06566820113494
                    ],
                    [
                        128.3918122727613,
                        -70.04863432680682
                    ],
                    [
                        128.40263541674037,
                        -70.03114632310562
                    ],
                    [
                        128.41046086058273,
                        -70.01347406546081
                    ],
                    [
                        128.41602920967904,
                        -69.99570420808017
                    ],
                    [
                        128.41810818921203,
                        -69.9778484646479
                    ],
                    [
                        128.41771146465288,
                        -69.95998170371246
                    ],
                    [
                        128.41570944741358,
                        -69.94212540985312
                    ],
                    [
                        128.41350798989023,
                        -69.92426834396169
                    ],
                    [
                        128.41157834990338,
                        -69.90641329394522
                    ],
                    [
                        128.40981037192003,
                        -69.88855591977288
                    ],
                    [
                        128.40789773144792,
                        -69.8706999504161
                    ],
                    [
                        128.4057659043295,
                        -69.85284875478455
                    ],
                    [
                        128.40344171127936,
                        -69.83500655009944
                    ],
                    [
                        128.40114408403733,
                        -69.81715344154767
                    ],
                    [
                        128.39930061351217,
                        -69.79930335664623
                    ],
                    [
                        128.3982166822139,
                        -69.78144633436646
                    ],
                    [
                        128.3982024886197,
                        -69.76358218807697
                    ],
                    [
                        128.3989933010542,
                        -69.74572584852147
                    ],
                    [
                        128.40063321722104,
                        -69.72787598183452
                    ],
                    [
                        128.40380079550314,
                        -69.7100503538178
                    ],
                    [
                        128.40878256843342,
                        -69.69228278232603
                    ],
                    [
                        128.41593834886558,
                        -69.67460361297643
                    ],
                    [
                        128.42588675394936,
                        -69.65708524232197
                    ],
                    [
                        128.43796195569968,
                        -69.63973252616091
                    ],
                    [
                        128.45175072720136,
                        -69.62253818028128
                    ],
                    [
                        128.46743439834538,
                        -69.6055472715244
                    ],
                    [
                        128.4843900813382,
                        -69.58870280457795
                    ],
                    [
                        128.50220819266104,
                        -69.57196912178298
                    ],
                    [
                        128.5210301629233,
                        -69.55538019208224
                    ],
                    [
                        128.54031064290092,
                        -69.53884744070805
                    ],
                    [
                        128.55971243663654,
                        -69.52234470389189
                    ],
                    [
                        128.57931686507592,
                        -69.50587196923951
                    ],
                    [
                        128.59930424548378,
                        -69.48945848615793
                    ],
                    [
                        128.61975915591424,
                        -69.47312014624714
                    ],
                    [
                        128.64062118461746,
                        -69.45684490624204
                    ],
                    [
                        128.66169726752545,
                        -69.44061239379235
                    ],
                    [
                        128.6829038116202,
                        -69.42440023306463
                    ],
                    [
                        128.70436728220136,
                        -69.40823549720545
                    ],
                    [
                        128.72602785235213,
                        -69.39210625402387
                    ],
                    [
                        128.74784959340792,
                        -69.37601103959766
                    ],
                    [
                        128.7696978145733,
                        -69.35991922253423
                    ],
                    [
                        128.79164754896078,
                        -69.34384952905522
                    ],
                    [
                        128.8144743115297,
                        -69.3279362793232
                    ],
                    [
                        128.83862254924372,
                        -69.31227538248952
                    ],
                    [
                        128.86336053024172,
                        -69.29673063403743
                    ],
                    [
                        128.88783988770527,
                        -69.28114277729753
                    ],
                    [
                        128.9110033074954,
                        -69.26531025235923
                    ],
                    [
                        128.93272136524087,
                        -69.24922551976469
                    ],
                    [
                        128.95321325750504,
                        -69.23294171363723
                    ],
                    [
                        128.97261323588154,
                        -69.21649596786277
                    ],
                    [
                        128.99134173331467,
                        -69.19995188375526
                    ],
                    [
                        129.00948269531148,
                        -69.18333180266957
                    ],
                    [
                        129.02712357351967,
                        -69.1666454789706
                    ],
                    [
                        129.044265422273,
                        -69.14989308307595
                    ],
                    [
                        129.06046125692748,
                        -69.13302647994965
                    ],
                    [
                        129.073168070485,
                        -69.11579014949601
                    ],
                    [
                        129.0816427101729,
                        -69.09823636623864
                    ],
                    [
                        129.0858339247317,
                        -69.08048710597969
                    ],
                    [
                        129.08723988026912,
                        -69.06266751469252
                    ],
                    [
                        129.08880097920584,
                        -69.0448547371676
                    ],
                    [
                        129.09136379702417,
                        -69.02705483515663
                    ],
                    [
                        129.0949998723257,
                        -69.00928634319287
                    ],
                    [
                        129.09982869058067,
                        -68.99155371692959
                    ],
                    [
                        129.10532189972764,
                        -68.9738437010248
                    ],
                    [
                        129.11067579846,
                        -68.95612649367008
                    ],
                    [
                        129.11526002854984,
                        -68.93839139397494
                    ],
                    [
                        129.11879987383264,
                        -68.92062188045738
                    ],
                    [
                        129.1205952442355,
                        -68.90281728471601
                    ],
                    [
                        129.1207303593435,
                        -68.88500595688215
                    ],
                    [
                        129.11966266132995,
                        -68.8671984143618
                    ],
                    [
                        129.11793652902603,
                        -68.84940211164482
                    ],
                    [
                        129.11647867420456,
                        -68.83159767492731
                    ],
                    [
                        129.1159093463892,
                        -68.81378610845148
                    ],
                    [
                        129.1165012817497,
                        -68.79598401324259
                    ],
                    [
                        129.11791353250402,
                        -68.778181925953
                    ],
                    [
                        129.12014043254598,
                        -68.76039235005007
                    ],
                    [
                        129.1229960395687,
                        -68.74261787493766
                    ],
                    [
                        129.1258467684123,
                        -68.72484434444718
                    ],
                    [
                        129.12902171581885,
                        -68.70707773142011
                    ],
                    [
                        129.1333213186541,
                        -68.68934480235049
                    ],
                    [
                        129.13872376534295,
                        -68.67165107826605
                    ],
                    [
                        129.1442794175095,
                        -68.65396738949538
                    ],
                    [
                        129.14915606432172,
                        -68.63625947824247
                    ],
                    [
                        129.1528141595129,
                        -68.6185103497313
                    ],
                    [
                        129.158360938013,
                        -68.60082978308404
                    ],
                    [
                        129.16563822179702,
                        -68.58324029748681
                    ],
                    [
                        129.17187412310926,
                        -68.56559090318535
                    ],
                    [
                        129.17752762537017,
                        -68.54791774321596
                    ],
                    [
                        129.1829247667325,
                        -68.5302329995013
                    ],
                    [
                        129.18828634866932,
                        -68.51255123975929
                    ],
                    [
                        129.1924962209159,
                        -68.49482765376587
                    ],
                    [
                        129.198274415635,
                        -68.47716690549215
                    ],
                    [
                        129.20561358200246,
                        -68.45958132522784
                    ],
                    [
                        129.2148644662595,
                        -68.44212498043491
                    ],
                    [
                        129.22601733329608,
                        -68.42481627931558
                    ],
                    [
                        129.23741090266986,
                        -68.40753316784111
                    ],
                    [
                        129.2500136401133,
                        -68.39036843659167
                    ],
                    [
                        129.26631642886102,
                        -68.37363216773257
                    ],
                    [
                        129.28336022896823,
                        -68.35700241338726
                    ],
                    [
                        129.29715888523717,
                        -68.3399718168976
                    ],
                    [
                        129.30745470737907,
                        -68.32260420476989
                    ],
                    [
                        129.31529484131343,
                        -68.30506810780041
                    ],
                    [
                        129.3221413726294,
                        -68.28746807914908
                    ],
                    [
                        129.3301927051636,
                        -68.26994191892635
                    ],
                    [
                        129.3411992983482,
                        -68.25265176544451
                    ],
                    [
                        129.35453078437206,
                        -68.23557407335758
                    ],
                    [
                        129.37094281863838,
                        -68.2188844603383
                    ],
                    [
                        129.3901667333594,
                        -68.20261018874592
                    ],
                    [
                        129.4103036243093,
                        -68.1864949629881
                    ],
                    [
                        129.43072113929588,
                        -68.17042080608093
                    ],
                    [
                        129.4508777207513,
                        -68.15431751550678
                    ],
                    [
                        129.46989437707103,
                        -68.13801774444295
                    ],
                    [
                        129.4887100253367,
                        -68.12169451773141
                    ],
                    [
                        129.50505319831134,
                        -68.10501074660206
                    ],
                    [
                        129.51937509862935,
                        -68.08807161861796
                    ],
                    [
                        129.5320503301124,
                        -68.07094778235889
                    ],
                    [
                        129.54375183402647,
                        -68.05372669024426
                    ],
                    [
                        129.55463488484622,
                        -68.03643612600473
                    ],
                    [
                        129.56410693731726,
                        -68.0190298486442
                    ],
                    [
                        129.57133753890702,
                        -68.00147843464417
                    ],
                    [
                        129.57720399216944,
                        -67.98385744374828
                    ],
                    [
                        129.58332877636965,
                        -67.96624047598998
                    ],
                    [
                        129.58925898810833,
                        -67.94862401653138
                    ],
                    [
                        129.59532156607517,
                        -67.93101024449416
                    ],
                    [
                        129.6008428088737,
                        -67.91337834549113
                    ],
                    [
                        129.6064893476751,
                        -67.89574573699599
                    ],
                    [
                        129.61174531746482,
                        -67.87810038216949
                    ],
                    [
                        129.61546854420448,
                        -67.86040168424417
                    ],
                    [
                        129.61829772935172,
                        -67.8426818058582
                    ],
                    [
                        129.62015080240351,
                        -67.82494410789221
                    ],
                    [
                        129.62056274876056,
                        -67.80719090119824
                    ],
                    [
                        129.61882053728655,
                        -67.78945654615681
                    ],
                    [
                        129.6147700653203,
                        -67.77177939910185
                    ],
                    [
                        129.60951899677383,
                        -67.754141950969
                    ],
                    [
                        129.60467956363092,
                        -67.73648827480537
                    ],
                    [
                        129.5998809050328,
                        -67.71883665550591
                    ],
                    [
                        129.59376440495234,
                        -67.70124540522288
                    ],
                    [
                        129.58605196017342,
                        -67.68374518330937
                    ],
                    [
                        129.57696974734776,
                        -67.66634061063212
                    ],
                    [
                        129.56618620309496,
                        -67.64907916372016
                    ],
                    [
                        129.55430034965747,
                        -67.63192851013528
                    ],
                    [
                        129.54085515910734,
                        -67.61494093831288
                    ],
                    [
                        129.5250139535916,
                        -67.59827115286612
                    ],
                    [
                        129.5063486283968,
                        -67.58203160468524
                    ],
                    [
                        129.48532664653507,
                        -67.5662193162796
                    ],
                    [
                        129.46352010236495,
                        -67.55056373092988
                    ],
                    [
                        129.442161708503,
                        -67.53482051627103
                    ],
                    [
                        129.4203324978924,
                        -67.51916973594558
                    ],
                    [
                        129.396659195733,
                        -67.50393438080383
                    ],
                    [
                        129.37083864826968,
                        -67.48921535729404
                    ],
                    [
                        129.34387818462162,
                        -67.47481024175123
                    ],
                    [
                        129.31605842932288,
                        -67.46065344113431
                    ],
                    [
                        129.2890543183776,
                        -67.44627008710646
                    ],
                    [
                        129.26332143564412,
                        -67.43154596316181
                    ],
                    [
                        129.2408930547254,
                        -67.41606613821446
                    ],
                    [
                        129.220979087904,
                        -67.40007881896895
                    ],
                    [
                        129.20176518855132,
                        -67.38396475013614
                    ],
                    [
                        129.18316825096554,
                        -67.36775565061849
                    ],
                    [
                        129.16668078141117,
                        -67.35121137945212
                    ],
                    [
                        129.15152524167127,
                        -67.33447849916422
                    ],
                    [
                        129.13853620743947,
                        -67.31747724758324
                    ],
                    [
                        129.12740274329778,
                        -67.30028739113138
                    ],
                    [
                        129.11752998319776,
                        -67.28298662016047
                    ],
                    [
                        129.10834914339978,
                        -67.26562189003823
                    ],
                    [
                        129.09879749984978,
                        -67.24829887835556
                    ],
                    [
                        129.09183741508588,
                        -67.23079305403253
                    ],
                    [
                        129.08893862351508,
                        -67.21311367996563
                    ],
                    [
                        129.0879674690189,
                        -67.19540553615793
                    ],
                    [
                        129.0884512866447,
                        -67.17769077616826
                    ],
                    [
                        129.09164427065707,
                        -67.16002311247892
                    ],
                    [
                        129.09620597973358,
                        -67.14239594535074
                    ],
                    [
                        129.10127821586647,
                        -67.1247999513827
                    ],
                    [
                        129.10591942842413,
                        -67.1071846835677
                    ],
                    [
                        129.10853466948598,
                        -67.08950804884378
                    ],
                    [
                        129.1076970838545,
                        -67.07181325630312
                    ],
                    [
                        129.1029598919487,
                        -67.05420463614621
                    ],
                    [
                        129.101974045413,
                        -67.03650274053051
                    ],
                    [
                        129.10098975738552,
                        -67.01880190830573
                    ],
                    [
                        129.100007024174,
                        -67.00110214021268
                    ],
                    [
                        129.09902584209794,
                        -66.9834034369918
                    ],
                    [
                        129.09804620748835,
                        -66.9657057993832
                    ],
                    [
                        129.0970681166878,
                        -66.94800922812674
                    ],
                    [
                        129.09609156605038,
                        -66.93031372396185
                    ],
                    [
                        129.0951165519417,
                        -66.91261928762772
                    ],
                    [
                        129.0941430707387,
                        -66.8949259198632
                    ],
                    [
                        129.0931711188298,
                        -66.87723362140679
                    ],
                    [
                        129.09220069261468,
                        -66.85954239299669
                    ],
                    [
                        129.09123178850436,
                        -66.84185223537078
                    ],
                    [
                        129.0902644029211,
                        -66.8241631492666
                    ],
                    [
                        129.08929853229836,
                        -66.8064751354214
                    ],
                    [
                        129.08833417308068,
                        -66.78878819457208
                    ],
                    [
                        129.08737132172385,
                        -66.77110232745522
                    ],
                    [
                        129.08640997469462,
                        -66.7534175348071
                    ],
                    [
                        129.08545012847085,
                        -66.73573381736364
                    ],
                    [
                        129.08449177954137,
                        -66.71805117586048
                    ],
                    [
                        129.08353492440588,
                        -66.70036961103291
                    ]
                ]
            }
        }
    ]
}
