{
    "type": "FeatureCollection",
    "features": [
        {
            "type": "Feature",
            "properties": {
                "name": "Greenland Glacier 0009",
                "object": "transect",
                "component": "landice",
                "author": "Matthew Hoffman, converted from Felikson et al. (2020) Zenodo dataset",
                "tags": "Greenland_Ice_Sheet;flowline;zenodo_4284759;glacier_0009;sermilik_isbr\u00e6",
                "citation": "Felikson, Denis, Catania, Ginny, Bartholomaus, Timothy, Morlighem, Mathieu, & No\u00ebl, Brice. (2020). Inland limits to diffusion of thinning along Greenland Ice Sheet outlet glaciers (v1.0) [Data set]. Zenodo. https://doi.org/10.5281/zenodo.4284759",
                "license": "CC-BY-4.0",
                "officialName": "Sermilik",
                "foreignName": "Sermilik Isbr\u00e6"
            },
            "geometry": {
                "type": "LineString",
                "coordinates": [
                    [
                        -50.192636484041074,
                        70.68952093015062
                    ],
                    [
                        -50.199011698430034,
                        70.68792826227094
                    ],
                    [
                        -50.20540237237978,
                        70.6863954237291
                    ],
                    [
                        -50.21181962330601,
                        70.68496254934176
                    ],
                    [
                        -50.21824906781535,
                        70.68357715470003
                    ],
                    [
                        -50.22469927928901,
                        70.6822701110381
                    ],
                    [
                        -50.23116728427619,
                        70.68103038915561
                    ],
                    [
                        -50.23766381143618,
                        70.67989649928226
                    ],
                    [
                        -50.24420059846827,
                        70.67891040582631
                    ],
                    [
                        -50.25077662180843,
                        70.67806788691209
                    ],
                    [
                        -50.25737577642323,
                        70.67731046282486
                    ],
                    [
                        -50.26399059751588,
                        70.67661099106478
                    ],
                    [
                        -50.27062691818437,
                        70.67599019711687
                    ],
                    [
                        -50.277287574839946,
                        70.67545795866809
                    ],
                    [
                        -50.28397539407266,
                        70.67502406700227
                    ],
                    [
                        -50.290682756944335,
                        70.67466090552637
                    ],
                    [
                        -50.29739819875298,
                        70.6743272580705
                    ],
                    [
                        -50.3041138253038,
                        70.67399485206569
                    ],
                    [
                        -50.31086173643579,
                        70.6737780479068
                    ],
                    [
                        -50.31764356188142,
                        70.67368220534156
                    ],
                    [
                        -50.32444709407117,
                        70.67366347943162
                    ],
                    [
                        -50.33127209624231,
                        70.673720732816
                    ],
                    [
                        -50.33811135387296,
                        70.67382809966854
                    ],
                    [
                        -50.34496109459723,
                        70.67397203159238
                    ],
                    [
                        -50.35181863301584,
                        70.67414289254016
                    ],
                    [
                        -50.35868194802586,
                        70.67433344153854
                    ],
                    [
                        -50.36555115354598,
                        70.67454400334054
                    ],
                    [
                        -50.37243172661412,
                        70.67479378732473
                    ],
                    [
                        -50.37932206153594,
                        70.67507699309412
                    ],
                    [
                        -50.386211738039904,
                        70.67535688995893
                    ],
                    [
                        -50.393085819806686,
                        70.67558109641715
                    ],
                    [
                        -50.39992146196888,
                        70.67566979460464
                    ],
                    [
                        -50.40670034401296,
                        70.67555940057645
                    ],
                    [
                        -50.41344137150562,
                        70.67531673092851
                    ],
                    [
                        -50.42015962230724,
                        70.6749949035613
                    ],
                    [
                        -50.42687323476007,
                        70.6746574409889
                    ],
                    [
                        -50.433590435228936,
                        70.6743330425335
                    ],
                    [
                        -50.440306915652506,
                        70.67400667862655
                    ],
                    [
                        -50.447017581401255,
                        70.67366066135297
                    ],
                    [
                        -50.453722905935145,
                        70.67329670477142
                    ],
                    [
                        -50.460423471869895,
                        70.67291689268352
                    ],
                    [
                        -50.46711640534758,
                        70.67251133728575
                    ],
                    [
                        -50.47380596051212,
                        70.67209483569326
                    ],
                    [
                        -50.48050393372752,
                        70.67170815084467
                    ],
                    [
                        -50.48720671810288,
                        70.67133873758175
                    ],
                    [
                        -50.49389333026468,
                        70.67091426887198
                    ],
                    [
                        -50.50055403044444,
                        70.670401440329
                    ],
                    [
                        -50.507194714896556,
                        70.66982082519753
                    ],
                    [
                        -50.513817440224145,
                        70.66917972121784
                    ],
                    [
                        -50.520426735864724,
                        70.66849386655406
                    ],
                    [
                        -50.52702483663401,
                        70.66777106896915
                    ],
                    [
                        -50.53359427023748,
                        70.66695170722474
                    ],
                    [
                        -50.54009465000312,
                        70.66589816128068
                    ],
                    [
                        -50.54647922893685,
                        70.6644517168195
                    ],
                    [
                        -50.55261045747914,
                        70.6621447941178
                    ],
                    [
                        -50.55637982683443,
                        70.6597674983243
                    ],
                    [
                        -50.558890411923414,
                        70.65743071899195
                    ],
                    [
                        -50.56074419750929,
                        70.6551150979947
                    ],
                    [
                        -50.56231039833353,
                        70.65280874344941
                    ],
                    [
                        -50.563997384943946,
                        70.6504984762167
                    ],
                    [
                        -50.56611499287131,
                        70.64817427871502
                    ],
                    [
                        -50.568878638890546,
                        70.64582916435512
                    ],
                    [
                        -50.57218903337906,
                        70.64346630755813
                    ],
                    [
                        -50.577030362248074,
                        70.64105379322694
                    ],
                    [
                        -50.583164839551706,
                        70.6387951668577
                    ],
                    [
                        -50.58942864455825,
                        70.63697975924703
                    ],
                    [
                        -50.595840771485975,
                        70.63567051868773
                    ],
                    [
                        -50.602401380806675,
                        70.63486633674896
                    ],
                    [
                        -50.60908081200773,
                        70.63446527204613
                    ],
                    [
                        -50.615829701331954,
                        70.63429930993722
                    ],
                    [
                        -50.615829701331954,
                        70.63429930993722
                    ],
                    [
                        -50.62257847274413,
                        70.6341330841127
                    ],
                    [
                        -50.62933629308382,
                        70.63399745714109
                    ],
                    [
                        -50.6360839244239,
                        70.6338276281494
                    ],
                    [
                        -50.64281904315717,
                        70.6336159152486
                    ],
                    [
                        -50.649603049946315,
                        70.63356844468393
                    ],
                    [
                        -50.70361066147425,
                        70.63241348620176
                    ],
                    [
                        -50.75761166464327,
                        70.63124163860533
                    ],
                    [
                        -50.81160596474608,
                        70.63005290518791
                    ],
                    [
                        -50.865593467146496,
                        70.62884728928934
                    ],
                    [
                        -50.91957407728047,
                        70.62762479429618
                    ],
                    [
                        -50.973547700657015,
                        70.62638542364145
                    ],
                    [
                        -51.027514242859226,
                        70.62512918080478
                    ],
                    [
                        -51.081473609545206,
                        70.62385606931218
                    ],
                    [
                        -51.13542570644908,
                        70.62256609273618
                    ],
                    [
                        -51.18937043938191,
                        70.62125925469563
                    ],
                    [
                        -51.24330771423272,
                        70.61993555885573
                    ],
                    [
                        -51.29723743696942,
                        70.618595008928
                    ],
                    [
                        -51.351159513639764,
                        70.61723760867015
                    ],
                    [
                        -51.405073850372325,
                        70.61586336188611
                    ],
                    [
                        -51.45898035337748,
                        70.61447227242597
                    ],
                    [
                        -51.51287892894828,
                        70.61306434418584
                    ],
                    [
                        -51.566769483461506,
                        70.61163958110795
                    ],
                    [
                        -51.62065192337854,
                        70.61019798718046
                    ],
                    [
                        -51.674526155246355,
                        70.60873956643752
                    ],
                    [
                        -51.728392085698445,
                        70.60726432295913
                    ]
                ]
            }
        }
    ]
}
