{
    "type": "FeatureCollection",
    "features": [
        {
            "type": "Feature",
            "properties": {
                "name": "Greenland Glacier 0016",
                "object": "transect",
                "component": "landice",
                "author": "Matthew Hoffman, converted from Felikson et al. (2020) Zenodo dataset",
                "tags": "Greenland_Ice_Sheet;flowline;zenodo_4284759;glacier_0016;umiammakku_isbr\u00e6",
                "citation": "Felikson, Denis, Catania, Ginny, Bartholomaus, Timothy, Morlighem, Mathieu, & No\u00ebl, Brice. (2020). Inland limits to diffusion of thinning along Greenland Ice Sheet outlet glaciers (v1.0) [Data set]. Zenodo. https://doi.org/10.5281/zenodo.4284759",
                "license": "CC-BY-4.0",
                "officialName": "Umiammakku Sermiat",
                "foreignName": "Umiammakku Isbr\u00e6"
            },
            "geometry": {
                "type": "LineString",
                "coordinates": [
                    [
                        -51.79754143331997,
                        72.05449430587771
                    ],
                    [
                        -51.79715278483132,
                        72.05223877957516
                    ],
                    [
                        -51.797531168848934,
                        72.04995507571853
                    ],
                    [
                        -51.79794583838492,
                        72.04767004725393
                    ],
                    [
                        -51.798108531053195,
                        72.0453942934837
                    ],
                    [
                        -51.79809937556345,
                        72.04312487170886
                    ],
                    [
                        -51.798138711646615,
                        72.04085368013953
                    ],
                    [
                        -51.79838609512329,
                        72.0385748486712
                    ],
                    [
                        -51.79889973538391,
                        72.03628623190728
                    ],
                    [
                        -51.79970689229338,
                        72.03398682074645
                    ],
                    [
                        -51.800825746190405,
                        72.03167593801027
                    ],
                    [
                        -51.80214245704355,
                        72.02935776591788
                    ],
                    [
                        -51.803600174421575,
                        72.02703439172163
                    ],
                    [
                        -51.80525660862987,
                        72.02470368339648
                    ],
                    [
                        -51.807041881911545,
                        72.0223682089029
                    ],
                    [
                        -51.80899577181,
                        72.0200264956315
                    ],
                    [
                        -51.81091415491588,
                        72.0176860673479
                    ],
                    [
                        -51.812667207565454,
                        72.01535171757409
                    ],
                    [
                        -51.814433039048595,
                        72.0130168767828
                    ],
                    [
                        -51.81622090471144,
                        72.01068120253538
                    ],
                    [
                        -51.818000184081065,
                        72.00834582541579
                    ],
                    [
                        -51.81992527019721,
                        72.0060050381177
                    ],
                    [
                        -51.82198018202923,
                        72.003659425047
                    ],
                    [
                        -51.82401805254158,
                        72.00131441422981
                    ],
                    [
                        -51.82602133477229,
                        71.99897065599167
                    ],
                    [
                        -51.82804712089549,
                        71.99662603771941
                    ],
                    [
                        -51.83013774339298,
                        71.99427899000821
                    ],
                    [
                        -51.832316875996916,
                        71.9919286322557
                    ],
                    [
                        -51.834604926638825,
                        71.98957420327665
                    ],
                    [
                        -51.8372141810072,
                        71.98720782155233
                    ],
                    [
                        -51.839892820383525,
                        71.9848388165333
                    ],
                    [
                        -51.84255666599267,
                        71.98247031056212
                    ],
                    [
                        -51.84527155644219,
                        71.98009985797802
                    ],
                    [
                        -51.84814181561595,
                        71.97772357705514
                    ],
                    [
                        -51.85114106622194,
                        71.97534243949677
                    ],
                    [
                        -51.85427318162229,
                        71.97295629290498
                    ],
                    [
                        -51.85766386675739,
                        71.970560446515
                    ],
                    [
                        -51.86133110287846,
                        71.96815421198382
                    ],
                    [
                        -51.86516605866057,
                        71.96574162772998
                    ],
                    [
                        -51.869066858525684,
                        71.9633264830742
                    ],
                    [
                        -51.872976099536395,
                        71.96091091678923
                    ],
                    [
                        -51.87697868857782,
                        71.95849175468196
                    ],
                    [
                        -51.88099385904472,
                        71.95607201016684
                    ],
                    [
                        -51.885287549697416,
                        71.95364172783673
                    ],
                    [
                        -51.890095770948065,
                        71.95119204236448
                    ],
                    [
                        -51.895286650237324,
                        71.9487278501727
                    ],
                    [
                        -51.90099582341592,
                        71.94624402204651
                    ],
                    [
                        -51.907361060686625,
                        71.9438027015725
                    ],
                    [
                        -51.913791247055954,
                        71.94153179873491
                    ],
                    [
                        -51.92031462415213,
                        71.9395030784008
                    ],
                    [
                        -51.92688597154506,
                        71.93760044625125
                    ],
                    [
                        -51.933484874341055,
                        71.9357714881777
                    ],
                    [
                        -51.94009237140855,
                        71.93396767424419
                    ],
                    [
                        -51.946721821843134,
                        71.93222296542284
                    ],
                    [
                        -51.953356285636815,
                        71.93049409595385
                    ],
                    [
                        -51.95998547285512,
                        71.92875485938865
                    ],
                    [
                        -51.96661534223905,
                        71.92702041976506
                    ],
                    [
                        -51.97324940600256,
                        71.92529967852886
                    ],
                    [
                        -51.97989906916761,
                        71.92362152284988
                    ],
                    [
                        -51.98656220627667,
                        71.92198045482431
                    ],
                    [
                        -51.99324069273062,
                        71.92038112397604
                    ],
                    [
                        -51.99994201891603,
                        71.91884236543116
                    ],
                    [
                        -52.00666213266086,
                        71.91735377738769
                    ],
                    [
                        -52.01338261376327,
                        71.91586871667353
                    ],
                    [
                        -52.02010409223385,
                        71.91438876236957
                    ],
                    [
                        -52.026808986024136,
                        71.912869586214
                    ],
                    [
                        -52.033480432665385,
                        71.91126882797563
                    ],
                    [
                        -52.04011892177453,
                        71.9095879320111
                    ],
                    [
                        -52.046713901061544,
                        71.90780057719753
                    ],
                    [
                        -52.05327159291357,
                        71.90592266301648
                    ],
                    [
                        -52.05980629983221,
                        71.90399031110853
                    ],
                    [
                        -52.066318119307915,
                        71.9020039004689
                    ],
                    [
                        -52.072816382099695,
                        71.89998694243904
                    ],
                    [
                        -52.07932077455009,
                        71.89798879607665
                    ],
                    [
                        -52.085840654497154,
                        71.89603282200004
                    ],
                    [
                        -52.092368457568874,
                        71.89410000844008
                    ],
                    [
                        -52.098871017038526,
                        71.8921074687197
                    ],
                    [
                        -52.10533585137917,
                        71.89002420288533
                    ],
                    [
                        -52.11176829735822,
                        71.88786373564504
                    ],
                    [
                        -52.118181795099574,
                        71.88565973446322
                    ],
                    [
                        -52.124594734709504,
                        71.88345808132298
                    ],
                    [
                        -52.13102529155159,
                        71.88130397859275
                    ],
                    [
                        -52.13747445128267,
                        71.87919976112472
                    ],
                    [
                        -52.14393804110601,
                        71.87713494508976
                    ],
                    [
                        -52.1504121730386,
                        71.8750997865618
                    ],
                    [
                        -52.15692870366608,
                        71.87317319731615
                    ],
                    [
                        -52.163524391627426,
                        71.87144597268359
                    ],
                    [
                        -52.170201137886984,
                        71.8699223159452
                    ],
                    [
                        -52.1769461355703,
                        71.86857003044781
                    ],
                    [
                        -52.18374665830464,
                        71.86735722060062
                    ],
                    [
                        -52.19058639816075,
                        71.8662432559064
                    ],
                    [
                        -52.19744843868695,
                        71.86518614733596
                    ],
                    [
                        -52.2043271505788,
                        71.86417186877857
                    ],
                    [
                        -52.21121706924481,
                        71.86318684996326
                    ],
                    [
                        -52.21811331022361,
                        71.86221899665279
                    ],
                    [
                        -52.22502082820077,
                        71.86128043661591
                    ],
                    [
                        -52.23194188493554,
                        71.86037664171793
                    ],
                    [
                        -52.238878897504875,
                        71.85951344435766
                    ],
                    [
                        -52.24582783630063,
                        71.85868085719625
                    ],
                    [
                        -52.25278166115258,
                        71.85786155881347
                    ],
                    [
                        -52.2597332991493,
                        71.85703821163648
                    ],
                    [
                        -52.2666742490445,
                        71.85619005160265
                    ],
                    [
                        -52.273601775531894,
                        71.85531046847086
                    ],
                    [
                        -52.28051094095711,
                        71.85438750372757
                    ],
                    [
                        -52.28739562835192,
                        71.85340636770975
                    ],
                    [
                        -52.29423930006038,
                        71.85232694966824
                    ],
                    [
                        -52.30102560302869,
                        71.85110972818524
                    ],
                    [
                        -52.3077655796073,
                        71.84978190454882
                    ],
                    [
                        -52.31444267894643,
                        71.84830356785568
                    ],
                    [
                        -52.32105025928815,
                        71.84665898108184
                    ],
                    [
                        -52.327601937446374,
                        71.84488157072114
                    ],
                    [
                        -52.33411287756223,
                        71.84300839674896
                    ],
                    [
                        -52.34056457658798,
                        71.84099489425964
                    ],
                    [
                        -52.34693860210967,
                        71.83879680281143
                    ],
                    [
                        -52.35318196632704,
                        71.83628645787269
                    ],
                    [
                        -52.35860396546228,
                        71.83379686729774
                    ],
                    [
                        -52.36327550210742,
                        71.8313373333564
                    ],
                    [
                        -52.36729374806039,
                        71.82890400541378
                    ],
                    [
                        -52.370585006879665,
                        71.82649991255659
                    ],
                    [
                        -52.37314682869878,
                        71.82412520473368
                    ],
                    [
                        -52.37495394268795,
                        71.8217809452518
                    ],
                    [
                        -52.37622428888794,
                        71.81945835957916
                    ],
                    [
                        -52.376974888463415,
                        71.8171567789723
                    ],
                    [
                        -52.37740051941746,
                        71.81486834197936
                    ],
                    [
                        -52.377630750697385,
                        71.81258781588299
                    ],
                    [
                        -52.37776262949566,
                        71.81031127912827
                    ],
                    [
                        -52.37786938355996,
                        71.80803577119411
                    ],
                    [
                        -52.37799915247333,
                        71.80575934489629
                    ],
                    [
                        -52.37817432687331,
                        71.80348109384987
                    ],
                    [
                        -52.37854862952707,
                        71.80119479611034
                    ],
                    [
                        -52.37922069824482,
                        71.79889645476706
                    ],
                    [
                        -52.38026081232005,
                        71.79658321649612
                    ],
                    [
                        -52.3817256495549,
                        71.7942527738247
                    ],
                    [
                        -52.38359826699093,
                        71.79190579650685
                    ],
                    [
                        -52.38575366276555,
                        71.7895473326885
                    ],
                    [
                        -52.38802263922362,
                        71.78718422947125
                    ],
                    [
                        -52.390436638698446,
                        71.78481520515916
                    ],
                    [
                        -52.39281395055985,
                        71.78244762739497
                    ],
                    [
                        -52.395117748340226,
                        71.78008299362669
                    ],
                    [
                        -52.39733162749484,
                        71.77772197422783
                    ],
                    [
                        -52.39942153537392,
                        71.77536595784474
                    ],
                    [
                        -52.40127955060856,
                        71.77301933849154
                    ],
                    [
                        -52.40293220182724,
                        71.77068104790897
                    ],
                    [
                        -52.40432487802168,
                        71.76835331667166
                    ],
                    [
                        -52.40544251086191,
                        71.76603676794309
                    ],
                    [
                        -52.40637463314984,
                        71.7637277665114
                    ],
                    [
                        -52.4071067492828,
                        71.76142690821722
                    ],
                    [
                        -52.40769280217087,
                        71.75913200178412
                    ],
                    [
                        -52.40820822089502,
                        71.75683997855339
                    ],
                    [
                        -52.40873490574886,
                        71.75454750370432
                    ],
                    [
                        -52.409250798580366,
                        71.75225547576218
                    ],
                    [
                        -52.409692657425786,
                        71.74996647233912
                    ],
                    [
                        -52.41007068879914,
                        71.74768007905513
                    ],
                    [
                        -52.4104341464705,
                        71.74539428930177
                    ],
                    [
                        -52.41091591990096,
                        71.74310368481784
                    ],
                    [
                        -52.41091591990096,
                        71.74310368481784
                    ],
                    [
                        -52.41139757046688,
                        71.74081309321862
                    ],
                    [
                        -52.41231285282784,
                        71.73850482085254
                    ],
                    [
                        -52.413890410104244,
                        71.73616952453607
                    ],
                    [
                        -52.416521610984,
                        71.73379119894008
                    ],
                    [
                        -52.420540359244136,
                        71.73135614040636
                    ],
                    [
                        -52.42634733777184,
                        71.72884784954222
                    ],
                    [
                        -52.43263502378229,
                        71.7265606522266
                    ],
                    [
                        -52.439024613539864,
                        71.72452200216904
                    ],
                    [
                        -52.445556770691205,
                        71.72282897925633
                    ],
                    [
                        -52.48614124932457,
                        71.71009309418866
                    ],
                    [
                        -52.52666829525586,
                        71.69734863294987
                    ],
                    [
                        -52.56713798984513,
                        71.68459561588189
                    ],
                    [
                        -52.607550414451204,
                        71.6718340632853
                    ],
                    [
                        -52.64790565043073,
                        71.65906399541915
                    ],
                    [
                        -52.688203779137226,
                        71.64628543250116
                    ],
                    [
                        -52.728444881920126,
                        71.63349839470767
                    ],
                    [
                        -52.76862904012383,
                        71.62070290217383
                    ],
                    [
                        -52.808756335086755,
                        71.60789897499343
                    ],
                    [
                        -52.84882684814042,
                        71.59508663321921
                    ],
                    [
                        -52.88884066060853,
                        71.58226589686268
                    ],
                    [
                        -52.928797853805996,
                        71.56943678589428
                    ],
                    [
                        -52.9686985090381,
                        71.55659932024348
                    ],
                    [
                        -53.00854270759953,
                        71.54375351979871
                    ],
                    [
                        -53.048330530773534,
                        71.53089940440748
                    ],
                    [
                        -53.08806205983095,
                        71.51803699387642
                    ],
                    [
                        -53.127737376029415,
                        71.50516630797138
                    ],
                    [
                        -53.1673565606124,
                        71.49228736641737
                    ],
                    [
                        -53.206919694808384,
                        71.47940018889872
                    ],
                    [
                        -53.24642685982999,
                        71.46650479505911
                    ]
                ]
            }
        }
    ]
}
