{
    "type": "FeatureCollection",
    "features": [
        {
            "type": "Feature",
            "properties": {
                "name": "Greenland Glacier 0240",
                "object": "transect",
                "component": "landice",
                "author": "Matthew Hoffman, converted from Felikson et al. (2020) Zenodo dataset",
                "tags": "Greenland_Ice_Sheet;flowline;zenodo_4284759;glacier_0240",
                "citation": "Felikson, Denis, Catania, Ginny, Bartholomaus, Timothy, Morlighem, Mathieu, & No\u00ebl, Brice. (2020). Inland limits to diffusion of thinning along Greenland Ice Sheet outlet glaciers (v1.0) [Data set]. Zenodo. https://doi.org/10.5281/zenodo.4284759",
                "license": "CC-BY-4.0"
            },
            "geometry": {
                "type": "LineString",
                "coordinates": [
                    [
                        -43.76455373401908,
                        60.78885768337953
                    ],
                    [
                        -43.76006595746227,
                        60.79009492867168
                    ],
                    [
                        -43.756265798672786,
                        60.792221592766786
                    ],
                    [
                        -43.754556331580325,
                        60.79437039234263
                    ],
                    [
                        -43.753983792478905,
                        60.79653128039921
                    ],
                    [
                        -43.7539775712797,
                        60.79869820769106
                    ],
                    [
                        -43.75411657016496,
                        60.80086669891699
                    ],
                    [
                        -43.753473843266605,
                        60.803026902028755
                    ],
                    [
                        -43.74895862266646,
                        60.80481601692884
                    ],
                    [
                        -43.74448881532693,
                        60.805579791904535
                    ],
                    [
                        -43.74002676958535,
                        60.806165577636655
                    ],
                    [
                        -43.73555881104803,
                        60.80687793368684
                    ],
                    [
                        -43.73106137328567,
                        60.808235259391274
                    ],
                    [
                        -43.72653247772543,
                        60.81027411345499
                    ],
                    [
                        -43.72218908893025,
                        60.812394018455166
                    ],
                    [
                        -43.71765766798657,
                        60.81445888108161
                    ],
                    [
                        -43.713142065812335,
                        60.81616512819288
                    ],
                    [
                        -43.708636005377585,
                        60.81765256736824
                    ],
                    [
                        -43.704132130146995,
                        60.81908232619691
                    ],
                    [
                        -43.69962498300992,
                        60.82057240623696
                    ],
                    [
                        -43.69510096216856,
                        60.82241375120731
                    ],
                    [
                        -43.691312855873136,
                        60.82453884749855
                    ],
                    [
                        -43.68850208590907,
                        60.826674776075684
                    ],
                    [
                        -43.68657383912916,
                        60.82882054379087
                    ],
                    [
                        -43.68522946820235,
                        60.83097284651838
                    ],
                    [
                        -43.68453385651588,
                        60.833132430317406
                    ],
                    [
                        -43.6842293793659,
                        60.83529641730391
                    ],
                    [
                        -43.68404963975564,
                        60.83746182315029
                    ],
                    [
                        -43.683637467670785,
                        60.839624643197006
                    ],
                    [
                        -43.68242111529766,
                        60.841778459547214
                    ],
                    [
                        -43.67902230358876,
                        60.84390774825738
                    ],
                    [
                        -43.674516837936146,
                        60.84524894450416
                    ],
                    [
                        -43.67003757316988,
                        60.846030238908774
                    ],
                    [
                        -43.66556889342218,
                        60.84658440765259
                    ],
                    [
                        -43.661104949497734,
                        60.84703584499572
                    ],
                    [
                        -43.65664432325587,
                        60.84741508549045
                    ],
                    [
                        -43.652188641799846,
                        60.84768910619257
                    ],
                    [
                        -43.64773990744333,
                        60.84781756368945
                    ],
                    [
                        -43.643300309543115,
                        60.84775678771425
                    ],
                    [
                        -43.63887180996443,
                        60.84746834292357
                    ],
                    [
                        -43.63445458328827,
                        60.846950865031275
                    ],
                    [
                        -43.63004615793246,
                        60.84625698646571
                    ],
                    [
                        -43.6256418651709,
                        60.845483346571996
                    ],
                    [
                        -43.6256418651709,
                        60.845483346571996
                    ],
                    [
                        -43.62123781618169,
                        60.84470954411386
                    ],
                    [
                        -43.61683361344238,
                        60.84394361349612
                    ],
                    [
                        -43.6124255123529,
                        60.84326091735978
                    ],
                    [
                        -43.60801224252589,
                        60.84268618134942
                    ],
                    [
                        -43.60359535248659,
                        60.8421873866743
                    ],
                    [
                        -43.59917730944969,
                        60.841714581654955
                    ],
                    [
                        -43.59477063201031,
                        60.84101847950078
                    ],
                    [
                        -43.59038496254321,
                        60.83990992675486
                    ],
                    [
                        -43.556901274626284,
                        60.834129146150545
                    ],
                    [
                        -43.523431437162415,
                        60.828338964749406
                    ],
                    [
                        -43.48997546438799,
                        60.82253938922916
                    ],
                    [
                        -43.45653337048977,
                        60.81673042627323
                    ],
                    [
                        -43.423105169604945,
                        60.810912082570646
                    ],
                    [
                        -43.3896908758211,
                        60.80508436481605
                    ],
                    [
                        -43.356290503176304,
                        60.79924727970967
                    ],
                    [
                        -43.32290406565903,
                        60.79340083395731
                    ],
                    [
                        -43.28953157720827,
                        60.787545034270345
                    ],
                    [
                        -43.2561730517135,
                        60.78167988736558
                    ],
                    [
                        -43.22282850301471,
                        60.775805399965364
                    ],
                    [
                        -43.18949794490243,
                        60.769921578797444
                    ],
                    [
                        -43.15618139111772,
                        60.76402843059502
                    ],
                    [
                        -43.122878855352255,
                        60.75812596209668
                    ],
                    [
                        -43.089590351248255,
                        60.75221418004641
                    ],
                    [
                        -43.05631589239861,
                        60.74629309119347
                    ],
                    [
                        -43.0230554923468,
                        60.7403627022925
                    ],
                    [
                        -42.98980916458699,
                        60.73442302010339
                    ],
                    [
                        -42.956576922564004,
                        60.72847405139131
                    ],
                    [
                        -42.92335877967338,
                        60.72251580292664
                    ]
                ]
            }
        }
    ]
}
