{
    "type": "FeatureCollection",
    "features": [
        {
            "type": "Feature",
            "properties": {
                "name": "Dry Valleys",
                "object": "transect",
                "component": "landice",
                "author": "Matthew Hoffman, converted from https://github.com/yuwang115/sl-ice",
                "tags": "Antarctic_Ice_Sheet;flowline;sl-ice;dry_valleys"
            },
            "geometry": {
                "type": "LineString",
                "coordinates": [
                    [
                        157.84697056796247,
                        -76.6212658718187
                    ],
                    [
                        157.91181310801682,
                        -76.6110430986968
                    ],
                    [
                        157.97404071633815,
                        -76.60000919070072
                    ],
                    [
                        158.0336478693857,
                        -76.58822483473075
                    ],
                    [
                        158.09177240689087,
                        -76.57605793769982
                    ],
                    [
                        158.15098315892274,
                        -76.56419430594698
                    ],
                    [
                        158.21209355491428,
                        -76.55288469136923
                    ],
                    [
                        158.27550218158547,
                        -76.54229141245001
                    ],
                    [
                        158.34004143670515,
                        -76.5320989192954
                    ],
                    [
                        158.4056384776234,
                        -76.5222943480329
                    ],
                    [
                        158.4718019114383,
                        -76.5127140911889
                    ],
                    [
                        158.53796535709833,
                        -76.50315419847038
                    ],
                    [
                        158.60416901129744,
                        -76.49361827472818
                    ],
                    [
                        158.6705052322825,
                        -76.48415851780699
                    ],
                    [
                        158.7371394995369,
                        -76.47483360794503
                    ],
                    [
                        158.80449875689425,
                        -76.4658133704526
                    ],
                    [
                        158.8733380993967,
                        -76.45744753048152
                    ],
                    [
                        158.94337404110667,
                        -76.44967932838284
                    ],
                    [
                        159.01448290383624,
                        -76.44248129460502
                    ],
                    [
                        159.08674790942663,
                        -76.4359661556494
                    ],
                    [
                        159.1597630717897,
                        -76.42994996752368
                    ],
                    [
                        159.23319018916663,
                        -76.42423616072276
                    ],
                    [
                        159.30660065113474,
                        -76.4185335251113
                    ],
                    [
                        159.3789376505521,
                        -76.4121616211727
                    ],
                    [
                        159.44705477553111,
                        -76.4036569418523
                    ],
                    [
                        159.5053899001694,
                        -76.39177995119005
                    ],
                    [
                        159.56249131676955,
                        -76.37957200041285
                    ],
                    [
                        159.62066358294396,
                        -76.36766688777776
                    ],
                    [
                        159.68026330230376,
                        -76.35617714029387
                    ],
                    [
                        159.7433659482151,
                        -76.34584365431425
                    ],
                    [
                        159.81165062943657,
                        -76.33753907462618
                    ],
                    [
                        159.88415045318268,
                        -76.33154555515237
                    ],
                    [
                        159.95444836269394,
                        -76.32438927721788
                    ],
                    [
                        160.02254362008358,
                        -76.31601540699707
                    ],
                    [
                        160.09852080507773,
                        -76.3152183536186
                    ],
                    [
                        160.1718034919769,
                        -76.32028178825105
                    ],
                    [
                        160.2427715225927,
                        -76.32720541726448
                    ],
                    [
                        160.31528305446804,
                        -76.33317692366488
                    ],
                    [
                        160.3890000680299,
                        -76.33828322497338
                    ],
                    [
                        160.46348200929108,
                        -76.34276191151022
                    ],
                    [
                        160.53806909504559,
                        -76.34716946309378
                    ],
                    [
                        160.6122926581346,
                        -76.3519289323458
                    ],
                    [
                        160.68381018526372,
                        -76.35854451772296
                    ],
                    [
                        160.7414988925137,
                        -76.37049085865145
                    ],
                    [
                        160.7944818424448,
                        -76.38365420942986
                    ],
                    [
                        160.8583024761249,
                        -76.39367540688286
                    ],
                    [
                        160.93340683134835,
                        -76.39731261239609
                    ],
                    [
                        161.00813615127754,
                        -76.39417136629604
                    ],
                    [
                        161.0732074193696,
                        -76.38464440296103
                    ],
                    [
                        161.12277481973547,
                        -76.37075959278701
                    ],
                    [
                        161.1714464176058,
                        -76.35671966777892
                    ],
                    [
                        161.23815960854412,
                        -76.34843665877878
                    ],
                    [
                        161.31466273798736,
                        -76.3472784873065
                    ],
                    [
                        161.39135223497902,
                        -76.34863629419912
                    ],
                    [
                        161.46786110473641,
                        -76.35049058178858
                    ],
                    [
                        161.54399458795834,
                        -76.35291644765573
                    ],
                    [
                        161.6198052181313,
                        -76.3511963454507
                    ],
                    [
                        161.68912204486284,
                        -76.34361069786353
                    ],
                    [
                        161.7469309493263,
                        -76.33169726097867
                    ],
                    [
                        161.796579006114,
                        -76.3178676564824
                    ],
                    [
                        161.83970302697978,
                        -76.30287013623744
                    ],
                    [
                        161.8750171058891,
                        -76.28676045619854
                    ],
                    [
                        161.9112329192217,
                        -76.27078941514844
                    ],
                    [
                        161.95618249413184,
                        -76.25613610756722
                    ],
                    [
                        162.0132337810532,
                        -76.24411136691165
                    ],
                    [
                        162.07560928204103,
                        -76.23366941098804
                    ],
                    [
                        162.1414198738297,
                        -76.22453151613823
                    ],
                    [
                        162.21143554884375,
                        -76.21739136545156
                    ],
                    [
                        162.2832007926679,
                        -76.21133692295047
                    ],
                    [
                        162.35637296842063,
                        -76.20634418704817
                    ],
                    [
                        162.4307129297196,
                        -76.20249252544616
                    ],
                    [
                        162.50583094164463,
                        -76.19964547409437
                    ],
                    [
                        162.58157528128115,
                        -76.19805127631966
                    ],
                    [
                        162.6575978812694,
                        -76.19753444519502
                    ],
                    [
                        162.73364195666124,
                        -76.1976513701468
                    ],
                    [
                        162.80961047146886,
                        -76.19846057500102
                    ],
                    [
                        162.88534575098586,
                        -76.20013962330793
                    ],
                    [
                        162.96134069722308,
                        -76.20096064234313
                    ],
                    [
                        163.03734463794234,
                        -76.20175760885407
                    ],
                    [
                        163.11335730721302,
                        -76.20253051851682
                    ],
                    [
                        163.1893784389204,
                        -76.203279367137
                    ],
                    [
                        163.26540776677132,
                        -76.20400415064998
                    ],
                    [
                        163.34144502429982,
                        -76.20470486512083
                    ],
                    [
                        163.41748994487259,
                        -76.20538150674457
                    ],
                    [
                        163.49354226169453,
                        -76.20603407184622
                    ],
                    [
                        163.56960170781446,
                        -76.20666255688084
                    ],
                    [
                        163.64566801613066,
                        -76.2072669584337
                    ],
                    [
                        163.72174091939635,
                        -76.2078472732204
                    ],
                    [
                        163.7978201502255,
                        -76.20840349808674
                    ],
                    [
                        163.87390544109832,
                        -76.2089356300091
                    ],
                    [
                        163.94999652436687,
                        -76.20944366609432
                    ],
                    [
                        164.02609313226077,
                        -76.20992760357986
                    ],
                    [
                        164.10219499689276,
                        -76.21038743983382
                    ],
                    [
                        164.17830185026446,
                        -76.21082317235505
                    ],
                    [
                        164.25441342427186,
                        -76.21123479877319
                    ],
                    [
                        164.33052945071103,
                        -76.21162231684875
                    ],
                    [
                        164.40664966128384,
                        -76.21198572447315
                    ]
                ]
            }
        }
    ]
}
