{
    "type": "FeatureCollection",
    "features": [
        {
            "type": "Feature",
            "properties": {
                "name": "Borchgrevink",
                "object": "transect",
                "component": "landice",
                "author": "Matthew Hoffman, converted from https://github.com/yuwang115/sl-ice",
                "tags": "Antarctic_Ice_Sheet;flowline;sl-ice;borchgrevink"
            },
            "geometry": {
                "type": "LineString",
                "coordinates": [
                    [
                        15.61925615387725,
                        -73.63500707779454
                    ],
                    [
                        15.65170366003227,
                        -73.61944906417568
                    ],
                    [
                        15.68368603789877,
                        -73.60382185743762
                    ],
                    [
                        15.71558787309934,
                        -73.58818795653053
                    ],
                    [
                        15.74781464012558,
                        -73.57261161283446
                    ],
                    [
                        15.77973180458078,
                        -73.55699149468636
                    ],
                    [
                        15.811691069925214,
                        -73.54138113939196
                    ],
                    [
                        15.844475978440553,
                        -73.52591623509238
                    ],
                    [
                        15.87791890644958,
                        -73.51057225247918
                    ],
                    [
                        15.912011329519046,
                        -73.49535131328142
                    ],
                    [
                        15.946411602630688,
                        -73.48018974071
                    ],
                    [
                        15.980783633638625,
                        -73.46503215018667
                    ],
                    [
                        16.015064862145586,
                        -73.44986208217503
                    ],
                    [
                        16.04938767977213,
                        -73.43470626292529
                    ],
                    [
                        16.083696445012453,
                        -73.41955515207717
                    ],
                    [
                        16.117932137769508,
                        -73.40439578271386
                    ],
                    [
                        16.152406685723687,
                        -73.38928967556622
                    ],
                    [
                        16.18744778387488,
                        -73.37429488622482
                    ],
                    [
                        16.222941951743326,
                        -73.35939699915122
                    ],
                    [
                        16.2580569093486,
                        -73.34442857886522
                    ],
                    [
                        16.291966302235778,
                        -73.32924310404117
                    ],
                    [
                        16.325329004501672,
                        -73.31396257510211
                    ],
                    [
                        16.359100216052884,
                        -73.29876327361438
                    ],
                    [
                        16.39295273508485,
                        -73.28358426824269
                    ],
                    [
                        16.42633105019476,
                        -73.26832602596261
                    ],
                    [
                        16.459918976858514,
                        -73.25311111033025
                    ],
                    [
                        16.49336087509207,
                        -73.23787572819968
                    ],
                    [
                        16.526047336326098,
                        -73.22251138228957
                    ],
                    [
                        16.557493505951243,
                        -73.20693796679623
                    ],
                    [
                        16.58816070912099,
                        -73.191238799893
                    ],
                    [
                        16.618174349832707,
                        -73.17544304744833
                    ],
                    [
                        16.646678382972624,
                        -73.15941833590118
                    ],
                    [
                        16.672912605090726,
                        -73.14307924340206
                    ],
                    [
                        16.697803708563455,
                        -73.12656285538995
                    ],
                    [
                        16.721624310258083,
                        -73.10992050930557
                    ],
                    [
                        16.74419487207276,
                        -73.0931327874454
                    ],
                    [
                        16.76604133971307,
                        -73.07626814660887
                    ],
                    [
                        16.786196656029617,
                        -73.0592266161036
                    ],
                    [
                        16.80495372456459,
                        -73.04205674015985
                    ],
                    [
                        16.82262569019455,
                        -73.02478998039108
                    ],
                    [
                        16.84035219631362,
                        -73.00752938999548
                    ],
                    [
                        16.8591777622266,
                        -72.99037058458558
                    ],
                    [
                        16.879497530220682,
                        -72.97336257129123
                    ],
                    [
                        16.901207456694923,
                        -72.95650435965966
                    ],
                    [
                        16.924574178333415,
                        -72.93984571677133
                    ],
                    [
                        16.950912411846133,
                        -72.92357587864042
                    ],
                    [
                        16.97908410271835,
                        -72.9075757091248
                    ],
                    [
                        17.007142328133604,
                        -72.89156056647452
                    ],
                    [
                        17.03565343429448,
                        -72.8756197596068
                    ],
                    [
                        17.064142829363657,
                        -72.8596847667529
                    ],
                    [
                        17.09299355859246,
                        -72.8438075214936
                    ],
                    [
                        17.122535819937013,
                        -72.82804820113834
                    ],
                    [
                        17.152160228806007,
                        -72.8123064374574
                    ],
                    [
                        17.1811846468621,
                        -72.79647208092051
                    ],
                    [
                        17.209192577967883,
                        -72.78048379139578
                    ],
                    [
                        17.23463806146094,
                        -72.76412989512254
                    ],
                    [
                        17.258467250318027,
                        -72.74756612977656
                    ],
                    [
                        17.280713378891793,
                        -72.73081208407442
                    ],
                    [
                        17.301699799219232,
                        -72.71391889932711
                    ],
                    [
                        17.32237289129315,
                        -72.69699468397816
                    ],
                    [
                        17.3430801653812,
                        -72.68007425243681
                    ],
                    [
                        17.363629517989633,
                        -72.66314341868542
                    ],
                    [
                        17.384094623051585,
                        -72.64620576184315
                    ],
                    [
                        17.405060846718335,
                        -72.62932537575186
                    ],
                    [
                        17.426335753280632,
                        -72.6124822865675
                    ],
                    [
                        17.44699045554483,
                        -72.59557309179003
                    ],
                    [
                        17.46728913044001,
                        -72.57862608243758
                    ],
                    [
                        17.48819294909355,
                        -72.5617525931877
                    ],
                    [
                        17.509415996037664,
                        -72.5449151665395
                    ],
                    [
                        17.53040627371023,
                        -72.52805556923454
                    ],
                    [
                        17.549857889861748,
                        -72.51103290284517
                    ],
                    [
                        17.568883571433908,
                        -72.49396853431341
                    ],
                    [
                        17.587234183422343,
                        -72.47684212446356
                    ],
                    [
                        17.60475002516327,
                        -72.4596372303628
                    ],
                    [
                        17.621874328619715,
                        -72.44239866222465
                    ],
                    [
                        17.638458934507465,
                        -72.42511537161535
                    ],
                    [
                        17.658541808397963,
                        -72.40817881481895
                    ],
                    [
                        17.681428237222956,
                        -72.39157656630343
                    ],
                    [
                        17.70646737210338,
                        -72.3752612667468
                    ],
                    [
                        17.733583060223364,
                        -72.35925593415097
                    ],
                    [
                        17.75943260394872,
                        -72.34306808378204
                    ],
                    [
                        17.781598390059767,
                        -72.3263909099882
                    ],
                    [
                        17.79937513151271,
                        -72.3092321773747
                    ],
                    [
                        17.816443396660027,
                        -72.29201088162627
                    ],
                    [
                        17.83540873600275,
                        -72.27497843342663
                    ],
                    [
                        17.855506432194375,
                        -72.2580661902779
                    ],
                    [
                        17.87677024772383,
                        -72.24129378455565
                    ],
                    [
                        17.900168028276294,
                        -72.22479182191611
                    ],
                    [
                        17.92544677148613,
                        -72.2085499727859
                    ],
                    [
                        17.947898239544077,
                        -72.19194588630099
                    ],
                    [
                        17.967363874149356,
                        -72.17497906816568
                    ],
                    [
                        17.988889775995187,
                        -72.15826251673128
                    ],
                    [
                        18.01664133298885,
                        -72.1424570875295
                    ],
                    [
                        18.05129295897645,
                        -72.12798661411821
                    ],
                    [
                        18.091850486183194,
                        -72.1150263715661
                    ],
                    [
                        18.1340947199969,
                        -72.10259134311563
                    ],
                    [
                        18.17687146690631,
                        -72.09033901055861
                    ],
                    [
                        18.21915287630991,
                        -72.07793974326984
                    ],
                    [
                        18.261744588629547,
                        -72.06564703946027
                    ],
                    [
                        18.304350587574213,
                        -72.05336778520065
                    ],
                    [
                        18.347705781864267,
                        -72.04135440857584
                    ],
                    [
                        18.391454621460095,
                        -72.02948944093687
                    ],
                    [
                        18.434597382384737,
                        -72.0174227045053
                    ],
                    [
                        18.476357342843762,
                        -72.00491265531579
                    ],
                    [
                        18.516762960367252,
                        -71.99199519549829
                    ],
                    [
                        18.555448521656317,
                        -71.97859076447692
                    ],
                    [
                        18.591856145735765,
                        -71.96459750991436
                    ],
                    [
                        18.626121436957863,
                        -71.95010335669484
                    ],
                    [
                        18.6582793551486,
                        -71.93515354251625
                    ],
                    [
                        18.68890591423181,
                        -71.91990526607235
                    ],
                    [
                        18.71837415245105,
                        -71.90444170955503
                    ],
                    [
                        18.747240564585372,
                        -71.8888747304364
                    ],
                    [
                        18.776229696928034,
                        -71.87333680362069
                    ],
                    [
                        18.806407682616058,
                        -71.85802315306228
                    ],
                    [
                        18.838387173803678,
                        -71.84307754277211
                    ],
                    [
                        18.87147981859177,
                        -71.82837277268642
                    ],
                    [
                        18.903763452270596,
                        -71.8135012197595
                    ],
                    [
                        18.93482440094253,
                        -71.79838434452341
                    ],
                    [
                        18.96335198012372,
                        -71.78279252206622
                    ],
                    [
                        18.99069336246015,
                        -71.7669964362513
                    ],
                    [
                        19.01688587076758,
                        -71.7510175399429
                    ],
                    [
                        19.039819036991698,
                        -71.73456058986069
                    ],
                    [
                        19.062070176858334,
                        -71.71801224901857
                    ],
                    [
                        19.08590206022723,
                        -71.70168761112781
                    ],
                    [
                        19.112957757256357,
                        -71.68587609159776
                    ],
                    [
                        19.14432641107868,
                        -71.67089280243688
                    ],
                    [
                        19.179607963909856,
                        -71.65678898012168
                    ],
                    [
                        19.216967749637426,
                        -71.64323562050276
                    ],
                    [
                        19.2588575818748,
                        -71.63110901065525
                    ],
                    [
                        19.305458704541525,
                        -71.62082636391379
                    ],
                    [
                        19.35533844742179,
                        -71.61219611313682
                    ],
                    [
                        19.40527958913524,
                        -71.60360687187689
                    ],
                    [
                        19.453036500059383,
                        -71.59389059189205
                    ],
                    [
                        19.49201371803907,
                        -71.58091359332596
                    ],
                    [
                        19.5179995214263,
                        -71.56513411232406
                    ],
                    [
                        19.52571117925036,
                        -71.54747877723955
                    ],
                    [
                        19.52591358938628,
                        -71.5295267074887
                    ],
                    [
                        19.52756910610304,
                        -71.51158716546135
                    ],
                    [
                        19.529625439374616,
                        -71.49365057750823
                    ],
                    [
                        19.533785553986945,
                        -71.47575707182277
                    ],
                    [
                        19.542533447419906,
                        -71.45803566738164
                    ],
                    [
                        19.55586786230304,
                        -71.44060622302979
                    ],
                    [
                        19.573385149789594,
                        -71.42354820402436
                    ],
                    [
                        19.59221269330241,
                        -71.40664154451224
                    ],
                    [
                        19.61320039406316,
                        -71.38999542533523
                    ],
                    [
                        19.63608569797955,
                        -71.3736079363417
                    ],
                    [
                        19.661117130203316,
                        -71.35755518456504
                    ],
                    [
                        19.68713498172946,
                        -71.34165986338759
                    ],
                    [
                        19.7139414404204,
                        -71.32590588987902
                    ],
                    [
                        19.739668407601844,
                        -71.30997397909587
                    ],
                    [
                        19.76273130645635,
                        -71.29363581647316
                    ],
                    [
                        19.785556543689417,
                        -71.2772628613635
                    ],
                    [
                        19.80850638113005,
                        -71.26091341217703
                    ],
                    [
                        19.82907145793192,
                        -71.24424166924115
                    ],
                    [
                        19.836682759961963,
                        -71.22653043783086
                    ],
                    [
                        19.83288892172916,
                        -71.2086762561916
                    ],
                    [
                        19.823788611248524,
                        -71.19098536353371
                    ],
                    [
                        19.815658625273425,
                        -71.1732469003119
                    ],
                    [
                        19.81018022158848,
                        -71.15540313402727
                    ],
                    [
                        19.806217008162115,
                        -71.13751724221012
                    ],
                    [
                        19.806253265688472,
                        -71.11959643427504
                    ],
                    [
                        19.811811111168293,
                        -71.10176943130008
                    ],
                    [
                        19.82051591332363,
                        -71.08406471700877
                    ],
                    [
                        19.826398410307945,
                        -71.0662572693994
                    ],
                    [
                        19.82643918627213,
                        -71.04833530177801
                    ],
                    [
                        19.823822631481846,
                        -71.03042954123767
                    ],
                    [
                        19.818066411929017,
                        -71.01260212483382
                    ],
                    [
                        19.81243917539737,
                        -70.99477108633207
                    ],
                    [
                        19.80756139587529,
                        -70.9769168465406
                    ],
                    [
                        19.802922577222063,
                        -70.95905732604967
                    ],
                    [
                        19.799691183420027,
                        -70.94116643988514
                    ],
                    [
                        19.798745817837812,
                        -70.92324987227727
                    ],
                    [
                        19.801829273969116,
                        -70.90536146502784
                    ],
                    [
                        19.808117375524777,
                        -70.88756548716201
                    ],
                    [
                        19.817085719548068,
                        -70.86989201525734
                    ],
                    [
                        19.829259053786025,
                        -70.85242620235523
                    ],
                    [
                        19.84359954760695,
                        -70.83514080998593
                    ],
                    [
                        19.85914171555751,
                        -70.8179683171342
                    ],
                    [
                        19.875598715822644,
                        -70.80088976459004
                    ],
                    [
                        19.892491053839862,
                        -70.78386269195309
                    ],
                    [
                        19.909869224143904,
                        -70.76688652407972
                    ],
                    [
                        19.927860238394658,
                        -70.74998578409377
                    ],
                    [
                        19.94629286070655,
                        -70.73313964821925
                    ],
                    [
                        19.965099404033445,
                        -70.71633976998667
                    ],
                    [
                        19.984352798522718,
                        -70.69959810430235
                    ],
                    [
                        20.004079083676842,
                        -70.68292075920593
                    ],
                    [
                        20.0243065444469,
                        -70.66631068842001
                    ],
                    [
                        20.044989791709597,
                        -70.64976924710689
                    ],
                    [
                        20.066007448802765,
                        -70.63327558452211
                    ],
                    [
                        20.087286444414776,
                        -70.6168211958533
                    ],
                    [
                        20.108896259964975,
                        -70.60041747121893
                    ],
                    [
                        20.130691704283116,
                        -70.58404757063177
                    ],
                    [
                        20.15257529640292,
                        -70.5676908588307
                    ],
                    [
                        20.174494982747607,
                        -70.55134696928688
                    ],
                    [
                        20.1963810194232,
                        -70.53499677193497
                    ],
                    [
                        20.218203936390854,
                        -70.51864199681043
                    ],
                    [
                        20.23990723770381,
                        -70.50227532985708
                    ],
                    [
                        20.261392784520883,
                        -70.4858774738098
                    ],
                    [
                        20.282723429555315,
                        -70.46946369114589
                    ],
                    [
                        20.303795949289928,
                        -70.45301251677814
                    ],
                    [
                        20.32465540222027,
                        -70.4365385585669
                    ],
                    [
                        20.34540243805007,
                        -70.42004756586327
                    ],
                    [
                        20.36589514637656,
                        -70.40352674662543
                    ],
                    [
                        20.38613629686424,
                        -70.386973051677
                    ],
                    [
                        20.40618211405253,
                        -70.37039583328007
                    ],
                    [
                        20.426016858544294,
                        -70.3537933659395
                    ],
                    [
                        20.445670823828294,
                        -70.33716961500832
                    ],
                    [
                        20.465190362178845,
                        -70.32053031913641
                    ],
                    [
                        20.484534497375492,
                        -70.30387403871353
                    ],
                    [
                        20.503769066083787,
                        -70.2872011653063
                    ],
                    [
                        20.5229546954303,
                        -70.27052797092477
                    ],
                    [
                        20.54212680259183,
                        -70.25385572633921
                    ],
                    [
                        20.561165713499943,
                        -70.23716810621438
                    ],
                    [
                        20.580169405293653,
                        -70.22047947812415
                    ],
                    [
                        20.59924885100461,
                        -70.20380342682564
                    ],
                    [
                        20.618404209944412,
                        -70.1871427456328
                    ],
                    [
                        20.637585652683985,
                        -70.17048560021281
                    ],
                    [
                        20.656771567042696,
                        -70.15383282634546
                    ],
                    [
                        20.675884952136187,
                        -70.13717327531282
                    ],
                    [
                        20.695014607636146,
                        -70.12051850926913
                    ],
                    [
                        20.714237398155735,
                        -70.10387964025135
                    ],
                    [
                        20.733406218608117,
                        -70.08723544077938
                    ],
                    [
                        20.752401153796704,
                        -70.07057372046305
                    ],
                    [
                        20.771111767105463,
                        -70.05387542898545
                    ],
                    [
                        20.789673980239254,
                        -70.0371642200663
                    ],
                    [
                        20.808205701324123,
                        -70.02044780877046
                    ],
                    [
                        20.8267814605846,
                        -70.00374041122562
                    ],
                    [
                        20.845354381944983,
                        -69.98703759029364
                    ],
                    [
                        20.86394826619167,
                        -69.97033814742984
                    ],
                    [
                        20.882529223148932,
                        -69.95364171844736
                    ],
                    [
                        20.901174787959018,
                        -69.93695535843577
                    ],
                    [
                        20.9196749514158,
                        -69.92025304012269
                    ],
                    [
                        20.938044956074656,
                        -69.9035357166539
                    ],
                    [
                        20.956394231815306,
                        -69.88682156982048
                    ],
                    [
                        20.974647841825465,
                        -69.8700956291723
                    ],
                    [
                        20.992894898435303,
                        -69.85337295494767
                    ],
                    [
                        21.0114028957525,
                        -69.8366869991656
                    ],
                    [
                        21.03009623846497,
                        -69.82002752918218
                    ],
                    [
                        21.048517136344895,
                        -69.80333533936007
                    ],
                    [
                        21.066906995288285,
                        -69.78664194028562
                    ],
                    [
                        21.085265889899926,
                        -69.76994733804803
                    ],
                    [
                        21.103593894558994,
                        -69.75325153871901
                    ],
                    [
                        21.12189108341988,
                        -69.73655454835294
                    ],
                    [
                        21.14015753041296,
                        -69.71985637298684
                    ],
                    [
                        21.158393309245405,
                        -69.70315701864045
                    ],
                    [
                        21.176598493401904,
                        -69.68645649131638
                    ],
                    [
                        21.19477315614554,
                        -69.66975479700007
                    ],
                    [
                        21.212917370518504,
                        -69.65305194165991
                    ],
                    [
                        21.231031209342845,
                        -69.63634793124731
                    ],
                    [
                        21.24911474522133,
                        -69.61964277169675
                    ],
                    [
                        21.26716805053812,
                        -69.60293646892583
                    ],
                    [
                        21.285191197459607,
                        -69.58622902883535
                    ],
                    [
                        21.30318425793513,
                        -69.56952045730938
                    ],
                    [
                        21.32114730369775,
                        -69.55281076021534
                    ],
                    [
                        21.339080406265026,
                        -69.53609994340397
                    ],
                    [
                        21.35698363693974,
                        -69.51938801270954
                    ],
                    [
                        21.374857066810655,
                        -69.50267497394981
                    ],
                    [
                        21.392700766753293,
                        -69.48596083292612
                    ]
                ]
            }
        }
    ]
}
