{
    "type": "FeatureCollection",
    "features": [
        {
            "type": "Feature",
            "properties": {
                "name": "Greenland Glacier 0008",
                "object": "transect",
                "component": "landice",
                "author": "Matthew Hoffman, converted from Felikson et al. (2020) Zenodo dataset",
                "tags": "Greenland_Ice_Sheet;flowline;zenodo_4284759;glacier_0008;lille_gletsjer",
                "citation": "Felikson, Denis, Catania, Ginny, Bartholomaus, Timothy, Morlighem, Mathieu, & No\u00ebl, Brice. (2020). Inland limits to diffusion of thinning along Greenland Ice Sheet outlet glaciers (v1.0) [Data set]. Zenodo. https://doi.org/10.5281/zenodo.4284759",
                "license": "CC-BY-4.0",
                "officialName": "Sermeq Avannarleq",
                "foreignName": "Lille Gletsjer"
            },
            "geometry": {
                "type": "LineString",
                "coordinates": [
                    [
                        -50.09988986086195,
                        70.67900193112266
                    ],
                    [
                        -50.1062444656937,
                        70.67732063201491
                    ],
                    [
                        -50.112605715299686,
                        70.6756678710961
                    ],
                    [
                        -50.11895884002421,
                        70.6739889430415
                    ],
                    [
                        -50.12530298831363,
                        70.67228079329013
                    ],
                    [
                        -50.13167869627058,
                        70.6706930388207
                    ],
                    [
                        -50.13802261132642,
                        70.66899185638128
                    ],
                    [
                        -50.14435362990834,
                        70.66724717600525
                    ],
                    [
                        -50.15068863917349,
                        70.66552121892106
                    ],
                    [
                        -50.157025083660244,
                        70.66380453693667
                    ],
                    [
                        -50.16335318135602,
                        70.66206122347437
                    ],
                    [
                        -50.16964201525977,
                        70.66017811597075
                    ],
                    [
                        -50.17591610435639,
                        70.65824540216859
                    ],
                    [
                        -50.1821985700881,
                        70.65634775466508
                    ],
                    [
                        -50.18850362047103,
                        70.65453692424528
                    ],
                    [
                        -50.19482285269103,
                        70.65278197318051
                    ],
                    [
                        -50.20116161330996,
                        70.65110218465658
                    ],
                    [
                        -50.20751723971614,
                        70.64948761291697
                    ],
                    [
                        -50.21391251747295,
                        70.64802083727828
                    ],
                    [
                        -50.220355269304505,
                        70.64672973770088
                    ],
                    [
                        -50.226835412466514,
                        70.64557713921853
                    ],
                    [
                        -50.233346143242755,
                        70.64453791043218
                    ],
                    [
                        -50.23988628908824,
                        70.64360740247592
                    ],
                    [
                        -50.246451872817104,
                        70.64277085400403
                    ],
                    [
                        -50.253017204360184,
                        70.6419352337185
                    ],
                    [
                        -50.259589139805534,
                        70.64112524412462
                    ],
                    [
                        -50.26614781840885,
                        70.6402693086376
                    ],
                    [
                        -50.272646602850074,
                        70.63919993652068
                    ],
                    [
                        -50.279076654335064,
                        70.63788614787414
                    ],
                    [
                        -50.285415222238555,
                        70.63624719120244
                    ],
                    [
                        -50.291685790834045,
                        70.63436830082973
                    ],
                    [
                        -50.297866978345056,
                        70.63217374053391
                    ],
                    [
                        -50.30368261867676,
                        70.62973998357774
                    ],
                    [
                        -50.30847799214574,
                        70.62733747425095
                    ],
                    [
                        -50.312492913268905,
                        70.62495890630616
                    ],
                    [
                        -50.315998731376055,
                        70.62259595993402
                    ],
                    [
                        -50.31914059553851,
                        70.62024418436532
                    ],
                    [
                        -50.32207738405981,
                        70.61789868823634
                    ],
                    [
                        -50.32525564500967,
                        70.61554565956999
                    ],
                    [
                        -50.32895822857758,
                        70.61317631817472
                    ],
                    [
                        -50.333945065189134,
                        70.61076705393685
                    ],
                    [
                        -50.340182740530324,
                        70.60881648272827
                    ],
                    [
                        -50.346581924717576,
                        70.60744369579459
                    ],
                    [
                        -50.35308169600197,
                        70.60643067650273
                    ],
                    [
                        -50.35965597256339,
                        70.60568377686408
                    ],
                    [
                        -50.3662780558097,
                        70.60510758717739
                    ],
                    [
                        -50.37293408857,
                        70.60465252237115
                    ],
                    [
                        -50.37961268821484,
                        70.60427796691287
                    ],
                    [
                        -50.38628587580191,
                        70.6038850029665
                    ],
                    [
                        -50.392926710876246,
                        70.60337885282603
                    ],
                    [
                        -50.39953699163745,
                        70.60276625076864
                    ],
                    [
                        -50.40612914125973,
                        70.60209121148115
                    ],
                    [
                        -50.41268631251033,
                        70.60129485794972
                    ],
                    [
                        -50.41919231128582,
                        70.6003208755605
                    ],
                    [
                        -50.42563885383514,
                        70.59914088826014
                    ],
                    [
                        -50.43201064082469,
                        70.59770210981142
                    ],
                    [
                        -50.438226423336346,
                        70.59572165066724
                    ],
                    [
                        -50.44407703085659,
                        70.59328139860287
                    ],
                    [
                        -50.449107862515596,
                        70.59086692577024
                    ],
                    [
                        -50.45349748746691,
                        70.58847264387863
                    ],
                    [
                        -50.45744529819472,
                        70.5860922730184
                    ],
                    [
                        -50.461291449812485,
                        70.58371503004608
                    ],
                    [
                        -50.46471538886737,
                        70.58135112650051
                    ],
                    [
                        -50.46786192503213,
                        70.57899598004244
                    ],
                    [
                        -50.47076735185711,
                        70.57664845231292
                    ],
                    [
                        -50.47321039653403,
                        70.57431561505334
                    ],
                    [
                        -50.475205276354764,
                        70.5719970396107
                    ],
                    [
                        -50.47699546365105,
                        70.56968497504313
                    ],
                    [
                        -50.47873818346295,
                        70.56737440922366
                    ],
                    [
                        -50.480191335567916,
                        70.56507307856599
                    ],
                    [
                        -50.4815669898289,
                        70.5627742163825
                    ],
                    [
                        -50.48297706156917,
                        70.5604742474772
                    ],
                    [
                        -50.48428641265747,
                        70.55817749259175
                    ],
                    [
                        -50.48549962852201,
                        70.55588380844647
                    ],
                    [
                        -50.48660596674327,
                        70.5535935419242
                    ],
                    [
                        -50.487635880335176,
                        70.55130572140884
                    ],
                    [
                        -50.488590065287966,
                        70.54902032683053
                    ],
                    [
                        -50.489553515030146,
                        70.54673463792032
                    ],
                    [
                        -50.490692650068404,
                        70.5444433222459
                    ],
                    [
                        -50.49201638932761,
                        70.5421460884954
                    ],
                    [
                        -50.493940465895434,
                        70.53982959944057
                    ],
                    [
                        -50.496220381859864,
                        70.53750167283803
                    ],
                    [
                        -50.49881236257008,
                        70.53516369575651
                    ],
                    [
                        -50.501621943088374,
                        70.53281868502671
                    ],
                    [
                        -50.505410134000556,
                        70.53044216301049
                    ],
                    [
                        -50.511529689847514,
                        70.52822869156648
                    ],
                    [
                        -50.511529689847514,
                        70.52822869156648
                    ],
                    [
                        -50.51764782841586,
                        70.52601501625392
                    ],
                    [
                        -50.523971810161065,
                        70.52451620883973
                    ],
                    [
                        -50.530403380633196,
                        70.52339136591749
                    ],
                    [
                        -50.53685387505243,
                        70.52233403297988
                    ],
                    [
                        -50.54354865775903,
                        70.52211884747618
                    ],
                    [
                        -50.594040663754306,
                        70.51592263846445
                    ],
                    [
                        -50.64449992427097,
                        70.50971169744908
                    ],
                    [
                        -50.69492639295728,
                        70.50348603971116
                    ],
                    [
                        -50.7453200237249,
                        70.49724568054882
                    ],
                    [
                        -50.795680770748746,
                        70.49099063527702
                    ],
                    [
                        -50.84600858846674,
                        70.48472091922746
                    ],
                    [
                        -50.89630343157963,
                        70.47843654774842
                    ],
                    [
                        -50.946565255050785,
                        70.4721375362046
                    ],
                    [
                        -50.996794014105944,
                        70.46582389997698
                    ],
                    [
                        -51.04698966423304,
                        70.45949565446276
                    ],
                    [
                        -51.09715216118195,
                        70.45315281507507
                    ],
                    [
                        -51.1472814609643,
                        70.44679539724297
                    ],
                    [
                        -51.1973775198532,
                        70.44042341641118
                    ],
                    [
                        -51.24744029438302,
                        70.43403688804007
                    ],
                    [
                        -51.29746974134915,
                        70.42763582760541
                    ],
                    [
                        -51.3474658178078,
                        70.42122025059831
                    ],
                    [
                        -51.3974284810757,
                        70.414790172525
                    ],
                    [
                        -51.447357688729866,
                        70.40834560890676
                    ],
                    [
                        -51.49725339860738,
                        70.40188657527976
                    ],
                    [
                        -51.547115568805076,
                        70.39541308719488
                    ]
                ]
            }
        }
    ]
}
