{
    "type": "FeatureCollection",
    "features": [
        {
            "type": "Feature",
            "properties": {
                "name": "Larsend",
                "object": "transect",
                "component": "landice",
                "author": "Matthew Hoffman, converted from https://github.com/yuwang115/sl-ice",
                "tags": "Antarctic_Ice_Sheet;flowline;sl-ice;larsend"
            },
            "geometry": {
                "type": "LineString",
                "coordinates": [
                    [
                        -64.54110872367968,
                        -69.6616274365571
                    ],
                    [
                        -64.58996688043278,
                        -69.66592763777722
                    ],
                    [
                        -64.63128216117788,
                        -69.67649377035137
                    ],
                    [
                        -64.67567840650575,
                        -69.68531687883011
                    ],
                    [
                        -64.71993967370665,
                        -69.69336995496182
                    ],
                    [
                        -64.76861642833967,
                        -69.69000316134971
                    ],
                    [
                        -64.81861240423824,
                        -69.68878682237622
                    ],
                    [
                        -64.8689084274067,
                        -69.69247513975324
                    ],
                    [
                        -64.91182941013699,
                        -69.6880421544273
                    ],
                    [
                        -64.94767674739761,
                        -69.67524711219251
                    ],
                    [
                        -64.98983170286684,
                        -69.66505218085139
                    ],
                    [
                        -65.0346183259215,
                        -69.65645200972448
                    ],
                    [
                        -65.0846506867892,
                        -69.65343112690016
                    ],
                    [
                        -65.13585927772344,
                        -69.65379985904192
                    ],
                    [
                        -65.18646252062942,
                        -69.65113578125087
                    ],
                    [
                        -65.23311394034067,
                        -69.64398158675512
                    ],
                    [
                        -65.2800607253585,
                        -69.63764147851136
                    ],
                    [
                        -65.3179233931425,
                        -69.62562615803321
                    ],
                    [
                        -65.35979095669168,
                        -69.61548480779145
                    ],
                    [
                        -65.3940213698507,
                        -69.60228041049882
                    ],
                    [
                        -65.4355156656254,
                        -69.59194136494145
                    ],
                    [
                        -65.47823050752903,
                        -69.58213482145464
                    ],
                    [
                        -65.51659412630421,
                        -69.57034239577291
                    ],
                    [
                        -65.55574345141127,
                        -69.55887736445592
                    ],
                    [
                        -65.59811979260087,
                        -69.54896623188287
                    ],
                    [
                        -65.6452809607,
                        -69.54218942624235
                    ],
                    [
                        -65.69414094708024,
                        -69.53707204889973
                    ],
                    [
                        -65.74354746686038,
                        -69.53264110633428
                    ],
                    [
                        -65.79337884052045,
                        -69.52883996787311
                    ],
                    [
                        -65.8432053842062,
                        -69.52506504462532
                    ],
                    [
                        -65.89338271917062,
                        -69.52191657174042
                    ],
                    [
                        -65.94390383318277,
                        -69.51954777480555
                    ],
                    [
                        -65.99440290575261,
                        -69.51715596669199
                    ],
                    [
                        -66.045078956297,
                        -69.51530727006173
                    ],
                    [
                        -66.09594310195716,
                        -69.51427785517204
                    ],
                    [
                        -66.14682708591562,
                        -69.5133760438307
                    ],
                    [
                        -66.19754085327307,
                        -69.51176959272222
                    ],
                    [
                        -66.24728726060215,
                        -69.50795117954361
                    ],
                    [
                        -66.2958555385367,
                        -69.50262561871078
                    ],
                    [
                        -66.34288882906095,
                        -69.49580699678059
                    ],
                    [
                        -66.38893265598377,
                        -69.48820593896073
                    ],
                    [
                        -66.43427744947533,
                        -69.48011080641662
                    ],
                    [
                        -66.47869267168359,
                        -69.47142216545039
                    ],
                    [
                        -66.52204467759549,
                        -69.4621033268238
                    ],
                    [
                        -66.56549034387103,
                        -69.4528509959888
                    ],
                    [
                        -66.60970648660577,
                        -69.4440750808769
                    ],
                    [
                        -66.65569455519336,
                        -69.43652120746796
                    ],
                    [
                        -66.70137953529937,
                        -69.42877010844776
                    ],
                    [
                        -66.74481235345074,
                        -69.41957205704288
                    ],
                    [
                        -66.7841685684664,
                        -69.40836616937717
                    ],
                    [
                        -66.81723453643362,
                        -69.3949282348304
                    ],
                    [
                        -66.83824103286614,
                        -69.37882593872105
                    ],
                    [
                        -66.84047916312836,
                        -69.36103772715526
                    ],
                    [
                        -66.83529415331112,
                        -69.34330756638845
                    ],
                    [
                        -66.82899509274175,
                        -69.32561013383399
                    ],
                    [
                        -66.82546522976324,
                        -69.30782169158259
                    ],
                    [
                        -66.82850112933319,
                        -69.29008317771478
                    ],
                    [
                        -66.84234394758606,
                        -69.27298999629852
                    ],
                    [
                        -66.86689835609171,
                        -69.25746156679529
                    ],
                    [
                        -66.88093953836302,
                        -69.24033765013708
                    ],
                    [
                        -66.89495708150775,
                        -69.2232134172311
                    ],
                    [
                        -66.90895104349856,
                        -69.20608887201502
                    ],
                    [
                        -66.92292148212455,
                        -69.18896401841587
                    ],
                    [
                        -66.93686845499184,
                        -69.17183886035005
                    ],
                    [
                        -66.95079201952434,
                        -69.15471340172333
                    ],
                    [
                        -66.96469223296442,
                        -69.1375876464309
                    ],
                    [
                        -66.97856915237361,
                        -69.1204615983575
                    ],
                    [
                        -66.99242283463325,
                        -69.10333526137732
                    ],
                    [
                        -67.00625333644527,
                        -69.0862086393542
                    ],
                    [
                        -67.02006071433276,
                        -69.0690817361415
                    ],
                    [
                        -67.03384502464073,
                        -69.05195455558228
                    ],
                    [
                        -67.04760632353675,
                        -69.0348271015093
                    ],
                    [
                        -67.06134466701164,
                        -69.01769937774498
                    ],
                    [
                        -67.07506011088013,
                        -69.00057138810153
                    ],
                    [
                        -67.08875271078153,
                        -68.98344313638106
                    ],
                    [
                        -67.10242252218042,
                        -68.96631462637536
                    ],
                    [
                        -67.11606960036728,
                        -68.94918586186624
                    ],
                    [
                        -67.12969400045917,
                        -68.93205684662537
                    ],
                    [
                        -67.14329577740034,
                        -68.91492758441441
                    ]
                ]
            }
        }
    ]
}
